{"type":"FeatureCollection","features":[{"type":"Feature","geometry":{"type":"LineString","coordinates":[[110.0,21.563140746458497],[109.9492916,21.5783878],[109.8702255,21.5974275]]},"properties":{"key":"way:1460538482@overview:109_21","osmType":"way","osmId":1460538482,"sourceRegion":"guangdong","featureType":"infrastructure","railClass":"construction","mode":"construction","name":"合湛高铁","nameEn":"Hepu–Zhanjiang Highspeed Railway","usage":"main","highspeed":"yes","status":"construction","color":"#E54848","dataOrigin":"datum-2026-08-01","sourceKey":"way:1460538482"}}]}