{"type":"FeatureCollection","features":[{"type":"Feature","geometry":{"type":"LineString","coordinates":[[110.1409151,20.3482835],[110.1501137,20.3316491]]},"properties":{"key":"way:25174034@overview:110_20","osmType":"way","osmId":25174034,"sourceRegion":"guangdong","featureType":"infrastructure","railClass":"national","mode":"rail","name":"湛海线","ref":"0718","operator":"中国铁路广州局集团有限公司","usage":"main","status":"operational","color":"#E54848","dataOrigin":"datum-2026-08-01","sourceKey":"way:25174034"}},{"type":"Feature","geometry":{"type":"LineString","coordinates":[[110.0421487,20.8795523],[110.0421148,20.859554],[110.0371516,20.8470847]]},"properties":{"key":"way:156992090@overview:110_20","osmType":"way","osmId":156992090,"sourceRegion":"guangdong","featureType":"infrastructure","railClass":"national","mode":"rail","name":"湛海线","ref":"0718","operator":"中国铁路广州局集团有限公司","usage":"main","status":"operational","color":"#E54848","dataOrigin":"datum-2026-08-01","sourceKey":"way:156992090"}},{"type":"Feature","geometry":{"type":"LineString","coordinates":[[110.0419765,20.8887899],[110.0421487,20.8795523]]},"properties":{"key":"way:156992091@overview:110_20","osmType":"way","osmId":156992091,"sourceRegion":"guangdong","featureType":"infrastructure","railClass":"national","mode":"rail","name":"湛海线","ref":"0718","operator":"中国铁路广州局集团有限公司","usage":"main","bridge":"yes","status":"operational","color":"#E54848","dataOrigin":"datum-2026-08-01","sourceKey":"way:156992091"}},{"type":"Feature","geometry":{"type":"LineString","coordinates":[[110.0418588,20.9746585],[110.041418,20.974262]]},"properties":{"key":"way:218563978@overview:110_20","osmType":"way","osmId":218563978,"sourceRegion":"guangdong","featureType":"infrastructure","railClass":"national","mode":"rail","name":"湛海线","ref":"0718","operator":"中国铁路广州局集团有限公司","usage":"main","bridge":"yes","status":"operational","color":"#E54848","dataOrigin":"datum-2026-08-01","sourceKey":"way:218563978"}},{"type":"Feature","geometry":{"type":"LineString","coordinates":[[110.041418,20.974262],[110.0388383,20.9668025]]},"properties":{"key":"way:218563979@overview:110_20","osmType":"way","osmId":218563979,"sourceRegion":"guangdong","featureType":"infrastructure","railClass":"national","mode":"rail","name":"湛海线","ref":"0718","operator":"中国铁路广州局集团有限公司","usage":"main","status":"operational","color":"#E54848","dataOrigin":"datum-2026-08-01","sourceKey":"way:218563979"}},{"type":"Feature","geometry":{"type":"LineString","coordinates":[[110.0526295,20.5520645],[110.0693748,20.5358991],[110.0668558,20.5178731],[110.0956258,20.4571311],[110.1312778,20.4114381],[110.1342958,20.3624281],[110.1409151,20.3482835]]},"properties":{"key":"way:221426319@overview:110_20","osmType":"way","osmId":221426319,"sourceRegion":"guangdong","featureType":"infrastructure","railClass":"national","mode":"rail","name":"湛海线","ref":"0718","operator":"中国铁路广州局集团有限公司","usage":"main","status":"operational","color":"#E54848","dataOrigin":"datum-2026-08-01","sourceKey":"way:221426319"}},{"type":"Feature","geometry":{"type":"LineString","coordinates":[[110.06719472569841,21.0],[110.0649952,20.9978896]]},"properties":{"key":"way:259625361@overview:110_20","osmType":"way","osmId":259625361,"sourceRegion":"guangdong","featureType":"infrastructure","railClass":"national","mode":"rail","name":"湛海线","ref":"0718","operator":"中国铁路广州局集团有限公司","usage":"main","status":"operational","color":"#E54848","dataOrigin":"datum-2026-08-01","sourceKey":"way:259625361"}},{"type":"Feature","geometry":{"type":"LineString","coordinates":[[110.1501137,20.3316491],[110.1503005,20.3309467]]},"properties":{"key":"way:362611976@overview:110_20","osmType":"way","osmId":362611976,"sourceRegion":"guangdong","featureType":"infrastructure","railClass":"national","mode":"rail","name":"湛海线","ref":"0718","operator":"中国铁路广州局集团有限公司","usage":"main","bridge":"yes","status":"operational","color":"#E54848","dataOrigin":"datum-2026-08-01","sourceKey":"way:362611976"}},{"type":"Feature","geometry":{"type":"LineString","coordinates":[[110.1503005,20.3309467],[110.1501293,20.3109444],[110.1456143,20.3010844],[110.1495513,20.2901244],[110.1453617,20.2714809]]},"properties":{"key":"way:362611977@overview:110_20","osmType":"way","osmId":362611977,"sourceRegion":"guangdong","featureType":"infrastructure","railClass":"national","mode":"rail","name":"湛海线","ref":"0718","operator":"中国铁路广州局集团有限公司","usage":"main","status":"operational","color":"#E54848","dataOrigin":"datum-2026-08-01","sourceKey":"way:362611977"}},{"type":"Feature","geometry":{"type":"LineString","coordinates":[[110.0345478,20.952081],[110.04249,20.914663],[110.0420108,20.8972253]]},"properties":{"key":"way:391138675@overview:110_20","osmType":"way","osmId":391138675,"sourceRegion":"guangdong","featureType":"infrastructure","railClass":"national","mode":"rail","name":"湛海线","ref":"0718","operator":"中国铁路广州局集团有限公司","usage":"main","status":"operational","color":"#E54848","dataOrigin":"datum-2026-08-01","sourceKey":"way:391138675"}},{"type":"Feature","geometry":{"type":"LineString","coordinates":[[110.03446,20.952685],[110.0345478,20.952081]]},"properties":{"key":"way:391138677@overview:110_20","osmType":"way","osmId":391138677,"sourceRegion":"guangdong","featureType":"infrastructure","railClass":"national","mode":"rail","name":"湛海线","ref":"0718","operator":"中国铁路广州局集团有限公司","usage":"main","bridge":"yes","status":"operational","color":"#E54848","dataOrigin":"datum-2026-08-01","sourceKey":"way:391138677"}},{"type":"Feature","geometry":{"type":"LineString","coordinates":[[110.0388319,20.9667387],[110.03446,20.952685]]},"properties":{"key":"way:392524889@overview:110_20","osmType":"way","osmId":392524889,"sourceRegion":"guangdong","featureType":"infrastructure","railClass":"national","mode":"rail","name":"湛海线","ref":"0718","operator":"中国铁路广州局集团有限公司","usage":"main","status":"operational","color":"#E54848","dataOrigin":"datum-2026-08-01","sourceKey":"way:392524889"}},{"type":"Feature","geometry":{"type":"LineString","coordinates":[[110.0388383,20.9668025],[110.0388319,20.9667387]]},"properties":{"key":"way:392524890@overview:110_20","osmType":"way","osmId":392524890,"sourceRegion":"guangdong","featureType":"infrastructure","railClass":"national","mode":"rail","name":"湛海线","ref":"0718","operator":"中国铁路广州局集团有限公司","usage":"main","bridge":"yes","status":"operational","color":"#E54848","dataOrigin":"datum-2026-08-01","sourceKey":"way:392524890"}},{"type":"Feature","geometry":{"type":"LineString","coordinates":[[110.0649952,20.9978896],[110.064945,20.9978411]]},"properties":{"key":"way:392667009@overview:110_20","osmType":"way","osmId":392667009,"sourceRegion":"guangdong","featureType":"infrastructure","railClass":"national","mode":"rail","name":"湛海线","ref":"0718","operator":"中国铁路广州局集团有限公司","usage":"main","bridge":"yes","status":"operational","color":"#E54848","dataOrigin":"datum-2026-08-01","sourceKey":"way:392667009"}},{"type":"Feature","geometry":{"type":"LineString","coordinates":[[110.064945,20.9978411],[110.0418588,20.9746585]]},"properties":{"key":"way:392667011@overview:110_20","osmType":"way","osmId":392667011,"sourceRegion":"guangdong","featureType":"infrastructure","railClass":"national","mode":"rail","name":"湛海线","ref":"0718","operator":"中国铁路广州局集团有限公司","usage":"main","status":"operational","color":"#E54848","dataOrigin":"datum-2026-08-01","sourceKey":"way:392667011"}},{"type":"Feature","geometry":{"type":"LineString","coordinates":[[110.0055966,20.7840124],[110.0055488,20.7836135]]},"properties":{"key":"way:396854793@overview:110_20","osmType":"way","osmId":396854793,"sourceRegion":"guangdong","featureType":"infrastructure","railClass":"national","mode":"rail","name":"湛海线","ref":"0718","operator":"中国铁路广州局集团有限公司","usage":"main","bridge":"yes","status":"operational","color":"#E54848","dataOrigin":"datum-2026-08-01","sourceKey":"way:396854793"}},{"type":"Feature","geometry":{"type":"LineString","coordinates":[[110.0165966,20.8174756],[110.0165281,20.8173815]]},"properties":{"key":"way:396854794@overview:110_20","osmType":"way","osmId":396854794,"sourceRegion":"guangdong","featureType":"infrastructure","railClass":"national","mode":"rail","name":"湛海线","ref":"0718","operator":"中国铁路广州局集团有限公司","usage":"main","bridge":"yes","status":"operational","color":"#E54848","dataOrigin":"datum-2026-08-01","sourceKey":"way:396854794"}},{"type":"Feature","geometry":{"type":"LineString","coordinates":[[110.0371516,20.8470847],[110.0365652,20.845848]]},"properties":{"key":"way:396854795@overview:110_20","osmType":"way","osmId":396854795,"sourceRegion":"guangdong","featureType":"infrastructure","railClass":"national","mode":"rail","name":"湛海线","ref":"0718","operator":"中国铁路广州局集团有限公司","usage":"main","bridge":"yes","status":"operational","color":"#E54848","dataOrigin":"datum-2026-08-01","sourceKey":"way:396854795"}},{"type":"Feature","geometry":{"type":"LineString","coordinates":[[110.0124648,20.8104961],[110.0124299,20.8103763]]},"properties":{"key":"way:396854796@overview:110_20","osmType":"way","osmId":396854796,"sourceRegion":"guangdong","featureType":"infrastructure","railClass":"national","mode":"rail","name":"湛海线","ref":"0718","operator":"中国铁路广州局集团有限公司","usage":"main","bridge":"yes","status":"operational","color":"#E54848","dataOrigin":"datum-2026-08-01","sourceKey":"way:396854796"}},{"type":"Feature","geometry":{"type":"LineString","coordinates":[[110.0139428,20.813805],[110.0137712,20.8135418]]},"properties":{"key":"way:396854797@overview:110_20","osmType":"way","osmId":396854797,"sourceRegion":"guangdong","featureType":"infrastructure","railClass":"national","mode":"rail","name":"湛海线","ref":"0718","operator":"中国铁路广州局集团有限公司","usage":"main","bridge":"yes","status":"operational","color":"#E54848","dataOrigin":"datum-2026-08-01","sourceKey":"way:396854797"}},{"type":"Feature","geometry":{"type":"LineString","coordinates":[[110.0165281,20.8173815],[110.0139428,20.813805]]},"properties":{"key":"way:396854798@overview:110_20","osmType":"way","osmId":396854798,"sourceRegion":"guangdong","featureType":"infrastructure","railClass":"national","mode":"rail","name":"湛海线","ref":"0718","operator":"中国铁路广州局集团有限公司","usage":"main","status":"operational","color":"#E54848","dataOrigin":"datum-2026-08-01","sourceKey":"way:396854798"}},{"type":"Feature","geometry":{"type":"LineString","coordinates":[[110.0055488,20.7836135],[110.0069548,20.750854],[110.0040636,20.7273831]]},"properties":{"key":"way:396854799@overview:110_20","osmType":"way","osmId":396854799,"sourceRegion":"guangdong","featureType":"infrastructure","railClass":"national","mode":"rail","name":"湛海线","ref":"0718","operator":"中国铁路广州局集团有限公司","usage":"main","status":"operational","color":"#E54848","dataOrigin":"datum-2026-08-01","sourceKey":"way:396854799"}},{"type":"Feature","geometry":{"type":"LineString","coordinates":[[110.0137712,20.8135418],[110.0124648,20.8104961]]},"properties":{"key":"way:396854800@overview:110_20","osmType":"way","osmId":396854800,"sourceRegion":"guangdong","featureType":"infrastructure","railClass":"national","mode":"rail","name":"湛海线","ref":"0718","operator":"中国铁路广州局集团有限公司","usage":"main","status":"operational","color":"#E54848","dataOrigin":"datum-2026-08-01","sourceKey":"way:396854800"}},{"type":"Feature","geometry":{"type":"LineString","coordinates":[[110.0124299,20.8103763],[110.0055966,20.7840124]]},"properties":{"key":"way:396854801@overview:110_20","osmType":"way","osmId":396854801,"sourceRegion":"guangdong","featureType":"infrastructure","railClass":"national","mode":"rail","name":"湛海线","ref":"0718","operator":"中国铁路广州局集团有限公司","usage":"main","status":"operational","color":"#E54848","dataOrigin":"datum-2026-08-01","sourceKey":"way:396854801"}},{"type":"Feature","geometry":{"type":"LineString","coordinates":[[110.0365652,20.845848],[110.0165966,20.8174756]]},"properties":{"key":"way:396854802@overview:110_20","osmType":"way","osmId":396854802,"sourceRegion":"guangdong","featureType":"infrastructure","railClass":"national","mode":"rail","name":"湛海线","ref":"0718","operator":"中国铁路广州局集团有限公司","usage":"main","status":"operational","color":"#E54848","dataOrigin":"datum-2026-08-01","sourceKey":"way:396854802"}},{"type":"Feature","geometry":{"type":"LineString","coordinates":[[110.0525249,20.5524224],[110.0526295,20.5520645]]},"properties":{"key":"way:466767102@overview:110_20","osmType":"way","osmId":466767102,"sourceRegion":"guangdong","featureType":"infrastructure","railClass":"national","mode":"rail","name":"湛海线","ref":"0718","operator":"中国铁路广州局集团有限公司","usage":"main","bridge":"yes","status":"operational","color":"#E54848","dataOrigin":"datum-2026-08-01","sourceKey":"way:466767102"}},{"type":"Feature","geometry":{"type":"LineString","coordinates":[[110.0120799,20.6791497],[110.0232938,20.6292524],[110.0420608,20.619553],[110.0501909,20.6072756],[110.0430828,20.5909961],[110.0525249,20.5524224]]},"properties":{"key":"way:466767103@overview:110_20","osmType":"way","osmId":466767103,"sourceRegion":"guangdong","featureType":"infrastructure","railClass":"national","mode":"rail","name":"湛海线","ref":"0718","operator":"中国铁路广州局集团有限公司","usage":"main","status":"operational","color":"#E54848","dataOrigin":"datum-2026-08-01","sourceKey":"way:466767103"}},{"type":"Feature","geometry":{"type":"LineString","coordinates":[[110.1437735,20.2702744],[110.1371113,20.2652564],[110.1299182,20.2490014]]},"properties":{"key":"way:672825570@overview:110_20","osmType":"way","osmId":672825570,"sourceRegion":"guangdong","featureType":"infrastructure","railClass":"national","mode":"rail","name":"湛海线","ref":"0718","operator":"中国铁路广州局集团有限公司","usage":"main","status":"operational","color":"#E54848","dataOrigin":"datum-2026-08-01","sourceKey":"way:672825570"}},{"type":"Feature","geometry":{"type":"LineString","coordinates":[[110.0420148,20.8967592],[110.0419765,20.8887899]]},"properties":{"key":"way:721048483@overview:110_20","osmType":"way","osmId":721048483,"sourceRegion":"guangdong","featureType":"infrastructure","railClass":"national","mode":"rail","name":"湛海线","ref":"0718","operator":"中国铁路广州局集团有限公司","usage":"main","status":"operational","color":"#E54848","dataOrigin":"datum-2026-08-01","sourceKey":"way:721048483"}},{"type":"Feature","geometry":{"type":"LineString","coordinates":[[110.0420108,20.8972253],[110.0420148,20.8967592]]},"properties":{"key":"way:721048484@overview:110_20","osmType":"way","osmId":721048484,"sourceRegion":"guangdong","featureType":"infrastructure","railClass":"national","mode":"rail","name":"湛海线","ref":"0718","operator":"中国铁路广州局集团有限公司","usage":"main","bridge":"yes","status":"operational","color":"#E54848","dataOrigin":"datum-2026-08-01","sourceKey":"way:721048484"}},{"type":"Feature","geometry":{"type":"LineString","coordinates":[[110.1453617,20.2714809],[110.1446615,20.2708697]]},"properties":{"key":"way:816978104@overview:110_20","osmType":"way","osmId":816978104,"sourceRegion":"guangdong","featureType":"infrastructure","railClass":"national","mode":"rail","name":"湛海线","ref":"0718","operator":"中国铁路广州局集团有限公司","usage":"main","bridge":"yes","status":"operational","color":"#E54848","dataOrigin":"datum-2026-08-01","sourceKey":"way:816978104"}},{"type":"Feature","geometry":{"type":"LineString","coordinates":[[110.1446615,20.2708697],[110.1437735,20.2702744]]},"properties":{"key":"way:816978105@overview:110_20","osmType":"way","osmId":816978105,"sourceRegion":"guangdong","featureType":"infrastructure","railClass":"national","mode":"rail","name":"湛海线","ref":"0718","operator":"中国铁路广州局集团有限公司","usage":"main","status":"operational","color":"#E54848","dataOrigin":"datum-2026-08-01","sourceKey":"way:816978105"}},{"type":"Feature","geometry":{"type":"LineString","coordinates":[[110.0119737,20.6797517],[110.0120799,20.6791497]]},"properties":{"key":"way:957632440@overview:110_20","osmType":"way","osmId":957632440,"sourceRegion":"guangdong","featureType":"infrastructure","railClass":"national","mode":"rail","name":"湛海线","ref":"0718","operator":"中国铁路广州局集团有限公司","usage":"main","bridge":"yes","status":"operational","color":"#E54848","dataOrigin":"datum-2026-08-01","sourceKey":"way:957632440"}},{"type":"Feature","geometry":{"type":"LineString","coordinates":[[110.0111818,20.6819544],[110.0119737,20.6797517]]},"properties":{"key":"way:957632441@overview:110_20","osmType":"way","osmId":957632441,"sourceRegion":"guangdong","featureType":"infrastructure","railClass":"national","mode":"rail","name":"湛海线","ref":"0718","operator":"中国铁路广州局集团有限公司","usage":"main","status":"operational","color":"#E54848","dataOrigin":"datum-2026-08-01","sourceKey":"way:957632441"}},{"type":"Feature","geometry":{"type":"LineString","coordinates":[[110.0106982,20.6831309],[110.0111818,20.6819544]]},"properties":{"key":"way:957632442@overview:110_20","osmType":"way","osmId":957632442,"sourceRegion":"guangdong","featureType":"infrastructure","railClass":"national","mode":"rail","name":"湛海线","ref":"0718","operator":"中国铁路广州局集团有限公司","usage":"main","bridge":"yes","status":"operational","color":"#E54848","dataOrigin":"datum-2026-08-01","sourceKey":"way:957632442"}},{"type":"Feature","geometry":{"type":"LineString","coordinates":[[110.0090437,20.6869141],[110.0106982,20.6831309]]},"properties":{"key":"way:957632443@overview:110_20","osmType":"way","osmId":957632443,"sourceRegion":"guangdong","featureType":"infrastructure","railClass":"national","mode":"rail","name":"湛海线","ref":"0718","operator":"中国铁路广州局集团有限公司","usage":"main","status":"operational","color":"#E54848","dataOrigin":"datum-2026-08-01","sourceKey":"way:957632443"}},{"type":"Feature","geometry":{"type":"LineString","coordinates":[[110.008439,20.6882774],[110.0090437,20.6869141]]},"properties":{"key":"way:957632444@overview:110_20","osmType":"way","osmId":957632444,"sourceRegion":"guangdong","featureType":"infrastructure","railClass":"national","mode":"rail","name":"湛海线","ref":"0718","operator":"中国铁路广州局集团有限公司","usage":"main","bridge":"yes","status":"operational","color":"#E54848","dataOrigin":"datum-2026-08-01","sourceKey":"way:957632444"}},{"type":"Feature","geometry":{"type":"LineString","coordinates":[[110.004081,20.7236828],[110.0041833,20.6984493],[110.008439,20.6882774]]},"properties":{"key":"way:957632445@overview:110_20","osmType":"way","osmId":957632445,"sourceRegion":"guangdong","featureType":"infrastructure","railClass":"national","mode":"rail","name":"湛海线","ref":"0718","operator":"中国铁路广州局集团有限公司","usage":"main","status":"operational","color":"#E54848","dataOrigin":"datum-2026-08-01","sourceKey":"way:957632445"}},{"type":"Feature","geometry":{"type":"LineString","coordinates":[[110.0040636,20.7273831],[110.004081,20.7236828]]},"properties":{"key":"way:957632446@overview:110_20","osmType":"way","osmId":957632446,"sourceRegion":"guangdong","featureType":"infrastructure","railClass":"national","mode":"rail","name":"湛海线","ref":"0718","operator":"中国铁路广州局集团有限公司","usage":"main","bridge":"yes","status":"operational","color":"#E54848","dataOrigin":"datum-2026-08-01","sourceKey":"way:957632446"}},{"type":"Feature","geometry":{"type":"LineString","coordinates":[[110.1253297,20.2412217],[110.1251902,20.2398804]]},"properties":{"key":"way:1432168232@overview:110_20","osmType":"way","osmId":1432168232,"sourceRegion":"guangdong","featureType":"infrastructure","railClass":"national","mode":"rail","name":"湛海线","ref":"0718","operator":"中国铁路广州局集团有限公司","usage":"main","status":"operational","color":"#E54848","dataOrigin":"datum-2026-08-01","sourceKey":"way:1432168232"}},{"type":"Feature","geometry":{"type":"LineString","coordinates":[[110.1299182,20.2490014],[110.1253297,20.2412217]]},"properties":{"key":"way:1432168233@overview:110_20","osmType":"way","osmId":1432168233,"sourceRegion":"guangdong","featureType":"infrastructure","railClass":"national","mode":"rail","name":"湛海线","ref":"0718","operator":"中国铁路广州局集团有限公司","usage":"main","status":"operational","color":"#E54848","dataOrigin":"datum-2026-08-01","sourceKey":"way:1432168233"}}]}