{"type":"FeatureCollection","features":[{"type":"Feature","geometry":{"type":"LineString","coordinates":[[110.86502650219236,22.0],[110.8532524,22.0085517]]},"properties":{"key":"way:513136794@overview:110_22","osmType":"way","osmId":513136794,"sourceRegion":"guangdong","featureType":"infrastructure","railClass":"national","mode":"rail","name":"益湛线","ref":"0072","operator":"中国铁路广州局集团有限公司","usage":"main","status":"operational","color":"#E54848","dataOrigin":"datum-2026-08-01","sourceKey":"way:513136794"}},{"type":"Feature","geometry":{"type":"LineString","coordinates":[[110.8368695,22.0488363],[110.8383566,22.0358388]]},"properties":{"key":"way:513136797@overview:110_22","osmType":"way","osmId":513136797,"sourceRegion":"guangdong","featureType":"infrastructure","railClass":"national","mode":"rail","name":"益湛线","ref":"0072","operator":"中国铁路广州局集团有限公司","usage":"main","status":"operational","color":"#E54848","dataOrigin":"datum-2026-08-01","sourceKey":"way:513136797"}},{"type":"Feature","geometry":{"type":"LineString","coordinates":[[110.836671,22.0504274],[110.8368695,22.0488363]]},"properties":{"key":"way:513136798@overview:110_22","osmType":"way","osmId":513136798,"sourceRegion":"guangdong","featureType":"infrastructure","railClass":"national","mode":"rail","name":"益湛线","ref":"0072","operator":"中国铁路广州局集团有限公司","usage":"main","bridge":"yes","status":"operational","color":"#E54848","dataOrigin":"datum-2026-08-01","sourceKey":"way:513136798"}},{"type":"Feature","geometry":{"type":"LineString","coordinates":[[110.8361506,22.0573533],[110.836671,22.0504274]]},"properties":{"key":"way:513136799@overview:110_22","osmType":"way","osmId":513136799,"sourceRegion":"guangdong","featureType":"infrastructure","railClass":"national","mode":"rail","name":"益湛线","ref":"0072","operator":"中国铁路广州局集团有限公司","usage":"main","status":"operational","color":"#E54848","dataOrigin":"datum-2026-08-01","sourceKey":"way:513136799"}},{"type":"Feature","geometry":{"type":"LineString","coordinates":[[110.8360283,22.058741],[110.8361506,22.0573533]]},"properties":{"key":"way:513136800@overview:110_22","osmType":"way","osmId":513136800,"sourceRegion":"guangdong","featureType":"infrastructure","railClass":"national","mode":"rail","name":"益湛线","ref":"0072","operator":"中国铁路广州局集团有限公司","usage":"main","tunnel":"yes","status":"operational","color":"#E54848","dataOrigin":"datum-2026-08-01","sourceKey":"way:513136800"}},{"type":"Feature","geometry":{"type":"LineString","coordinates":[[110.8632839,22.1421664],[110.8591318,22.1399205]]},"properties":{"key":"way:513136801@overview:110_22","osmType":"way","osmId":513136801,"sourceRegion":"guangdong","featureType":"infrastructure","railClass":"national","mode":"rail","name":"益湛线","ref":"0072","operator":"中国铁路广州局集团有限公司","usage":"main","bridge":"yes","status":"operational","color":"#E54848","dataOrigin":"datum-2026-08-01","sourceKey":"way:513136801"}},{"type":"Feature","geometry":{"type":"LineString","coordinates":[[110.8591318,22.1399205],[110.8523619,22.1322781],[110.8452272,22.1049054]]},"properties":{"key":"way:513136802@overview:110_22","osmType":"way","osmId":513136802,"sourceRegion":"guangdong","featureType":"infrastructure","railClass":"national","mode":"rail","name":"益湛线","ref":"0072","operator":"中国铁路广州局集团有限公司","usage":"main","status":"operational","color":"#E54848","dataOrigin":"datum-2026-08-01","sourceKey":"way:513136802"}},{"type":"Feature","geometry":{"type":"LineString","coordinates":[[110.8774191,22.1597722],[110.8732885,22.150423],[110.8632839,22.1421664]]},"properties":{"key":"way:513136803@overview:110_22","osmType":"way","osmId":513136803,"sourceRegion":"guangdong","featureType":"infrastructure","railClass":"national","mode":"rail","name":"益湛线","ref":"0072","operator":"中国铁路广州局集团有限公司","usage":"main","status":"operational","color":"#E54848","dataOrigin":"datum-2026-08-01","sourceKey":"way:513136803"}},{"type":"Feature","geometry":{"type":"LineString","coordinates":[[110.878315,22.1626861],[110.8774191,22.1597722]]},"properties":{"key":"way:513136804@overview:110_22","osmType":"way","osmId":513136804,"sourceRegion":"guangdong","featureType":"infrastructure","railClass":"national","mode":"rail","name":"益湛线","ref":"0072","operator":"中国铁路广州局集团有限公司","usage":"main","bridge":"yes","status":"operational","color":"#E54848","dataOrigin":"datum-2026-08-01","sourceKey":"way:513136804"}},{"type":"Feature","geometry":{"type":"LineString","coordinates":[[110.8838242,22.1816578],[110.8833682,22.1805402]]},"properties":{"key":"way:513136805@overview:110_22","osmType":"way","osmId":513136805,"sourceRegion":"guangdong","featureType":"infrastructure","railClass":"national","mode":"rail","name":"益湛线","ref":"0072","operator":"中国铁路广州局集团有限公司","usage":"main","tunnel":"yes","status":"operational","color":"#E54848","dataOrigin":"datum-2026-08-01","sourceKey":"way:513136805"}},{"type":"Feature","geometry":{"type":"LineString","coordinates":[[110.8813143,22.172148],[110.878315,22.1626861]]},"properties":{"key":"way:513136806@overview:110_22","osmType":"way","osmId":513136806,"sourceRegion":"guangdong","featureType":"infrastructure","railClass":"national","mode":"rail","name":"益湛线","ref":"0072","operator":"中国铁路广州局集团有限公司","usage":"main","status":"operational","color":"#E54848","dataOrigin":"datum-2026-08-01","sourceKey":"way:513136806"}},{"type":"Feature","geometry":{"type":"LineString","coordinates":[[110.8886629,22.1897197],[110.8878529,22.1884034]]},"properties":{"key":"way:513136807@overview:110_22","osmType":"way","osmId":513136807,"sourceRegion":"guangdong","featureType":"infrastructure","railClass":"national","mode":"rail","name":"益湛线","ref":"0072","operator":"中国铁路广州局集团有限公司","usage":"main","tunnel":"yes","status":"operational","color":"#E54848","dataOrigin":"datum-2026-08-01","sourceKey":"way:513136807"}},{"type":"Feature","geometry":{"type":"LineString","coordinates":[[110.8878529,22.1884034],[110.8838242,22.1816578]]},"properties":{"key":"way:513136808@overview:110_22","osmType":"way","osmId":513136808,"sourceRegion":"guangdong","featureType":"infrastructure","railClass":"national","mode":"rail","name":"益湛线","ref":"0072","operator":"中国铁路广州局集团有限公司","usage":"main","status":"operational","color":"#E54848","dataOrigin":"datum-2026-08-01","sourceKey":"way:513136808"}},{"type":"Feature","geometry":{"type":"LineString","coordinates":[[110.9242558,22.2482102],[110.9140903,22.2370037],[110.8987105,22.2131824],[110.8917069,22.1967428]]},"properties":{"key":"way:513136809@overview:110_22","osmType":"way","osmId":513136809,"sourceRegion":"guangdong","featureType":"infrastructure","railClass":"national","mode":"rail","name":"益湛线","ref":"0072","operator":"中国铁路广州局集团有限公司","usage":"main","status":"operational","color":"#E54848","dataOrigin":"datum-2026-08-01","sourceKey":"way:513136809"}},{"type":"Feature","geometry":{"type":"LineString","coordinates":[[110.943466,22.29991],[110.9432352,22.2995295]]},"properties":{"key":"way:513136810@overview:110_22","osmType":"way","osmId":513136810,"sourceRegion":"guangdong","featureType":"infrastructure","railClass":"national","mode":"rail","name":"益湛线","ref":"0072","operator":"中国铁路广州局集团有限公司","usage":"main","status":"operational","color":"#E54848","dataOrigin":"datum-2026-08-01","sourceKey":"way:513136810"}},{"type":"Feature","geometry":{"type":"LineString","coordinates":[[110.9432352,22.2995295],[110.9424573,22.297708]]},"properties":{"key":"way:513136811@overview:110_22","osmType":"way","osmId":513136811,"sourceRegion":"guangdong","featureType":"infrastructure","railClass":"national","mode":"rail","name":"益湛线","ref":"0072","operator":"中国铁路广州局集团有限公司","usage":"main","bridge":"yes","status":"operational","color":"#E54848","dataOrigin":"datum-2026-08-01","sourceKey":"way:513136811"}},{"type":"Feature","geometry":{"type":"LineString","coordinates":[[110.9424573,22.297708],[110.9421194,22.2967203]]},"properties":{"key":"way:513136812@overview:110_22","osmType":"way","osmId":513136812,"sourceRegion":"guangdong","featureType":"infrastructure","railClass":"national","mode":"rail","name":"益湛线","ref":"0072","operator":"中国铁路广州局集团有限公司","usage":"main","status":"operational","color":"#E54848","dataOrigin":"datum-2026-08-01","sourceKey":"way:513136812"}},{"type":"Feature","geometry":{"type":"LineString","coordinates":[[110.9421194,22.2967203],[110.941143,22.2894191]]},"properties":{"key":"way:513136813@overview:110_22","osmType":"way","osmId":513136813,"sourceRegion":"guangdong","featureType":"infrastructure","railClass":"national","mode":"rail","name":"益湛线","ref":"0072","operator":"中国铁路广州局集团有限公司","usage":"main","bridge":"yes","status":"operational","color":"#E54848","dataOrigin":"datum-2026-08-01","sourceKey":"way:513136813"}},{"type":"Feature","geometry":{"type":"LineString","coordinates":[[110.941143,22.2894191],[110.9409767,22.2879498]]},"properties":{"key":"way:513136814@overview:110_22","osmType":"way","osmId":513136814,"sourceRegion":"guangdong","featureType":"infrastructure","railClass":"national","mode":"rail","name":"益湛线","ref":"0072","operator":"中国铁路广州局集团有限公司","usage":"main","status":"operational","color":"#E54848","dataOrigin":"datum-2026-08-01","sourceKey":"way:513136814"}},{"type":"Feature","geometry":{"type":"LineString","coordinates":[[110.9409767,22.2879498],[110.9408319,22.2868677]]},"properties":{"key":"way:513136815@overview:110_22","osmType":"way","osmId":513136815,"sourceRegion":"guangdong","featureType":"infrastructure","railClass":"national","mode":"rail","name":"益湛线","ref":"0072","operator":"中国铁路广州局集团有限公司","usage":"main","bridge":"yes","status":"operational","color":"#E54848","dataOrigin":"datum-2026-08-01","sourceKey":"way:513136815"}},{"type":"Feature","geometry":{"type":"LineString","coordinates":[[110.9408319,22.2868677],[110.9405529,22.2844355]]},"properties":{"key":"way:513136816@overview:110_22","osmType":"way","osmId":513136816,"sourceRegion":"guangdong","featureType":"infrastructure","railClass":"national","mode":"rail","name":"益湛线","ref":"0072","operator":"中国铁路广州局集团有限公司","usage":"main","status":"operational","color":"#E54848","dataOrigin":"datum-2026-08-01","sourceKey":"way:513136816"}},{"type":"Feature","geometry":{"type":"LineString","coordinates":[[110.9405529,22.2844355],[110.9403062,22.2821671]]},"properties":{"key":"way:513136817@overview:110_22","osmType":"way","osmId":513136817,"sourceRegion":"guangdong","featureType":"infrastructure","railClass":"national","mode":"rail","name":"益湛线","ref":"0072","operator":"中国铁路广州局集团有限公司","usage":"main","bridge":"yes","status":"operational","color":"#E54848","dataOrigin":"datum-2026-08-01","sourceKey":"way:513136817"}},{"type":"Feature","geometry":{"type":"LineString","coordinates":[[110.9403062,22.2821671],[110.9402043,22.2812488]]},"properties":{"key":"way:513136818@overview:110_22","osmType":"way","osmId":513136818,"sourceRegion":"guangdong","featureType":"infrastructure","railClass":"national","mode":"rail","name":"益湛线","ref":"0072","operator":"中国铁路广州局集团有限公司","usage":"main","status":"operational","color":"#E54848","dataOrigin":"datum-2026-08-01","sourceKey":"way:513136818"}},{"type":"Feature","geometry":{"type":"LineString","coordinates":[[110.9402043,22.2812488],[110.9400809,22.2799035]]},"properties":{"key":"way:513136819@overview:110_22","osmType":"way","osmId":513136819,"sourceRegion":"guangdong","featureType":"infrastructure","railClass":"national","mode":"rail","name":"益湛线","ref":"0072","operator":"中国铁路广州局集团有限公司","usage":"main","bridge":"yes","status":"operational","color":"#E54848","dataOrigin":"datum-2026-08-01","sourceKey":"way:513136819"}},{"type":"Feature","geometry":{"type":"LineString","coordinates":[[110.9400809,22.2799035],[110.9396893,22.2768557]]},"properties":{"key":"way:513136820@overview:110_22","osmType":"way","osmId":513136820,"sourceRegion":"guangdong","featureType":"infrastructure","railClass":"national","mode":"rail","name":"益湛线","ref":"0072","operator":"中国铁路广州局集团有限公司","usage":"main","status":"operational","color":"#E54848","dataOrigin":"datum-2026-08-01","sourceKey":"way:513136820"}},{"type":"Feature","geometry":{"type":"LineString","coordinates":[[110.9396893,22.2768557],[110.9394801,22.275421]]},"properties":{"key":"way:513136821@overview:110_22","osmType":"way","osmId":513136821,"sourceRegion":"guangdong","featureType":"infrastructure","railClass":"national","mode":"rail","name":"益湛线","ref":"0072","operator":"中国铁路广州局集团有限公司","usage":"main","bridge":"yes","status":"operational","color":"#E54848","dataOrigin":"datum-2026-08-01","sourceKey":"way:513136821"}},{"type":"Feature","geometry":{"type":"LineString","coordinates":[[110.9394801,22.275421],[110.9386057,22.2726064]]},"properties":{"key":"way:513136822@overview:110_22","osmType":"way","osmId":513136822,"sourceRegion":"guangdong","featureType":"infrastructure","railClass":"national","mode":"rail","name":"益湛线","ref":"0072","operator":"中国铁路广州局集团有限公司","usage":"main","status":"operational","color":"#E54848","dataOrigin":"datum-2026-08-01","sourceKey":"way:513136822"}},{"type":"Feature","geometry":{"type":"LineString","coordinates":[[110.9386057,22.2726064],[110.938198,22.2713753]]},"properties":{"key":"way:513136823@overview:110_22","osmType":"way","osmId":513136823,"sourceRegion":"guangdong","featureType":"infrastructure","railClass":"national","mode":"rail","name":"益湛线","ref":"0072","operator":"中国铁路广州局集团有限公司","usage":"main","bridge":"yes","status":"operational","color":"#E54848","dataOrigin":"datum-2026-08-01","sourceKey":"way:513136823"}},{"type":"Feature","geometry":{"type":"LineString","coordinates":[[110.938198,22.2713753],[110.9369695,22.268208]]},"properties":{"key":"way:513136824@overview:110_22","osmType":"way","osmId":513136824,"sourceRegion":"guangdong","featureType":"infrastructure","railClass":"national","mode":"rail","name":"益湛线","ref":"0072","operator":"中国铁路广州局集团有限公司","usage":"main","status":"operational","color":"#E54848","dataOrigin":"datum-2026-08-01","sourceKey":"way:513136824"}},{"type":"Feature","geometry":{"type":"LineString","coordinates":[[110.9369695,22.268208],[110.9357679,22.2662223]]},"properties":{"key":"way:513136825@overview:110_22","osmType":"way","osmId":513136825,"sourceRegion":"guangdong","featureType":"infrastructure","railClass":"national","mode":"rail","name":"益湛线","ref":"0072","operator":"中国铁路广州局集团有限公司","usage":"main","tunnel":"yes","status":"operational","color":"#E54848","dataOrigin":"datum-2026-08-01","sourceKey":"way:513136825"}},{"type":"Feature","geometry":{"type":"LineString","coordinates":[[110.9357679,22.2662223],[110.9329623,22.2626032]]},"properties":{"key":"way:513136826@overview:110_22","osmType":"way","osmId":513136826,"sourceRegion":"guangdong","featureType":"infrastructure","railClass":"national","mode":"rail","name":"益湛线","ref":"0072","operator":"中国铁路广州局集团有限公司","usage":"main","status":"operational","color":"#E54848","dataOrigin":"datum-2026-08-01","sourceKey":"way:513136826"}},{"type":"Feature","geometry":{"type":"LineString","coordinates":[[110.9329623,22.2626032],[110.9322524,22.2616774]]},"properties":{"key":"way:513136827@overview:110_22","osmType":"way","osmId":513136827,"sourceRegion":"guangdong","featureType":"infrastructure","railClass":"national","mode":"rail","name":"益湛线","ref":"0072","operator":"中国铁路广州局集团有限公司","usage":"main","bridge":"yes","status":"operational","color":"#E54848","dataOrigin":"datum-2026-08-01","sourceKey":"way:513136827"}},{"type":"Feature","geometry":{"type":"LineString","coordinates":[[110.9322524,22.2616774],[110.9276403,22.2547519]]},"properties":{"key":"way:513136828@overview:110_22","osmType":"way","osmId":513136828,"sourceRegion":"guangdong","featureType":"infrastructure","railClass":"national","mode":"rail","name":"益湛线","ref":"0072","operator":"中国铁路广州局集团有限公司","usage":"main","status":"operational","color":"#E54848","dataOrigin":"datum-2026-08-01","sourceKey":"way:513136828"}},{"type":"Feature","geometry":{"type":"LineString","coordinates":[[110.9276403,22.2547519],[110.9242558,22.2482102]]},"properties":{"key":"way:513136829@overview:110_22","osmType":"way","osmId":513136829,"sourceRegion":"guangdong","featureType":"infrastructure","railClass":"national","mode":"rail","name":"益湛线","ref":"0072","operator":"中国铁路广州局集团有限公司","usage":"main","bridge":"yes","status":"operational","color":"#E54848","dataOrigin":"datum-2026-08-01","sourceKey":"way:513136829"}},{"type":"Feature","geometry":{"type":"LineString","coordinates":[[110.9771973,22.3515394],[110.9755075,22.3503834]]},"properties":{"key":"way:513136830@overview:110_22","osmType":"way","osmId":513136830,"sourceRegion":"guangdong","featureType":"infrastructure","railClass":"national","mode":"rail","name":"益湛线","ref":"0072","operator":"中国铁路广州局集团有限公司","usage":"main","bridge":"yes","status":"operational","color":"#E54848","dataOrigin":"datum-2026-08-01","sourceKey":"way:513136830"}},{"type":"Feature","geometry":{"type":"LineString","coordinates":[[110.9755075,22.3503834],[110.9740215,22.3493961]]},"properties":{"key":"way:513136831@overview:110_22","osmType":"way","osmId":513136831,"sourceRegion":"guangdong","featureType":"infrastructure","railClass":"national","mode":"rail","name":"益湛线","ref":"0072","operator":"中国铁路广州局集团有限公司","usage":"main","status":"operational","color":"#E54848","dataOrigin":"datum-2026-08-01","sourceKey":"way:513136831"}},{"type":"Feature","geometry":{"type":"LineString","coordinates":[[110.9740215,22.3493961],[110.9716462,22.3472894]]},"properties":{"key":"way:513136832@overview:110_22","osmType":"way","osmId":513136832,"sourceRegion":"guangdong","featureType":"infrastructure","railClass":"national","mode":"rail","name":"岑茂铁路","operator":"中国铁路广州局集团有限公司","usage":"main","bridge":"yes","status":"operational","color":"#E54848","dataOrigin":"datum-2026-08-01","sourceKey":"way:513136832"}},{"type":"Feature","geometry":{"type":"LineString","coordinates":[[110.9716462,22.3472894],[110.9704703,22.3455658]]},"properties":{"key":"way:513136833@overview:110_22","osmType":"way","osmId":513136833,"sourceRegion":"guangdong","featureType":"infrastructure","railClass":"national","mode":"rail","name":"岑茂铁路","operator":"中国铁路广州局集团有限公司","usage":"main","status":"operational","color":"#E54848","dataOrigin":"datum-2026-08-01","sourceKey":"way:513136833"}},{"type":"Feature","geometry":{"type":"LineString","coordinates":[[110.9690541,22.3427873],[110.966388,22.3383118]]},"properties":{"key":"way:513136834@overview:110_22","osmType":"way","osmId":513136834,"sourceRegion":"guangdong","featureType":"infrastructure","railClass":"national","mode":"rail","name":"益湛线","ref":"0072","operator":"中国铁路广州局集团有限公司","usage":"main","status":"operational","color":"#E54848","dataOrigin":"datum-2026-08-01","sourceKey":"way:513136834"}},{"type":"Feature","geometry":{"type":"LineString","coordinates":[[110.966388,22.3383118],[110.9646821,22.3364362]]},"properties":{"key":"way:513136835@overview:110_22","osmType":"way","osmId":513136835,"sourceRegion":"guangdong","featureType":"infrastructure","railClass":"national","mode":"rail","name":"益湛线","ref":"0072","operator":"中国铁路广州局集团有限公司","usage":"main","bridge":"yes","status":"operational","color":"#E54848","dataOrigin":"datum-2026-08-01","sourceKey":"way:513136835"}},{"type":"Feature","geometry":{"type":"LineString","coordinates":[[110.9646821,22.3364362],[110.957236,22.3282431]]},"properties":{"key":"way:513136836@overview:110_22","osmType":"way","osmId":513136836,"sourceRegion":"guangdong","featureType":"infrastructure","railClass":"national","mode":"rail","name":"益湛线","ref":"0072","operator":"中国铁路广州局集团有限公司","usage":"main","status":"operational","color":"#E54848","dataOrigin":"datum-2026-08-01","sourceKey":"way:513136836"}},{"type":"Feature","geometry":{"type":"LineString","coordinates":[[110.957236,22.3282431],[110.9540766,22.324666]]},"properties":{"key":"way:513136837@overview:110_22","osmType":"way","osmId":513136837,"sourceRegion":"guangdong","featureType":"infrastructure","railClass":"national","mode":"rail","name":"益湛线","ref":"0072","operator":"中国铁路广州局集团有限公司","usage":"main","bridge":"yes","status":"operational","color":"#E54848","dataOrigin":"datum-2026-08-01","sourceKey":"way:513136837"}},{"type":"Feature","geometry":{"type":"LineString","coordinates":[[110.9540766,22.324666],[110.9531486,22.3232765]]},"properties":{"key":"way:513136838@overview:110_22","osmType":"way","osmId":513136838,"sourceRegion":"guangdong","featureType":"infrastructure","railClass":"national","mode":"rail","name":"益湛线","ref":"0072","operator":"中国铁路广州局集团有限公司","usage":"main","status":"operational","color":"#E54848","dataOrigin":"datum-2026-08-01","sourceKey":"way:513136838"}},{"type":"Feature","geometry":{"type":"LineString","coordinates":[[110.9531486,22.3232765],[110.9523439,22.3216737]]},"properties":{"key":"way:513136839@overview:110_22","osmType":"way","osmId":513136839,"sourceRegion":"guangdong","featureType":"infrastructure","railClass":"national","mode":"rail","name":"益湛线","ref":"0072","operator":"中国铁路广州局集团有限公司","usage":"main","bridge":"yes","status":"operational","color":"#E54848","dataOrigin":"datum-2026-08-01","sourceKey":"way:513136839"}},{"type":"Feature","geometry":{"type":"LineString","coordinates":[[110.9523439,22.3216737],[110.9515178,22.3190336]]},"properties":{"key":"way:513136840@overview:110_22","osmType":"way","osmId":513136840,"sourceRegion":"guangdong","featureType":"infrastructure","railClass":"national","mode":"rail","name":"益湛线","ref":"0072","operator":"中国铁路广州局集团有限公司","usage":"main","status":"operational","color":"#E54848","dataOrigin":"datum-2026-08-01","sourceKey":"way:513136840"}},{"type":"Feature","geometry":{"type":"LineString","coordinates":[[110.9515178,22.3190336],[110.9504127,22.313138]]},"properties":{"key":"way:513136841@overview:110_22","osmType":"way","osmId":513136841,"sourceRegion":"guangdong","featureType":"infrastructure","railClass":"national","mode":"rail","name":"益湛线","ref":"0072","operator":"中国铁路广州局集团有限公司","usage":"main","bridge":"yes","status":"operational","color":"#E54848","dataOrigin":"datum-2026-08-01","sourceKey":"way:513136841"}},{"type":"Feature","geometry":{"type":"LineString","coordinates":[[110.9504127,22.313138],[110.949989,22.3110338]]},"properties":{"key":"way:513136842@overview:110_22","osmType":"way","osmId":513136842,"sourceRegion":"guangdong","featureType":"infrastructure","railClass":"national","mode":"rail","name":"益湛线","ref":"0072","operator":"中国铁路广州局集团有限公司","usage":"main","status":"operational","color":"#E54848","dataOrigin":"datum-2026-08-01","sourceKey":"way:513136842"}},{"type":"Feature","geometry":{"type":"LineString","coordinates":[[110.949989,22.3110338],[110.9494364,22.3090685]]},"properties":{"key":"way:513136843@overview:110_22","osmType":"way","osmId":513136843,"sourceRegion":"guangdong","featureType":"infrastructure","railClass":"national","mode":"rail","name":"益湛线","ref":"0072","operator":"中国铁路广州局集团有限公司","usage":"main","bridge":"yes","status":"operational","color":"#E54848","dataOrigin":"datum-2026-08-01","sourceKey":"way:513136843"}},{"type":"Feature","geometry":{"type":"LineString","coordinates":[[110.9494364,22.3090685],[110.9490877,22.3081504]]},"properties":{"key":"way:513136844@overview:110_22","osmType":"way","osmId":513136844,"sourceRegion":"guangdong","featureType":"infrastructure","railClass":"national","mode":"rail","name":"益湛线","ref":"0072","operator":"中国铁路广州局集团有限公司","usage":"main","status":"operational","color":"#E54848","dataOrigin":"datum-2026-08-01","sourceKey":"way:513136844"}},{"type":"Feature","geometry":{"type":"LineString","coordinates":[[110.9490877,22.3081504],[110.9480256,22.3061801]]},"properties":{"key":"way:513136845@overview:110_22","osmType":"way","osmId":513136845,"sourceRegion":"guangdong","featureType":"infrastructure","railClass":"national","mode":"rail","name":"益湛线","ref":"0072","operator":"中国铁路广州局集团有限公司","usage":"main","bridge":"yes","status":"operational","color":"#E54848","dataOrigin":"datum-2026-08-01","sourceKey":"way:513136845"}},{"type":"Feature","geometry":{"type":"LineString","coordinates":[[110.9480256,22.3061801],[110.9467061,22.3043812]]},"properties":{"key":"way:513136846@overview:110_22","osmType":"way","osmId":513136846,"sourceRegion":"guangdong","featureType":"infrastructure","railClass":"national","mode":"rail","name":"益湛线","ref":"0072","operator":"中国铁路广州局集团有限公司","usage":"main","status":"operational","color":"#E54848","dataOrigin":"datum-2026-08-01","sourceKey":"way:513136846"}},{"type":"Feature","geometry":{"type":"LineString","coordinates":[[110.9467061,22.3043812],[110.943466,22.29991]]},"properties":{"key":"way:513136847@overview:110_22","osmType":"way","osmId":513136847,"sourceRegion":"guangdong","featureType":"infrastructure","railClass":"national","mode":"rail","name":"益湛线","ref":"0072","operator":"中国铁路广州局集团有限公司","usage":"main","bridge":"yes","status":"operational","color":"#E54848","dataOrigin":"datum-2026-08-01","sourceKey":"way:513136847"}},{"type":"Feature","geometry":{"type":"LineString","coordinates":[[110.9798022,22.3547223],[110.9771973,22.3515394]]},"properties":{"key":"way:513136848@overview:110_22","osmType":"way","osmId":513136848,"sourceRegion":"guangdong","featureType":"infrastructure","railClass":"national","mode":"rail","name":"益湛线","ref":"0072","operator":"中国铁路广州局集团有限公司","usage":"main","status":"operational","color":"#E54848","dataOrigin":"datum-2026-08-01","sourceKey":"way:513136848"}},{"type":"Feature","geometry":{"type":"LineString","coordinates":[[110.9773407,22.4225172],[110.9777284,22.4222856]]},"properties":{"key":"way:513136849@overview:110_22","osmType":"way","osmId":513136849,"sourceRegion":"guangdong","featureType":"infrastructure","railClass":"national","mode":"rail","name":"益湛线","ref":"0072","operator":"中国铁路广州局集团有限公司","usage":"main","status":"operational","color":"#E54848","dataOrigin":"datum-2026-08-01","sourceKey":"way:513136849"}},{"type":"Feature","geometry":{"type":"LineString","coordinates":[[110.9825177,22.4163428],[110.9827065,22.4157993]]},"properties":{"key":"way:513136850@overview:110_22","osmType":"way","osmId":513136850,"sourceRegion":"guangdong","featureType":"infrastructure","railClass":"national","mode":"rail","name":"益湛线","ref":"0072","operator":"中国铁路广州局集团有限公司","usage":"main","status":"operational","color":"#E54848","dataOrigin":"datum-2026-08-01","sourceKey":"way:513136850"}},{"type":"Feature","geometry":{"type":"LineString","coordinates":[[110.9827065,22.4157993],[110.9830499,22.4137164]]},"properties":{"key":"way:513136851@overview:110_22","osmType":"way","osmId":513136851,"sourceRegion":"guangdong","featureType":"infrastructure","railClass":"national","mode":"rail","name":"益湛线","ref":"0072","operator":"中国铁路广州局集团有限公司","usage":"main","tunnel":"yes","status":"operational","color":"#E54848","dataOrigin":"datum-2026-08-01","sourceKey":"way:513136851"}},{"type":"Feature","geometry":{"type":"LineString","coordinates":[[110.9830499,22.4137164],[110.9830552,22.4133395]]},"properties":{"key":"way:513136852@overview:110_22","osmType":"way","osmId":513136852,"sourceRegion":"guangdong","featureType":"infrastructure","railClass":"national","mode":"rail","name":"益湛线","ref":"0072","operator":"中国铁路广州局集团有限公司","usage":"main","status":"operational","color":"#E54848","dataOrigin":"datum-2026-08-01","sourceKey":"way:513136852"}},{"type":"Feature","geometry":{"type":"LineString","coordinates":[[110.9830552,22.4133395],[110.9828326,22.410907]]},"properties":{"key":"way:513136853@overview:110_22","osmType":"way","osmId":513136853,"sourceRegion":"guangdong","featureType":"infrastructure","railClass":"national","mode":"rail","name":"益湛线","ref":"0072","operator":"中国铁路广州局集团有限公司","usage":"main","tunnel":"yes","status":"operational","color":"#E54848","dataOrigin":"datum-2026-08-01","sourceKey":"way:513136853"}},{"type":"Feature","geometry":{"type":"LineString","coordinates":[[110.9828326,22.410907],[110.9824938,22.409537]]},"properties":{"key":"way:513136854@overview:110_22","osmType":"way","osmId":513136854,"sourceRegion":"guangdong","featureType":"infrastructure","railClass":"national","mode":"rail","name":"益湛线","ref":"0072","operator":"中国铁路广州局集团有限公司","usage":"main","status":"operational","color":"#E54848","dataOrigin":"datum-2026-08-01","sourceKey":"way:513136854"}},{"type":"Feature","geometry":{"type":"LineString","coordinates":[[110.9824938,22.409537],[110.9820467,22.4077951]]},"properties":{"key":"way:513136855@overview:110_22","osmType":"way","osmId":513136855,"sourceRegion":"guangdong","featureType":"infrastructure","railClass":"national","mode":"rail","name":"益湛线","ref":"0072","operator":"中国铁路广州局集团有限公司","usage":"main","bridge":"yes","status":"operational","color":"#E54848","dataOrigin":"datum-2026-08-01","sourceKey":"way:513136855"}},{"type":"Feature","geometry":{"type":"LineString","coordinates":[[110.9820467,22.4077951],[110.981816,22.4068379]]},"properties":{"key":"way:513136856@overview:110_22","osmType":"way","osmId":513136856,"sourceRegion":"guangdong","featureType":"infrastructure","railClass":"national","mode":"rail","name":"益湛线","ref":"0072","operator":"中国铁路广州局集团有限公司","usage":"main","status":"operational","color":"#E54848","dataOrigin":"datum-2026-08-01","sourceKey":"way:513136856"}},{"type":"Feature","geometry":{"type":"LineString","coordinates":[[110.981816,22.4068379],[110.9816744,22.4057817]]},"properties":{"key":"way:513136857@overview:110_22","osmType":"way","osmId":513136857,"sourceRegion":"guangdong","featureType":"infrastructure","railClass":"national","mode":"rail","name":"益湛线","ref":"0072","operator":"中国铁路广州局集团有限公司","usage":"main","bridge":"yes","status":"operational","color":"#E54848","dataOrigin":"datum-2026-08-01","sourceKey":"way:513136857"}},{"type":"Feature","geometry":{"type":"LineString","coordinates":[[110.9816744,22.4057817],[110.9816229,22.4051269]]},"properties":{"key":"way:513136858@overview:110_22","osmType":"way","osmId":513136858,"sourceRegion":"guangdong","featureType":"infrastructure","railClass":"national","mode":"rail","name":"益湛线","ref":"0072","operator":"中国铁路广州局集团有限公司","usage":"main","status":"operational","color":"#E54848","dataOrigin":"datum-2026-08-01","sourceKey":"way:513136858"}},{"type":"Feature","geometry":{"type":"LineString","coordinates":[[110.9816229,22.4051269],[110.981639,22.4041499]]},"properties":{"key":"way:513136859@overview:110_22","osmType":"way","osmId":513136859,"sourceRegion":"guangdong","featureType":"infrastructure","railClass":"national","mode":"rail","name":"益湛线","ref":"0072","operator":"中国铁路广州局集团有限公司","usage":"main","bridge":"yes","status":"operational","color":"#E54848","dataOrigin":"datum-2026-08-01","sourceKey":"way:513136859"}},{"type":"Feature","geometry":{"type":"LineString","coordinates":[[110.981639,22.4041499],[110.9816551,22.4038771]]},"properties":{"key":"way:513136860@overview:110_22","osmType":"way","osmId":513136860,"sourceRegion":"guangdong","featureType":"infrastructure","railClass":"national","mode":"rail","name":"益湛线","ref":"0072","operator":"中国铁路广州局集团有限公司","usage":"main","status":"operational","color":"#E54848","dataOrigin":"datum-2026-08-01","sourceKey":"way:513136860"}},{"type":"Feature","geometry":{"type":"LineString","coordinates":[[110.9816551,22.4038771],[110.9817249,22.4030984]]},"properties":{"key":"way:513136861@overview:110_22","osmType":"way","osmId":513136861,"sourceRegion":"guangdong","featureType":"infrastructure","railClass":"national","mode":"rail","name":"益湛线","ref":"0072","operator":"中国铁路广州局集团有限公司","usage":"main","tunnel":"yes","status":"operational","color":"#E54848","dataOrigin":"datum-2026-08-01","sourceKey":"way:513136861"}},{"type":"Feature","geometry":{"type":"LineString","coordinates":[[110.9817249,22.4030984],[110.9817463,22.4028108]]},"properties":{"key":"way:513136862@overview:110_22","osmType":"way","osmId":513136862,"sourceRegion":"guangdong","featureType":"infrastructure","railClass":"national","mode":"rail","name":"益湛线","ref":"0072","operator":"中国铁路广州局集团有限公司","usage":"main","status":"operational","color":"#E54848","dataOrigin":"datum-2026-08-01","sourceKey":"way:513136862"}},{"type":"Feature","geometry":{"type":"LineString","coordinates":[[110.9817463,22.4028108],[110.9818911,22.4013725]]},"properties":{"key":"way:513136863@overview:110_22","osmType":"way","osmId":513136863,"sourceRegion":"guangdong","featureType":"infrastructure","railClass":"national","mode":"rail","name":"益湛线","ref":"0072","operator":"中国铁路广州局集团有限公司","usage":"main","bridge":"yes","status":"operational","color":"#E54848","dataOrigin":"datum-2026-08-01","sourceKey":"way:513136863"}},{"type":"Feature","geometry":{"type":"LineString","coordinates":[[110.9818911,22.4013725],[110.9819555,22.4006286]]},"properties":{"key":"way:513136864@overview:110_22","osmType":"way","osmId":513136864,"sourceRegion":"guangdong","featureType":"infrastructure","railClass":"national","mode":"rail","name":"益湛线","ref":"0072","operator":"中国铁路广州局集团有限公司","usage":"main","status":"operational","color":"#E54848","dataOrigin":"datum-2026-08-01","sourceKey":"way:513136864"}},{"type":"Feature","geometry":{"type":"LineString","coordinates":[[110.9819555,22.4006286],[110.9820996,22.3990526]]},"properties":{"key":"way:513136865@overview:110_22","osmType":"way","osmId":513136865,"sourceRegion":"guangdong","featureType":"infrastructure","railClass":"national","mode":"rail","name":"益湛线","ref":"0072","operator":"中国铁路广州局集团有限公司","usage":"main","bridge":"yes","status":"operational","color":"#E54848","dataOrigin":"datum-2026-08-01","sourceKey":"way:513136865"}},{"type":"Feature","geometry":{"type":"LineString","coordinates":[[110.9820996,22.3990526],[110.9821486,22.3985158]]},"properties":{"key":"way:513136866@overview:110_22","osmType":"way","osmId":513136866,"sourceRegion":"guangdong","featureType":"infrastructure","railClass":"national","mode":"rail","name":"益湛线","ref":"0072","operator":"中国铁路广州局集团有限公司","usage":"main","status":"operational","color":"#E54848","dataOrigin":"datum-2026-08-01","sourceKey":"way:513136866"}},{"type":"Feature","geometry":{"type":"LineString","coordinates":[[110.9821486,22.3985158],[110.9822881,22.3970774]]},"properties":{"key":"way:513136867@overview:110_22","osmType":"way","osmId":513136867,"sourceRegion":"guangdong","featureType":"infrastructure","railClass":"national","mode":"rail","name":"益湛线","ref":"0072","operator":"中国铁路广州局集团有限公司","usage":"main","bridge":"yes","status":"operational","color":"#E54848","dataOrigin":"datum-2026-08-01","sourceKey":"way:513136867"}},{"type":"Feature","geometry":{"type":"LineString","coordinates":[[110.9822881,22.3970774],[110.9823042,22.3968592]]},"properties":{"key":"way:513136868@overview:110_22","osmType":"way","osmId":513136868,"sourceRegion":"guangdong","featureType":"infrastructure","railClass":"national","mode":"rail","name":"益湛线","ref":"0072","operator":"中国铁路广州局集团有限公司","usage":"main","status":"operational","color":"#E54848","dataOrigin":"datum-2026-08-01","sourceKey":"way:513136868"}},{"type":"Feature","geometry":{"type":"LineString","coordinates":[[110.9823042,22.3968592],[110.9824276,22.3955101]]},"properties":{"key":"way:513136869@overview:110_22","osmType":"way","osmId":513136869,"sourceRegion":"guangdong","featureType":"infrastructure","railClass":"national","mode":"rail","name":"益湛线","ref":"0072","operator":"中国铁路广州局集团有限公司","usage":"main","tunnel":"yes","status":"operational","color":"#E54848","dataOrigin":"datum-2026-08-01","sourceKey":"way:513136869"}},{"type":"Feature","geometry":{"type":"LineString","coordinates":[[110.9824276,22.3955101],[110.9824598,22.3951927]]},"properties":{"key":"way:513136870@overview:110_22","osmType":"way","osmId":513136870,"sourceRegion":"guangdong","featureType":"infrastructure","railClass":"national","mode":"rail","name":"益湛线","ref":"0072","operator":"中国铁路广州局集团有限公司","usage":"main","status":"operational","color":"#E54848","dataOrigin":"datum-2026-08-01","sourceKey":"way:513136870"}},{"type":"Feature","geometry":{"type":"LineString","coordinates":[[110.9824598,22.3951927],[110.9826851,22.3937246]]},"properties":{"key":"way:513136871@overview:110_22","osmType":"way","osmId":513136871,"sourceRegion":"guangdong","featureType":"infrastructure","railClass":"national","mode":"rail","name":"益湛线","ref":"0072","operator":"中国铁路广州局集团有限公司","usage":"main","bridge":"yes","status":"operational","color":"#E54848","dataOrigin":"datum-2026-08-01","sourceKey":"way:513136871"}},{"type":"Feature","geometry":{"type":"LineString","coordinates":[[110.9826851,22.3937246],[110.9828997,22.3927673]]},"properties":{"key":"way:513136872@overview:110_22","osmType":"way","osmId":513136872,"sourceRegion":"guangdong","featureType":"infrastructure","railClass":"national","mode":"rail","name":"益湛线","ref":"0072","operator":"中国铁路广州局集团有限公司","usage":"main","status":"operational","color":"#E54848","dataOrigin":"datum-2026-08-01","sourceKey":"way:513136872"}},{"type":"Feature","geometry":{"type":"LineString","coordinates":[[110.9828997,22.3927673],[110.9836936,22.3899253]]},"properties":{"key":"way:513136873@overview:110_22","osmType":"way","osmId":513136873,"sourceRegion":"guangdong","featureType":"infrastructure","railClass":"national","mode":"rail","name":"益湛线","ref":"0072","operator":"中国铁路广州局集团有限公司","usage":"main","bridge":"yes","status":"operational","color":"#E54848","dataOrigin":"datum-2026-08-01","sourceKey":"way:513136873"}},{"type":"Feature","geometry":{"type":"LineString","coordinates":[[110.9836936,22.3899253],[110.9843641,22.3875593]]},"properties":{"key":"way:513136874@overview:110_22","osmType":"way","osmId":513136874,"sourceRegion":"guangdong","featureType":"infrastructure","railClass":"national","mode":"rail","name":"益湛线","ref":"0072","operator":"中国铁路广州局集团有限公司","usage":"main","status":"operational","color":"#E54848","dataOrigin":"datum-2026-08-01","sourceKey":"way:513136874"}},{"type":"Feature","geometry":{"type":"LineString","coordinates":[[110.9843641,22.3875593],[110.9851903,22.3846626]]},"properties":{"key":"way:513136875@overview:110_22","osmType":"way","osmId":513136875,"sourceRegion":"guangdong","featureType":"infrastructure","railClass":"national","mode":"rail","name":"益湛线","ref":"0072","operator":"中国铁路广州局集团有限公司","usage":"main","tunnel":"yes","status":"operational","color":"#E54848","dataOrigin":"datum-2026-08-01","sourceKey":"way:513136875"}},{"type":"Feature","geometry":{"type":"LineString","coordinates":[[110.9851903,22.3846626],[110.9860486,22.3816765]]},"properties":{"key":"way:513136876@overview:110_22","osmType":"way","osmId":513136876,"sourceRegion":"guangdong","featureType":"infrastructure","railClass":"national","mode":"rail","name":"益湛线","ref":"0072","operator":"中国铁路广州局集团有限公司","usage":"main","status":"operational","color":"#E54848","dataOrigin":"datum-2026-08-01","sourceKey":"way:513136876"}},{"type":"Feature","geometry":{"type":"LineString","coordinates":[[110.9860486,22.3816765],[110.9864348,22.3803373]]},"properties":{"key":"way:513136877@overview:110_22","osmType":"way","osmId":513136877,"sourceRegion":"guangdong","featureType":"infrastructure","railClass":"national","mode":"rail","name":"益湛线","ref":"0072","operator":"中国铁路广州局集团有限公司","usage":"main","tunnel":"yes","status":"operational","color":"#E54848","dataOrigin":"datum-2026-08-01","sourceKey":"way:513136877"}},{"type":"Feature","geometry":{"type":"LineString","coordinates":[[110.9865482,22.379875],[110.9869337,22.3778769]]},"properties":{"key":"way:513136878@overview:110_22","osmType":"way","osmId":513136878,"sourceRegion":"guangdong","featureType":"infrastructure","railClass":"national","mode":"rail","name":"益湛线","ref":"0072","operator":"中国铁路广州局集团有限公司","usage":"main","status":"operational","color":"#E54848","dataOrigin":"datum-2026-08-01","sourceKey":"way:513136878"}},{"type":"Feature","geometry":{"type":"LineString","coordinates":[[110.9869337,22.3778769],[110.9870142,22.3752627]]},"properties":{"key":"way:513136879@overview:110_22","osmType":"way","osmId":513136879,"sourceRegion":"guangdong","featureType":"infrastructure","railClass":"national","mode":"rail","name":"益湛线","ref":"0072","operator":"中国铁路广州局集团有限公司","usage":"main","tunnel":"yes","status":"operational","color":"#E54848","dataOrigin":"datum-2026-08-01","sourceKey":"way:513136879"}},{"type":"Feature","geometry":{"type":"LineString","coordinates":[[110.9870142,22.3752627],[110.9867889,22.373586]]},"properties":{"key":"way:513136880@overview:110_22","osmType":"way","osmId":513136880,"sourceRegion":"guangdong","featureType":"infrastructure","railClass":"national","mode":"rail","name":"益湛线","ref":"0072","operator":"中国铁路广州局集团有限公司","usage":"main","status":"operational","color":"#E54848","dataOrigin":"datum-2026-08-01","sourceKey":"way:513136880"}},{"type":"Feature","geometry":{"type":"LineString","coordinates":[[110.9867889,22.373586],[110.9864938,22.3721326]]},"properties":{"key":"way:513136881@overview:110_22","osmType":"way","osmId":513136881,"sourceRegion":"guangdong","featureType":"infrastructure","railClass":"national","mode":"rail","name":"益湛线","ref":"0072","operator":"中国铁路广州局集团有限公司","usage":"main","tunnel":"yes","status":"operational","color":"#E54848","dataOrigin":"datum-2026-08-01","sourceKey":"way:513136881"}},{"type":"Feature","geometry":{"type":"LineString","coordinates":[[110.9864938,22.3721326],[110.9863973,22.3715621]]},"properties":{"key":"way:513136882@overview:110_22","osmType":"way","osmId":513136882,"sourceRegion":"guangdong","featureType":"infrastructure","railClass":"national","mode":"rail","name":"益湛线","ref":"0072","operator":"中国铁路广州局集团有限公司","usage":"main","status":"operational","color":"#E54848","dataOrigin":"datum-2026-08-01","sourceKey":"way:513136882"}},{"type":"Feature","geometry":{"type":"LineString","coordinates":[[110.9863973,22.3715621],[110.9858876,22.3693149]]},"properties":{"key":"way:513136883@overview:110_22","osmType":"way","osmId":513136883,"sourceRegion":"guangdong","featureType":"infrastructure","railClass":"national","mode":"rail","name":"益湛线","ref":"0072","operator":"中国铁路广州局集团有限公司","usage":"main","tunnel":"yes","status":"operational","color":"#E54848","dataOrigin":"datum-2026-08-01","sourceKey":"way:513136883"}},{"type":"Feature","geometry":{"type":"LineString","coordinates":[[110.9858876,22.3693149],[110.9856033,22.3679805]]},"properties":{"key":"way:513136884@overview:110_22","osmType":"way","osmId":513136884,"sourceRegion":"guangdong","featureType":"infrastructure","railClass":"national","mode":"rail","name":"益湛线","ref":"0072","operator":"中国铁路广州局集团有限公司","usage":"main","status":"operational","color":"#E54848","dataOrigin":"datum-2026-08-01","sourceKey":"way:513136884"}},{"type":"Feature","geometry":{"type":"LineString","coordinates":[[110.9856033,22.3679805],[110.9855229,22.3675985]]},"properties":{"key":"way:513136885@overview:110_22","osmType":"way","osmId":513136885,"sourceRegion":"guangdong","featureType":"infrastructure","railClass":"national","mode":"rail","name":"益湛线","ref":"0072","operator":"中国铁路广州局集团有限公司","usage":"main","bridge":"yes","status":"operational","color":"#E54848","dataOrigin":"datum-2026-08-01","sourceKey":"way:513136885"}},{"type":"Feature","geometry":{"type":"LineString","coordinates":[[110.9855229,22.3675985],[110.9852225,22.3661896]]},"properties":{"key":"way:513136886@overview:110_22","osmType":"way","osmId":513136886,"sourceRegion":"guangdong","featureType":"infrastructure","railClass":"national","mode":"rail","name":"益湛线","ref":"0072","operator":"中国铁路广州局集团有限公司","usage":"main","status":"operational","color":"#E54848","dataOrigin":"datum-2026-08-01","sourceKey":"way:513136886"}},{"type":"Feature","geometry":{"type":"LineString","coordinates":[[110.9852225,22.3661896],[110.9842515,22.3632974]]},"properties":{"key":"way:513136888@overview:110_22","osmType":"way","osmId":513136888,"sourceRegion":"guangdong","featureType":"infrastructure","railClass":"national","mode":"rail","name":"益湛线","ref":"0072","operator":"中国铁路广州局集团有限公司","usage":"main","bridge":"yes","status":"operational","color":"#E54848","dataOrigin":"datum-2026-08-01","sourceKey":"way:513136888"}},{"type":"Feature","geometry":{"type":"LineString","coordinates":[[110.9842515,22.3632974],[110.9841442,22.3630493]]},"properties":{"key":"way:513136889@overview:110_22","osmType":"way","osmId":513136889,"sourceRegion":"guangdong","featureType":"infrastructure","railClass":"national","mode":"rail","name":"益湛线","ref":"0072","operator":"中国铁路广州局集团有限公司","usage":"main","status":"operational","color":"#E54848","dataOrigin":"datum-2026-08-01","sourceKey":"way:513136889"}},{"type":"Feature","geometry":{"type":"LineString","coordinates":[[110.9841442,22.3630493],[110.9834361,22.3616603]]},"properties":{"key":"way:513136890@overview:110_22","osmType":"way","osmId":513136890,"sourceRegion":"guangdong","featureType":"infrastructure","railClass":"national","mode":"rail","name":"益湛线","ref":"0072","operator":"中国铁路广州局集团有限公司","usage":"main","tunnel":"yes","status":"operational","color":"#E54848","dataOrigin":"datum-2026-08-01","sourceKey":"way:513136890"}},{"type":"Feature","geometry":{"type":"LineString","coordinates":[[110.9834361,22.3616603],[110.9831357,22.3610302]]},"properties":{"key":"way:513136892@overview:110_22","osmType":"way","osmId":513136892,"sourceRegion":"guangdong","featureType":"infrastructure","railClass":"national","mode":"rail","name":"益湛线","ref":"0072","operator":"中国铁路广州局集团有限公司","usage":"main","status":"operational","color":"#E54848","dataOrigin":"datum-2026-08-01","sourceKey":"way:513136892"}},{"type":"Feature","geometry":{"type":"LineString","coordinates":[[110.9831357,22.3610302],[110.9823525,22.3595469]]},"properties":{"key":"way:513136893@overview:110_22","osmType":"way","osmId":513136893,"sourceRegion":"guangdong","featureType":"infrastructure","railClass":"national","mode":"rail","name":"益湛线","ref":"0072","operator":"中国铁路广州局集团有限公司","usage":"main","bridge":"yes","status":"operational","color":"#E54848","dataOrigin":"datum-2026-08-01","sourceKey":"way:513136893"}},{"type":"Feature","geometry":{"type":"LineString","coordinates":[[110.9823525,22.3595469],[110.9817249,22.3583314]]},"properties":{"key":"way:513136895@overview:110_22","osmType":"way","osmId":513136895,"sourceRegion":"guangdong","featureType":"infrastructure","railClass":"national","mode":"rail","name":"益湛线","ref":"0072","operator":"中国铁路广州局集团有限公司","usage":"main","status":"operational","color":"#E54848","dataOrigin":"datum-2026-08-01","sourceKey":"way:513136895"}},{"type":"Feature","geometry":{"type":"LineString","coordinates":[[110.9817249,22.3583314],[110.9809202,22.3567984]]},"properties":{"key":"way:513136897@overview:110_22","osmType":"way","osmId":513136897,"sourceRegion":"guangdong","featureType":"infrastructure","railClass":"national","mode":"rail","name":"益湛线","ref":"0072","operator":"中国铁路广州局集团有限公司","usage":"main","bridge":"yes","status":"operational","color":"#E54848","dataOrigin":"datum-2026-08-01","sourceKey":"way:513136897"}},{"type":"Feature","geometry":{"type":"LineString","coordinates":[[110.9809202,22.3567984],[110.9805071,22.3560443]]},"properties":{"key":"way:513136899@overview:110_22","osmType":"way","osmId":513136899,"sourceRegion":"guangdong","featureType":"infrastructure","railClass":"national","mode":"rail","name":"益湛线","ref":"0072","operator":"中国铁路广州局集团有限公司","usage":"main","status":"operational","color":"#E54848","dataOrigin":"datum-2026-08-01","sourceKey":"way:513136899"}},{"type":"Feature","geometry":{"type":"LineString","coordinates":[[110.9805071,22.3560443],[110.9798022,22.3547223]]},"properties":{"key":"way:513136901@overview:110_22","osmType":"way","osmId":513136901,"sourceRegion":"guangdong","featureType":"infrastructure","railClass":"national","mode":"rail","name":"益湛线","ref":"0072","operator":"中国铁路广州局集团有限公司","usage":"main","bridge":"yes","status":"operational","color":"#E54848","dataOrigin":"datum-2026-08-01","sourceKey":"way:513136901"}},{"type":"Feature","geometry":{"type":"LineString","coordinates":[[110.9704703,22.3455658],[110.9690541,22.3427873]]},"properties":{"key":"way:513136903@overview:110_22","osmType":"way","osmId":513136903,"sourceRegion":"guangdong","featureType":"infrastructure","railClass":"national","mode":"rail","name":"岑茂铁路","operator":"中国铁路广州局集团有限公司","usage":"main","bridge":"yes","status":"operational","color":"#E54848","dataOrigin":"datum-2026-08-01","sourceKey":"way:513136903"}},{"type":"Feature","geometry":{"type":"LineString","coordinates":[[110.9746149,22.4241758],[110.9773407,22.4225172]]},"properties":{"key":"way:513136904@overview:110_22","osmType":"way","osmId":513136904,"sourceRegion":"guangdong","featureType":"infrastructure","railClass":"national","mode":"rail","name":"益湛线","ref":"0072","operator":"中国铁路广州局集团有限公司","usage":"main","bridge":"yes","status":"operational","color":"#E54848","dataOrigin":"datum-2026-08-01","sourceKey":"way:513136904"}},{"type":"Feature","geometry":{"type":"LineString","coordinates":[[110.9744086,22.4243036],[110.9746149,22.4241758]]},"properties":{"key":"way:513136905@overview:110_22","osmType":"way","osmId":513136905,"sourceRegion":"guangdong","featureType":"infrastructure","railClass":"national","mode":"rail","name":"益湛线","ref":"0072","operator":"中国铁路广州局集团有限公司","usage":"main","status":"operational","color":"#E54848","dataOrigin":"datum-2026-08-01","sourceKey":"way:513136905"}},{"type":"Feature","geometry":{"type":"LineString","coordinates":[[110.9731579,22.4249733],[110.9744086,22.4243036]]},"properties":{"key":"way:513136906@overview:110_22","osmType":"way","osmId":513136906,"sourceRegion":"guangdong","featureType":"infrastructure","railClass":"national","mode":"rail","name":"益湛线","ref":"0072","operator":"中国铁路广州局集团有限公司","usage":"main","tunnel":"yes","status":"operational","color":"#E54848","dataOrigin":"datum-2026-08-01","sourceKey":"way:513136906"}},{"type":"Feature","geometry":{"type":"LineString","coordinates":[[110.9694611,22.428637],[110.9699205,22.4280501]]},"properties":{"key":"way:513136907@overview:110_22","osmType":"way","osmId":513136907,"sourceRegion":"guangdong","featureType":"infrastructure","railClass":"national","mode":"rail","name":"益湛线","ref":"0072","operator":"中国铁路广州局集团有限公司","usage":"main","status":"operational","color":"#E54848","dataOrigin":"datum-2026-08-01","sourceKey":"way:513136907"}},{"type":"Feature","geometry":{"type":"LineString","coordinates":[[110.9711819,22.4265697],[110.9717594,22.4260526]]},"properties":{"key":"way:513136908@overview:110_22","osmType":"way","osmId":513136908,"sourceRegion":"guangdong","featureType":"infrastructure","railClass":"national","mode":"rail","name":"益湛线","ref":"0072","operator":"中国铁路广州局集团有限公司","usage":"main","status":"operational","color":"#E54848","dataOrigin":"datum-2026-08-01","sourceKey":"way:513136908"}},{"type":"Feature","geometry":{"type":"LineString","coordinates":[[110.9717594,22.4260526],[110.9729717,22.4251201]]},"properties":{"key":"way:513136909@overview:110_22","osmType":"way","osmId":513136909,"sourceRegion":"guangdong","featureType":"infrastructure","railClass":"national","mode":"rail","name":"益湛线","ref":"0072","operator":"中国铁路广州局集团有限公司","usage":"main","bridge":"yes","status":"operational","color":"#E54848","dataOrigin":"datum-2026-08-01","sourceKey":"way:513136909"}},{"type":"Feature","geometry":{"type":"LineString","coordinates":[[110.9729717,22.4251201],[110.9731579,22.4249733]]},"properties":{"key":"way:513136910@overview:110_22","osmType":"way","osmId":513136910,"sourceRegion":"guangdong","featureType":"infrastructure","railClass":"national","mode":"rail","name":"益湛线","ref":"0072","operator":"中国铁路广州局集团有限公司","usage":"main","status":"operational","color":"#E54848","dataOrigin":"datum-2026-08-01","sourceKey":"way:513136910"}},{"type":"Feature","geometry":{"type":"LineString","coordinates":[[110.9699205,22.4280501],[110.9711819,22.4265697]]},"properties":{"key":"way:513136911@overview:110_22","osmType":"way","osmId":513136911,"sourceRegion":"guangdong","featureType":"infrastructure","railClass":"national","mode":"rail","name":"益湛线","ref":"0072","operator":"中国铁路广州局集团有限公司","usage":"main","bridge":"yes","status":"operational","color":"#E54848","dataOrigin":"datum-2026-08-01","sourceKey":"way:513136911"}},{"type":"Feature","geometry":{"type":"LineString","coordinates":[[110.9678825,22.4342643],[110.9678979,22.433772]]},"properties":{"key":"way:513136912@overview:110_22","osmType":"way","osmId":513136912,"sourceRegion":"guangdong","featureType":"infrastructure","railClass":"national","mode":"rail","name":"益湛线","ref":"0072","operator":"中国铁路广州局集团有限公司","usage":"main","status":"operational","color":"#E54848","dataOrigin":"datum-2026-08-01","sourceKey":"way:513136912"}},{"type":"Feature","geometry":{"type":"LineString","coordinates":[[110.9679891,22.4354267],[110.9678825,22.4342643]]},"properties":{"key":"way:513136913@overview:110_22","osmType":"way","osmId":513136913,"sourceRegion":"guangdong","featureType":"infrastructure","railClass":"national","mode":"rail","name":"益湛线","ref":"0072","operator":"中国铁路广州局集团有限公司","usage":"main","bridge":"yes","status":"operational","color":"#E54848","dataOrigin":"datum-2026-08-01","sourceKey":"way:513136913"}},{"type":"Feature","geometry":{"type":"LineString","coordinates":[[110.9680923,22.4320388],[110.9682887,22.431341]]},"properties":{"key":"way:513136914@overview:110_22","osmType":"way","osmId":513136914,"sourceRegion":"guangdong","featureType":"infrastructure","railClass":"national","mode":"rail","name":"益湛线","ref":"0072","operator":"中国铁路广州局集团有限公司","usage":"main","status":"operational","color":"#E54848","dataOrigin":"datum-2026-08-01","sourceKey":"way:513136914"}},{"type":"Feature","geometry":{"type":"LineString","coordinates":[[110.9678979,22.433772],[110.9680923,22.4320388]]},"properties":{"key":"way:513136915@overview:110_22","osmType":"way","osmId":513136915,"sourceRegion":"guangdong","featureType":"infrastructure","railClass":"national","mode":"rail","name":"益湛线","ref":"0072","operator":"中国铁路广州局集团有限公司","usage":"main","bridge":"yes","status":"operational","color":"#E54848","dataOrigin":"datum-2026-08-01","sourceKey":"way:513136915"}},{"type":"Feature","geometry":{"type":"LineString","coordinates":[[110.9682887,22.431341],[110.9694611,22.428637]]},"properties":{"key":"way:513136916@overview:110_22","osmType":"way","osmId":513136916,"sourceRegion":"guangdong","featureType":"infrastructure","railClass":"national","mode":"rail","name":"益湛线","ref":"0072","operator":"中国铁路广州局集团有限公司","usage":"main","bridge":"yes","status":"operational","color":"#E54848","dataOrigin":"datum-2026-08-01","sourceKey":"way:513136916"}},{"type":"Feature","geometry":{"type":"LineString","coordinates":[[110.9680243,22.4356598],[110.9679891,22.4354267]]},"properties":{"key":"way:513136917@overview:110_22","osmType":"way","osmId":513136917,"sourceRegion":"guangdong","featureType":"infrastructure","railClass":"national","mode":"rail","name":"益湛线","ref":"0072","operator":"中国铁路广州局集团有限公司","usage":"main","status":"operational","color":"#E54848","dataOrigin":"datum-2026-08-01","sourceKey":"way:513136917"}},{"type":"Feature","geometry":{"type":"LineString","coordinates":[[110.9689263,22.438602],[110.9680243,22.4356598]]},"properties":{"key":"way:513136918@overview:110_22","osmType":"way","osmId":513136918,"sourceRegion":"guangdong","featureType":"infrastructure","railClass":"national","mode":"rail","name":"益湛线","ref":"0072","operator":"中国铁路广州局集团有限公司","usage":"main","bridge":"yes","status":"operational","color":"#E54848","dataOrigin":"datum-2026-08-01","sourceKey":"way:513136918"}},{"type":"Feature","geometry":{"type":"LineString","coordinates":[[110.9691284,22.4390165],[110.9689263,22.438602]]},"properties":{"key":"way:513136919@overview:110_22","osmType":"way","osmId":513136919,"sourceRegion":"guangdong","featureType":"infrastructure","railClass":"national","mode":"rail","name":"益湛线","ref":"0072","operator":"中国铁路广州局集团有限公司","usage":"main","status":"operational","color":"#E54848","dataOrigin":"datum-2026-08-01","sourceKey":"way:513136919"}},{"type":"Feature","geometry":{"type":"LineString","coordinates":[[110.9697634,22.4402001],[110.9696422,22.4399709]]},"properties":{"key":"way:513136920@overview:110_22","osmType":"way","osmId":513136920,"sourceRegion":"guangdong","featureType":"infrastructure","railClass":"national","mode":"rail","name":"益湛线","ref":"0072","operator":"中国铁路广州局集团有限公司","usage":"main","status":"operational","color":"#E54848","dataOrigin":"datum-2026-08-01","sourceKey":"way:513136920"}},{"type":"Feature","geometry":{"type":"LineString","coordinates":[[110.9713006,22.4430774],[110.9697634,22.4402001]]},"properties":{"key":"way:513136921@overview:110_22","osmType":"way","osmId":513136921,"sourceRegion":"guangdong","featureType":"infrastructure","railClass":"national","mode":"rail","name":"益湛线","ref":"0072","operator":"中国铁路广州局集团有限公司","usage":"main","bridge":"yes","status":"operational","color":"#E54848","dataOrigin":"datum-2026-08-01","sourceKey":"way:513136921"}},{"type":"Feature","geometry":{"type":"LineString","coordinates":[[110.9696422,22.4399709],[110.9691284,22.4390165]]},"properties":{"key":"way:513136922@overview:110_22","osmType":"way","osmId":513136922,"sourceRegion":"guangdong","featureType":"infrastructure","railClass":"national","mode":"rail","name":"益湛线","ref":"0072","operator":"中国铁路广州局集团有限公司","usage":"main","tunnel":"yes","status":"operational","color":"#E54848","dataOrigin":"datum-2026-08-01","sourceKey":"way:513136922"}},{"type":"Feature","geometry":{"type":"LineString","coordinates":[[110.9713801,22.4432578],[110.9713006,22.4430774]]},"properties":{"key":"way:513136923@overview:110_22","osmType":"way","osmId":513136923,"sourceRegion":"guangdong","featureType":"infrastructure","railClass":"national","mode":"rail","name":"益湛线","ref":"0072","operator":"中国铁路广州局集团有限公司","usage":"main","status":"operational","color":"#E54848","dataOrigin":"datum-2026-08-01","sourceKey":"way:513136923"}},{"type":"Feature","geometry":{"type":"LineString","coordinates":[[110.972746,22.4457713],[110.9713801,22.4432578]]},"properties":{"key":"way:513136924@overview:110_22","osmType":"way","osmId":513136924,"sourceRegion":"guangdong","featureType":"infrastructure","railClass":"national","mode":"rail","name":"益湛线","ref":"0072","operator":"中国铁路广州局集团有限公司","usage":"main","tunnel":"yes","status":"operational","color":"#E54848","dataOrigin":"datum-2026-08-01","sourceKey":"way:513136924"}},{"type":"Feature","geometry":{"type":"LineString","coordinates":[[110.9745675,22.4494832],[110.9728594,22.4459927]]},"properties":{"key":"way:513136925@overview:110_22","osmType":"way","osmId":513136925,"sourceRegion":"guangdong","featureType":"infrastructure","railClass":"national","mode":"rail","name":"益湛线","ref":"0072","operator":"中国铁路广州局集团有限公司","usage":"main","bridge":"yes","status":"operational","color":"#E54848","dataOrigin":"datum-2026-08-01","sourceKey":"way:513136925"}},{"type":"Feature","geometry":{"type":"LineString","coordinates":[[110.9728594,22.4459927],[110.972746,22.4457713]]},"properties":{"key":"way:513136926@overview:110_22","osmType":"way","osmId":513136926,"sourceRegion":"guangdong","featureType":"infrastructure","railClass":"national","mode":"rail","name":"益湛线","ref":"0072","operator":"中国铁路广州局集团有限公司","usage":"main","status":"operational","color":"#E54848","dataOrigin":"datum-2026-08-01","sourceKey":"way:513136926"}},{"type":"Feature","geometry":{"type":"LineString","coordinates":[[110.9746329,22.4496757],[110.9745675,22.4494832]]},"properties":{"key":"way:513136927@overview:110_22","osmType":"way","osmId":513136927,"sourceRegion":"guangdong","featureType":"infrastructure","railClass":"national","mode":"rail","name":"益湛线","ref":"0072","operator":"中国铁路广州局集团有限公司","usage":"main","status":"operational","color":"#E54848","dataOrigin":"datum-2026-08-01","sourceKey":"way:513136927"}},{"type":"Feature","geometry":{"type":"LineString","coordinates":[[110.9751294,22.4531213],[110.9746329,22.4496757]]},"properties":{"key":"way:513136928@overview:110_22","osmType":"way","osmId":513136928,"sourceRegion":"guangdong","featureType":"infrastructure","railClass":"national","mode":"rail","name":"益湛线","ref":"0072","operator":"中国铁路广州局集团有限公司","usage":"main","tunnel":"yes","status":"operational","color":"#E54848","dataOrigin":"datum-2026-08-01","sourceKey":"way:513136928"}},{"type":"Feature","geometry":{"type":"LineString","coordinates":[[110.9745326,22.4566351],[110.9751294,22.4531213]]},"properties":{"key":"way:513136930@overview:110_22","osmType":"way","osmId":513136930,"sourceRegion":"guangdong","featureType":"infrastructure","railClass":"national","mode":"rail","name":"益湛线","ref":"0072","operator":"中国铁路广州局集团有限公司","usage":"main","bridge":"yes","status":"operational","color":"#E54848","dataOrigin":"datum-2026-08-01","sourceKey":"way:513136930"}},{"type":"Feature","geometry":{"type":"LineString","coordinates":[[110.9741246,22.4584324],[110.9741678,22.4583064]]},"properties":{"key":"way:513136931@overview:110_22","osmType":"way","osmId":513136931,"sourceRegion":"guangdong","featureType":"infrastructure","railClass":"national","mode":"rail","name":"益湛线","ref":"0072","operator":"中国铁路广州局集团有限公司","usage":"main","status":"operational","color":"#E54848","dataOrigin":"datum-2026-08-01","sourceKey":"way:513136931"}},{"type":"Feature","geometry":{"type":"LineString","coordinates":[[110.9741678,22.4583064],[110.9743691,22.4574797]]},"properties":{"key":"way:513136932@overview:110_22","osmType":"way","osmId":513136932,"sourceRegion":"guangdong","featureType":"infrastructure","railClass":"national","mode":"rail","name":"益湛线","ref":"0072","operator":"中国铁路广州局集团有限公司","usage":"main","bridge":"yes","status":"operational","color":"#E54848","dataOrigin":"datum-2026-08-01","sourceKey":"way:513136932"}},{"type":"Feature","geometry":{"type":"LineString","coordinates":[[110.9743691,22.4574797],[110.9745326,22.4566351]]},"properties":{"key":"way:513136933@overview:110_22","osmType":"way","osmId":513136933,"sourceRegion":"guangdong","featureType":"infrastructure","railClass":"national","mode":"rail","name":"益湛线","ref":"0072","operator":"中国铁路广州局集团有限公司","usage":"main","status":"operational","color":"#E54848","dataOrigin":"datum-2026-08-01","sourceKey":"way:513136933"}},{"type":"Feature","geometry":{"type":"LineString","coordinates":[[110.9737184,22.4601089],[110.9741246,22.4584324]]},"properties":{"key":"way:513136934@overview:110_22","osmType":"way","osmId":513136934,"sourceRegion":"guangdong","featureType":"infrastructure","railClass":"national","mode":"rail","name":"益湛线","ref":"0072","operator":"中国铁路广州局集团有限公司","usage":"main","tunnel":"yes","status":"operational","color":"#E54848","dataOrigin":"datum-2026-08-01","sourceKey":"way:513136934"}},{"type":"Feature","geometry":{"type":"LineString","coordinates":[[110.9736892,22.4603411],[110.9737184,22.4601089]]},"properties":{"key":"way:513136935@overview:110_22","osmType":"way","osmId":513136935,"sourceRegion":"guangdong","featureType":"infrastructure","railClass":"national","mode":"rail","name":"益湛线","ref":"0072","operator":"中国铁路广州局集团有限公司","usage":"main","status":"operational","color":"#E54848","dataOrigin":"datum-2026-08-01","sourceKey":"way:513136935"}},{"type":"Feature","geometry":{"type":"LineString","coordinates":[[110.9658482,22.476218],[110.9714735,22.4666568]]},"properties":{"key":"way:513136936@overview:110_22","osmType":"way","osmId":513136936,"sourceRegion":"guangdong","featureType":"infrastructure","railClass":"national","mode":"rail","name":"益湛线","ref":"0072","operator":"中国铁路广州局集团有限公司","usage":"main","status":"operational","color":"#E54848","dataOrigin":"datum-2026-08-01","sourceKey":"way:513136936"}},{"type":"Feature","geometry":{"type":"LineString","coordinates":[[110.9630287,22.4875873],[110.9630436,22.4868447]]},"properties":{"key":"way:513136937@overview:110_22","osmType":"way","osmId":513136937,"sourceRegion":"guangdong","featureType":"infrastructure","railClass":"national","mode":"rail","name":"益湛线","ref":"0072","operator":"中国铁路广州局集团有限公司","usage":"main","status":"operational","color":"#E54848","dataOrigin":"datum-2026-08-01","sourceKey":"way:513136937"}},{"type":"Feature","geometry":{"type":"LineString","coordinates":[[110.9630436,22.4868447],[110.9629822,22.4822811]]},"properties":{"key":"way:513136938@overview:110_22","osmType":"way","osmId":513136938,"sourceRegion":"guangdong","featureType":"infrastructure","railClass":"national","mode":"rail","name":"益湛线","ref":"0072","operator":"中国铁路广州局集团有限公司","usage":"main","bridge":"yes","status":"operational","color":"#E54848","dataOrigin":"datum-2026-08-01","sourceKey":"way:513136938"}},{"type":"Feature","geometry":{"type":"LineString","coordinates":[[110.9629822,22.4822811],[110.9658482,22.476218]]},"properties":{"key":"way:513136939@overview:110_22","osmType":"way","osmId":513136939,"sourceRegion":"guangdong","featureType":"infrastructure","railClass":"national","mode":"rail","name":"益湛线","ref":"0072","operator":"中国铁路广州局集团有限公司","usage":"main","status":"operational","color":"#E54848","dataOrigin":"datum-2026-08-01","sourceKey":"way:513136939"}},{"type":"Feature","geometry":{"type":"LineString","coordinates":[[110.9629055,22.4885958],[110.9630287,22.4875873]]},"properties":{"key":"way:513136940@overview:110_22","osmType":"way","osmId":513136940,"sourceRegion":"guangdong","featureType":"infrastructure","railClass":"national","mode":"rail","name":"益湛线","ref":"0072","operator":"中国铁路广州局集团有限公司","usage":"main","bridge":"yes","status":"operational","color":"#E54848","dataOrigin":"datum-2026-08-01","sourceKey":"way:513136940"}},{"type":"Feature","geometry":{"type":"LineString","coordinates":[[110.9777284,22.4222856],[110.9825177,22.4163428]]},"properties":{"key":"way:513136941@overview:110_22","osmType":"way","osmId":513136941,"sourceRegion":"guangdong","featureType":"infrastructure","railClass":"national","mode":"rail","name":"益湛线","ref":"0072","operator":"中国铁路广州局集团有限公司","usage":"main","bridge":"yes","status":"operational","color":"#E54848","dataOrigin":"datum-2026-08-01","sourceKey":"way:513136941"}},{"type":"Feature","geometry":{"type":"LineString","coordinates":[[110.9614209,22.4924407],[110.9629055,22.4885958]]},"properties":{"key":"way:582564566@overview:110_22","osmType":"way","osmId":582564566,"sourceRegion":"guangdong","featureType":"infrastructure","railClass":"national","mode":"rail","name":"益湛线","ref":"0072","operator":"中国铁路广州局集团有限公司","usage":"main","status":"operational","color":"#E54848","dataOrigin":"datum-2026-08-01","sourceKey":"way:582564566"}},{"type":"Feature","geometry":{"type":"LineString","coordinates":[[110.9752314,22.6555689],[110.9770417,22.6477545]]},"properties":{"key":"way:628130106@overview:110_22","osmType":"way","osmId":628130106,"sourceRegion":"guangdong","featureType":"infrastructure","railClass":"national","mode":"rail","name":"益湛线","ref":"0072","operator":"中国铁路广州局集团有限公司","usage":"main","bridge":"yes","status":"operational","color":"#E54848","dataOrigin":"datum-2026-08-01","sourceKey":"way:628130106"}},{"type":"Feature","geometry":{"type":"LineString","coordinates":[[110.9784951,22.6448846],[110.9794864,22.6385937]]},"properties":{"key":"way:628130116@overview:110_22","osmType":"way","osmId":628130116,"sourceRegion":"guangdong","featureType":"infrastructure","railClass":"national","mode":"rail","name":"益湛线","ref":"0072","operator":"中国铁路广州局集团有限公司","usage":"main","tunnel":"yes","status":"operational","color":"#E54848","dataOrigin":"datum-2026-08-01","sourceKey":"way:628130116"}},{"type":"Feature","geometry":{"type":"LineString","coordinates":[[110.9773948,22.6317703],[110.9730941,22.6181943]]},"properties":{"key":"way:628130117@overview:110_22","osmType":"way","osmId":628130117,"sourceRegion":"guangdong","featureType":"infrastructure","railClass":"national","mode":"rail","name":"益湛线","ref":"0072","operator":"中国铁路广州局集团有限公司","usage":"main","status":"operational","color":"#E54848","dataOrigin":"datum-2026-08-01","sourceKey":"way:628130117"}},{"type":"Feature","geometry":{"type":"LineString","coordinates":[[110.9732146,22.6703606],[110.9752314,22.6555689]]},"properties":{"key":"way:846421445@overview:110_22","osmType":"way","osmId":846421445,"sourceRegion":"guangdong","featureType":"infrastructure","railClass":"national","mode":"rail","name":"益湛线","ref":"0072","operator":"中国铁路广州局集团有限公司","usage":"main","status":"operational","color":"#E54848","dataOrigin":"datum-2026-08-01","sourceKey":"way:846421445"}},{"type":"Feature","geometry":{"type":"LineString","coordinates":[[110.9770417,22.6477545],[110.9784951,22.6448846]]},"properties":{"key":"way:846421446@overview:110_22","osmType":"way","osmId":846421446,"sourceRegion":"guangdong","featureType":"infrastructure","railClass":"national","mode":"rail","name":"益湛线","ref":"0072","operator":"中国铁路广州局集团有限公司","usage":"main","status":"operational","color":"#E54848","dataOrigin":"datum-2026-08-01","sourceKey":"way:846421446"}},{"type":"Feature","geometry":{"type":"LineString","coordinates":[[110.9561571,22.5010738],[110.9569226,22.4987051]]},"properties":{"key":"way:911798410@overview:110_22","osmType":"way","osmId":911798410,"sourceRegion":"guangdong","featureType":"infrastructure","railClass":"national","mode":"rail","name":"益湛线","ref":"0072","operator":"中国铁路广州局集团有限公司","usage":"main","tunnel":"yes","status":"operational","color":"#E54848","dataOrigin":"datum-2026-08-01","sourceKey":"way:911798410"}},{"type":"Feature","geometry":{"type":"LineString","coordinates":[[110.9559667,22.502473],[110.9561571,22.5010738]]},"properties":{"key":"way:911798411@overview:110_22","osmType":"way","osmId":911798411,"sourceRegion":"guangdong","featureType":"infrastructure","railClass":"national","mode":"rail","name":"益湛线","ref":"0072","operator":"中国铁路广州局集团有限公司","usage":"main","status":"operational","color":"#E54848","dataOrigin":"datum-2026-08-01","sourceKey":"way:911798411"}},{"type":"Feature","geometry":{"type":"LineString","coordinates":[[110.9574596,22.4976616],[110.958245,22.4965315]]},"properties":{"key":"way:911798412@overview:110_22","osmType":"way","osmId":911798412,"sourceRegion":"guangdong","featureType":"infrastructure","railClass":"national","mode":"rail","name":"益湛线","ref":"0072","operator":"中国铁路广州局集团有限公司","usage":"main","tunnel":"yes","status":"operational","color":"#E54848","dataOrigin":"datum-2026-08-01","sourceKey":"way:911798412"}},{"type":"Feature","geometry":{"type":"LineString","coordinates":[[110.9569226,22.4987051],[110.9574596,22.4976616]]},"properties":{"key":"way:911798413@overview:110_22","osmType":"way","osmId":911798413,"sourceRegion":"guangdong","featureType":"infrastructure","railClass":"national","mode":"rail","name":"益湛线","ref":"0072","operator":"中国铁路广州局集团有限公司","usage":"main","status":"operational","color":"#E54848","dataOrigin":"datum-2026-08-01","sourceKey":"way:911798413"}},{"type":"Feature","geometry":{"type":"LineString","coordinates":[[110.958245,22.4965315],[110.9596383,22.4947849]]},"properties":{"key":"way:911798414@overview:110_22","osmType":"way","osmId":911798414,"sourceRegion":"guangdong","featureType":"infrastructure","railClass":"national","mode":"rail","name":"益湛线","ref":"0072","operator":"中国铁路广州局集团有限公司","usage":"main","status":"operational","color":"#E54848","dataOrigin":"datum-2026-08-01","sourceKey":"way:911798414"}},{"type":"Feature","geometry":{"type":"LineString","coordinates":[[110.9596383,22.4947849],[110.9602135,22.4940638]]},"properties":{"key":"way:911798415@overview:110_22","osmType":"way","osmId":911798415,"sourceRegion":"guangdong","featureType":"infrastructure","railClass":"national","mode":"rail","name":"益湛线","ref":"0072","operator":"中国铁路广州局集团有限公司","usage":"main","tunnel":"yes","status":"operational","color":"#E54848","dataOrigin":"datum-2026-08-01","sourceKey":"way:911798415"}},{"type":"Feature","geometry":{"type":"LineString","coordinates":[[110.9602135,22.4940638],[110.9608343,22.4932785]]},"properties":{"key":"way:911798416@overview:110_22","osmType":"way","osmId":911798416,"sourceRegion":"guangdong","featureType":"infrastructure","railClass":"national","mode":"rail","name":"益湛线","ref":"0072","operator":"中国铁路广州局集团有限公司","usage":"main","status":"operational","color":"#E54848","dataOrigin":"datum-2026-08-01","sourceKey":"way:911798416"}},{"type":"Feature","geometry":{"type":"LineString","coordinates":[[110.9608343,22.4932785],[110.9614209,22.4924407]]},"properties":{"key":"way:911798417@overview:110_22","osmType":"way","osmId":911798417,"sourceRegion":"guangdong","featureType":"infrastructure","railClass":"national","mode":"rail","name":"益湛线","ref":"0072","operator":"中国铁路广州局集团有限公司","usage":"main","bridge":"yes","status":"operational","color":"#E54848","dataOrigin":"datum-2026-08-01","sourceKey":"way:911798417"}},{"type":"Feature","geometry":{"type":"LineString","coordinates":[[110.9559086,22.5041507],[110.9559667,22.502473]]},"properties":{"key":"way:911798418@overview:110_22","osmType":"way","osmId":911798418,"sourceRegion":"guangdong","featureType":"infrastructure","railClass":"national","mode":"rail","name":"益湛线","ref":"0072","operator":"中国铁路广州局集团有限公司","usage":"main","tunnel":"yes","status":"operational","color":"#E54848","dataOrigin":"datum-2026-08-01","sourceKey":"way:911798418"}},{"type":"Feature","geometry":{"type":"LineString","coordinates":[[110.9558382,22.5053289],[110.9559086,22.5041507]]},"properties":{"key":"way:911798419@overview:110_22","osmType":"way","osmId":911798419,"sourceRegion":"guangdong","featureType":"infrastructure","railClass":"national","mode":"rail","name":"益湛线","ref":"0072","operator":"中国铁路广州局集团有限公司","usage":"main","status":"operational","color":"#E54848","dataOrigin":"datum-2026-08-01","sourceKey":"way:911798419"}},{"type":"Feature","geometry":{"type":"LineString","coordinates":[[110.9555737,22.5078784],[110.9558382,22.5053289]]},"properties":{"key":"way:911798420@overview:110_22","osmType":"way","osmId":911798420,"sourceRegion":"guangdong","featureType":"infrastructure","railClass":"national","mode":"rail","name":"益湛线","ref":"0072","operator":"中国铁路广州局集团有限公司","usage":"main","tunnel":"yes","status":"operational","color":"#E54848","dataOrigin":"datum-2026-08-01","sourceKey":"way:911798420"}},{"type":"Feature","geometry":{"type":"LineString","coordinates":[[110.9552267,22.5098567],[110.9555737,22.5078784]]},"properties":{"key":"way:911798421@overview:110_22","osmType":"way","osmId":911798421,"sourceRegion":"guangdong","featureType":"infrastructure","railClass":"national","mode":"rail","name":"益湛线","ref":"0072","operator":"中国铁路广州局集团有限公司","usage":"main","bridge":"yes","status":"operational","color":"#E54848","dataOrigin":"datum-2026-08-01","sourceKey":"way:911798421"}},{"type":"Feature","geometry":{"type":"LineString","coordinates":[[110.954998,22.5113215],[110.9552267,22.5098567]]},"properties":{"key":"way:911798422@overview:110_22","osmType":"way","osmId":911798422,"sourceRegion":"guangdong","featureType":"infrastructure","railClass":"national","mode":"rail","name":"益湛线","ref":"0072","operator":"中国铁路广州局集团有限公司","usage":"main","tunnel":"yes","status":"operational","color":"#E54848","dataOrigin":"datum-2026-08-01","sourceKey":"way:911798422"}},{"type":"Feature","geometry":{"type":"LineString","coordinates":[[110.9543055,22.5151708],[110.954998,22.5113215]]},"properties":{"key":"way:911798423@overview:110_22","osmType":"way","osmId":911798423,"sourceRegion":"guangdong","featureType":"infrastructure","railClass":"national","mode":"rail","name":"益湛线","ref":"0072","operator":"中国铁路广州局集团有限公司","usage":"main","bridge":"yes","status":"operational","color":"#E54848","dataOrigin":"datum-2026-08-01","sourceKey":"way:911798423"}},{"type":"Feature","geometry":{"type":"LineString","coordinates":[[110.9558635,22.5311391],[110.9529885,22.5245259],[110.9543055,22.5151708]]},"properties":{"key":"way:911798424@overview:110_22","osmType":"way","osmId":911798424,"sourceRegion":"guangdong","featureType":"infrastructure","railClass":"national","mode":"rail","name":"益湛线","ref":"0072","operator":"中国铁路广州局集团有限公司","usage":"main","status":"operational","color":"#E54848","dataOrigin":"datum-2026-08-01","sourceKey":"way:911798424"}},{"type":"Feature","geometry":{"type":"LineString","coordinates":[[110.9559868,22.5313258],[110.9558635,22.5311391]]},"properties":{"key":"way:911798425@overview:110_22","osmType":"way","osmId":911798425,"sourceRegion":"guangdong","featureType":"infrastructure","railClass":"national","mode":"rail","name":"益湛线","ref":"0072","operator":"中国铁路广州局集团有限公司","usage":"main","bridge":"yes","status":"operational","color":"#E54848","dataOrigin":"datum-2026-08-01","sourceKey":"way:911798425"}},{"type":"Feature","geometry":{"type":"LineString","coordinates":[[110.9592759,22.5405688],[110.9559868,22.5313258]]},"properties":{"key":"way:911798426@overview:110_22","osmType":"way","osmId":911798426,"sourceRegion":"guangdong","featureType":"infrastructure","railClass":"national","mode":"rail","name":"益湛线","ref":"0072","operator":"中国铁路广州局集团有限公司","usage":"main","status":"operational","color":"#E54848","dataOrigin":"datum-2026-08-01","sourceKey":"way:911798426"}},{"type":"Feature","geometry":{"type":"LineString","coordinates":[[110.9592116,22.5443287],[110.9592324,22.5424263]]},"properties":{"key":"way:911798427@overview:110_22","osmType":"way","osmId":911798427,"sourceRegion":"guangdong","featureType":"infrastructure","railClass":"national","mode":"rail","name":"益湛线","ref":"0072","operator":"中国铁路广州局集团有限公司","usage":"main","tunnel":"yes","status":"operational","color":"#E54848","dataOrigin":"datum-2026-08-01","sourceKey":"way:911798427"}},{"type":"Feature","geometry":{"type":"LineString","coordinates":[[110.9592491,22.5417312],[110.9592759,22.5405688]]},"properties":{"key":"way:911798428@overview:110_22","osmType":"way","osmId":911798428,"sourceRegion":"guangdong","featureType":"infrastructure","railClass":"national","mode":"rail","name":"益湛线","ref":"0072","operator":"中国铁路广州局集团有限公司","usage":"main","bridge":"yes","status":"operational","color":"#E54848","dataOrigin":"datum-2026-08-01","sourceKey":"way:911798428"}},{"type":"Feature","geometry":{"type":"LineString","coordinates":[[110.9592324,22.5424263],[110.9592491,22.5417312]]},"properties":{"key":"way:911798429@overview:110_22","osmType":"way","osmId":911798429,"sourceRegion":"guangdong","featureType":"infrastructure","railClass":"national","mode":"rail","name":"益湛线","ref":"0072","operator":"中国铁路广州局集团有限公司","usage":"main","status":"operational","color":"#E54848","dataOrigin":"datum-2026-08-01","sourceKey":"way:911798429"}},{"type":"Feature","geometry":{"type":"LineString","coordinates":[[110.9592478,22.5500738],[110.9592116,22.5443287]]},"properties":{"key":"way:911798430@overview:110_22","osmType":"way","osmId":911798430,"sourceRegion":"guangdong","featureType":"infrastructure","railClass":"national","mode":"rail","name":"益湛线","ref":"0072","operator":"中国铁路广州局集团有限公司","usage":"main","status":"operational","color":"#E54848","dataOrigin":"datum-2026-08-01","sourceKey":"way:911798430"}},{"type":"Feature","geometry":{"type":"LineString","coordinates":[[110.959461,22.5524209],[110.9592478,22.5500738]]},"properties":{"key":"way:911798431@overview:110_22","osmType":"way","osmId":911798431,"sourceRegion":"guangdong","featureType":"infrastructure","railClass":"national","mode":"rail","name":"益湛线","ref":"0072","operator":"中国铁路广州局集团有限公司","usage":"main","bridge":"yes","status":"operational","color":"#E54848","dataOrigin":"datum-2026-08-01","sourceKey":"way:911798431"}},{"type":"Feature","geometry":{"type":"LineString","coordinates":[[110.9600529,22.5594222],[110.959461,22.5524209]]},"properties":{"key":"way:911798432@overview:110_22","osmType":"way","osmId":911798432,"sourceRegion":"guangdong","featureType":"infrastructure","railClass":"national","mode":"rail","name":"益湛线","ref":"0072","operator":"中国铁路广州局集团有限公司","usage":"main","status":"operational","color":"#E54848","dataOrigin":"datum-2026-08-01","sourceKey":"way:911798432"}},{"type":"Feature","geometry":{"type":"LineString","coordinates":[[110.9604566,22.5632917],[110.9600529,22.5594222]]},"properties":{"key":"way:911798433@overview:110_22","osmType":"way","osmId":911798433,"sourceRegion":"guangdong","featureType":"infrastructure","railClass":"national","mode":"rail","name":"益湛线","ref":"0072","operator":"中国铁路广州局集团有限公司","usage":"main","bridge":"yes","status":"operational","color":"#E54848","dataOrigin":"datum-2026-08-01","sourceKey":"way:911798433"}},{"type":"Feature","geometry":{"type":"LineString","coordinates":[[110.962328,22.5676569],[110.9604566,22.5632917]]},"properties":{"key":"way:911798434@overview:110_22","osmType":"way","osmId":911798434,"sourceRegion":"guangdong","featureType":"infrastructure","railClass":"national","mode":"rail","name":"益湛线","ref":"0072","operator":"中国铁路广州局集团有限公司","usage":"main","status":"operational","color":"#E54848","dataOrigin":"datum-2026-08-01","sourceKey":"way:911798434"}},{"type":"Feature","geometry":{"type":"LineString","coordinates":[[110.9649868,22.5724057],[110.962328,22.5676569]]},"properties":{"key":"way:911798435@overview:110_22","osmType":"way","osmId":911798435,"sourceRegion":"guangdong","featureType":"infrastructure","railClass":"national","mode":"rail","name":"益湛线","ref":"0072","operator":"中国铁路广州局集团有限公司","usage":"main","tunnel":"yes","status":"operational","color":"#E54848","dataOrigin":"datum-2026-08-01","sourceKey":"way:911798435"}},{"type":"Feature","geometry":{"type":"LineString","coordinates":[[110.965723,22.5737076],[110.9649868,22.5724057]]},"properties":{"key":"way:911798436@overview:110_22","osmType":"way","osmId":911798436,"sourceRegion":"guangdong","featureType":"infrastructure","railClass":"national","mode":"rail","name":"益湛线","ref":"0072","operator":"中国铁路广州局集团有限公司","usage":"main","status":"operational","color":"#E54848","dataOrigin":"datum-2026-08-01","sourceKey":"way:911798436"}},{"type":"Feature","geometry":{"type":"LineString","coordinates":[[110.9675228,22.5782301],[110.965723,22.5737076]]},"properties":{"key":"way:911798437@overview:110_22","osmType":"way","osmId":911798437,"sourceRegion":"guangdong","featureType":"infrastructure","railClass":"national","mode":"rail","name":"益湛线","ref":"0072","operator":"中国铁路广州局集团有限公司","usage":"main","tunnel":"yes","status":"operational","color":"#E54848","dataOrigin":"datum-2026-08-01","sourceKey":"way:911798437"}},{"type":"Feature","geometry":{"type":"LineString","coordinates":[[110.9677893,22.5803856],[110.9675228,22.5782301]]},"properties":{"key":"way:911798438@overview:110_22","osmType":"way","osmId":911798438,"sourceRegion":"guangdong","featureType":"infrastructure","railClass":"national","mode":"rail","name":"益湛线","ref":"0072","operator":"中国铁路广州局集团有限公司","usage":"main","status":"operational","color":"#E54848","dataOrigin":"datum-2026-08-01","sourceKey":"way:911798438"}},{"type":"Feature","geometry":{"type":"LineString","coordinates":[[110.9658325,22.588492],[110.9677893,22.5803856]]},"properties":{"key":"way:911798439@overview:110_22","osmType":"way","osmId":911798439,"sourceRegion":"guangdong","featureType":"infrastructure","railClass":"national","mode":"rail","name":"益湛线","ref":"0072","operator":"中国铁路广州局集团有限公司","usage":"main","tunnel":"yes","status":"operational","color":"#E54848","dataOrigin":"datum-2026-08-01","sourceKey":"way:911798439"}},{"type":"Feature","geometry":{"type":"LineString","coordinates":[[110.9651073,22.5896926],[110.9658325,22.588492]]},"properties":{"key":"way:911798440@overview:110_22","osmType":"way","osmId":911798440,"sourceRegion":"guangdong","featureType":"infrastructure","railClass":"national","mode":"rail","name":"益湛线","ref":"0072","operator":"中国铁路广州局集团有限公司","usage":"main","bridge":"yes","status":"operational","color":"#E54848","dataOrigin":"datum-2026-08-01","sourceKey":"way:911798440"}},{"type":"Feature","geometry":{"type":"LineString","coordinates":[[110.9636306,22.5922613],[110.9651073,22.5896926]]},"properties":{"key":"way:911798441@overview:110_22","osmType":"way","osmId":911798441,"sourceRegion":"guangdong","featureType":"infrastructure","railClass":"national","mode":"rail","name":"益湛线","ref":"0072","operator":"中国铁路广州局集团有限公司","usage":"main","status":"operational","color":"#E54848","dataOrigin":"datum-2026-08-01","sourceKey":"way:911798441"}},{"type":"Feature","geometry":{"type":"LineString","coordinates":[[110.9635728,22.5923775],[110.9636306,22.5922613]]},"properties":{"key":"way:911798442@overview:110_22","osmType":"way","osmId":911798442,"sourceRegion":"guangdong","featureType":"infrastructure","railClass":"national","mode":"rail","name":"益湛线","ref":"0072","operator":"中国铁路广州局集团有限公司","usage":"main","bridge":"yes","status":"operational","color":"#E54848","dataOrigin":"datum-2026-08-01","sourceKey":"way:911798442"}},{"type":"Feature","geometry":{"type":"LineString","coordinates":[[110.9628309,22.5949373],[110.9635728,22.5923775]]},"properties":{"key":"way:911798443@overview:110_22","osmType":"way","osmId":911798443,"sourceRegion":"guangdong","featureType":"infrastructure","railClass":"national","mode":"rail","name":"益湛线","ref":"0072","operator":"中国铁路广州局集团有限公司","usage":"main","status":"operational","color":"#E54848","dataOrigin":"datum-2026-08-01","sourceKey":"way:911798443"}},{"type":"Feature","geometry":{"type":"LineString","coordinates":[[110.9627526,22.596782],[110.9628309,22.5949373]]},"properties":{"key":"way:911798444@overview:110_22","osmType":"way","osmId":911798444,"sourceRegion":"guangdong","featureType":"infrastructure","railClass":"national","mode":"rail","name":"益湛线","ref":"0072","operator":"中国铁路广州局集团有限公司","usage":"main","bridge":"yes","status":"operational","color":"#E54848","dataOrigin":"datum-2026-08-01","sourceKey":"way:911798444"}},{"type":"Feature","geometry":{"type":"LineString","coordinates":[[110.9630488,22.5989952],[110.9627526,22.596782]]},"properties":{"key":"way:911798445@overview:110_22","osmType":"way","osmId":911798445,"sourceRegion":"guangdong","featureType":"infrastructure","railClass":"national","mode":"rail","name":"益湛线","ref":"0072","operator":"中国铁路广州局集团有限公司","usage":"main","status":"operational","color":"#E54848","dataOrigin":"datum-2026-08-01","sourceKey":"way:911798445"}},{"type":"Feature","geometry":{"type":"LineString","coordinates":[[110.9644549,22.6030522],[110.9630488,22.5989952]]},"properties":{"key":"way:911798446@overview:110_22","osmType":"way","osmId":911798446,"sourceRegion":"guangdong","featureType":"infrastructure","railClass":"national","mode":"rail","name":"益湛线","ref":"0072","operator":"中国铁路广州局集团有限公司","usage":"main","tunnel":"yes","status":"operational","color":"#E54848","dataOrigin":"datum-2026-08-01","sourceKey":"way:911798446"}},{"type":"Feature","geometry":{"type":"LineString","coordinates":[[110.9649492,22.6043764],[110.9644549,22.6030522]]},"properties":{"key":"way:911798447@overview:110_22","osmType":"way","osmId":911798447,"sourceRegion":"guangdong","featureType":"infrastructure","railClass":"national","mode":"rail","name":"益湛线","ref":"0072","operator":"中国铁路广州局集团有限公司","usage":"main","status":"operational","color":"#E54848","dataOrigin":"datum-2026-08-01","sourceKey":"way:911798447"}},{"type":"Feature","geometry":{"type":"LineString","coordinates":[[110.9667644,22.608646],[110.9649492,22.6043764]]},"properties":{"key":"way:911798448@overview:110_22","osmType":"way","osmId":911798448,"sourceRegion":"guangdong","featureType":"infrastructure","railClass":"national","mode":"rail","name":"益湛线","ref":"0072","operator":"中国铁路广州局集团有限公司","usage":"main","tunnel":"yes","status":"operational","color":"#E54848","dataOrigin":"datum-2026-08-01","sourceKey":"way:911798448"}},{"type":"Feature","geometry":{"type":"LineString","coordinates":[[110.9696882,22.6124837],[110.9681699,22.6105692]]},"properties":{"key":"way:911798449@overview:110_22","osmType":"way","osmId":911798449,"sourceRegion":"guangdong","featureType":"infrastructure","railClass":"national","mode":"rail","name":"益湛线","ref":"0072","operator":"中国铁路广州局集团有限公司","usage":"main","bridge":"yes","status":"operational","color":"#E54848","dataOrigin":"datum-2026-08-01","sourceKey":"way:911798449"}},{"type":"Feature","geometry":{"type":"LineString","coordinates":[[110.9681699,22.6105692],[110.9667644,22.608646]]},"properties":{"key":"way:911798450@overview:110_22","osmType":"way","osmId":911798450,"sourceRegion":"guangdong","featureType":"infrastructure","railClass":"national","mode":"rail","name":"益湛线","ref":"0072","operator":"中国铁路广州局集团有限公司","usage":"main","status":"operational","color":"#E54848","dataOrigin":"datum-2026-08-01","sourceKey":"way:911798450"}},{"type":"Feature","geometry":{"type":"LineString","coordinates":[[110.9720134,22.6156279],[110.9696882,22.6124837]]},"properties":{"key":"way:911798451@overview:110_22","osmType":"way","osmId":911798451,"sourceRegion":"guangdong","featureType":"infrastructure","railClass":"national","mode":"rail","name":"益湛线","ref":"0072","operator":"中国铁路广州局集团有限公司","usage":"main","status":"operational","color":"#E54848","dataOrigin":"datum-2026-08-01","sourceKey":"way:911798451"}},{"type":"Feature","geometry":{"type":"LineString","coordinates":[[110.9730941,22.6181943],[110.9720134,22.6156279]]},"properties":{"key":"way:911798452@overview:110_22","osmType":"way","osmId":911798452,"sourceRegion":"guangdong","featureType":"infrastructure","railClass":"national","mode":"rail","name":"益湛线","ref":"0072","operator":"中国铁路广州局集团有限公司","usage":"main","bridge":"yes","status":"operational","color":"#E54848","dataOrigin":"datum-2026-08-01","sourceKey":"way:911798452"}},{"type":"Feature","geometry":{"type":"LineString","coordinates":[[110.9785221,22.6352285],[110.9773948,22.6317703]]},"properties":{"key":"way:911798454@overview:110_22","osmType":"way","osmId":911798454,"sourceRegion":"guangdong","featureType":"infrastructure","railClass":"national","mode":"rail","name":"益湛线","ref":"0072","operator":"中国铁路广州局集团有限公司","usage":"main","tunnel":"yes","status":"operational","color":"#E54848","dataOrigin":"datum-2026-08-01","sourceKey":"way:911798454"}},{"type":"Feature","geometry":{"type":"LineString","coordinates":[[110.9794864,22.6385937],[110.9785221,22.6352285]]},"properties":{"key":"way:911798455@overview:110_22","osmType":"way","osmId":911798455,"sourceRegion":"guangdong","featureType":"infrastructure","railClass":"national","mode":"rail","name":"益湛线","ref":"0072","operator":"中国铁路广州局集团有限公司","usage":"main","status":"operational","color":"#E54848","dataOrigin":"datum-2026-08-01","sourceKey":"way:911798455"}},{"type":"Feature","geometry":{"type":"LineString","coordinates":[[110.9714735,22.4666568],[110.9736892,22.4603411]]},"properties":{"key":"way:911798456@overview:110_22","osmType":"way","osmId":911798456,"sourceRegion":"guangdong","featureType":"infrastructure","railClass":"national","mode":"rail","name":"益湛线","ref":"0072","operator":"中国铁路广州局集团有限公司","usage":"main","bridge":"yes","status":"operational","color":"#E54848","dataOrigin":"datum-2026-08-01","sourceKey":"way:911798456"}},{"type":"Feature","geometry":{"type":"LineString","coordinates":[[110.9864348,22.3803373],[110.9865482,22.379875]]},"properties":{"key":"way:919134089@overview:110_22","osmType":"way","osmId":919134089,"sourceRegion":"guangdong","featureType":"infrastructure","railClass":"national","mode":"rail","name":"益湛线","ref":"0072","operator":"中国铁路广州局集团有限公司","usage":"main","bridge":"yes","status":"operational","color":"#E54848","dataOrigin":"datum-2026-08-01","sourceKey":"way:919134089"}},{"type":"Feature","geometry":{"type":"LineString","coordinates":[[110.8395706,22.0260027],[110.8441128,22.0173632]]},"properties":{"key":"way:943811175@overview:110_22","osmType":"way","osmId":943811175,"sourceRegion":"guangdong","featureType":"infrastructure","railClass":"national","mode":"rail","name":"益湛线","ref":"0072","operator":"中国铁路广州局集团有限公司","usage":"main","status":"operational","color":"#E54848","dataOrigin":"datum-2026-08-01","sourceKey":"way:943811175"}},{"type":"Feature","geometry":{"type":"LineString","coordinates":[[110.8395373,22.0261434],[110.8395706,22.0260027]]},"properties":{"key":"way:943811176@overview:110_22","osmType":"way","osmId":943811176,"sourceRegion":"guangdong","featureType":"infrastructure","railClass":"national","mode":"rail","name":"益湛线","ref":"0072","operator":"中国铁路广州局集团有限公司","usage":"main","bridge":"yes","status":"operational","color":"#E54848","dataOrigin":"datum-2026-08-01","sourceKey":"way:943811176"}},{"type":"Feature","geometry":{"type":"LineString","coordinates":[[110.8905827,22.194018],[110.8886629,22.1897197]]},"properties":{"key":"way:944101791@overview:110_22","osmType":"way","osmId":944101791,"sourceRegion":"guangdong","featureType":"infrastructure","railClass":"national","mode":"rail","name":"益湛线","ref":"0072","operator":"中国铁路广州局集团有限公司","usage":"main","status":"operational","color":"#E54848","dataOrigin":"datum-2026-08-01","sourceKey":"way:944101791"}},{"type":"Feature","geometry":{"type":"LineString","coordinates":[[110.8917069,22.1967428],[110.8905827,22.194018]]},"properties":{"key":"way:944101792@overview:110_22","osmType":"way","osmId":944101792,"sourceRegion":"guangdong","featureType":"infrastructure","railClass":"national","mode":"rail","name":"益湛线","ref":"0072","operator":"中国铁路广州局集团有限公司","usage":"main","bridge":"yes","status":"operational","color":"#E54848","dataOrigin":"datum-2026-08-01","sourceKey":"way:944101792"}},{"type":"Feature","geometry":{"type":"LineString","coordinates":[[110.8814263,22.1724884],[110.8813143,22.172148]]},"properties":{"key":"way:944101794@overview:110_22","osmType":"way","osmId":944101794,"sourceRegion":"guangdong","featureType":"infrastructure","railClass":"national","mode":"rail","name":"益湛线","ref":"0072","operator":"中国铁路广州局集团有限公司","usage":"main","bridge":"yes","status":"operational","color":"#E54848","dataOrigin":"datum-2026-08-01","sourceKey":"way:944101794"}},{"type":"Feature","geometry":{"type":"LineString","coordinates":[[110.8833682,22.1805402],[110.8814263,22.1724884]]},"properties":{"key":"way:944101795@overview:110_22","osmType":"way","osmId":944101795,"sourceRegion":"guangdong","featureType":"infrastructure","railClass":"national","mode":"rail","name":"益湛线","ref":"0072","operator":"中国铁路广州局集团有限公司","usage":"main","status":"operational","color":"#E54848","dataOrigin":"datum-2026-08-01","sourceKey":"way:944101795"}},{"type":"Feature","geometry":{"type":"LineString","coordinates":[[110.8376991,22.0764586],[110.8360283,22.058741]]},"properties":{"key":"way:956437618@overview:110_22","osmType":"way","osmId":956437618,"sourceRegion":"guangdong","featureType":"infrastructure","railClass":"national","mode":"rail","name":"益湛线","ref":"0072","operator":"中国铁路广州局集团有限公司","usage":"main","status":"operational","color":"#E54848","dataOrigin":"datum-2026-08-01","sourceKey":"way:956437618"}},{"type":"Feature","geometry":{"type":"LineString","coordinates":[[110.8377147,22.0765552],[110.8376991,22.0764586]]},"properties":{"key":"way:956437619@overview:110_22","osmType":"way","osmId":956437619,"sourceRegion":"guangdong","featureType":"infrastructure","railClass":"national","mode":"rail","name":"益湛线","ref":"0072","operator":"中国铁路广州局集团有限公司","usage":"main","bridge":"yes","status":"operational","color":"#E54848","dataOrigin":"datum-2026-08-01","sourceKey":"way:956437619"}},{"type":"Feature","geometry":{"type":"LineString","coordinates":[[110.8448249,22.1028602],[110.8377147,22.0765552]]},"properties":{"key":"way:956555312@overview:110_22","osmType":"way","osmId":956555312,"sourceRegion":"guangdong","featureType":"infrastructure","railClass":"national","mode":"rail","name":"益湛线","ref":"0072","operator":"中国铁路广州局集团有限公司","usage":"main","status":"operational","color":"#E54848","dataOrigin":"datum-2026-08-01","sourceKey":"way:956555312"}},{"type":"Feature","geometry":{"type":"LineString","coordinates":[[110.8452272,22.1049054],[110.8448249,22.1028602]]},"properties":{"key":"way:956555313@overview:110_22","osmType":"way","osmId":956555313,"sourceRegion":"guangdong","featureType":"infrastructure","railClass":"national","mode":"rail","name":"益湛线","ref":"0072","operator":"中国铁路广州局集团有限公司","usage":"main","bridge":"yes","status":"operational","color":"#E54848","dataOrigin":"datum-2026-08-01","sourceKey":"way:956555313"}},{"type":"Feature","geometry":{"type":"LineString","coordinates":[[110.8385217,22.0342425],[110.8395373,22.0261434]]},"properties":{"key":"way:969576218@overview:110_22","osmType":"way","osmId":969576218,"sourceRegion":"guangdong","featureType":"infrastructure","railClass":"national","mode":"rail","name":"益湛线","ref":"0072","operator":"中国铁路广州局集团有限公司","usage":"main","status":"operational","color":"#E54848","dataOrigin":"datum-2026-08-01","sourceKey":"way:969576218"}},{"type":"Feature","geometry":{"type":"LineString","coordinates":[[110.8383566,22.0358388],[110.8385217,22.0342425]]},"properties":{"key":"way:969576219@overview:110_22","osmType":"way","osmId":969576219,"sourceRegion":"guangdong","featureType":"infrastructure","railClass":"national","mode":"rail","name":"益湛线","ref":"0072","operator":"中国铁路广州局集团有限公司","usage":"main","bridge":"yes","status":"operational","color":"#E54848","dataOrigin":"datum-2026-08-01","sourceKey":"way:969576219"}},{"type":"Feature","geometry":{"type":"LineString","coordinates":[[110.8454369,22.0160867],[110.8532524,22.0085517]]},"properties":{"key":"way:970345535@overview:110_22","osmType":"way","osmId":970345535,"sourceRegion":"guangdong","featureType":"infrastructure","railClass":"national","mode":"rail","name":"益湛线","ref":"0072","operator":"中国铁路广州局集团有限公司","usage":"main","status":"operational","color":"#E54848","dataOrigin":"datum-2026-08-01","sourceKey":"way:970345535"}},{"type":"Feature","geometry":{"type":"LineString","coordinates":[[110.8441128,22.0173632],[110.8454369,22.0160867]]},"properties":{"key":"way:970345536@overview:110_22","osmType":"way","osmId":970345536,"sourceRegion":"guangdong","featureType":"infrastructure","railClass":"national","mode":"rail","name":"益湛线","ref":"0072","operator":"中国铁路广州局集团有限公司","usage":"main","bridge":"yes","status":"operational","color":"#E54848","dataOrigin":"datum-2026-08-01","sourceKey":"way:970345536"}}]}