{"type":"FeatureCollection","features":[{"type":"Feature","geometry":{"type":"LineString","coordinates":[[111.945362,24.063756],[111.9787069,24.0347419],[112.0,24.019966796245132]]},"properties":{"key":"way:316056735@overview:111_24","osmType":"way","osmId":316056735,"sourceRegion":"guangdong","featureType":"infrastructure","railClass":"highspeed","mode":"rail","name":"贵广客专线","nameEn":"Guiguang Passenger Line","ref":"3044","usage":"main","highspeed":"yes","bridge":"viaduct","status":"operational","color":"#E54848","dataOrigin":"datum-2026-08-01","sourceKey":"way:316056735"}},{"type":"Feature","geometry":{"type":"LineString","coordinates":[[111.9065595,24.0914674],[111.9109646,24.0885544]]},"properties":{"key":"way:316056780@overview:111_24","osmType":"way","osmId":316056780,"sourceRegion":"guangdong","featureType":"infrastructure","railClass":"highspeed","mode":"rail","name":"贵广客专线","nameEn":"Guiguang Passenger Line","ref":"3044","usage":"main","highspeed":"yes","status":"operational","color":"#E54848","dataOrigin":"datum-2026-08-01","sourceKey":"way:316056780"}},{"type":"Feature","geometry":{"type":"LineString","coordinates":[[111.9109646,24.0885544],[111.945362,24.063756]]},"properties":{"key":"way:316056781@overview:111_24","osmType":"way","osmId":316056781,"sourceRegion":"guangdong","featureType":"infrastructure","railClass":"highspeed","mode":"rail","name":"贵广客专线","nameEn":"Guiguang Passenger Line","ref":"3044","usage":"main","highspeed":"yes","tunnel":"yes","status":"operational","color":"#E54848","dataOrigin":"datum-2026-08-01","sourceKey":"way:316056781"}},{"type":"Feature","geometry":{"type":"LineString","coordinates":[[111.8502733,24.1232585],[111.9065595,24.0914674]]},"properties":{"key":"way:342312991@overview:111_24","osmType":"way","osmId":342312991,"sourceRegion":"guangdong","featureType":"infrastructure","railClass":"highspeed","mode":"rail","name":"贵广客专线","nameEn":"Guiguang Passenger Line","ref":"3044","usage":"main","highspeed":"yes","tunnel":"yes","status":"operational","color":"#E54848","dataOrigin":"datum-2026-08-01","sourceKey":"way:342312991"}},{"type":"Feature","geometry":{"type":"LineString","coordinates":[[111.9065225,24.0914144],[111.8502364,24.1232054]]},"properties":{"key":"way:631438844@overview:111_24","osmType":"way","osmId":631438844,"sourceRegion":"guangdong","featureType":"infrastructure","railClass":"highspeed","mode":"rail","name":"贵广客专线","nameEn":"Guiguang Passenger Line","ref":"3044","usage":"main","highspeed":"yes","tunnel":"yes","status":"operational","color":"#E54848","dataOrigin":"datum-2026-08-01","sourceKey":"way:631438844"}},{"type":"Feature","geometry":{"type":"LineString","coordinates":[[111.910923,24.0885043],[111.9065225,24.0914144]]},"properties":{"key":"way:631438851@overview:111_24","osmType":"way","osmId":631438851,"sourceRegion":"guangdong","featureType":"infrastructure","railClass":"highspeed","mode":"rail","name":"贵广客专线","nameEn":"Guiguang Passenger Line","ref":"3044","usage":"main","highspeed":"yes","status":"operational","color":"#E54848","dataOrigin":"datum-2026-08-01","sourceKey":"way:631438851"}},{"type":"Feature","geometry":{"type":"LineString","coordinates":[[111.9453196,24.0637065],[111.910923,24.0885043]]},"properties":{"key":"way:631438856@overview:111_24","osmType":"way","osmId":631438856,"sourceRegion":"guangdong","featureType":"infrastructure","railClass":"highspeed","mode":"rail","name":"贵广客专线","nameEn":"Guiguang Passenger Line","ref":"3044","usage":"main","highspeed":"yes","tunnel":"yes","status":"operational","color":"#E54848","dataOrigin":"datum-2026-08-01","sourceKey":"way:631438856"}},{"type":"Feature","geometry":{"type":"LineString","coordinates":[[112.0,24.01988037805905],[111.9786712,24.0347017],[111.9453196,24.0637065]]},"properties":{"key":"way:631438863@overview:111_24","osmType":"way","osmId":631438863,"sourceRegion":"guangdong","featureType":"infrastructure","railClass":"highspeed","mode":"rail","name":"贵广客专线","nameEn":"Guiguang Passenger Line","ref":"3044","usage":"main","highspeed":"yes","bridge":"viaduct","status":"operational","color":"#E54848","dataOrigin":"datum-2026-08-01","sourceKey":"way:631438863"}}]}