{"type":"FeatureCollection","features":[{"type":"Feature","geometry":{"type":"LineString","coordinates":[[114.3552925,25.208146],[114.3430435,25.1882808]]},"properties":{"key":"way:246101033@overview:114_25","osmType":"way","osmId":246101033,"sourceRegion":"guangdong","featureType":"infrastructure","railClass":"national","mode":"rail","name":"赣韶线","ref":"0069","usage":"main","status":"operational","color":"#E54848","dataOrigin":"datum-2026-08-01","sourceKey":"way:246101033"}},{"type":"Feature","geometry":{"type":"LineString","coordinates":[[114.1380637780867,25.0],[114.1613055,25.0154362]]},"properties":{"key":"way:246102285@overview:114_25","osmType":"way","osmId":246102285,"sourceRegion":"guangdong","featureType":"infrastructure","railClass":"national","mode":"rail","name":"赣韶线","ref":"0069","usage":"main","status":"operational","color":"#E54848","dataOrigin":"datum-2026-08-01","sourceKey":"way:246102285"}},{"type":"Feature","geometry":{"type":"LineString","coordinates":[[114.2992015,25.1373391],[114.3137999,25.1625582]]},"properties":{"key":"way:344376013@overview:114_25","osmType":"way","osmId":344376013,"sourceRegion":"guangdong","featureType":"infrastructure","railClass":"national","mode":"rail","name":"赣韶线","ref":"0069","usage":"main","status":"operational","color":"#E54848","dataOrigin":"datum-2026-08-01","sourceKey":"way:344376013"}},{"type":"Feature","geometry":{"type":"LineString","coordinates":[[114.2868775,25.1279522],[114.2992015,25.1373391]]},"properties":{"key":"way:344376014@overview:114_25","osmType":"way","osmId":344376014,"sourceRegion":"guangdong","featureType":"infrastructure","railClass":"national","mode":"rail","name":"赣韶线","ref":"0069","usage":"main","bridge":"yes","status":"operational","color":"#E54848","dataOrigin":"datum-2026-08-01","sourceKey":"way:344376014"}},{"type":"Feature","geometry":{"type":"LineString","coordinates":[[114.3170937,25.1666394],[114.3425284,25.1874437]]},"properties":{"key":"way:344376015@overview:114_25","osmType":"way","osmId":344376015,"sourceRegion":"guangdong","featureType":"infrastructure","railClass":"national","mode":"rail","name":"赣韶线","ref":"0069","usage":"main","status":"operational","color":"#E54848","dataOrigin":"datum-2026-08-01","sourceKey":"way:344376015"}},{"type":"Feature","geometry":{"type":"LineString","coordinates":[[114.2566887,25.0933137],[114.2595046,25.1063214],[114.2660088,25.115258]]},"properties":{"key":"way:344376016@overview:114_25","osmType":"way","osmId":344376016,"sourceRegion":"guangdong","featureType":"infrastructure","railClass":"national","mode":"rail","name":"赣韶线","ref":"0069","usage":"main","status":"operational","color":"#E54848","dataOrigin":"datum-2026-08-01","sourceKey":"way:344376016"}},{"type":"Feature","geometry":{"type":"LineString","coordinates":[[114.2767915,25.123766],[114.2774453,25.124096]]},"properties":{"key":"way:344376017@overview:114_25","osmType":"way","osmId":344376017,"sourceRegion":"guangdong","featureType":"infrastructure","railClass":"national","mode":"rail","name":"赣韶线","ref":"0069","usage":"main","bridge":"yes","status":"operational","color":"#E54848","dataOrigin":"datum-2026-08-01","sourceKey":"way:344376017"}},{"type":"Feature","geometry":{"type":"LineString","coordinates":[[114.256487,25.0924438],[114.2566887,25.0933137]]},"properties":{"key":"way:344376018@overview:114_25","osmType":"way","osmId":344376018,"sourceRegion":"guangdong","featureType":"infrastructure","railClass":"national","mode":"rail","name":"赣韶线","ref":"0069","usage":"main","bridge":"yes","status":"operational","color":"#E54848","dataOrigin":"datum-2026-08-01","sourceKey":"way:344376018"}},{"type":"Feature","geometry":{"type":"LineString","coordinates":[[114.2463011,25.0747918],[114.2473279,25.0763188]]},"properties":{"key":"way:344376019@overview:114_25","osmType":"way","osmId":344376019,"sourceRegion":"guangdong","featureType":"infrastructure","railClass":"national","mode":"rail","name":"赣韶线","ref":"0069","usage":"main","bridge":"yes","status":"operational","color":"#E54848","dataOrigin":"datum-2026-08-01","sourceKey":"way:344376019"}},{"type":"Feature","geometry":{"type":"LineString","coordinates":[[114.3425284,25.1874437],[114.3430435,25.1882808]]},"properties":{"key":"way:344376020@overview:114_25","osmType":"way","osmId":344376020,"sourceRegion":"guangdong","featureType":"infrastructure","railClass":"national","mode":"rail","name":"赣韶线","ref":"0069","usage":"main","bridge":"yes","status":"operational","color":"#E54848","dataOrigin":"datum-2026-08-01","sourceKey":"way:344376020"}},{"type":"Feature","geometry":{"type":"LineString","coordinates":[[114.2660088,25.115258],[114.2678654,25.1170215]]},"properties":{"key":"way:344376021@overview:114_25","osmType":"way","osmId":344376021,"sourceRegion":"guangdong","featureType":"infrastructure","railClass":"national","mode":"rail","name":"赣韶线","ref":"0069","usage":"main","bridge":"yes","status":"operational","color":"#E54848","dataOrigin":"datum-2026-08-01","sourceKey":"way:344376021"}},{"type":"Feature","geometry":{"type":"LineString","coordinates":[[114.2828659,25.1263942],[114.2832928,25.1265606]]},"properties":{"key":"way:344376022@overview:114_25","osmType":"way","osmId":344376022,"sourceRegion":"guangdong","featureType":"infrastructure","railClass":"national","mode":"rail","name":"赣韶线","ref":"0069","usage":"main","bridge":"yes","status":"operational","color":"#E54848","dataOrigin":"datum-2026-08-01","sourceKey":"way:344376022"}},{"type":"Feature","geometry":{"type":"LineString","coordinates":[[114.2832928,25.1265606],[114.2868775,25.1279522]]},"properties":{"key":"way:344376023@overview:114_25","osmType":"way","osmId":344376023,"sourceRegion":"guangdong","featureType":"infrastructure","railClass":"national","mode":"rail","name":"赣韶线","ref":"0069","usage":"main","status":"operational","color":"#E54848","dataOrigin":"datum-2026-08-01","sourceKey":"way:344376023"}},{"type":"Feature","geometry":{"type":"LineString","coordinates":[[114.2554963,25.0894804],[114.256487,25.0924438]]},"properties":{"key":"way:344376024@overview:114_25","osmType":"way","osmId":344376024,"sourceRegion":"guangdong","featureType":"infrastructure","railClass":"national","mode":"rail","name":"赣韶线","ref":"0069","usage":"main","status":"operational","color":"#E54848","dataOrigin":"datum-2026-08-01","sourceKey":"way:344376024"}},{"type":"Feature","geometry":{"type":"LineString","coordinates":[[114.2531736,25.0850278],[114.2554963,25.0894804]]},"properties":{"key":"way:344376025@overview:114_25","osmType":"way","osmId":344376025,"sourceRegion":"guangdong","featureType":"infrastructure","railClass":"national","mode":"rail","name":"赣韶线","ref":"0069","usage":"main","bridge":"yes","status":"operational","color":"#E54848","dataOrigin":"datum-2026-08-01","sourceKey":"way:344376025"}},{"type":"Feature","geometry":{"type":"LineString","coordinates":[[114.3137999,25.1625582],[114.3170937,25.1666394]]},"properties":{"key":"way:344376026@overview:114_25","osmType":"way","osmId":344376026,"sourceRegion":"guangdong","featureType":"infrastructure","railClass":"national","mode":"rail","name":"赣韶线","ref":"0069","usage":"main","bridge":"yes","status":"operational","color":"#E54848","dataOrigin":"datum-2026-08-01","sourceKey":"way:344376026"}},{"type":"Feature","geometry":{"type":"LineString","coordinates":[[114.2774453,25.124096],[114.2828659,25.1263942]]},"properties":{"key":"way:344376027@overview:114_25","osmType":"way","osmId":344376027,"sourceRegion":"guangdong","featureType":"infrastructure","railClass":"national","mode":"rail","name":"赣韶线","ref":"0069","usage":"main","status":"operational","color":"#E54848","dataOrigin":"datum-2026-08-01","sourceKey":"way:344376027"}},{"type":"Feature","geometry":{"type":"LineString","coordinates":[[114.2473279,25.0763188],[114.2531736,25.0850278]]},"properties":{"key":"way:344376028@overview:114_25","osmType":"way","osmId":344376028,"sourceRegion":"guangdong","featureType":"infrastructure","railClass":"national","mode":"rail","name":"赣韶线","ref":"0069","usage":"main","status":"operational","color":"#E54848","dataOrigin":"datum-2026-08-01","sourceKey":"way:344376028"}},{"type":"Feature","geometry":{"type":"LineString","coordinates":[[114.2678654,25.1170215],[114.2767915,25.123766]]},"properties":{"key":"way:344376029@overview:114_25","osmType":"way","osmId":344376029,"sourceRegion":"guangdong","featureType":"infrastructure","railClass":"national","mode":"rail","name":"赣韶线","ref":"0069","usage":"main","status":"operational","color":"#E54848","dataOrigin":"datum-2026-08-01","sourceKey":"way:344376029"}},{"type":"Feature","geometry":{"type":"LineString","coordinates":[[114.3856084,25.2620923],[114.3852355,25.2587319]]},"properties":{"key":"way:552684889@overview:114_25","osmType":"way","osmId":552684889,"sourceRegion":"guangdong","featureType":"infrastructure","railClass":"national","mode":"rail","name":"赣韶线","ref":"0069","usage":"main","bridge":"yes","status":"operational","color":"#E54848","dataOrigin":"datum-2026-08-01","sourceKey":"way:552684889"}},{"type":"Feature","geometry":{"type":"LineString","coordinates":[[114.3831785,25.2749964],[114.3856084,25.2620923]]},"properties":{"key":"way:552684890@overview:114_25","osmType":"way","osmId":552684890,"sourceRegion":"guangdong","featureType":"infrastructure","railClass":"national","mode":"rail","name":"赣韶线","ref":"0069","usage":"main","status":"operational","color":"#E54848","dataOrigin":"datum-2026-08-01","sourceKey":"way:552684890"}},{"type":"Feature","geometry":{"type":"LineString","coordinates":[[114.3801351,25.2810592],[114.3812425,25.2793837]]},"properties":{"key":"way:552684899@overview:114_25","osmType":"way","osmId":552684899,"sourceRegion":"guangdong","featureType":"infrastructure","railClass":"national","mode":"rail","name":"赣韶线","ref":"0069","usage":"main","tunnel":"yes","status":"operational","color":"#E54848","dataOrigin":"datum-2026-08-01","sourceKey":"way:552684899"}},{"type":"Feature","geometry":{"type":"LineString","coordinates":[[114.3812425,25.2793837],[114.3815835,25.2787917]]},"properties":{"key":"way:552684900@overview:114_25","osmType":"way","osmId":552684900,"sourceRegion":"guangdong","featureType":"infrastructure","railClass":"national","mode":"rail","name":"赣韶线","ref":"0069","usage":"main","status":"operational","color":"#E54848","dataOrigin":"datum-2026-08-01","sourceKey":"way:552684900"}},{"type":"Feature","geometry":{"type":"LineString","coordinates":[[114.3815835,25.2787917],[114.3831785,25.2749964]]},"properties":{"key":"way:552684901@overview:114_25","osmType":"way","osmId":552684901,"sourceRegion":"guangdong","featureType":"infrastructure","railClass":"national","mode":"rail","name":"赣韶线","ref":"0069","usage":"main","tunnel":"yes","status":"operational","color":"#E54848","dataOrigin":"datum-2026-08-01","sourceKey":"way:552684901"}},{"type":"Feature","geometry":{"type":"LineString","coordinates":[[114.3754188,25.2864659],[114.3801351,25.2810592]]},"properties":{"key":"way:552684902@overview:114_25","osmType":"way","osmId":552684902,"sourceRegion":"guangdong","featureType":"infrastructure","railClass":"national","mode":"rail","name":"赣韶线","ref":"0069","usage":"main","bridge":"yes","status":"operational","color":"#E54848","dataOrigin":"datum-2026-08-01","sourceKey":"way:552684902"}},{"type":"Feature","geometry":{"type":"LineString","coordinates":[[114.3601079,25.308723],[114.3605826,25.3075761]]},"properties":{"key":"way:552684932@overview:114_25","osmType":"way","osmId":552684932,"sourceRegion":"guangdong","featureType":"infrastructure","railClass":"national","mode":"rail","name":"赣韶线","ref":"0069","usage":"main","status":"operational","color":"#E54848","dataOrigin":"datum-2026-08-01","sourceKey":"way:552684932"}},{"type":"Feature","geometry":{"type":"LineString","coordinates":[[114.3605826,25.3075761],[114.3614812,25.3058302]]},"properties":{"key":"way:552684933@overview:114_25","osmType":"way","osmId":552684933,"sourceRegion":"guangdong","featureType":"infrastructure","railClass":"national","mode":"rail","name":"赣韶线","ref":"0069","usage":"main","tunnel":"yes","status":"operational","color":"#E54848","dataOrigin":"datum-2026-08-01","sourceKey":"way:552684933"}},{"type":"Feature","geometry":{"type":"LineString","coordinates":[[114.3614812,25.3058302],[114.3621142,25.3047681]]},"properties":{"key":"way:552684934@overview:114_25","osmType":"way","osmId":552684934,"sourceRegion":"guangdong","featureType":"infrastructure","railClass":"national","mode":"rail","name":"赣韶线","ref":"0069","usage":"main","status":"operational","color":"#E54848","dataOrigin":"datum-2026-08-01","sourceKey":"way:552684934"}},{"type":"Feature","geometry":{"type":"LineString","coordinates":[[114.3621142,25.3047681],[114.3690084,25.2941043]]},"properties":{"key":"way:552684935@overview:114_25","osmType":"way","osmId":552684935,"sourceRegion":"guangdong","featureType":"infrastructure","railClass":"national","mode":"rail","name":"赣韶线","ref":"0069","usage":"main","tunnel":"yes","status":"operational","color":"#E54848","dataOrigin":"datum-2026-08-01","sourceKey":"way:552684935"}},{"type":"Feature","geometry":{"type":"LineString","coordinates":[[114.3692993,25.2936348],[114.3704098,25.292133]]},"properties":{"key":"way:552684936@overview:114_25","osmType":"way","osmId":552684936,"sourceRegion":"guangdong","featureType":"infrastructure","railClass":"national","mode":"rail","name":"赣韶线","ref":"0069","usage":"main","tunnel":"yes","status":"operational","color":"#E54848","dataOrigin":"datum-2026-08-01","sourceKey":"way:552684936"}},{"type":"Feature","geometry":{"type":"LineString","coordinates":[[114.3690084,25.2941043],[114.3692993,25.2936348]]},"properties":{"key":"way:552684937@overview:114_25","osmType":"way","osmId":552684937,"sourceRegion":"guangdong","featureType":"infrastructure","railClass":"national","mode":"rail","name":"赣韶线","ref":"0069","usage":"main","status":"operational","color":"#E54848","dataOrigin":"datum-2026-08-01","sourceKey":"way:552684937"}},{"type":"Feature","geometry":{"type":"LineString","coordinates":[[114.3704098,25.292133],[114.3715168,25.290589]]},"properties":{"key":"way:552684938@overview:114_25","osmType":"way","osmId":552684938,"sourceRegion":"guangdong","featureType":"infrastructure","railClass":"national","mode":"rail","name":"赣韶线","ref":"0069","usage":"main","status":"operational","color":"#E54848","dataOrigin":"datum-2026-08-01","sourceKey":"way:552684938"}},{"type":"Feature","geometry":{"type":"LineString","coordinates":[[114.3715168,25.290589],[114.3730404,25.2889802]]},"properties":{"key":"way:552684939@overview:114_25","osmType":"way","osmId":552684939,"sourceRegion":"guangdong","featureType":"infrastructure","railClass":"national","mode":"rail","name":"赣韶线","ref":"0069","usage":"main","tunnel":"yes","status":"operational","color":"#E54848","dataOrigin":"datum-2026-08-01","sourceKey":"way:552684939"}},{"type":"Feature","geometry":{"type":"LineString","coordinates":[[114.3736316,25.2883566],[114.3754188,25.2864659]]},"properties":{"key":"way:552684940@overview:114_25","osmType":"way","osmId":552684940,"sourceRegion":"guangdong","featureType":"infrastructure","railClass":"national","mode":"rail","name":"赣韶线","ref":"0069","usage":"main","tunnel":"yes","status":"operational","color":"#E54848","dataOrigin":"datum-2026-08-01","sourceKey":"way:552684940"}},{"type":"Feature","geometry":{"type":"LineString","coordinates":[[114.3730404,25.2889802],[114.3736316,25.2883566]]},"properties":{"key":"way:552684941@overview:114_25","osmType":"way","osmId":552684941,"sourceRegion":"guangdong","featureType":"infrastructure","railClass":"national","mode":"rail","name":"赣韶线","ref":"0069","usage":"main","status":"operational","color":"#E54848","dataOrigin":"datum-2026-08-01","sourceKey":"way:552684941"}},{"type":"Feature","geometry":{"type":"LineString","coordinates":[[114.3570019,25.3450963],[114.3563542,25.3246054],[114.3601079,25.308723]]},"properties":{"key":"way:552684942@overview:114_25","osmType":"way","osmId":552684942,"sourceRegion":"guangdong","featureType":"infrastructure","railClass":"national","mode":"rail","name":"赣韶线","ref":"0069","usage":"main","tunnel":"yes","status":"operational","color":"#E54848","dataOrigin":"datum-2026-08-01","sourceKey":"way:552684942"}},{"type":"Feature","geometry":{"type":"LineString","coordinates":[[114.3625528,25.3584773],[114.3570019,25.3450963]]},"properties":{"key":"way:552684943@overview:114_25","osmType":"way","osmId":552684943,"sourceRegion":"guangdong","featureType":"infrastructure","railClass":"national","mode":"rail","name":"赣韶线","ref":"0069","usage":"main","status":"operational","color":"#E54848","dataOrigin":"datum-2026-08-01","sourceKey":"way:552684943"}},{"type":"Feature","geometry":{"type":"LineString","coordinates":[[114.1661685,25.0185934],[114.172098,25.0224429]]},"properties":{"key":"way:894965556@overview:114_25","osmType":"way","osmId":894965556,"sourceRegion":"guangdong","featureType":"infrastructure","railClass":"national","mode":"rail","name":"赣韶线","ref":"0069","usage":"main","bridge":"viaduct","status":"operational","color":"#E54848","dataOrigin":"datum-2026-08-01","sourceKey":"way:894965556"}},{"type":"Feature","geometry":{"type":"LineString","coordinates":[[114.1627625,25.0163822],[114.1661685,25.0185934]]},"properties":{"key":"way:894965557@overview:114_25","osmType":"way","osmId":894965557,"sourceRegion":"guangdong","featureType":"infrastructure","railClass":"national","mode":"rail","name":"赣韶线","ref":"0069","usage":"main","status":"operational","color":"#E54848","dataOrigin":"datum-2026-08-01","sourceKey":"way:894965557"}},{"type":"Feature","geometry":{"type":"LineString","coordinates":[[114.1613055,25.0154362],[114.1627625,25.0163822]]},"properties":{"key":"way:894965560@overview:114_25","osmType":"way","osmId":894965560,"sourceRegion":"guangdong","featureType":"infrastructure","railClass":"national","mode":"rail","name":"赣韶线","ref":"0069","usage":"main","bridge":"yes","status":"operational","color":"#E54848","dataOrigin":"datum-2026-08-01","sourceKey":"way:894965560"}},{"type":"Feature","geometry":{"type":"LineString","coordinates":[[114.1737038,25.0234816],[114.1918355,25.0351666],[114.2123057,25.0416172],[114.231405,25.0533821]]},"properties":{"key":"way:894965561@overview:114_25","osmType":"way","osmId":894965561,"sourceRegion":"guangdong","featureType":"infrastructure","railClass":"national","mode":"rail","name":"赣韶线","ref":"0069","usage":"main","status":"operational","color":"#E54848","dataOrigin":"datum-2026-08-01","sourceKey":"way:894965561"}},{"type":"Feature","geometry":{"type":"LineString","coordinates":[[114.231405,25.0533821],[114.2329341,25.0551887]]},"properties":{"key":"way:895287939@overview:114_25","osmType":"way","osmId":895287939,"sourceRegion":"guangdong","featureType":"infrastructure","railClass":"national","mode":"rail","name":"赣韶线","ref":"0069","usage":"main","bridge":"yes","status":"operational","color":"#E54848","dataOrigin":"datum-2026-08-01","sourceKey":"way:895287939"}},{"type":"Feature","geometry":{"type":"LineString","coordinates":[[114.2329341,25.0551887],[114.2463011,25.0747918]]},"properties":{"key":"way:895287940@overview:114_25","osmType":"way","osmId":895287940,"sourceRegion":"guangdong","featureType":"infrastructure","railClass":"national","mode":"rail","name":"赣韶线","ref":"0069","usage":"main","status":"operational","color":"#E54848","dataOrigin":"datum-2026-08-01","sourceKey":"way:895287940"}},{"type":"Feature","geometry":{"type":"LineString","coordinates":[[114.1733685,25.0232714],[114.1737038,25.0234816]]},"properties":{"key":"way:1292788745@overview:114_25","osmType":"way","osmId":1292788745,"sourceRegion":"guangdong","featureType":"infrastructure","railClass":"national","mode":"rail","name":"赣韶线","ref":"0069","usage":"main","bridge":"yes","status":"operational","color":"#E54848","dataOrigin":"datum-2026-08-01","sourceKey":"way:1292788745"}},{"type":"Feature","geometry":{"type":"LineString","coordinates":[[114.172098,25.0224429],[114.1733685,25.0232714]]},"properties":{"key":"way:1292788746@overview:114_25","osmType":"way","osmId":1292788746,"sourceRegion":"guangdong","featureType":"infrastructure","railClass":"national","mode":"rail","name":"赣韶线","ref":"0069","usage":"main","status":"operational","color":"#E54848","dataOrigin":"datum-2026-08-01","sourceKey":"way:1292788746"}},{"type":"Feature","geometry":{"type":"LineString","coordinates":[[114.3852355,25.2587319],[114.3834225,25.2530534]]},"properties":{"key":"way:1351726198@overview:114_25","osmType":"way","osmId":1351726198,"sourceRegion":"guangdong","featureType":"infrastructure","railClass":"national","mode":"rail","name":"赣韶线","ref":"0069","usage":"main","status":"operational","color":"#E54848","dataOrigin":"datum-2026-08-01","sourceKey":"way:1351726198"}},{"type":"Feature","geometry":{"type":"LineString","coordinates":[[114.3834225,25.2530534],[114.3832611,25.2527079]]},"properties":{"key":"way:1351726199@overview:114_25","osmType":"way","osmId":1351726199,"sourceRegion":"guangdong","featureType":"infrastructure","railClass":"national","mode":"rail","name":"赣韶线","ref":"0069","usage":"main","bridge":"yes","status":"operational","color":"#E54848","dataOrigin":"datum-2026-08-01","sourceKey":"way:1351726199"}},{"type":"Feature","geometry":{"type":"LineString","coordinates":[[114.3832611,25.2527079],[114.3658601,25.2237004]]},"properties":{"key":"way:1351726204@overview:114_25","osmType":"way","osmId":1351726204,"sourceRegion":"guangdong","featureType":"infrastructure","railClass":"national","mode":"rail","name":"赣韶线","ref":"0069","usage":"main","status":"operational","color":"#E54848","dataOrigin":"datum-2026-08-01","sourceKey":"way:1351726204"}},{"type":"Feature","geometry":{"type":"LineString","coordinates":[[114.3658601,25.2237004],[114.3655269,25.2231143]]},"properties":{"key":"way:1351726205@overview:114_25","osmType":"way","osmId":1351726205,"sourceRegion":"guangdong","featureType":"infrastructure","railClass":"national","mode":"rail","name":"赣韶线","ref":"0069","usage":"main","bridge":"yes","status":"operational","color":"#E54848","dataOrigin":"datum-2026-08-01","sourceKey":"way:1351726205"}},{"type":"Feature","geometry":{"type":"LineString","coordinates":[[114.3655269,25.2231143],[114.35557,25.2084461]]},"properties":{"key":"way:1351726206@overview:114_25","osmType":"way","osmId":1351726206,"sourceRegion":"guangdong","featureType":"infrastructure","railClass":"national","mode":"rail","name":"赣韶线","ref":"0069","usage":"main","status":"operational","color":"#E54848","dataOrigin":"datum-2026-08-01","sourceKey":"way:1351726206"}},{"type":"Feature","geometry":{"type":"LineString","coordinates":[[114.35557,25.2084461],[114.3552925,25.208146]]},"properties":{"key":"way:1351726207@overview:114_25","osmType":"way","osmId":1351726207,"sourceRegion":"guangdong","featureType":"infrastructure","railClass":"national","mode":"rail","name":"赣韶线","ref":"0069","usage":"main","bridge":"yes","status":"operational","color":"#E54848","dataOrigin":"datum-2026-08-01","sourceKey":"way:1351726207"}}]}