{"type":"FeatureCollection","features":[{"type":"Feature","geometry":{"type":"LineString","coordinates":[[115.0632929,23.9622432],[115.046591,23.939279],[115.0343661,23.9329474]]},"properties":{"key":"way:27884528@overview:115_23","osmType":"way","osmId":27884528,"sourceRegion":"guangdong","featureType":"infrastructure","railClass":"national","mode":"rail","name":"京九线","nameEn":"Jingjiu Line","ref":"0005","usage":"main","status":"operational","color":"#E54848","dataOrigin":"datum-2026-08-01","sourceKey":"way:27884528"}},{"type":"Feature","geometry":{"type":"LineString","coordinates":[[115.9985769,23.971612],[116.0,23.97102299576713]]},"properties":{"key":"way:148846565@overview:115_23","osmType":"way","osmId":148846565,"sourceRegion":"guangdong","featureType":"infrastructure","railClass":"national","mode":"rail","name":"畲龙线","ref":"0716","usage":"main","status":"operational","color":"#E54848","dataOrigin":"datum-2026-08-01","sourceKey":"way:148846565"}},{"type":"Feature","geometry":{"type":"LineString","coordinates":[[115.8470158,23.007372],[115.8922379,23.0264881],[115.9386756,23.0398393]]},"properties":{"key":"way:161238226@overview:115_23","osmType":"way","osmId":161238226,"sourceRegion":"guangdong","featureType":"infrastructure","railClass":"highspeed","mode":"rail","name":"杭深线","nameEn":"Hangzhou-Shenzhen Line","ref":"3009","usage":"main","highspeed":"yes","status":"operational","color":"#E54848","dataOrigin":"datum-2026-08-01","sourceKey":"way:161238226"}},{"type":"Feature","geometry":{"type":"LineString","coordinates":[[115.9995782,23.0726955],[116.0,23.073032769919354]]},"properties":{"key":"way:191990152@overview:115_23","osmType":"way","osmId":191990152,"sourceRegion":"guangdong","featureType":"infrastructure","railClass":"highspeed","mode":"rail","name":"杭深线","nameEn":"Hangzhou-Shenzhen Line","ref":"3009","usage":"main","highspeed":"yes","status":"operational","color":"#E54848","dataOrigin":"datum-2026-08-01","sourceKey":"way:191990152"}},{"type":"Feature","geometry":{"type":"LineString","coordinates":[[115.98039130074933,24.0],[115.9843438,23.9909362]]},"properties":{"key":"way:241678607@overview:115_23","osmType":"way","osmId":241678607,"sourceRegion":"guangdong","featureType":"infrastructure","railClass":"national","mode":"rail","name":"畲龙线","ref":"0716","usage":"main","status":"operational","color":"#E54848","dataOrigin":"datum-2026-08-01","sourceKey":"way:241678607"}},{"type":"Feature","geometry":{"type":"LineString","coordinates":[[115.83465264898747,23.0],[115.844194,23.0058076]]},"properties":{"key":"way:257083951@overview:115_23","osmType":"way","osmId":257083951,"sourceRegion":"guangdong","featureType":"infrastructure","railClass":"highspeed","mode":"rail","name":"杭深线","nameEn":"Hangzhou-Shenzhen Line","ref":"3009","usage":"main","highspeed":"yes","status":"operational","color":"#E54848","dataOrigin":"datum-2026-08-01","sourceKey":"way:257083951"}},{"type":"Feature","geometry":{"type":"LineString","coordinates":[[115.9843438,23.9909362],[115.9857267,23.9884364]]},"properties":{"key":"way:379674563@overview:115_23","osmType":"way","osmId":379674563,"sourceRegion":"guangdong","featureType":"infrastructure","railClass":"national","mode":"rail","name":"畲龙线","ref":"0716","usage":"main","bridge":"yes","status":"operational","color":"#E54848","dataOrigin":"datum-2026-08-01","sourceKey":"way:379674563"}},{"type":"Feature","geometry":{"type":"LineString","coordinates":[[115.844194,23.0058076],[115.8470158,23.007372]]},"properties":{"key":"way:379674564@overview:115_23","osmType":"way","osmId":379674564,"sourceRegion":"guangdong","featureType":"infrastructure","railClass":"highspeed","mode":"rail","name":"杭深线","nameEn":"Hangzhou-Shenzhen Line","ref":"3009","usage":"main","highspeed":"yes","bridge":"yes","status":"operational","color":"#E54848","dataOrigin":"datum-2026-08-01","sourceKey":"way:379674564"}},{"type":"Feature","geometry":{"type":"LineString","coordinates":[[115.9857267,23.9884364],[115.9897887,23.9756352]]},"properties":{"key":"way:379674565@overview:115_23","osmType":"way","osmId":379674565,"sourceRegion":"guangdong","featureType":"infrastructure","railClass":"national","mode":"rail","name":"畲龙线","ref":"0716","usage":"main","status":"operational","color":"#E54848","dataOrigin":"datum-2026-08-01","sourceKey":"way:379674565"}},{"type":"Feature","geometry":{"type":"LineString","coordinates":[[115.9769253,23.0547131],[115.9817326,23.0584008]]},"properties":{"key":"way:557128221@overview:115_23","osmType":"way","osmId":557128221,"sourceRegion":"guangdong","featureType":"infrastructure","railClass":"highspeed","mode":"rail","name":"杭深线","nameEn":"Hangzhou-Shenzhen Line","ref":"3009","usage":"main","highspeed":"yes","bridge":"yes","status":"operational","color":"#E54848","dataOrigin":"datum-2026-08-01","sourceKey":"way:557128221"}},{"type":"Feature","geometry":{"type":"LineString","coordinates":[[115.9696917,23.0502689],[115.9769253,23.0547131]]},"properties":{"key":"way:557128222@overview:115_23","osmType":"way","osmId":557128222,"sourceRegion":"guangdong","featureType":"infrastructure","railClass":"highspeed","mode":"rail","name":"杭深线","nameEn":"Hangzhou-Shenzhen Line","ref":"3009","usage":"main","highspeed":"yes","status":"operational","color":"#E54848","dataOrigin":"datum-2026-08-01","sourceKey":"way:557128222"}},{"type":"Feature","geometry":{"type":"LineString","coordinates":[[115.9488567,23.0427626],[115.9696917,23.0502689]]},"properties":{"key":"way:557128224@overview:115_23","osmType":"way","osmId":557128224,"sourceRegion":"guangdong","featureType":"infrastructure","railClass":"highspeed","mode":"rail","name":"杭深线","nameEn":"Hangzhou-Shenzhen Line","ref":"3009","usage":"main","highspeed":"yes","bridge":"yes","status":"operational","color":"#E54848","dataOrigin":"datum-2026-08-01","sourceKey":"way:557128224"}},{"type":"Feature","geometry":{"type":"LineString","coordinates":[[115.9945685,23.0687397],[115.9995782,23.0726955]]},"properties":{"key":"way:557128225@overview:115_23","osmType":"way","osmId":557128225,"sourceRegion":"guangdong","featureType":"infrastructure","railClass":"highspeed","mode":"rail","name":"杭深线","nameEn":"Hangzhou-Shenzhen Line","ref":"3009","usage":"main","highspeed":"yes","status":"operational","color":"#E54848","dataOrigin":"datum-2026-08-01","sourceKey":"way:557128225"}},{"type":"Feature","geometry":{"type":"LineString","coordinates":[[115.9386756,23.0398393],[115.9453345,23.0417537]]},"properties":{"key":"way:557134447@overview:115_23","osmType":"way","osmId":557134447,"sourceRegion":"guangdong","featureType":"infrastructure","railClass":"highspeed","mode":"rail","name":"杭深线","nameEn":"Hangzhou-Shenzhen Line","ref":"3009","usage":"main","highspeed":"yes","bridge":"yes","status":"operational","color":"#E54848","dataOrigin":"datum-2026-08-01","sourceKey":"way:557134447"}},{"type":"Feature","geometry":{"type":"LineString","coordinates":[[115.9453345,23.0417537],[115.9488567,23.0427626]]},"properties":{"key":"way:557134448@overview:115_23","osmType":"way","osmId":557134448,"sourceRegion":"guangdong","featureType":"infrastructure","railClass":"highspeed","mode":"rail","name":"杭深线","nameEn":"Hangzhou-Shenzhen Line","ref":"3009","usage":"main","highspeed":"yes","status":"operational","color":"#E54848","dataOrigin":"datum-2026-08-01","sourceKey":"way:557134448"}},{"type":"Feature","geometry":{"type":"LineString","coordinates":[[115.8442482,23.0057302],[115.83483341001381,23.0]]},"properties":{"key":"way:631441089@overview:115_23","osmType":"way","osmId":631441089,"sourceRegion":"guangdong","featureType":"infrastructure","railClass":"highspeed","mode":"rail","name":"杭深线","nameEn":"Hangzhou-Shenzhen Line","ref":"3009","usage":"main","highspeed":"yes","status":"operational","color":"#E54848","dataOrigin":"datum-2026-08-01","sourceKey":"way:631441089"}},{"type":"Feature","geometry":{"type":"LineString","coordinates":[[115.847065,23.0072918],[115.8442482,23.0057302]]},"properties":{"key":"way:631441090@overview:115_23","osmType":"way","osmId":631441090,"sourceRegion":"guangdong","featureType":"infrastructure","railClass":"highspeed","mode":"rail","name":"杭深线","nameEn":"Hangzhou-Shenzhen Line","ref":"3009","usage":"main","highspeed":"yes","bridge":"yes","status":"operational","color":"#E54848","dataOrigin":"datum-2026-08-01","sourceKey":"way:631441090"}},{"type":"Feature","geometry":{"type":"LineString","coordinates":[[115.9387054,23.0397514],[115.8922737,23.0264019],[115.847065,23.0072918]]},"properties":{"key":"way:631441091@overview:115_23","osmType":"way","osmId":631441091,"sourceRegion":"guangdong","featureType":"infrastructure","railClass":"highspeed","mode":"rail","name":"杭深线","nameEn":"Hangzhou-Shenzhen Line","ref":"3009","usage":"main","highspeed":"yes","status":"operational","color":"#E54848","dataOrigin":"datum-2026-08-01","sourceKey":"way:631441091"}},{"type":"Feature","geometry":{"type":"LineString","coordinates":[[115.9453643,23.0416658],[115.9387054,23.0397514]]},"properties":{"key":"way:631441092@overview:115_23","osmType":"way","osmId":631441092,"sourceRegion":"guangdong","featureType":"infrastructure","railClass":"highspeed","mode":"rail","name":"杭深线","nameEn":"Hangzhou-Shenzhen Line","ref":"3009","usage":"main","highspeed":"yes","bridge":"yes","status":"operational","color":"#E54848","dataOrigin":"datum-2026-08-01","sourceKey":"way:631441092"}},{"type":"Feature","geometry":{"type":"LineString","coordinates":[[115.9488863,23.0426746],[115.9453643,23.0416658]]},"properties":{"key":"way:631441093@overview:115_23","osmType":"way","osmId":631441093,"sourceRegion":"guangdong","featureType":"infrastructure","railClass":"highspeed","mode":"rail","name":"杭深线","nameEn":"Hangzhou-Shenzhen Line","ref":"3009","usage":"main","highspeed":"yes","status":"operational","color":"#E54848","dataOrigin":"datum-2026-08-01","sourceKey":"way:631441093"}},{"type":"Feature","geometry":{"type":"LineString","coordinates":[[115.9697408,23.0501886],[115.9488863,23.0426746]]},"properties":{"key":"way:631441094@overview:115_23","osmType":"way","osmId":631441094,"sourceRegion":"guangdong","featureType":"infrastructure","railClass":"highspeed","mode":"rail","name":"杭深线","nameEn":"Hangzhou-Shenzhen Line","ref":"3009","usage":"main","highspeed":"yes","bridge":"yes","status":"operational","color":"#E54848","dataOrigin":"datum-2026-08-01","sourceKey":"way:631441094"}},{"type":"Feature","geometry":{"type":"LineString","coordinates":[[115.9769862,23.05464],[115.9697408,23.0501886]]},"properties":{"key":"way:631441095@overview:115_23","osmType":"way","osmId":631441095,"sourceRegion":"guangdong","featureType":"infrastructure","railClass":"highspeed","mode":"rail","name":"杭深线","nameEn":"Hangzhou-Shenzhen Line","ref":"3009","usage":"main","highspeed":"yes","status":"operational","color":"#E54848","dataOrigin":"datum-2026-08-01","sourceKey":"way:631441095"}},{"type":"Feature","geometry":{"type":"LineString","coordinates":[[115.9817975,23.0583307],[115.9769862,23.05464]]},"properties":{"key":"way:631441096@overview:115_23","osmType":"way","osmId":631441096,"sourceRegion":"guangdong","featureType":"infrastructure","railClass":"highspeed","mode":"rail","name":"杭深线","nameEn":"Hangzhou-Shenzhen Line","ref":"3009","usage":"main","highspeed":"yes","bridge":"yes","status":"operational","color":"#E54848","dataOrigin":"datum-2026-08-01","sourceKey":"way:631441096"}},{"type":"Feature","geometry":{"type":"LineString","coordinates":[[115.9996444,23.0726264],[115.9946503,23.0686712]]},"properties":{"key":"way:631441097@overview:115_23","osmType":"way","osmId":631441097,"sourceRegion":"guangdong","featureType":"infrastructure","railClass":"highspeed","mode":"rail","name":"杭深线","nameEn":"Hangzhou-Shenzhen Line","ref":"3009","usage":"main","highspeed":"yes","status":"operational","color":"#E54848","dataOrigin":"datum-2026-08-01","sourceKey":"way:631441097"}},{"type":"Feature","geometry":{"type":"LineString","coordinates":[[116.0,23.07291076206696],[115.9996444,23.0726264]]},"properties":{"key":"way:631441098@overview:115_23","osmType":"way","osmId":631441098,"sourceRegion":"guangdong","featureType":"infrastructure","railClass":"highspeed","mode":"rail","name":"杭深线","nameEn":"Hangzhou-Shenzhen Line","ref":"3009","usage":"main","highspeed":"yes","status":"operational","color":"#E54848","dataOrigin":"datum-2026-08-01","sourceKey":"way:631441098"}},{"type":"Feature","geometry":{"type":"LineString","coordinates":[[115.9946503,23.0686712],[115.9943971,23.068466]]},"properties":{"key":"way:695008014@overview:115_23","osmType":"way","osmId":695008014,"sourceRegion":"guangdong","featureType":"infrastructure","railClass":"highspeed","mode":"rail","name":"杭深线","nameEn":"Hangzhou-Shenzhen Line","ref":"3009","usage":"main","highspeed":"yes","bridge":"yes","status":"operational","color":"#E54848","dataOrigin":"datum-2026-08-01","sourceKey":"way:695008014"}},{"type":"Feature","geometry":{"type":"LineString","coordinates":[[115.9943266,23.0685403],[115.9945685,23.0687397]]},"properties":{"key":"way:695008015@overview:115_23","osmType":"way","osmId":695008015,"sourceRegion":"guangdong","featureType":"infrastructure","railClass":"highspeed","mode":"rail","name":"杭深线","nameEn":"Hangzhou-Shenzhen Line","ref":"3009","usage":"main","highspeed":"yes","bridge":"yes","status":"operational","color":"#E54848","dataOrigin":"datum-2026-08-01","sourceKey":"way:695008015"}},{"type":"Feature","geometry":{"type":"LineString","coordinates":[[115.9817326,23.0584008],[115.9943266,23.0685403]]},"properties":{"key":"way:695008016@overview:115_23","osmType":"way","osmId":695008016,"sourceRegion":"guangdong","featureType":"infrastructure","railClass":"highspeed","mode":"rail","name":"杭深线","nameEn":"Hangzhou-Shenzhen Line","ref":"3009","usage":"main","highspeed":"yes","status":"operational","color":"#E54848","dataOrigin":"datum-2026-08-01","sourceKey":"way:695008016"}},{"type":"Feature","geometry":{"type":"LineString","coordinates":[[115.9943971,23.068466],[115.9817975,23.0583307]]},"properties":{"key":"way:695008017@overview:115_23","osmType":"way","osmId":695008017,"sourceRegion":"guangdong","featureType":"infrastructure","railClass":"highspeed","mode":"rail","name":"杭深线","nameEn":"Hangzhou-Shenzhen Line","ref":"3009","usage":"main","highspeed":"yes","status":"operational","color":"#E54848","dataOrigin":"datum-2026-08-01","sourceKey":"way:695008017"}},{"type":"Feature","geometry":{"type":"LineString","coordinates":[[115.0443306,23.910424],[115.0283161,23.9030353]]},"properties":{"key":"way:819121100@overview:115_23","osmType":"way","osmId":819121100,"sourceRegion":"guangdong","featureType":"infrastructure","railClass":"highspeed","mode":"rail","name":"京港高速线","nameEn":"Jinggang High-Speed Line","ref":"3003","usage":"main","highspeed":"yes","tunnel":"yes","status":"operational","color":"#E54848","dataOrigin":"datum-2026-08-01","sourceKey":"way:819121100"}},{"type":"Feature","geometry":{"type":"LineString","coordinates":[[115.0283161,23.9030353],[115.0216999,23.8995179]]},"properties":{"key":"way:819121101@overview:115_23","osmType":"way","osmId":819121101,"sourceRegion":"guangdong","featureType":"infrastructure","railClass":"highspeed","mode":"rail","name":"京港高速线","nameEn":"Jinggang High-Speed Line","ref":"3003","usage":"main","highspeed":"yes","bridge":"yes","status":"operational","color":"#E54848","dataOrigin":"datum-2026-08-01","sourceKey":"way:819121101"}},{"type":"Feature","geometry":{"type":"LineString","coordinates":[[115.0489433,23.9127609],[115.0443306,23.910424]]},"properties":{"key":"way:819121102@overview:115_23","osmType":"way","osmId":819121102,"sourceRegion":"guangdong","featureType":"infrastructure","railClass":"highspeed","mode":"rail","name":"京港高速线","nameEn":"Jinggang High-Speed Line","ref":"3003","usage":"main","highspeed":"yes","bridge":"yes","status":"operational","color":"#E54848","dataOrigin":"datum-2026-08-01","sourceKey":"way:819121102"}},{"type":"Feature","geometry":{"type":"LineString","coordinates":[[115.0770819,23.9276275],[115.0489433,23.9127609]]},"properties":{"key":"way:819121103@overview:115_23","osmType":"way","osmId":819121103,"sourceRegion":"guangdong","featureType":"infrastructure","railClass":"highspeed","mode":"rail","name":"京港高速线","nameEn":"Jinggang High-Speed Line","ref":"3003","usage":"main","highspeed":"yes","tunnel":"yes","status":"operational","color":"#E54848","dataOrigin":"datum-2026-08-01","sourceKey":"way:819121103"}},{"type":"Feature","geometry":{"type":"LineString","coordinates":[[115.0837129,23.9324805],[115.0782215,23.9284039]]},"properties":{"key":"way:819121109@overview:115_23","osmType":"way","osmId":819121109,"sourceRegion":"guangdong","featureType":"infrastructure","railClass":"highspeed","mode":"rail","name":"京港高速线","nameEn":"Jinggang High-Speed Line","ref":"3003","usage":"main","highspeed":"yes","tunnel":"yes","status":"operational","color":"#E54848","dataOrigin":"datum-2026-08-01","sourceKey":"way:819121109"}},{"type":"Feature","geometry":{"type":"LineString","coordinates":[[115.0782215,23.9284039],[115.0770819,23.9276275]]},"properties":{"key":"way:819121110@overview:115_23","osmType":"way","osmId":819121110,"sourceRegion":"guangdong","featureType":"infrastructure","railClass":"highspeed","mode":"rail","name":"京港高速线","nameEn":"Jinggang High-Speed Line","ref":"3003","usage":"main","highspeed":"yes","bridge":"yes","status":"operational","color":"#E54848","dataOrigin":"datum-2026-08-01","sourceKey":"way:819121110"}},{"type":"Feature","geometry":{"type":"LineString","coordinates":[[115.0847714,23.9332421],[115.0837129,23.9324805]]},"properties":{"key":"way:819121111@overview:115_23","osmType":"way","osmId":819121111,"sourceRegion":"guangdong","featureType":"infrastructure","railClass":"highspeed","mode":"rail","name":"京港高速线","nameEn":"Jinggang High-Speed Line","ref":"3003","usage":"main","highspeed":"yes","bridge":"yes","status":"operational","color":"#E54848","dataOrigin":"datum-2026-08-01","sourceKey":"way:819121111"}},{"type":"Feature","geometry":{"type":"LineString","coordinates":[[115.0852824,23.9336085],[115.0847714,23.9332421]]},"properties":{"key":"way:819121112@overview:115_23","osmType":"way","osmId":819121112,"sourceRegion":"guangdong","featureType":"infrastructure","railClass":"highspeed","mode":"rail","name":"京港高速线","nameEn":"Jinggang High-Speed Line","ref":"3003","usage":"main","highspeed":"yes","tunnel":"yes","status":"operational","color":"#E54848","dataOrigin":"datum-2026-08-01","sourceKey":"way:819121112"}},{"type":"Feature","geometry":{"type":"LineString","coordinates":[[115.0888844,23.936271],[115.0852824,23.9336085]]},"properties":{"key":"way:819121113@overview:115_23","osmType":"way","osmId":819121113,"sourceRegion":"guangdong","featureType":"infrastructure","railClass":"highspeed","mode":"rail","name":"京港高速线","nameEn":"Jinggang High-Speed Line","ref":"3003","usage":"main","highspeed":"yes","bridge":"yes","status":"operational","color":"#E54848","dataOrigin":"datum-2026-08-01","sourceKey":"way:819121113"}},{"type":"Feature","geometry":{"type":"LineString","coordinates":[[115.0916576,23.9383495],[115.0888844,23.936271]]},"properties":{"key":"way:819121114@overview:115_23","osmType":"way","osmId":819121114,"sourceRegion":"guangdong","featureType":"infrastructure","railClass":"highspeed","mode":"rail","name":"京港高速线","nameEn":"Jinggang High-Speed Line","ref":"3003","usage":"main","highspeed":"yes","tunnel":"yes","status":"operational","color":"#E54848","dataOrigin":"datum-2026-08-01","sourceKey":"way:819121114"}},{"type":"Feature","geometry":{"type":"LineString","coordinates":[[115.0935754,23.9399042],[115.0916576,23.9383495]]},"properties":{"key":"way:819121115@overview:115_23","osmType":"way","osmId":819121115,"sourceRegion":"guangdong","featureType":"infrastructure","railClass":"highspeed","mode":"rail","name":"京港高速线","nameEn":"Jinggang High-Speed Line","ref":"3003","usage":"main","highspeed":"yes","bridge":"yes","status":"operational","color":"#E54848","dataOrigin":"datum-2026-08-01","sourceKey":"way:819121115"}},{"type":"Feature","geometry":{"type":"LineString","coordinates":[[115.1026817,23.948405],[115.0935754,23.9399042]]},"properties":{"key":"way:819121116@overview:115_23","osmType":"way","osmId":819121116,"sourceRegion":"guangdong","featureType":"infrastructure","railClass":"highspeed","mode":"rail","name":"京港高速线","nameEn":"Jinggang High-Speed Line","ref":"3003","usage":"main","highspeed":"yes","tunnel":"yes","status":"operational","color":"#E54848","dataOrigin":"datum-2026-08-01","sourceKey":"way:819121116"}},{"type":"Feature","geometry":{"type":"LineString","coordinates":[[115.1050526,23.9512976],[115.1026817,23.948405]]},"properties":{"key":"way:819121117@overview:115_23","osmType":"way","osmId":819121117,"sourceRegion":"guangdong","featureType":"infrastructure","railClass":"highspeed","mode":"rail","name":"京港高速线","nameEn":"Jinggang High-Speed Line","ref":"3003","usage":"main","highspeed":"yes","bridge":"yes","status":"operational","color":"#E54848","dataOrigin":"datum-2026-08-01","sourceKey":"way:819121117"}},{"type":"Feature","geometry":{"type":"LineString","coordinates":[[115.0636607,23.9649749],[115.0632929,23.9622432]]},"properties":{"key":"way:819121124@overview:115_23","osmType":"way","osmId":819121124,"sourceRegion":"guangdong","featureType":"infrastructure","railClass":"national","mode":"rail","name":"京九线","nameEn":"Jingjiu Line","ref":"0005","usage":"main","status":"operational","color":"#E54848","dataOrigin":"datum-2026-08-01","sourceKey":"way:819121124"}},{"type":"Feature","geometry":{"type":"LineString","coordinates":[[115.06284,23.967916],[115.0636607,23.9649749]]},"properties":{"key":"way:819121125@overview:115_23","osmType":"way","osmId":819121125,"sourceRegion":"guangdong","featureType":"infrastructure","railClass":"national","mode":"rail","name":"京九线","nameEn":"Jingjiu Line","ref":"0005","usage":"main","bridge":"yes","status":"operational","color":"#E54848","dataOrigin":"datum-2026-08-01","sourceKey":"way:819121125"}},{"type":"Feature","geometry":{"type":"LineString","coordinates":[[115.063494,23.9739925],[115.06284,23.967916]]},"properties":{"key":"way:819121126@overview:115_23","osmType":"way","osmId":819121126,"sourceRegion":"guangdong","featureType":"infrastructure","railClass":"national","mode":"rail","name":"京九线","nameEn":"Jingjiu Line","ref":"0005","usage":"main","status":"operational","color":"#E54848","dataOrigin":"datum-2026-08-01","sourceKey":"way:819121126"}},{"type":"Feature","geometry":{"type":"LineString","coordinates":[[115.0635014,23.9683344],[115.064044,23.964707]]},"properties":{"key":"way:819121127@overview:115_23","osmType":"way","osmId":819121127,"sourceRegion":"guangdong","featureType":"infrastructure","railClass":"national","mode":"rail","name":"京九线","nameEn":"Jingjiu Line","ref":"0005","usage":"main","bridge":"yes","status":"operational","color":"#E54848","dataOrigin":"datum-2026-08-01","sourceKey":"way:819121127"}},{"type":"Feature","geometry":{"type":"LineString","coordinates":[[115.1134479,23.9657543],[115.1050526,23.9512976]]},"properties":{"key":"way:819121133@overview:115_23","osmType":"way","osmId":819121133,"sourceRegion":"guangdong","featureType":"infrastructure","railClass":"highspeed","mode":"rail","name":"京港高速线","nameEn":"Jinggang High-Speed Line","ref":"3003","usage":"main","highspeed":"yes","tunnel":"yes","status":"operational","color":"#E54848","dataOrigin":"datum-2026-08-01","sourceKey":"way:819121133"}},{"type":"Feature","geometry":{"type":"LineString","coordinates":[[115.12043944505827,24.0],[115.1134479,23.9657543]]},"properties":{"key":"way:819121136@overview:115_23","osmType":"way","osmId":819121136,"sourceRegion":"guangdong","featureType":"infrastructure","railClass":"highspeed","mode":"rail","name":"京港高速线","nameEn":"Jinggang High-Speed Line","ref":"3003","usage":"main","highspeed":"yes","bridge":"yes","status":"operational","color":"#E54848","dataOrigin":"datum-2026-08-01","sourceKey":"way:819121136"}},{"type":"Feature","geometry":{"type":"LineString","coordinates":[[115.0633617,23.9622285],[115.046645,23.9392263],[115.0012611,23.914627]]},"properties":{"key":"way:906447973@overview:115_23","osmType":"way","osmId":906447973,"sourceRegion":"guangdong","featureType":"infrastructure","railClass":"national","mode":"rail","name":"京九线","nameEn":"Jingjiu Line","ref":"0005","usage":"main","status":"operational","color":"#E54848","dataOrigin":"datum-2026-08-01","sourceKey":"way:906447973"}},{"type":"Feature","geometry":{"type":"LineString","coordinates":[[115.064044,23.964707],[115.0633617,23.9622285]]},"properties":{"key":"way:906447974@overview:115_23","osmType":"way","osmId":906447974,"sourceRegion":"guangdong","featureType":"infrastructure","railClass":"national","mode":"rail","name":"京九线","nameEn":"Jingjiu Line","ref":"0005","usage":"main","status":"operational","color":"#E54848","dataOrigin":"datum-2026-08-01","sourceKey":"way:906447974"}},{"type":"Feature","geometry":{"type":"LineString","coordinates":[[115.0000575,23.9137318],[115.0,23.913671899896023]]},"properties":{"key":"way:927890310@overview:115_23","osmType":"way","osmId":927890310,"sourceRegion":"guangdong","featureType":"infrastructure","railClass":"national","mode":"rail","name":"京九线","nameEn":"Jingjiu Line","ref":"0005","usage":"main","status":"operational","color":"#E54848","dataOrigin":"datum-2026-08-01","sourceKey":"way:927890310"}},{"type":"Feature","geometry":{"type":"LineString","coordinates":[[115.0002482,23.9135841],[115.0,23.913328513095237]]},"properties":{"key":"way:927890311@overview:115_23","osmType":"way","osmId":927890311,"sourceRegion":"guangdong","featureType":"infrastructure","railClass":"national","mode":"rail","name":"京九线","nameEn":"Jingjiu Line","ref":"0005","usage":"main","status":"operational","color":"#E54848","dataOrigin":"datum-2026-08-01","sourceKey":"way:927890311"}},{"type":"Feature","geometry":{"type":"LineString","coordinates":[[115.0011277,23.9148253],[115.0000575,23.9137318]]},"properties":{"key":"way:927890312@overview:115_23","osmType":"way","osmId":927890312,"sourceRegion":"guangdong","featureType":"infrastructure","railClass":"national","mode":"rail","name":"京九线","nameEn":"Jingjiu Line","ref":"0005","usage":"main","bridge":"yes","status":"operational","color":"#E54848","dataOrigin":"datum-2026-08-01","sourceKey":"way:927890312"}},{"type":"Feature","geometry":{"type":"LineString","coordinates":[[115.0012611,23.914627],[115.0002482,23.9135841]]},"properties":{"key":"way:927890313@overview:115_23","osmType":"way","osmId":927890313,"sourceRegion":"guangdong","featureType":"infrastructure","railClass":"national","mode":"rail","name":"京九线","nameEn":"Jingjiu Line","ref":"0005","usage":"main","bridge":"yes","status":"operational","color":"#E54848","dataOrigin":"datum-2026-08-01","sourceKey":"way:927890313"}},{"type":"Feature","geometry":{"type":"LineString","coordinates":[[115.0216999,23.8995179],[115.0119199,23.8931416]]},"properties":{"key":"way:1014969070@overview:115_23","osmType":"way","osmId":1014969070,"sourceRegion":"guangdong","featureType":"infrastructure","railClass":"highspeed","mode":"rail","name":"京港高速线","nameEn":"Jinggang High-Speed Line","ref":"3003","usage":"main","highspeed":"yes","tunnel":"yes","status":"operational","color":"#E54848","dataOrigin":"datum-2026-08-01","sourceKey":"way:1014969070"}},{"type":"Feature","geometry":{"type":"LineString","coordinates":[[115.0119199,23.8931416],[115.0,23.88499243330246]]},"properties":{"key":"way:1014969071@overview:115_23","osmType":"way","osmId":1014969071,"sourceRegion":"guangdong","featureType":"infrastructure","railClass":"highspeed","mode":"rail","name":"京港高速线","nameEn":"Jinggang High-Speed Line","ref":"3003","usage":"main","highspeed":"yes","status":"operational","color":"#E54848","dataOrigin":"datum-2026-08-01","sourceKey":"way:1014969071"}},{"type":"Feature","geometry":{"type":"LineString","coordinates":[[115.9908241,23.9732914],[115.9941244,23.9718277]]},"properties":{"key":"way:1104499996@overview:115_23","osmType":"way","osmId":1104499996,"sourceRegion":"guangdong","featureType":"infrastructure","railClass":"national","mode":"rail","name":"畲龙线","ref":"0716","usage":"main","status":"operational","color":"#E54848","dataOrigin":"datum-2026-08-01","sourceKey":"way:1104499996"}},{"type":"Feature","geometry":{"type":"LineString","coordinates":[[115.9941244,23.9718277],[115.9953764,23.9718178]]},"properties":{"key":"way:1104499997@overview:115_23","osmType":"way","osmId":1104499997,"sourceRegion":"guangdong","featureType":"infrastructure","railClass":"national","mode":"rail","name":"畲龙线","ref":"0716","usage":"main","tunnel":"yes","status":"operational","color":"#E54848","dataOrigin":"datum-2026-08-01","sourceKey":"way:1104499997"}},{"type":"Feature","geometry":{"type":"LineString","coordinates":[[115.9953764,23.9718178],[115.9978151,23.9717787]]},"properties":{"key":"way:1104499998@overview:115_23","osmType":"way","osmId":1104499998,"sourceRegion":"guangdong","featureType":"infrastructure","railClass":"national","mode":"rail","name":"畲龙线","ref":"0716","usage":"main","status":"operational","color":"#E54848","dataOrigin":"datum-2026-08-01","sourceKey":"way:1104499998"}},{"type":"Feature","geometry":{"type":"LineString","coordinates":[[115.9978151,23.9717787],[115.9985769,23.971612]]},"properties":{"key":"way:1104499999@overview:115_23","osmType":"way","osmId":1104499999,"sourceRegion":"guangdong","featureType":"infrastructure","railClass":"national","mode":"rail","name":"畲龙线","ref":"0716","usage":"main","tunnel":"yes","status":"operational","color":"#E54848","dataOrigin":"datum-2026-08-01","sourceKey":"way:1104499999"}},{"type":"Feature","geometry":{"type":"LineString","coordinates":[[115.9899455,23.9747981],[115.9904026,23.9737143]]},"properties":{"key":"way:1104500012@overview:115_23","osmType":"way","osmId":1104500012,"sourceRegion":"guangdong","featureType":"infrastructure","railClass":"national","mode":"rail","name":"畲龙线","ref":"0716","usage":"main","tunnel":"yes","status":"operational","color":"#E54848","dataOrigin":"datum-2026-08-01","sourceKey":"way:1104500012"}},{"type":"Feature","geometry":{"type":"LineString","coordinates":[[115.9905222,23.9735715],[115.9908241,23.9732914]]},"properties":{"key":"way:1104500013@overview:115_23","osmType":"way","osmId":1104500013,"sourceRegion":"guangdong","featureType":"infrastructure","railClass":"national","mode":"rail","name":"畲龙线","ref":"0716","usage":"main","bridge":"yes","status":"operational","color":"#E54848","dataOrigin":"datum-2026-08-01","sourceKey":"way:1104500013"}},{"type":"Feature","geometry":{"type":"LineString","coordinates":[[115.9897887,23.9756352],[115.9899455,23.9747981]]},"properties":{"key":"way:1104500014@overview:115_23","osmType":"way","osmId":1104500014,"sourceRegion":"guangdong","featureType":"infrastructure","railClass":"national","mode":"rail","name":"畲龙线","ref":"0716","usage":"main","status":"operational","color":"#E54848","dataOrigin":"datum-2026-08-01","sourceKey":"way:1104500014"}},{"type":"Feature","geometry":{"type":"LineString","coordinates":[[115.9904026,23.9737143],[115.9905222,23.9735715]]},"properties":{"key":"way:1104500015@overview:115_23","osmType":"way","osmId":1104500015,"sourceRegion":"guangdong","featureType":"infrastructure","railClass":"national","mode":"rail","name":"畲龙线","ref":"0716","usage":"main","status":"operational","color":"#E54848","dataOrigin":"datum-2026-08-01","sourceKey":"way:1104500015"}},{"type":"Feature","geometry":{"type":"LineString","coordinates":[[115.989476,23.9785387],[115.9870764,23.9858885]]},"properties":{"key":"way:1104500016@overview:115_23","osmType":"way","osmId":1104500016,"sourceRegion":"guangdong","featureType":"infrastructure","railClass":"national","mode":"rail","name":"未命名","status":"operational","color":"#E54848","dataOrigin":"datum-2026-08-01","sourceKey":"way:1104500016"}},{"type":"Feature","geometry":{"type":"LineString","coordinates":[[115.9894257,23.9790706],[115.9869277,23.9862467]]},"properties":{"key":"way:1104500017@overview:115_23","osmType":"way","osmId":1104500017,"sourceRegion":"guangdong","featureType":"infrastructure","railClass":"national","mode":"rail","name":"未命名","status":"operational","color":"#E54848","dataOrigin":"datum-2026-08-01","sourceKey":"way:1104500017"}},{"type":"Feature","geometry":{"type":"LineString","coordinates":[[115.0241666,23.9280994],[115.0285587,23.9307987]]},"properties":{"key":"way:1323424137@overview:115_23","osmType":"way","osmId":1323424137,"sourceRegion":"guangdong","featureType":"infrastructure","railClass":"national","mode":"rail","name":"京九线","nameEn":"Jingjiu Line","ref":"0005","usage":"main","status":"operational","color":"#E54848","dataOrigin":"datum-2026-08-01","sourceKey":"way:1323424137"}},{"type":"Feature","geometry":{"type":"LineString","coordinates":[[115.0241666,23.9280994],[115.0011277,23.9148253]]},"properties":{"key":"way:1323424138@overview:115_23","osmType":"way","osmId":1323424138,"sourceRegion":"guangdong","featureType":"infrastructure","railClass":"national","mode":"rail","name":"京九线","nameEn":"Jingjiu Line","ref":"0005","usage":"main","status":"operational","color":"#E54848","dataOrigin":"datum-2026-08-01","sourceKey":"way:1323424138"}},{"type":"Feature","geometry":{"type":"LineString","coordinates":[[115.0839945948856,24.0],[115.0837988,23.9997448]]},"properties":{"key":"way:1341985594@overview:115_23","osmType":"way","osmId":1341985594,"sourceRegion":"guangdong","featureType":"infrastructure","railClass":"national","mode":"rail","name":"京九线","nameEn":"Jingjiu Line","ref":"0005","usage":"main","tunnel":"yes","status":"operational","color":"#E54848","dataOrigin":"datum-2026-08-01","sourceKey":"way:1341985594"}},{"type":"Feature","geometry":{"type":"LineString","coordinates":[[115.0837988,23.9997448],[115.0784504,23.994898]]},"properties":{"key":"way:1341985595@overview:115_23","osmType":"way","osmId":1341985595,"sourceRegion":"guangdong","featureType":"infrastructure","railClass":"national","mode":"rail","name":"京九线","nameEn":"Jingjiu Line","ref":"0005","usage":"main","status":"operational","color":"#E54848","dataOrigin":"datum-2026-08-01","sourceKey":"way:1341985595"}},{"type":"Feature","geometry":{"type":"LineString","coordinates":[[115.0837934,23.998598],[115.0824191,23.9974263]]},"properties":{"key":"way:1341985596@overview:115_23","osmType":"way","osmId":1341985596,"sourceRegion":"guangdong","featureType":"infrastructure","railClass":"national","mode":"rail","name":"京九线","nameEn":"Jingjiu Line","ref":"0005","usage":"main","status":"operational","color":"#E54848","dataOrigin":"datum-2026-08-01","sourceKey":"way:1341985596"}},{"type":"Feature","geometry":{"type":"LineString","coordinates":[[115.08462480967594,24.0],[115.0837934,23.998598]]},"properties":{"key":"way:1341985597@overview:115_23","osmType":"way","osmId":1341985597,"sourceRegion":"guangdong","featureType":"infrastructure","railClass":"national","mode":"rail","name":"京九线","nameEn":"Jingjiu Line","ref":"0005","usage":"main","tunnel":"yes","status":"operational","color":"#E54848","dataOrigin":"datum-2026-08-01","sourceKey":"way:1341985597"}},{"type":"Feature","geometry":{"type":"LineString","coordinates":[[115.0813258,23.9966378],[115.078665,23.9947411]]},"properties":{"key":"way:1341985598@overview:115_23","osmType":"way","osmId":1341985598,"sourceRegion":"guangdong","featureType":"infrastructure","railClass":"national","mode":"rail","name":"京九线","nameEn":"Jingjiu Line","ref":"0005","usage":"main","status":"operational","color":"#E54848","dataOrigin":"datum-2026-08-01","sourceKey":"way:1341985598"}},{"type":"Feature","geometry":{"type":"LineString","coordinates":[[115.0824191,23.9974263],[115.0813258,23.9966378]]},"properties":{"key":"way:1341985599@overview:115_23","osmType":"way","osmId":1341985599,"sourceRegion":"guangdong","featureType":"infrastructure","railClass":"national","mode":"rail","name":"京九线","nameEn":"Jingjiu Line","ref":"0005","usage":"main","tunnel":"yes","status":"operational","color":"#E54848","dataOrigin":"datum-2026-08-01","sourceKey":"way:1341985599"}},{"type":"Feature","geometry":{"type":"LineString","coordinates":[[115.0784504,23.994898],[115.0778282,23.9942952]]},"properties":{"key":"way:1341985600@overview:115_23","osmType":"way","osmId":1341985600,"sourceRegion":"guangdong","featureType":"infrastructure","railClass":"national","mode":"rail","name":"京九线","nameEn":"Jingjiu Line","ref":"0005","usage":"main","bridge":"yes","status":"operational","color":"#E54848","dataOrigin":"datum-2026-08-01","sourceKey":"way:1341985600"}},{"type":"Feature","geometry":{"type":"LineString","coordinates":[[115.078665,23.9947411],[115.0779194,23.9941824]]},"properties":{"key":"way:1341985601@overview:115_23","osmType":"way","osmId":1341985601,"sourceRegion":"guangdong","featureType":"infrastructure","railClass":"national","mode":"rail","name":"京九线","nameEn":"Jingjiu Line","ref":"0005","usage":"main","bridge":"yes","status":"operational","color":"#E54848","dataOrigin":"datum-2026-08-01","sourceKey":"way:1341985601"}},{"type":"Feature","geometry":{"type":"LineString","coordinates":[[115.0779194,23.9941824],[115.0682849,23.9831305]]},"properties":{"key":"way:1341985602@overview:115_23","osmType":"way","osmId":1341985602,"sourceRegion":"guangdong","featureType":"infrastructure","railClass":"national","mode":"rail","name":"京九线","nameEn":"Jingjiu Line","ref":"0005","usage":"main","status":"operational","color":"#E54848","dataOrigin":"datum-2026-08-01","sourceKey":"way:1341985602"}},{"type":"Feature","geometry":{"type":"LineString","coordinates":[[115.0778282,23.9942952],[115.0681347,23.9832286]]},"properties":{"key":"way:1341985603@overview:115_23","osmType":"way","osmId":1341985603,"sourceRegion":"guangdong","featureType":"infrastructure","railClass":"national","mode":"rail","name":"京九线","nameEn":"Jingjiu Line","ref":"0005","usage":"main","status":"operational","color":"#E54848","dataOrigin":"datum-2026-08-01","sourceKey":"way:1341985603"}},{"type":"Feature","geometry":{"type":"LineString","coordinates":[[115.0682849,23.9831305],[115.0678503,23.9822238]]},"properties":{"key":"way:1341985604@overview:115_23","osmType":"way","osmId":1341985604,"sourceRegion":"guangdong","featureType":"infrastructure","railClass":"national","mode":"rail","name":"京九线","nameEn":"Jingjiu Line","ref":"0005","usage":"main","bridge":"yes","status":"operational","color":"#E54848","dataOrigin":"datum-2026-08-01","sourceKey":"way:1341985604"}},{"type":"Feature","geometry":{"type":"LineString","coordinates":[[115.0681347,23.9832286],[115.0677484,23.9822385]]},"properties":{"key":"way:1341985605@overview:115_23","osmType":"way","osmId":1341985605,"sourceRegion":"guangdong","featureType":"infrastructure","railClass":"national","mode":"rail","name":"京九线","nameEn":"Jingjiu Line","ref":"0005","usage":"main","bridge":"yes","status":"operational","color":"#E54848","dataOrigin":"datum-2026-08-01","sourceKey":"way:1341985605"}},{"type":"Feature","geometry":{"type":"LineString","coordinates":[[115.0678503,23.9822238],[115.0633013,23.9733011],[115.0635014,23.9683344]]},"properties":{"key":"way:1341985606@overview:115_23","osmType":"way","osmId":1341985606,"sourceRegion":"guangdong","featureType":"infrastructure","railClass":"national","mode":"rail","name":"京九线","nameEn":"Jingjiu Line","ref":"0005","usage":"main","status":"operational","color":"#E54848","dataOrigin":"datum-2026-08-01","sourceKey":"way:1341985606"}},{"type":"Feature","geometry":{"type":"LineString","coordinates":[[115.0677484,23.9822385],[115.063494,23.9739925]]},"properties":{"key":"way:1341985607@overview:115_23","osmType":"way","osmId":1341985607,"sourceRegion":"guangdong","featureType":"infrastructure","railClass":"national","mode":"rail","name":"京九线","nameEn":"Jingjiu Line","ref":"0005","usage":"main","status":"operational","color":"#E54848","dataOrigin":"datum-2026-08-01","sourceKey":"way:1341985607"}},{"type":"Feature","geometry":{"type":"LineString","coordinates":[[115.0300527,23.9313904],[115.0343661,23.9329474]]},"properties":{"key":"way:1525179362@overview:115_23","osmType":"way","osmId":1525179362,"sourceRegion":"guangdong","featureType":"infrastructure","railClass":"national","mode":"rail","name":"京九线","nameEn":"Jingjiu Line","ref":"0005","usage":"main","status":"operational","color":"#E54848","dataOrigin":"datum-2026-08-01","sourceKey":"way:1525179362"}},{"type":"Feature","geometry":{"type":"LineString","coordinates":[[115.0285587,23.9307987],[115.0300527,23.9313904]]},"properties":{"key":"way:1525179363@overview:115_23","osmType":"way","osmId":1525179363,"sourceRegion":"guangdong","featureType":"infrastructure","railClass":"national","mode":"rail","name":"京九线","nameEn":"Jingjiu Line","ref":"0005","usage":"main","bridge":"yes","status":"operational","color":"#E54848","dataOrigin":"datum-2026-08-01","sourceKey":"way:1525179363"}}]}