{"type":"FeatureCollection","features":[{"type":"Feature","geometry":{"type":"LineString","coordinates":[[116.0436719,22.9078155],[116.1137,22.9272413],[116.1576908,22.9584195],[116.176161,22.967511],[116.2569068,22.9924889],[116.3065346028769,23.0]]},"properties":{"key":"way:818797814@overview:116_22","osmType":"way","osmId":818797814,"sourceRegion":"guangdong","featureType":"infrastructure","railClass":"highspeed","mode":"rail","name":"甬广高速线","nameEn":"Ningbo–Guangzhou Highspeed-Railway","ref":"汕汕高速线","usage":"main","highspeed":"yes","bridge":"viaduct","status":"operational","color":"#E54848","dataOrigin":"datum-2026-08-01","sourceKey":"way:818797814"}},{"type":"Feature","geometry":{"type":"LineString","coordinates":[[116.0312188,22.9058115],[116.0436719,22.9078155]]},"properties":{"key":"way:818797815@overview:116_22","osmType":"way","osmId":818797815,"sourceRegion":"guangdong","featureType":"infrastructure","railClass":"highspeed","mode":"rail","name":"甬广高速线","nameEn":"Ningbo–Guangzhou Highspeed-Railway","ref":"汕汕高速线","usage":"main","highspeed":"yes","status":"operational","color":"#E54848","dataOrigin":"datum-2026-08-01","sourceKey":"way:818797815"}},{"type":"Feature","geometry":{"type":"LineString","coordinates":[[116.0199518,22.9053349],[116.0312188,22.9058115]]},"properties":{"key":"way:818797816@overview:116_22","osmType":"way","osmId":818797816,"sourceRegion":"guangdong","featureType":"infrastructure","railClass":"highspeed","mode":"rail","name":"甬广高速线","nameEn":"Ningbo–Guangzhou Highspeed-Railway","ref":"汕汕高速线","usage":"main","highspeed":"yes","bridge":"yes","status":"operational","color":"#E54848","dataOrigin":"datum-2026-08-01","sourceKey":"way:818797816"}},{"type":"Feature","geometry":{"type":"LineString","coordinates":[[116.0032583,22.9048681],[116.0,22.90477665922767]]},"properties":{"key":"way:818797819@overview:116_22","osmType":"way","osmId":818797819,"sourceRegion":"guangdong","featureType":"infrastructure","railClass":"highspeed","mode":"rail","name":"甬广高速线","nameEn":"Ningbo–Guangzhou Highspeed-Railway","ref":"汕汕高速线","usage":"main","highspeed":"yes","status":"operational","color":"#E54848","dataOrigin":"datum-2026-08-01","sourceKey":"way:818797819"}},{"type":"Feature","geometry":{"type":"LineString","coordinates":[[116.0,22.90484420206706],[116.0032684,22.9049364]]},"properties":{"key":"way:1124621677@overview:116_22","osmType":"way","osmId":1124621677,"sourceRegion":"guangdong","featureType":"infrastructure","railClass":"highspeed","mode":"rail","name":"甬广高速线","nameEn":"Ningbo–Guangzhou Highspeed-Railway","ref":"汕汕高速线","usage":"main","highspeed":"yes","status":"operational","color":"#E54848","dataOrigin":"datum-2026-08-01","sourceKey":"way:1124621677"}},{"type":"Feature","geometry":{"type":"LineString","coordinates":[[116.0032684,22.9049364],[116.011857,22.905142]]},"properties":{"key":"way:1124621678@overview:116_22","osmType":"way","osmId":1124621678,"sourceRegion":"guangdong","featureType":"infrastructure","railClass":"highspeed","mode":"rail","name":"甬广高速线","nameEn":"Ningbo–Guangzhou Highspeed-Railway","ref":"汕汕高速线","usage":"main","highspeed":"yes","bridge":"yes","status":"operational","color":"#E54848","dataOrigin":"datum-2026-08-01","sourceKey":"way:1124621678"}},{"type":"Feature","geometry":{"type":"LineString","coordinates":[[116.0436454,22.9078922],[116.1136598,22.9272917],[116.1576474,22.9584556],[116.1725796,22.9663533],[116.2647892,22.9940822]]},"properties":{"key":"way:1283321183@overview:116_22","osmType":"way","osmId":1283321183,"sourceRegion":"guangdong","featureType":"infrastructure","railClass":"highspeed","mode":"rail","name":"甬广高速线","nameEn":"Ningbo–Guangzhou Highspeed-Railway","ref":"汕汕高速线","usage":"main","highspeed":"yes","bridge":"viaduct","status":"operational","color":"#E54848","dataOrigin":"datum-2026-08-01","sourceKey":"way:1283321183"}},{"type":"Feature","geometry":{"type":"LineString","coordinates":[[116.011857,22.905142],[116.0199392,22.9054214]]},"properties":{"key":"way:1283321184@overview:116_22","osmType":"way","osmId":1283321184,"sourceRegion":"guangdong","featureType":"infrastructure","railClass":"highspeed","mode":"rail","name":"甬广高速线","nameEn":"Ningbo–Guangzhou Highspeed-Railway","ref":"汕汕高速线","usage":"main","highspeed":"yes","bridge":"yes","status":"operational","color":"#E54848","dataOrigin":"datum-2026-08-01","sourceKey":"way:1283321184"}},{"type":"Feature","geometry":{"type":"LineString","coordinates":[[116.031223,22.9059177],[116.0436454,22.9078922]]},"properties":{"key":"way:1283321186@overview:116_22","osmType":"way","osmId":1283321186,"sourceRegion":"guangdong","featureType":"infrastructure","railClass":"highspeed","mode":"rail","name":"甬广高速线","nameEn":"Ningbo–Guangzhou Highspeed-Railway","ref":"汕汕高速线","usage":"main","highspeed":"yes","status":"operational","color":"#E54848","dataOrigin":"datum-2026-08-01","sourceKey":"way:1283321186"}},{"type":"Feature","geometry":{"type":"LineString","coordinates":[[116.0199392,22.9054214],[116.0236627,22.9055508]]},"properties":{"key":"way:1283321187@overview:116_22","osmType":"way","osmId":1283321187,"sourceRegion":"guangdong","featureType":"infrastructure","railClass":"highspeed","mode":"rail","name":"甬广高速线","nameEn":"Ningbo–Guangzhou Highspeed-Railway","ref":"汕汕高速线","usage":"main","highspeed":"yes","bridge":"yes","status":"operational","color":"#E54848","dataOrigin":"datum-2026-08-01","sourceKey":"way:1283321187"}},{"type":"Feature","geometry":{"type":"LineString","coordinates":[[116.0236627,22.9055508],[116.0237855,22.9055551]]},"properties":{"key":"way:1283321188@overview:116_22","osmType":"way","osmId":1283321188,"sourceRegion":"guangdong","featureType":"infrastructure","railClass":"highspeed","mode":"rail","name":"甬广高速线","nameEn":"Ningbo–Guangzhou Highspeed-Railway","ref":"汕汕高速线","usage":"main","highspeed":"yes","bridge":"yes","status":"operational","color":"#E54848","dataOrigin":"datum-2026-08-01","sourceKey":"way:1283321188"}},{"type":"Feature","geometry":{"type":"LineString","coordinates":[[116.0237855,22.9055551],[116.031223,22.9059177]]},"properties":{"key":"way:1283321189@overview:116_22","osmType":"way","osmId":1283321189,"sourceRegion":"guangdong","featureType":"infrastructure","railClass":"highspeed","mode":"rail","name":"甬广高速线","nameEn":"Ningbo–Guangzhou Highspeed-Railway","ref":"汕汕高速线","usage":"main","highspeed":"yes","bridge":"yes","status":"operational","color":"#E54848","dataOrigin":"datum-2026-08-01","sourceKey":"way:1283321189"}},{"type":"Feature","geometry":{"type":"LineString","coordinates":[[116.2645192,22.9907508],[116.2841287,22.9962554]]},"properties":{"key":"way:1313681324@overview:116_22","osmType":"way","osmId":1313681324,"sourceRegion":"guangdong","featureType":"infrastructure","railClass":"construction","mode":"construction","name":"揭惠铁路","usage":"main","bridge":"yes","status":"construction","color":"#E54848","dataOrigin":"datum-2026-08-01","sourceKey":"way:1313681324"}},{"type":"Feature","geometry":{"type":"LineString","coordinates":[[116.2331808,22.9776824],[116.2222005,22.9748861],[116.2013808,22.9641542]]},"properties":{"key":"way:1313681325@overview:116_22","osmType":"way","osmId":1313681325,"sourceRegion":"guangdong","featureType":"infrastructure","railClass":"construction","mode":"construction","name":"大南海支线","usage":"branch","bridge":"yes","status":"construction","color":"#E54848","dataOrigin":"datum-2026-08-01","sourceKey":"way:1313681325"}},{"type":"Feature","geometry":{"type":"LineString","coordinates":[[116.26120870754913,23.0],[116.2619473,22.9938994]]},"properties":{"key":"way:1458777761@overview:116_22","osmType":"way","osmId":1458777761,"sourceRegion":"guangdong","featureType":"infrastructure","railClass":"construction","mode":"construction","name":"揭惠铁路","usage":"main","status":"construction","color":"#E54848","dataOrigin":"datum-2026-08-01","sourceKey":"way:1458777761"}},{"type":"Feature","geometry":{"type":"LineString","coordinates":[[116.2619473,22.9938994],[116.2621684,22.9931827]]},"properties":{"key":"way:1458777762@overview:116_22","osmType":"way","osmId":1458777762,"sourceRegion":"guangdong","featureType":"infrastructure","railClass":"construction","mode":"construction","name":"揭惠铁路","usage":"main","bridge":"yes","status":"construction","color":"#E54848","dataOrigin":"datum-2026-08-01","sourceKey":"way:1458777762"}},{"type":"Feature","geometry":{"type":"LineString","coordinates":[[116.2621684,22.9931827],[116.2645192,22.9907508]]},"properties":{"key":"way:1458777763@overview:116_22","osmType":"way","osmId":1458777763,"sourceRegion":"guangdong","featureType":"infrastructure","railClass":"construction","mode":"construction","name":"揭惠铁路","usage":"main","status":"construction","color":"#E54848","dataOrigin":"datum-2026-08-01","sourceKey":"way:1458777763"}},{"type":"Feature","geometry":{"type":"LineString","coordinates":[[116.2616627,22.9961307],[116.2618303,22.9938889]]},"properties":{"key":"way:1458777764@overview:116_22","osmType":"way","osmId":1458777764,"sourceRegion":"guangdong","featureType":"infrastructure","railClass":"construction","mode":"construction","name":"大南海支线","usage":"branch","status":"construction","color":"#E54848","dataOrigin":"datum-2026-08-01","sourceKey":"way:1458777764"}},{"type":"Feature","geometry":{"type":"LineString","coordinates":[[116.2618303,22.9938889],[116.2618678,22.993158]]},"properties":{"key":"way:1458777765@overview:116_22","osmType":"way","osmId":1458777765,"sourceRegion":"guangdong","featureType":"infrastructure","railClass":"construction","mode":"construction","name":"大南海支线","usage":"branch","bridge":"yes","status":"construction","color":"#E54848","dataOrigin":"datum-2026-08-01","sourceKey":"way:1458777765"}},{"type":"Feature","geometry":{"type":"LineString","coordinates":[[116.2618678,22.993158],[116.2544038,22.9832027],[116.2331808,22.9776824]]},"properties":{"key":"way:1458777766@overview:116_22","osmType":"way","osmId":1458777766,"sourceRegion":"guangdong","featureType":"infrastructure","railClass":"construction","mode":"construction","name":"大南海支线","usage":"branch","status":"construction","color":"#E54848","dataOrigin":"datum-2026-08-01","sourceKey":"way:1458777766"}},{"type":"Feature","geometry":{"type":"LineString","coordinates":[[116.2013808,22.9641542],[116.1958886,22.9580388],[116.2076987,22.9446385]]},"properties":{"key":"way:1458777767@overview:116_22","osmType":"way","osmId":1458777767,"sourceRegion":"guangdong","featureType":"infrastructure","railClass":"construction","mode":"construction","name":"大南海支线","usage":"branch","status":"construction","color":"#E54848","dataOrigin":"datum-2026-08-01","sourceKey":"way:1458777767"}},{"type":"Feature","geometry":{"type":"LineString","coordinates":[[116.0032583,22.9048681],[116.0118484,22.905056]]},"properties":{"key":"way:1461608779@overview:116_22","osmType":"way","osmId":1461608779,"sourceRegion":"guangdong","featureType":"infrastructure","railClass":"highspeed","mode":"rail","name":"甬广高速线","nameEn":"Ningbo–Guangzhou Highspeed-Railway","ref":"汕汕高速线","usage":"main","highspeed":"yes","bridge":"yes","status":"operational","color":"#E54848","dataOrigin":"datum-2026-08-01","sourceKey":"way:1461608779"}},{"type":"Feature","geometry":{"type":"LineString","coordinates":[[116.0118484,22.905056],[116.0199518,22.9053349]]},"properties":{"key":"way:1461608780@overview:116_22","osmType":"way","osmId":1461608780,"sourceRegion":"guangdong","featureType":"infrastructure","railClass":"highspeed","mode":"rail","name":"甬广高速线","nameEn":"Ningbo–Guangzhou Highspeed-Railway","ref":"汕汕高速线","usage":"main","highspeed":"yes","bridge":"yes","status":"operational","color":"#E54848","dataOrigin":"datum-2026-08-01","sourceKey":"way:1461608780"}},{"type":"Feature","geometry":{"type":"LineString","coordinates":[[116.2647892,22.9940822],[116.30569248140621,23.0]]},"properties":{"key":"way:1478717252@overview:116_22","osmType":"way","osmId":1478717252,"sourceRegion":"guangdong","featureType":"infrastructure","railClass":"highspeed","mode":"rail","name":"甬广高速线","nameEn":"Ningbo–Guangzhou Highspeed-Railway","ref":"汕汕高速线","usage":"main","highspeed":"yes","bridge":"viaduct","status":"operational","color":"#E54848","dataOrigin":"datum-2026-08-01","sourceKey":"way:1478717252"}}]}