{"type":"FeatureCollection","features":[{"type":"Feature","geometry":{"type":"LineString","coordinates":[[117.0,23.746387547941183],[117.0143046,23.7510199]]},"properties":{"key":"way:1030402698@overview:117_23","osmType":"way","osmId":1030402698,"sourceRegion":"guangdong","featureType":"infrastructure","railClass":"highspeed","mode":"rail","name":"杭深线","nameEn":"Hangzhou-Shenzhen Line","ref":"3009","usage":"main","highspeed":"yes","status":"operational","color":"#E54848","dataOrigin":"datum-2026-08-01","sourceKey":"way:1030402698"}},{"type":"Feature","geometry":{"type":"LineString","coordinates":[[117.0,23.746330199428552],[117.0143261,23.7509664]]},"properties":{"key":"way:1030402699@overview:117_23","osmType":"way","osmId":1030402699,"sourceRegion":"guangdong","featureType":"infrastructure","railClass":"highspeed","mode":"rail","name":"杭深线","nameEn":"Hangzhou-Shenzhen Line","ref":"3009","usage":"main","highspeed":"yes","status":"operational","color":"#E54848","dataOrigin":"datum-2026-08-01","sourceKey":"way:1030402699"}},{"type":"Feature","geometry":{"type":"LineString","coordinates":[[117.0143046,23.7510199],[117.0162955,23.7515969]]},"properties":{"key":"way:1030402700@overview:117_23","osmType":"way","osmId":1030402700,"sourceRegion":"guangdong","featureType":"infrastructure","railClass":"highspeed","mode":"rail","name":"杭深线","nameEn":"Hangzhou-Shenzhen Line","ref":"3009","usage":"main","highspeed":"yes","bridge":"yes","status":"operational","color":"#E54848","dataOrigin":"datum-2026-08-01","sourceKey":"way:1030402700"}},{"type":"Feature","geometry":{"type":"LineString","coordinates":[[117.0143261,23.7509664],[117.0163113,23.7515449]]},"properties":{"key":"way:1030402701@overview:117_23","osmType":"way","osmId":1030402701,"sourceRegion":"guangdong","featureType":"infrastructure","railClass":"highspeed","mode":"rail","name":"杭深线","nameEn":"Hangzhou-Shenzhen Line","ref":"3009","usage":"main","highspeed":"yes","bridge":"yes","status":"operational","color":"#E54848","dataOrigin":"datum-2026-08-01","sourceKey":"way:1030402701"}},{"type":"Feature","geometry":{"type":"LineString","coordinates":[[117.0163113,23.7515449],[117.0183934,23.7520022]]},"properties":{"key":"way:1030403055@overview:117_23","osmType":"way","osmId":1030403055,"sourceRegion":"guangdong","featureType":"infrastructure","railClass":"highspeed","mode":"rail","name":"杭深线","nameEn":"Hangzhou-Shenzhen Line","ref":"3009","usage":"main","highspeed":"yes","status":"operational","color":"#E54848","dataOrigin":"datum-2026-08-01","sourceKey":"way:1030403055"}},{"type":"Feature","geometry":{"type":"LineString","coordinates":[[117.0162955,23.7515969],[117.018379,23.7520585]]},"properties":{"key":"way:1030403056@overview:117_23","osmType":"way","osmId":1030403056,"sourceRegion":"guangdong","featureType":"infrastructure","railClass":"highspeed","mode":"rail","name":"杭深线","nameEn":"Hangzhou-Shenzhen Line","ref":"3009","usage":"main","highspeed":"yes","status":"operational","color":"#E54848","dataOrigin":"datum-2026-08-01","sourceKey":"way:1030403056"}},{"type":"Feature","geometry":{"type":"LineString","coordinates":[[117.018379,23.7520585],[117.0274144,23.7539229]]},"properties":{"key":"way:1030403057@overview:117_23","osmType":"way","osmId":1030403057,"sourceRegion":"guangdong","featureType":"infrastructure","railClass":"highspeed","mode":"rail","name":"杭深线","nameEn":"Hangzhou-Shenzhen Line","ref":"3009","usage":"main","highspeed":"yes","bridge":"yes","status":"operational","color":"#E54848","dataOrigin":"datum-2026-08-01","sourceKey":"way:1030403057"}},{"type":"Feature","geometry":{"type":"LineString","coordinates":[[117.0183934,23.7520022],[117.027438,23.7538736]]},"properties":{"key":"way:1030403058@overview:117_23","osmType":"way","osmId":1030403058,"sourceRegion":"guangdong","featureType":"infrastructure","railClass":"highspeed","mode":"rail","name":"杭深线","nameEn":"Hangzhou-Shenzhen Line","ref":"3009","usage":"main","highspeed":"yes","bridge":"yes","status":"operational","color":"#E54848","dataOrigin":"datum-2026-08-01","sourceKey":"way:1030403058"}},{"type":"Feature","geometry":{"type":"LineString","coordinates":[[117.020042,23.6502769],[117.0460868,23.6560816],[117.06851,23.6639826],[117.1028465,23.6848858]]},"properties":{"key":"way:1315931065@overview:117_23","osmType":"way","osmId":1315931065,"sourceRegion":"guangdong","featureType":"infrastructure","railClass":"construction","mode":"construction","name":"甬广高速线","nameEn":"Ningbo–Guangzhou Highspeed-Railway","ref":"漳汕高速线","usage":"main","highspeed":"yes","bridge":"yes","status":"construction","color":"#E54848","dataOrigin":"datum-2026-08-01","sourceKey":"way:1315931065"}},{"type":"Feature","geometry":{"type":"LineString","coordinates":[[117.020042,23.6502769],[117.0,23.64430791186114]]},"properties":{"key":"way:1332602762@overview:117_23","osmType":"way","osmId":1332602762,"sourceRegion":"guangdong","featureType":"infrastructure","railClass":"construction","mode":"construction","name":"甬广高速线","nameEn":"Ningbo–Guangzhou Highspeed-Railway","ref":"漳汕高速线","usage":"main","highspeed":"yes","status":"construction","color":"#E54848","dataOrigin":"datum-2026-08-01","sourceKey":"way:1332602762"}},{"type":"Feature","geometry":{"type":"LineString","coordinates":[[117.1971974,23.7016434],[117.1269004,23.6927245],[117.1028465,23.6848858]]},"properties":{"key":"way:1334235991@overview:117_23","osmType":"way","osmId":1334235991,"sourceRegion":"guangdong","featureType":"infrastructure","railClass":"construction","mode":"construction","name":"甬广高速线","nameEn":"Ningbo–Guangzhou Highspeed-Railway","ref":"漳汕高速线","usage":"main","highspeed":"yes","status":"construction","color":"#E54848","dataOrigin":"datum-2026-08-01","sourceKey":"way:1334235991"}},{"type":"Feature","geometry":{"type":"LineString","coordinates":[[117.027438,23.7538736],[117.0653199,23.7616775]]},"properties":{"key":"way:1340572142@overview:117_23","osmType":"way","osmId":1340572142,"sourceRegion":"guangdong","featureType":"infrastructure","railClass":"highspeed","mode":"rail","name":"杭深线","nameEn":"Hangzhou-Shenzhen Line","ref":"3009","usage":"main","highspeed":"yes","status":"operational","color":"#E54848","dataOrigin":"datum-2026-08-01","sourceKey":"way:1340572142"}},{"type":"Feature","geometry":{"type":"LineString","coordinates":[[117.0274144,23.7539229],[117.0653035,23.7617294]]},"properties":{"key":"way:1340572143@overview:117_23","osmType":"way","osmId":1340572143,"sourceRegion":"guangdong","featureType":"infrastructure","railClass":"highspeed","mode":"rail","name":"杭深线","nameEn":"Hangzhou-Shenzhen Line","ref":"3009","usage":"main","highspeed":"yes","status":"operational","color":"#E54848","dataOrigin":"datum-2026-08-01","sourceKey":"way:1340572143"}},{"type":"Feature","geometry":{"type":"LineString","coordinates":[[117.0200583,23.6502299],[117.0461005,23.6560339],[117.0685352,23.6639389],[117.1028687,23.6848408]]},"properties":{"key":"way:1517122517@overview:117_23","osmType":"way","osmId":1517122517,"sourceRegion":"guangdong","featureType":"infrastructure","railClass":"construction","mode":"construction","name":"甬广高速线","nameEn":"Ningbo–Guangzhou Highspeed-Railway","ref":"漳汕高速线","usage":"main","highspeed":"yes","bridge":"yes","status":"construction","color":"#E54848","dataOrigin":"datum-2026-08-01","sourceKey":"way:1517122517"}},{"type":"Feature","geometry":{"type":"LineString","coordinates":[[117.0200583,23.6502299],[117.0,23.644256051518227]]},"properties":{"key":"way:1517122518@overview:117_23","osmType":"way","osmId":1517122518,"sourceRegion":"guangdong","featureType":"infrastructure","railClass":"construction","mode":"construction","name":"甬广高速线","nameEn":"Ningbo–Guangzhou Highspeed-Railway","ref":"漳汕高速线","usage":"main","highspeed":"yes","status":"construction","color":"#E54848","dataOrigin":"datum-2026-08-01","sourceKey":"way:1517122518"}}]}