{"type":"FeatureCollection","features":[{"type":"Feature","geometry":{"type":"Point","coordinates":[110.140906,20.3482521]},"properties":{"key":"node:8440210938","osmType":"node","osmId":8440210938,"sourceRegion":"guangdong","featureType":"station","railClass":"minor","mode":"station","name":"徐闻","nameEn":"Xuwen","status":"operational","color":"#52636F","dataOrigin":"datum-2026-08-01","sourceKey":"node:8440210938","stationGroup":"徐闻","hasOperationalRail":true,"hasConstructionRail":false}},{"type":"Feature","geometry":{"type":"LineString","coordinates":[[110.1409151,20.3482835],[110.1430077,20.3440761],[110.1431696,20.3437506],[110.1432579,20.3435732],[110.1437037,20.3426648],[110.1440446,20.3419771],[110.14428,20.3415165],[110.1443503,20.3413853],[110.1446899,20.3407413],[110.1449348,20.3403052],[110.1497643,20.3325584],[110.1500143,20.3320234],[110.1501137,20.3316491]]},"properties":{"key":"way:25174034@detail:440_81","osmType":"way","osmId":25174034,"sourceRegion":"guangdong","featureType":"infrastructure","railClass":"national","mode":"rail","name":"湛海线","ref":"0718","operator":"中国铁路广州局集团有限公司","usage":"main","status":"operational","color":"#E54848","dataOrigin":"datum-2026-08-01","sourceKey":"way:25174034"}},{"type":"Feature","geometry":{"type":"LineString","coordinates":[[110.07433224358452,20.5],[110.0743408,20.4999611],[110.0745858,20.4991611],[110.0748308,20.4985381],[110.0755378,20.4970141],[110.0777158,20.4926391],[110.0800258,20.4877661],[110.0804578,20.4869261],[110.0812208,20.4852341],[110.0831415,20.4811896],[110.0851198,20.4771711],[110.0875708,20.4724961],[110.0888344,20.4699748],[110.0909298,20.4659241],[110.0927378,20.4626111],[110.0933008,20.4614741],[110.0946248,20.4590611],[110.0956258,20.4571311],[110.0964048,20.4559281],[110.0988128,20.4529231],[110.1038958,20.4464391],[110.1059858,20.4438581],[110.1096017,20.4390911],[110.1102391,20.4382963],[110.1146448,20.4329161],[110.1165258,20.4304861],[110.1301378,20.4132111],[110.1307078,20.4124391],[110.1312778,20.4114381],[110.1316078,20.4105631],[110.1317908,20.4098441],[110.1318978,20.4091281],[110.1325328,20.3959961],[110.1329128,20.3893311],[110.1337213,20.3716883],[110.1338158,20.3694611],[110.1341128,20.3637191],[110.1342958,20.3624281],[110.1345898,20.3614181],[110.1349558,20.3605161],[110.1361528,20.3580131],[110.1390197,20.352156],[110.1390675,20.3520582],[110.1395005,20.3511737],[110.1409151,20.3482835]]},"properties":{"key":"way:221426319@detail:440_81","osmType":"way","osmId":221426319,"sourceRegion":"guangdong","featureType":"infrastructure","railClass":"national","mode":"rail","name":"湛海线","ref":"0718","operator":"中国铁路广州局集团有限公司","usage":"main","status":"operational","color":"#E54848","dataOrigin":"datum-2026-08-01","sourceKey":"way:221426319"}},{"type":"Feature","geometry":{"type":"LineString","coordinates":[[110.1501137,20.3316491],[110.1503005,20.3309467]]},"properties":{"key":"way:362611976@detail:440_81","osmType":"way","osmId":362611976,"sourceRegion":"guangdong","featureType":"infrastructure","railClass":"national","mode":"rail","name":"湛海线","ref":"0718","operator":"中国铁路广州局集团有限公司","usage":"main","bridge":"yes","status":"operational","color":"#E54848","dataOrigin":"datum-2026-08-01","sourceKey":"way:362611976"}},{"type":"Feature","geometry":{"type":"LineString","coordinates":[[110.1503005,20.3309467],[110.1504863,20.3301614],[110.1505263,20.3291534],[110.1504663,20.3284244],[110.1503113,20.3275464],[110.1491223,20.3220784],[110.1489643,20.3210984],[110.1489463,20.3198994],[110.1489763,20.3195514],[110.1499217,20.3144402],[110.1500763,20.3136044],[110.1501563,20.3130044],[110.1501993,20.3115684],[110.1501293,20.3109444],[110.1498473,20.3097044],[110.1494773,20.3086894],[110.1491873,20.3080934],[110.1487213,20.3073244],[110.1480219,20.3063833],[110.1467813,20.3044584],[110.1464243,20.3038464],[110.1459493,20.3027444],[110.1457513,20.3020444],[110.1456143,20.3010844],[110.1456113,20.3001094],[110.1457693,20.2991394],[110.1459773,20.2984364],[110.1461563,20.2979864],[110.1467413,20.2969334],[110.1484363,20.2944764],[110.1487763,20.2939114],[110.1490593,20.2933294],[110.1493863,20.2923364],[110.1495063,20.2917334],[110.1495843,20.2907314],[110.1495513,20.2901244],[110.1489104,20.2859196],[110.1473409,20.275183],[110.1472393,20.2746484],[110.1470573,20.2740414],[110.1467293,20.2732534],[110.1462813,20.2725034],[110.1456693,20.2718232],[110.1453617,20.2714809]]},"properties":{"key":"way:362611977@detail:440_81","osmType":"way","osmId":362611977,"sourceRegion":"guangdong","featureType":"infrastructure","railClass":"national","mode":"rail","name":"湛海线","ref":"0718","operator":"中国铁路广州局集团有限公司","usage":"main","status":"operational","color":"#E54848","dataOrigin":"datum-2026-08-01","sourceKey":"way:362611977"}},{"type":"Feature","geometry":{"type":"LineString","coordinates":[[110.1437735,20.2702744],[110.1399513,20.2677914],[110.1391363,20.2672314],[110.1383673,20.2666294],[110.1375323,20.2657964],[110.1371113,20.2652564],[110.1366423,20.2644964],[110.1363673,20.2638984],[110.1361393,20.2632864],[110.1359093,20.2622694],[110.1354043,20.2587644],[110.135154,20.2575244],[110.1348281,20.2565858],[110.1343841,20.255758],[110.1341428,20.2553692],[110.1338531,20.2549301],[110.1332798,20.2540676],[110.1327856,20.2533278],[110.1323008,20.252588],[110.1319964,20.2521313],[110.1313228,20.2511204],[110.1307906,20.2503161],[110.13058644274231,20.25]]},"properties":{"key":"way:672825570@detail:440_81","osmType":"way","osmId":672825570,"sourceRegion":"guangdong","featureType":"infrastructure","railClass":"national","mode":"rail","name":"湛海线","ref":"0718","operator":"中国铁路广州局集团有限公司","usage":"main","status":"operational","color":"#E54848","dataOrigin":"datum-2026-08-01","sourceKey":"way:672825570"}},{"type":"Feature","geometry":{"type":"LineString","coordinates":[[110.1453617,20.2714809],[110.1446615,20.2708697]]},"properties":{"key":"way:816978104@detail:440_81","osmType":"way","osmId":816978104,"sourceRegion":"guangdong","featureType":"infrastructure","railClass":"national","mode":"rail","name":"湛海线","ref":"0718","operator":"中国铁路广州局集团有限公司","usage":"main","bridge":"yes","status":"operational","color":"#E54848","dataOrigin":"datum-2026-08-01","sourceKey":"way:816978104"}},{"type":"Feature","geometry":{"type":"LineString","coordinates":[[110.1446615,20.2708697],[110.1437735,20.2702744]]},"properties":{"key":"way:816978105@detail:440_81","osmType":"way","osmId":816978105,"sourceRegion":"guangdong","featureType":"infrastructure","railClass":"national","mode":"rail","name":"湛海线","ref":"0718","operator":"中国铁路广州局集团有限公司","usage":"main","status":"operational","color":"#E54848","dataOrigin":"datum-2026-08-01","sourceKey":"way:816978105"}},{"type":"Feature","geometry":{"type":"LineString","coordinates":[[110.133134,20.2531281],[110.1328117,20.2527207]]},"properties":{"key":"way:1432168193@detail:440_81","osmType":"way","osmId":1432168193,"sourceRegion":"guangdong","featureType":"infrastructure","railClass":"minor","mode":"rail","name":"未命名","service":"yard","status":"operational","color":"#52636F","dataOrigin":"datum-2026-08-01","sourceKey":"way:1432168193"}},{"type":"Feature","geometry":{"type":"LineString","coordinates":[[110.133417,20.2535779],[110.1330855,20.2531625]]},"properties":{"key":"way:1432168194@detail:440_81","osmType":"way","osmId":1432168194,"sourceRegion":"guangdong","featureType":"infrastructure","railClass":"minor","mode":"rail","name":"未命名","service":"yard","tunnel":"building_passage","status":"operational","color":"#52636F","dataOrigin":"datum-2026-08-01","sourceKey":"way:1432168194"}},{"type":"Feature","geometry":{"type":"LineString","coordinates":[[110.1341663,20.2545206],[110.1339591,20.254257],[110.133417,20.2535779]]},"properties":{"key":"way:1432168195@detail:440_81","osmType":"way","osmId":1432168195,"sourceRegion":"guangdong","featureType":"infrastructure","railClass":"minor","mode":"rail","name":"未命名","service":"yard","status":"operational","color":"#52636F","dataOrigin":"datum-2026-08-01","sourceKey":"way:1432168195"}},{"type":"Feature","geometry":{"type":"LineString","coordinates":[[110.1334636,20.2535448],[110.133134,20.2531281]]},"properties":{"key":"way:1432168196@detail:440_81","osmType":"way","osmId":1432168196,"sourceRegion":"guangdong","featureType":"infrastructure","railClass":"minor","mode":"rail","name":"未命名","service":"yard","tunnel":"building_passage","status":"operational","color":"#52636F","dataOrigin":"datum-2026-08-01","sourceKey":"way:1432168196"}},{"type":"Feature","geometry":{"type":"LineString","coordinates":[[110.13066970377768,20.25],[110.1307714,20.2501416]]},"properties":{"key":"way:1432168206@detail:440_81","osmType":"way","osmId":1432168206,"sourceRegion":"guangdong","featureType":"infrastructure","railClass":"minor","mode":"proposed","name":"未命名","service":"yard","status":"operational","color":"#52636F","dataOrigin":"datum-2026-08-01","sourceKey":"way:1432168206"}},{"type":"Feature","geometry":{"type":"LineString","coordinates":[[110.13067764776842,20.25],[110.1307714,20.2501416],[110.1312862,20.250919],[110.1315732,20.2513688]]},"properties":{"key":"way:1432168207@detail:440_81","osmType":"way","osmId":1432168207,"sourceRegion":"guangdong","featureType":"infrastructure","railClass":"minor","mode":"proposed","name":"未命名","service":"yard","status":"operational","color":"#52636F","dataOrigin":"datum-2026-08-01","sourceKey":"way:1432168207"}},{"type":"Feature","geometry":{"type":"LineString","coordinates":[[110.1312386,20.2509152],[110.1318589,20.2518652],[110.1319964,20.2521313]]},"properties":{"key":"way:1432168208@detail:440_81","osmType":"way","osmId":1432168208,"sourceRegion":"guangdong","featureType":"infrastructure","railClass":"minor","mode":"proposed","name":"未命名","service":"yard","status":"operational","color":"#52636F","dataOrigin":"datum-2026-08-01","sourceKey":"way:1432168208"}},{"type":"Feature","geometry":{"type":"LineString","coordinates":[[110.1307404,20.2501521],[110.13062973721408,20.25]]},"properties":{"key":"way:1432168243@detail:440_81","osmType":"way","osmId":1432168243,"sourceRegion":"guangdong","featureType":"infrastructure","railClass":"minor","mode":"rail","name":"未命名","service":"yard","status":"operational","color":"#52636F","dataOrigin":"datum-2026-08-01","sourceKey":"way:1432168243"}},{"type":"Feature","geometry":{"type":"LineString","coordinates":[[110.1318877,20.2517557],[110.1315732,20.2513688],[110.1313821,20.2511178],[110.1312386,20.2509152],[110.1308319,20.2502915],[110.1307404,20.2501521],[110.13063952044482,20.25]]},"properties":{"key":"way:1432168245@detail:440_81","osmType":"way","osmId":1432168245,"sourceRegion":"guangdong","featureType":"infrastructure","railClass":"minor","mode":"rail","name":"未命名","service":"yard","status":"operational","color":"#52636F","dataOrigin":"datum-2026-08-01","sourceKey":"way:1432168245"}},{"type":"Feature","geometry":{"type":"LineString","coordinates":[[110.1322451,20.2522074],[110.1318877,20.2517557]]},"properties":{"key":"way:1432168247@detail:440_81","osmType":"way","osmId":1432168247,"sourceRegion":"guangdong","featureType":"infrastructure","railClass":"minor","mode":"rail","name":"未命名","service":"yard","status":"operational","color":"#52636F","dataOrigin":"datum-2026-08-01","sourceKey":"way:1432168247"}},{"type":"Feature","geometry":{"type":"LineString","coordinates":[[110.1343285,20.2547237],[110.1341663,20.2545206]]},"properties":{"key":"way:1432168248@detail:440_81","osmType":"way","osmId":1432168248,"sourceRegion":"guangdong","featureType":"infrastructure","railClass":"minor","mode":"rail","name":"未命名","service":"yard","status":"operational","color":"#52636F","dataOrigin":"datum-2026-08-01","sourceKey":"way:1432168248"}},{"type":"Feature","geometry":{"type":"LineString","coordinates":[[110.1323061,20.2521608],[110.132058,20.2519469],[110.1318877,20.2517557]]},"properties":{"key":"way:1432168249@detail:440_81","osmType":"way","osmId":1432168249,"sourceRegion":"guangdong","featureType":"infrastructure","railClass":"minor","mode":"rail","name":"未命名","service":"yard","status":"operational","color":"#52636F","dataOrigin":"datum-2026-08-01","sourceKey":"way:1432168249"}},{"type":"Feature","geometry":{"type":"LineString","coordinates":[[110.1328003,20.2527081],[110.1327165,20.2526075],[110.1326039,20.2524936],[110.1324382,20.2523244],[110.1322599,20.2521445],[110.132058,20.2519469]]},"properties":{"key":"way:1432168250@detail:440_81","osmType":"way","osmId":1432168250,"sourceRegion":"guangdong","featureType":"infrastructure","railClass":"minor","mode":"rail","name":"未命名","service":"yard","status":"operational","color":"#52636F","dataOrigin":"datum-2026-08-01","sourceKey":"way:1432168250"}},{"type":"Feature","geometry":{"type":"LineString","coordinates":[[110.1347288,20.2552295],[110.1343285,20.2547237]]},"properties":{"key":"way:1432168251@detail:440_81","osmType":"way","osmId":1432168251,"sourceRegion":"guangdong","featureType":"infrastructure","railClass":"minor","mode":"rail","name":"未命名","service":"yard","status":"operational","color":"#52636F","dataOrigin":"datum-2026-08-01","sourceKey":"way:1432168251"}},{"type":"Feature","geometry":{"type":"LineString","coordinates":[[110.1343285,20.2547237],[110.1340958,20.2543589]]},"properties":{"key":"way:1432168252@detail:440_81","osmType":"way","osmId":1432168252,"sourceRegion":"guangdong","featureType":"infrastructure","railClass":"minor","mode":"rail","name":"未命名","service":"yard","status":"operational","color":"#52636F","dataOrigin":"datum-2026-08-01","sourceKey":"way:1432168252"}},{"type":"Feature","geometry":{"type":"LineString","coordinates":[[110.1341663,20.2545206],[110.1339872,20.2543243],[110.133888,20.2542255],[110.1337659,20.2541054],[110.1335822,20.2538959],[110.1325019,20.252527],[110.1322451,20.2522074]]},"properties":{"key":"way:1432168253@detail:440_81","osmType":"way","osmId":1432168253,"sourceRegion":"guangdong","featureType":"infrastructure","railClass":"minor","mode":"rail","name":"未命名","service":"yard","status":"operational","color":"#52636F","dataOrigin":"datum-2026-08-01","sourceKey":"way:1432168253"}},{"type":"Feature","geometry":{"type":"LineString","coordinates":[[110.1330855,20.2531625],[110.1327514,20.252744],[110.1326542,20.2526358],[110.1325194,20.2524999],[110.1323993,20.2523798],[110.1322451,20.2522074]]},"properties":{"key":"way:1432168254@detail:440_81","osmType":"way","osmId":1432168254,"sourceRegion":"guangdong","featureType":"infrastructure","railClass":"minor","mode":"rail","name":"未命名","service":"yard","status":"operational","color":"#52636F","dataOrigin":"datum-2026-08-01","sourceKey":"way:1432168254"}},{"type":"Feature","geometry":{"type":"LineString","coordinates":[[110.1340958,20.2543589],[110.1339785,20.2541909],[110.1338652,20.2540487],[110.1336841,20.2538235],[110.1334636,20.2535448]]},"properties":{"key":"way:1432168255@detail:440_81","osmType":"way","osmId":1432168255,"sourceRegion":"guangdong","featureType":"infrastructure","railClass":"minor","mode":"rail","name":"未命名","service":"yard","status":"operational","color":"#52636F","dataOrigin":"datum-2026-08-01","sourceKey":"way:1432168255"}},{"type":"Feature","geometry":{"type":"LineString","coordinates":[[110.1340958,20.2543589],[110.1339101,20.2540601],[110.1338189,20.2539091],[110.1337223,20.2537713],[110.1328479,20.252661],[110.1327527,20.2525465],[110.1326521,20.2524458],[110.1325428,20.2523496],[110.1323061,20.2521608]]},"properties":{"key":"way:1432168256@detail:440_81","osmType":"way","osmId":1432168256,"sourceRegion":"guangdong","featureType":"infrastructure","railClass":"minor","mode":"rail","name":"未命名","service":"yard","status":"operational","color":"#52636F","dataOrigin":"datum-2026-08-01","sourceKey":"way:1432168256"}},{"type":"Feature","geometry":{"type":"LineString","coordinates":[[110.1337928,20.2531259],[110.1327722,20.2524729],[110.1326106,20.2523678],[110.1324999,20.2522992],[110.1323061,20.2521608]]},"properties":{"key":"way:1432168257@detail:440_81","osmType":"way","osmId":1432168257,"sourceRegion":"guangdong","featureType":"infrastructure","railClass":"minor","mode":"rail","name":"未命名","service":"yard","status":"operational","color":"#52636F","dataOrigin":"datum-2026-08-01","sourceKey":"way:1432168257"}},{"type":"Feature","geometry":{"type":"LineString","coordinates":[[110.1390675,20.3520582],[110.1391749,20.3517358],[110.1393401,20.3513032],[110.1394796,20.3509592],[110.1396427,20.3506091],[110.1399173,20.3500659],[110.1402457,20.34939],[110.1405675,20.3487462],[110.1408787,20.3481144],[110.1411211,20.3476276],[110.1413421,20.3471709],[110.1415868,20.346676],[110.1419451,20.3459557],[110.1422777,20.3453079],[110.1423743,20.3451248],[110.1425674,20.3448109],[110.1426992,20.3445936],[110.1428325,20.3443652]]},"properties":{"key":"way:1496471594@detail:440_81","osmType":"way","osmId":1496471594,"sourceRegion":"guangdong","featureType":"infrastructure","railClass":"minor","mode":"rail","name":"未命名","service":"siding","status":"operational","color":"#52636F","dataOrigin":"datum-2026-08-01","sourceKey":"way:1496471594"}},{"type":"Feature","geometry":{"type":"LineString","coordinates":[[110.1390197,20.352156],[110.1391185,20.3518449],[110.1391819,20.3515796],[110.1392486,20.3513707],[110.1393153,20.3512015],[110.1394486,20.3509103],[110.1397267,20.3503385],[110.1399478,20.3498826],[110.1401771,20.3494283],[110.1404487,20.3488687],[110.1407707,20.3482283],[110.1410878,20.3475727],[110.1414309,20.346879],[110.141774,20.3461898],[110.1420879,20.3455784],[110.1423042,20.3451209],[110.1423741,20.344999],[110.1424343,20.3449029],[110.142514,20.344787],[110.1425985,20.3446742],[110.1427254,20.344511],[110.1428325,20.3443652],[110.1428733,20.344306],[110.1429438,20.3441951],[110.1430077,20.3440761]]},"properties":{"key":"way:1496471595@detail:440_81","osmType":"way","osmId":1496471595,"sourceRegion":"guangdong","featureType":"infrastructure","railClass":"minor","mode":"rail","name":"未命名","service":"siding","status":"operational","color":"#52636F","dataOrigin":"datum-2026-08-01","sourceKey":"way:1496471595"}},{"type":"Feature","geometry":{"type":"LineString","coordinates":[[110.1395005,20.3511737],[110.139669,20.3509115],[110.1397511,20.3507705],[110.1398536,20.3505745],[110.1399934,20.3502917],[110.1401374,20.3499929],[110.1403284,20.3496132],[110.140552,20.3491489],[110.1407317,20.3487777],[110.1409464,20.3483424],[110.1411431,20.3479475],[110.1413716,20.3474893],[110.1415394,20.3471529],[110.14168,20.3468702],[110.1417274,20.3467869],[110.1418269,20.3465865],[110.1419793,20.3462757],[110.1421284,20.345978],[110.14227,20.3456782],[110.1423816,20.3454559],[110.1425018,20.3452154],[110.1426423,20.3449287],[110.1427786,20.3446461],[110.1428601,20.3444771],[110.142932,20.3443362],[110.1430468,20.3440666],[110.1431316,20.3438715],[110.1431696,20.3437506]]},"properties":{"key":"way:1496471596@detail:440_81","osmType":"way","osmId":1496471596,"sourceRegion":"guangdong","featureType":"infrastructure","railClass":"minor","mode":"rail","name":"未命名","service":"siding","status":"operational","color":"#52636F","dataOrigin":"datum-2026-08-01","sourceKey":"way:1496471596"}},{"type":"Feature","geometry":{"type":"LineString","coordinates":[[110.1417274,20.3467869],[110.1418412,20.3466165],[110.1419601,20.346436],[110.1420691,20.3462316],[110.1421144,20.3461294]]},"properties":{"key":"way:1496471597@detail:440_81","osmType":"way","osmId":1496471597,"sourceRegion":"guangdong","featureType":"infrastructure","railClass":"minor","mode":"rail","name":"未命名","service":"spur","status":"operational","color":"#52636F","dataOrigin":"datum-2026-08-01","sourceKey":"way:1496471597"}}]}