{"type":"FeatureCollection","features":[{"type":"Feature","geometry":{"type":"Point","coordinates":[110.0413846,20.9213797]},"properties":{"key":"node:1692280663","osmType":"node","osmId":1692280663,"sourceRegion":"guangdong","featureType":"station","railClass":"minor","mode":"station","name":"雷州","nameEn":"Leizhou","status":"operational","color":"#52636F","dataOrigin":"datum-2026-08-01","sourceKey":"node:1692280663","stationGroup":"雷州","hasOperationalRail":true,"hasConstructionRail":false}},{"type":"Feature","geometry":{"type":"LineString","coordinates":[[110.0421487,20.8795523],[110.0422598,20.861486],[110.0422328,20.860761],[110.0421148,20.859554],[110.0418698,20.858116],[110.0416278,20.857173],[110.0411898,20.855776],[110.0407348,20.854641],[110.0394971,20.8521329],[110.0371516,20.8470847]]},"properties":{"key":"way:156992090@detail:440_83","osmType":"way","osmId":156992090,"sourceRegion":"guangdong","featureType":"infrastructure","railClass":"national","mode":"rail","name":"湛海线","ref":"0718","operator":"中国铁路广州局集团有限公司","usage":"main","status":"operational","color":"#E54848","dataOrigin":"datum-2026-08-01","sourceKey":"way:156992090"}},{"type":"Feature","geometry":{"type":"LineString","coordinates":[[110.0419765,20.8887899],[110.042027,20.88583],[110.0421487,20.8795523]]},"properties":{"key":"way:156992091@detail:440_83","osmType":"way","osmId":156992091,"sourceRegion":"guangdong","featureType":"infrastructure","railClass":"national","mode":"rail","name":"湛海线","ref":"0718","operator":"中国铁路广州局集团有限公司","usage":"main","bridge":"yes","status":"operational","color":"#E54848","dataOrigin":"datum-2026-08-01","sourceKey":"way:156992091"}},{"type":"Feature","geometry":{"type":"LineString","coordinates":[[110.0418588,20.9746585],[110.041418,20.974262]]},"properties":{"key":"way:218563978@detail:440_83","osmType":"way","osmId":218563978,"sourceRegion":"guangdong","featureType":"infrastructure","railClass":"national","mode":"rail","name":"湛海线","ref":"0718","operator":"中国铁路广州局集团有限公司","usage":"main","bridge":"yes","status":"operational","color":"#E54848","dataOrigin":"datum-2026-08-01","sourceKey":"way:218563978"}},{"type":"Feature","geometry":{"type":"LineString","coordinates":[[110.041418,20.974262],[110.040652,20.973458],[110.040133,20.972742],[110.039698,20.971973],[110.03937,20.971157],[110.039242,20.970738],[110.039073,20.969872],[110.0388383,20.9668025]]},"properties":{"key":"way:218563979@detail:440_83","osmType":"way","osmId":218563979,"sourceRegion":"guangdong","featureType":"infrastructure","railClass":"national","mode":"rail","name":"湛海线","ref":"0718","operator":"中国铁路广州局集团有限公司","usage":"main","status":"operational","color":"#E54848","dataOrigin":"datum-2026-08-01","sourceKey":"way:218563979"}},{"type":"Feature","geometry":{"type":"LineString","coordinates":[[110.06719472569841,21.0],[110.0649952,20.9978896]]},"properties":{"key":"way:259625361@detail:440_83","osmType":"way","osmId":259625361,"sourceRegion":"guangdong","featureType":"infrastructure","railClass":"national","mode":"rail","name":"湛海线","ref":"0718","operator":"中国铁路广州局集团有限公司","usage":"main","status":"operational","color":"#E54848","dataOrigin":"datum-2026-08-01","sourceKey":"way:259625361"}},{"type":"Feature","geometry":{"type":"LineString","coordinates":[[110.0345478,20.952081],[110.034592,20.951777],[110.035448,20.94771],[110.036162,20.944535],[110.0400537,20.9262555],[110.0401541,20.925784],[110.040272,20.92523],[110.040758,20.923108],[110.0417645,20.9183377],[110.04239,20.915373],[110.04249,20.914663],[110.042532,20.91371],[110.042392,20.910808],[110.042228,20.908593],[110.04199,20.903328],[110.0420279,20.8983696],[110.0420108,20.8972253]]},"properties":{"key":"way:391138675@detail:440_83","osmType":"way","osmId":391138675,"sourceRegion":"guangdong","featureType":"infrastructure","railClass":"national","mode":"rail","name":"湛海线","ref":"0718","operator":"中国铁路广州局集团有限公司","usage":"main","status":"operational","color":"#E54848","dataOrigin":"datum-2026-08-01","sourceKey":"way:391138675"}},{"type":"Feature","geometry":{"type":"LineString","coordinates":[[110.03446,20.952685],[110.0345478,20.952081]]},"properties":{"key":"way:391138677@detail:440_83","osmType":"way","osmId":391138677,"sourceRegion":"guangdong","featureType":"infrastructure","railClass":"national","mode":"rail","name":"湛海线","ref":"0718","operator":"中国铁路广州局集团有限公司","usage":"main","bridge":"yes","status":"operational","color":"#E54848","dataOrigin":"datum-2026-08-01","sourceKey":"way:391138677"}},{"type":"Feature","geometry":{"type":"LineString","coordinates":[[110.0388319,20.9667387],[110.0387989,20.966309],[110.0386729,20.9655985],[110.0384653,20.964973],[110.0382253,20.9643021],[110.035242,20.957893],[110.034777,20.95657],[110.03453,20.955438],[110.03441,20.954293],[110.034413,20.953372],[110.03446,20.952685]]},"properties":{"key":"way:392524889@detail:440_83","osmType":"way","osmId":392524889,"sourceRegion":"guangdong","featureType":"infrastructure","railClass":"national","mode":"rail","name":"湛海线","ref":"0718","operator":"中国铁路广州局集团有限公司","usage":"main","status":"operational","color":"#E54848","dataOrigin":"datum-2026-08-01","sourceKey":"way:392524889"}},{"type":"Feature","geometry":{"type":"LineString","coordinates":[[110.0388383,20.9668025],[110.0388319,20.9667387]]},"properties":{"key":"way:392524890@detail:440_83","osmType":"way","osmId":392524890,"sourceRegion":"guangdong","featureType":"infrastructure","railClass":"national","mode":"rail","name":"湛海线","ref":"0718","operator":"中国铁路广州局集团有限公司","usage":"main","bridge":"yes","status":"operational","color":"#E54848","dataOrigin":"datum-2026-08-01","sourceKey":"way:392524890"}},{"type":"Feature","geometry":{"type":"LineString","coordinates":[[110.0649952,20.9978896],[110.064945,20.9978411]]},"properties":{"key":"way:392667009@detail:440_83","osmType":"way","osmId":392667009,"sourceRegion":"guangdong","featureType":"infrastructure","railClass":"national","mode":"rail","name":"湛海线","ref":"0718","operator":"中国铁路广州局集团有限公司","usage":"main","bridge":"yes","status":"operational","color":"#E54848","dataOrigin":"datum-2026-08-01","sourceKey":"way:392667009"}},{"type":"Feature","geometry":{"type":"LineString","coordinates":[[110.064945,20.9978411],[110.04893,20.98252],[110.04815,20.981632],[110.044887,20.977463],[110.044278,20.976793],[110.043632,20.976163],[110.0418588,20.9746585]]},"properties":{"key":"way:392667011@detail:440_83","osmType":"way","osmId":392667011,"sourceRegion":"guangdong","featureType":"infrastructure","railClass":"national","mode":"rail","name":"湛海线","ref":"0718","operator":"中国铁路广州局集团有限公司","usage":"main","status":"operational","color":"#E54848","dataOrigin":"datum-2026-08-01","sourceKey":"way:392667011"}},{"type":"Feature","geometry":{"type":"LineString","coordinates":[[110.0055966,20.7840124],[110.0055488,20.7836135]]},"properties":{"key":"way:396854793@detail:440_83","osmType":"way","osmId":396854793,"sourceRegion":"guangdong","featureType":"infrastructure","railClass":"national","mode":"rail","name":"湛海线","ref":"0718","operator":"中国铁路广州局集团有限公司","usage":"main","bridge":"yes","status":"operational","color":"#E54848","dataOrigin":"datum-2026-08-01","sourceKey":"way:396854793"}},{"type":"Feature","geometry":{"type":"LineString","coordinates":[[110.0165966,20.8174756],[110.0165281,20.8173815]]},"properties":{"key":"way:396854794@detail:440_83","osmType":"way","osmId":396854794,"sourceRegion":"guangdong","featureType":"infrastructure","railClass":"national","mode":"rail","name":"湛海线","ref":"0718","operator":"中国铁路广州局集团有限公司","usage":"main","bridge":"yes","status":"operational","color":"#E54848","dataOrigin":"datum-2026-08-01","sourceKey":"way:396854794"}},{"type":"Feature","geometry":{"type":"LineString","coordinates":[[110.0371516,20.8470847],[110.0365652,20.845848]]},"properties":{"key":"way:396854795@detail:440_83","osmType":"way","osmId":396854795,"sourceRegion":"guangdong","featureType":"infrastructure","railClass":"national","mode":"rail","name":"湛海线","ref":"0718","operator":"中国铁路广州局集团有限公司","usage":"main","bridge":"yes","status":"operational","color":"#E54848","dataOrigin":"datum-2026-08-01","sourceKey":"way:396854795"}},{"type":"Feature","geometry":{"type":"LineString","coordinates":[[110.0124648,20.8104961],[110.0124299,20.8103763]]},"properties":{"key":"way:396854796@detail:440_83","osmType":"way","osmId":396854796,"sourceRegion":"guangdong","featureType":"infrastructure","railClass":"national","mode":"rail","name":"湛海线","ref":"0718","operator":"中国铁路广州局集团有限公司","usage":"main","bridge":"yes","status":"operational","color":"#E54848","dataOrigin":"datum-2026-08-01","sourceKey":"way:396854796"}},{"type":"Feature","geometry":{"type":"LineString","coordinates":[[110.0139428,20.813805],[110.0137712,20.8135418]]},"properties":{"key":"way:396854797@detail:440_83","osmType":"way","osmId":396854797,"sourceRegion":"guangdong","featureType":"infrastructure","railClass":"national","mode":"rail","name":"湛海线","ref":"0718","operator":"中国铁路广州局集团有限公司","usage":"main","bridge":"yes","status":"operational","color":"#E54848","dataOrigin":"datum-2026-08-01","sourceKey":"way:396854797"}},{"type":"Feature","geometry":{"type":"LineString","coordinates":[[110.0165281,20.8173815],[110.0140948,20.814038],[110.0139428,20.813805]]},"properties":{"key":"way:396854798@detail:440_83","osmType":"way","osmId":396854798,"sourceRegion":"guangdong","featureType":"infrastructure","railClass":"national","mode":"rail","name":"湛海线","ref":"0718","operator":"中国铁路广州局集团有限公司","usage":"main","status":"operational","color":"#E54848","dataOrigin":"datum-2026-08-01","sourceKey":"way:396854798"}},{"type":"Feature","geometry":{"type":"LineString","coordinates":[[110.0055488,20.7836135],[110.0050828,20.779728],[110.0050508,20.779063],[110.0050351,20.7779211],[110.0051586,20.7768678],[110.0052803,20.7762091],[110.0057258,20.774488],[110.0068198,20.770266],[110.0069648,20.769323],[110.0070108,20.768024],[110.0069648,20.767203],[110.0062577,20.7602138],[110.0061974,20.7587967],[110.0062296,20.7578725],[110.006589,20.7546621],[110.0068998,20.752484],[110.0069548,20.750854],[110.00691205280278,20.75]]},"properties":{"key":"way:396854799@detail:440_83","osmType":"way","osmId":396854799,"sourceRegion":"guangdong","featureType":"infrastructure","railClass":"national","mode":"rail","name":"湛海线","ref":"0718","operator":"中国铁路广州局集团有限公司","usage":"main","status":"operational","color":"#E54848","dataOrigin":"datum-2026-08-01","sourceKey":"way:396854799"}},{"type":"Feature","geometry":{"type":"LineString","coordinates":[[110.0137712,20.8135418],[110.0134628,20.813069],[110.0129658,20.812048],[110.0126708,20.811203],[110.0124648,20.8104961]]},"properties":{"key":"way:396854800@detail:440_83","osmType":"way","osmId":396854800,"sourceRegion":"guangdong","featureType":"infrastructure","railClass":"national","mode":"rail","name":"湛海线","ref":"0718","operator":"中国铁路广州局集团有限公司","usage":"main","status":"operational","color":"#E54848","dataOrigin":"datum-2026-08-01","sourceKey":"way:396854800"}},{"type":"Feature","geometry":{"type":"LineString","coordinates":[[110.0124299,20.8103763],[110.0099828,20.801978],[110.0093398,20.799593],[110.0065421,20.7898156],[110.0062558,20.788741],[110.0059748,20.787166],[110.0055966,20.7840124]]},"properties":{"key":"way:396854801@detail:440_83","osmType":"way","osmId":396854801,"sourceRegion":"guangdong","featureType":"infrastructure","railClass":"national","mode":"rail","name":"湛海线","ref":"0718","operator":"中国铁路广州局集团有限公司","usage":"main","status":"operational","color":"#E54848","dataOrigin":"datum-2026-08-01","sourceKey":"way:396854801"}},{"type":"Feature","geometry":{"type":"LineString","coordinates":[[110.0365652,20.845848],[110.0363946,20.8454882],[110.0357678,20.844116],[110.0351608,20.843026],[110.0347398,20.842403],[110.0312586,20.8376536],[110.0312818,20.8376523],[110.0251216,20.8292333],[110.0197068,20.8217313],[110.0165966,20.8174756]]},"properties":{"key":"way:396854802@detail:440_83","osmType":"way","osmId":396854802,"sourceRegion":"guangdong","featureType":"infrastructure","railClass":"national","mode":"rail","name":"湛海线","ref":"0718","operator":"中国铁路广州局集团有限公司","usage":"main","status":"operational","color":"#E54848","dataOrigin":"datum-2026-08-01","sourceKey":"way:396854802"}},{"type":"Feature","geometry":{"type":"LineString","coordinates":[[110.0420148,20.8967592],[110.041922,20.89199],[110.0419765,20.8887899]]},"properties":{"key":"way:721048483@detail:440_83","osmType":"way","osmId":721048483,"sourceRegion":"guangdong","featureType":"infrastructure","railClass":"national","mode":"rail","name":"湛海线","ref":"0718","operator":"中国铁路广州局集团有限公司","usage":"main","status":"operational","color":"#E54848","dataOrigin":"datum-2026-08-01","sourceKey":"way:721048483"}},{"type":"Feature","geometry":{"type":"LineString","coordinates":[[110.0420108,20.8972253],[110.0420148,20.8967592]]},"properties":{"key":"way:721048484@detail:440_83","osmType":"way","osmId":721048484,"sourceRegion":"guangdong","featureType":"infrastructure","railClass":"national","mode":"rail","name":"湛海线","ref":"0718","operator":"中国铁路广州局集团有限公司","usage":"main","bridge":"yes","status":"operational","color":"#E54848","dataOrigin":"datum-2026-08-01","sourceKey":"way:721048484"}},{"type":"Feature","geometry":{"type":"LineString","coordinates":[[110.0417645,20.9183377],[110.041555,20.9190699],[110.0414476,20.9194494],[110.0413682,20.9198071],[110.0409082,20.9220143],[110.0408429,20.9223393],[110.0401844,20.9253622],[110.0401541,20.925784]]},"properties":{"key":"way:1425535429@detail:440_83","osmType":"way","osmId":1425535429,"sourceRegion":"guangdong","featureType":"infrastructure","railClass":"minor","mode":"rail","name":"未命名","service":"yard","status":"operational","color":"#52636F","dataOrigin":"datum-2026-08-01","sourceKey":"way:1425535429"}},{"type":"Feature","geometry":{"type":"LineString","coordinates":[[110.0409082,20.9220143],[110.0408405,20.9221692],[110.0407588,20.9223916],[110.040614,20.9228758],[110.0400863,20.9253295],[110.0400606,20.9254996],[110.0400513,20.9260274],[110.0400537,20.9262555]]},"properties":{"key":"way:1425535430@detail:440_83","osmType":"way","osmId":1425535430,"sourceRegion":"guangdong","featureType":"infrastructure","railClass":"minor","mode":"rail","name":"未命名","service":"yard","status":"operational","color":"#52636F","dataOrigin":"datum-2026-08-01","sourceKey":"way:1425535430"}}]}