{"type":"FeatureCollection","features":[{"type":"Feature","geometry":{"type":"Point","coordinates":[110.0042421,20.7185287]},"properties":{"key":"node:8440210939","osmType":"node","osmId":8440210939,"sourceRegion":"guangdong","featureType":"station","railClass":"minor","mode":"station","name":"龙门镇","status":"operational","color":"#52636F","dataOrigin":"datum-2026-08-01","sourceKey":"node:8440210939","stationGroup":"龙门镇","hasOperationalRail":true,"hasConstructionRail":false}},{"type":"Feature","geometry":{"type":"LineString","coordinates":[[110.0526295,20.5520645],[110.0529448,20.5511961],[110.0532508,20.5502981],[110.0534078,20.5499511],[110.0541998,20.5486681],[110.0546828,20.5480981],[110.0553728,20.5474581],[110.0565248,20.5465731],[110.0568148,20.5463031],[110.0574008,20.5458541],[110.0587428,20.5449411],[110.0590208,20.5447031],[110.0664648,20.5394431],[110.0672308,20.5388511],[110.0676658,20.5384541],[110.0683248,20.5377311],[110.0689708,20.5367661],[110.0693748,20.5358991],[110.0696848,20.5348611],[110.0697728,20.5343381],[110.0698086,20.5332991],[110.0697728,20.5326211],[110.0696298,20.5317911],[110.0667448,20.5217311],[110.0665948,20.5209811],[110.0665417,20.5205963],[110.0665037,20.5202228],[110.0665498,20.5193031],[110.0666278,20.5187541],[110.0668558,20.5178731],[110.0672758,20.5168781],[110.0721658,20.5085641],[110.0725758,20.5077541],[110.0729375,20.5067362],[110.0731107,20.5060591],[110.0732959,20.5051149],[110.0741248,20.5009431],[110.07433224358452,20.5]]},"properties":{"key":"way:221426319@detail:440_82","osmType":"way","osmId":221426319,"sourceRegion":"guangdong","featureType":"infrastructure","railClass":"national","mode":"rail","name":"湛海线","ref":"0718","operator":"中国铁路广州局集团有限公司","usage":"main","status":"operational","color":"#E54848","dataOrigin":"datum-2026-08-01","sourceKey":"way:221426319"}},{"type":"Feature","geometry":{"type":"LineString","coordinates":[[110.00691205280278,20.75],[110.0066378,20.744521],[110.0064748,20.742949],[110.0063498,20.742128],[110.0054197,20.7374663],[110.0052761,20.7367467],[110.0048008,20.734273],[110.0042978,20.731616],[110.0041308,20.730414],[110.0040878,20.729743],[110.0040636,20.7273831]]},"properties":{"key":"way:396854799@detail:440_82","osmType":"way","osmId":396854799,"sourceRegion":"guangdong","featureType":"infrastructure","railClass":"national","mode":"rail","name":"湛海线","ref":"0718","operator":"中国铁路广州局集团有限公司","usage":"main","status":"operational","color":"#E54848","dataOrigin":"datum-2026-08-01","sourceKey":"way:396854799"}},{"type":"Feature","geometry":{"type":"LineString","coordinates":[[110.0525249,20.5524224],[110.0526295,20.5520645]]},"properties":{"key":"way:466767102@detail:440_82","osmType":"way","osmId":466767102,"sourceRegion":"guangdong","featureType":"infrastructure","railClass":"national","mode":"rail","name":"湛海线","ref":"0718","operator":"中国铁路广州局集团有限公司","usage":"main","bridge":"yes","status":"operational","color":"#E54848","dataOrigin":"datum-2026-08-01","sourceKey":"way:466767102"}},{"type":"Feature","geometry":{"type":"LineString","coordinates":[[110.0120799,20.6791497],[110.0134108,20.670411],[110.0136678,20.669114],[110.0166687,20.6560793],[110.01735,20.6532081],[110.0183076,20.6491371],[110.0193528,20.644889],[110.0213975,20.6361303],[110.022127,20.633093],[110.0225535,20.6312606],[110.0227037,20.6307209],[110.0228727,20.6302239],[110.0230283,20.6297846],[110.0232938,20.6292524],[110.0235754,20.6288006],[110.0238731,20.6283362],[110.0242621,20.6278818],[110.0246391,20.6274768],[110.0251982,20.6269857],[110.0257507,20.626589],[110.0262549,20.6262853],[110.0267243,20.6260318],[110.0273278,20.6257707],[110.0280011,20.6254895],[110.0287387,20.6251858],[110.0296525,20.6248031],[110.0307828,20.624393],[110.0321798,20.623893],[110.0350428,20.622731],[110.0358458,20.622341],[110.0396698,20.620751],[110.0398478,20.620708],[110.0407398,20.620338],[110.0415898,20.619883],[110.0420608,20.619553],[110.0427878,20.618923],[110.0431798,20.618506],[110.0440008,20.617406],[110.0443578,20.616771],[110.0446458,20.616111],[110.0454625,20.6134648],[110.0457863,20.6128218],[110.0461677,20.6121877],[110.0465435,20.6117177],[110.046943,20.6112663],[110.0490928,20.609206],[110.0495276,20.6086488],[110.0499237,20.6079692],[110.0501909,20.6072756],[110.0503407,20.6066748],[110.0504308,20.6059528],[110.0504238,20.6053113],[110.0502608,20.604108],[110.0501728,20.603849],[110.0500098,20.6035511],[110.0474228,20.5997541],[110.0445758,20.5957661],[110.0438978,20.5947131],[110.0435908,20.5940731],[110.0433128,20.5932411],[110.0431158,20.5922111],[110.0430748,20.5916911],[110.0430828,20.5909961],[110.0431358,20.5904791],[110.0437843,20.5862023],[110.0454428,20.5762941],[110.0456158,20.5754141],[110.0459328,20.5742111],[110.0525249,20.5524224]]},"properties":{"key":"way:466767103@detail:440_82","osmType":"way","osmId":466767103,"sourceRegion":"guangdong","featureType":"infrastructure","railClass":"national","mode":"rail","name":"湛海线","ref":"0718","operator":"中国铁路广州局集团有限公司","usage":"main","status":"operational","color":"#E54848","dataOrigin":"datum-2026-08-01","sourceKey":"way:466767103"}},{"type":"Feature","geometry":{"type":"LineString","coordinates":[[110.0119737,20.6797517],[110.0120799,20.6791497]]},"properties":{"key":"way:957632440@detail:440_82","osmType":"way","osmId":957632440,"sourceRegion":"guangdong","featureType":"infrastructure","railClass":"national","mode":"rail","name":"湛海线","ref":"0718","operator":"中国铁路广州局集团有限公司","usage":"main","bridge":"yes","status":"operational","color":"#E54848","dataOrigin":"datum-2026-08-01","sourceKey":"way:957632440"}},{"type":"Feature","geometry":{"type":"LineString","coordinates":[[110.0111818,20.6819544],[110.0114327,20.681386],[110.0116235,20.680894],[110.0118503,20.6802545],[110.0119737,20.6797517]]},"properties":{"key":"way:957632441@detail:440_82","osmType":"way","osmId":957632441,"sourceRegion":"guangdong","featureType":"infrastructure","railClass":"national","mode":"rail","name":"湛海线","ref":"0718","operator":"中国铁路广州局集团有限公司","usage":"main","status":"operational","color":"#E54848","dataOrigin":"datum-2026-08-01","sourceKey":"way:957632441"}},{"type":"Feature","geometry":{"type":"LineString","coordinates":[[110.0106982,20.6831309],[110.0111818,20.6819544]]},"properties":{"key":"way:957632442@detail:440_82","osmType":"way","osmId":957632442,"sourceRegion":"guangdong","featureType":"infrastructure","railClass":"national","mode":"rail","name":"湛海线","ref":"0718","operator":"中国铁路广州局集团有限公司","usage":"main","bridge":"yes","status":"operational","color":"#E54848","dataOrigin":"datum-2026-08-01","sourceKey":"way:957632442"}},{"type":"Feature","geometry":{"type":"LineString","coordinates":[[110.0090437,20.6869141],[110.0106982,20.6831309]]},"properties":{"key":"way:957632443@detail:440_82","osmType":"way","osmId":957632443,"sourceRegion":"guangdong","featureType":"infrastructure","railClass":"national","mode":"rail","name":"湛海线","ref":"0718","operator":"中国铁路广州局集团有限公司","usage":"main","status":"operational","color":"#E54848","dataOrigin":"datum-2026-08-01","sourceKey":"way:957632443"}},{"type":"Feature","geometry":{"type":"LineString","coordinates":[[110.008439,20.6882774],[110.0090437,20.6869141]]},"properties":{"key":"way:957632444@detail:440_82","osmType":"way","osmId":957632444,"sourceRegion":"guangdong","featureType":"infrastructure","railClass":"national","mode":"rail","name":"湛海线","ref":"0718","operator":"中国铁路广州局集团有限公司","usage":"main","bridge":"yes","status":"operational","color":"#E54848","dataOrigin":"datum-2026-08-01","sourceKey":"way:957632444"}},{"type":"Feature","geometry":{"type":"LineString","coordinates":[[110.004081,20.7236828],[110.0040878,20.7205024],[110.0040902,20.7193385],[110.0040908,20.7190988],[110.0041081,20.7109251],[110.0041084,20.7107924],[110.0041228,20.704039],[110.0040894,20.6993054],[110.0041833,20.6984493],[110.0043642,20.6976595],[110.0046398,20.696792],[110.0060606,20.6936399],[110.008439,20.6882774]]},"properties":{"key":"way:957632445@detail:440_82","osmType":"way","osmId":957632445,"sourceRegion":"guangdong","featureType":"infrastructure","railClass":"national","mode":"rail","name":"湛海线","ref":"0718","operator":"中国铁路广州局集团有限公司","usage":"main","status":"operational","color":"#E54848","dataOrigin":"datum-2026-08-01","sourceKey":"way:957632445"}},{"type":"Feature","geometry":{"type":"LineString","coordinates":[[110.0040636,20.7273831],[110.004081,20.7236828]]},"properties":{"key":"way:957632446@detail:440_82","osmType":"way","osmId":957632446,"sourceRegion":"guangdong","featureType":"infrastructure","railClass":"national","mode":"rail","name":"湛海线","ref":"0718","operator":"中国铁路广州局集团有限公司","usage":"main","bridge":"yes","status":"operational","color":"#E54848","dataOrigin":"datum-2026-08-01","sourceKey":"way:957632446"}},{"type":"Feature","geometry":{"type":"LineString","coordinates":[[110.0040878,20.7205024],[110.0041181,20.7202415],[110.0041364,20.7200167],[110.0041546,20.719814],[110.0041814,20.7195461],[110.0041997,20.7192842],[110.004204,20.7190433],[110.004205,20.7187242],[110.0042093,20.7184031],[110.0042136,20.7180539],[110.0042125,20.7175511],[110.0042061,20.7172842],[110.0041889,20.7171287],[110.0041675,20.7169671],[110.0041557,20.7169079],[110.0041551,20.7168873],[110.0041535,20.7168306],[110.0041525,20.7164985],[110.0041557,20.7161783],[110.0041557,20.7158171],[110.0041589,20.7154397],[110.0041567,20.7151276],[110.0041567,20.7148226],[110.0041621,20.7144141],[110.0041685,20.7141241],[110.0041771,20.7136384],[110.0041685,20.7132089],[110.0041589,20.7127232],[110.0041646,20.7120917],[110.0041658,20.7115649],[110.0041535,20.7114012],[110.0041424,20.7112352],[110.0041081,20.7109251]]},"properties":{"key":"way:1496475477@detail:440_82","osmType":"way","osmId":1496475477,"sourceRegion":"guangdong","featureType":"infrastructure","railClass":"minor","mode":"rail","name":"未命名","service":"siding","status":"operational","color":"#52636F","dataOrigin":"datum-2026-08-01","sourceKey":"way:1496475477"}},{"type":"Feature","geometry":{"type":"LineString","coordinates":[[110.0041084,20.7107924],[110.0040828,20.710999],[110.0040715,20.711146],[110.0040658,20.7113631],[110.0040644,20.7118293],[110.0040658,20.7123324],[110.004063,20.7128144],[110.0040686,20.7132647],[110.0040672,20.7137427],[110.0040615,20.7142379],[110.0040559,20.714704],[110.0040502,20.7151993],[110.0040545,20.7156667],[110.0040488,20.7161791],[110.0040531,20.7166903],[110.0040502,20.7170769],[110.0040446,20.7174596],[110.0040446,20.7179283],[110.004046,20.7184633],[110.0040417,20.7187797],[110.0040474,20.7190313],[110.0040587,20.7191478],[110.0040902,20.7193385]]},"properties":{"key":"way:1496475478@detail:440_82","osmType":"way","osmId":1496475478,"sourceRegion":"guangdong","featureType":"infrastructure","railClass":"minor","mode":"rail","name":"未命名","service":"siding","status":"operational","color":"#52636F","dataOrigin":"datum-2026-08-01","sourceKey":"way:1496475478"}},{"type":"Feature","geometry":{"type":"LineString","coordinates":[[110.0040908,20.7190988],[110.004138,20.7186844],[110.0041507,20.7183799],[110.0041479,20.7179747],[110.0041493,20.7173815],[110.0041551,20.7168873]]},"properties":{"key":"way:1496475479@detail:440_82","osmType":"way","osmId":1496475479,"sourceRegion":"guangdong","featureType":"infrastructure","railClass":"minor","mode":"rail","name":"未命名","service":"siding","status":"operational","color":"#52636F","dataOrigin":"datum-2026-08-01","sourceKey":"way:1496475479"}}]}