{"type":"FeatureCollection","features":[{"type":"Feature","geometry":{"type":"Point","coordinates":[110.1275378,20.2447713]},"properties":{"key":"node:8440210940","osmType":"node","osmId":8440210940,"sourceRegion":"guangdong","featureType":"station","railClass":"minor","mode":"station","name":"海安南","nameEn":"Haiannan","status":"operational","color":"#52636F","dataOrigin":"datum-2026-08-01","sourceKey":"node:8440210940","stationGroup":"海安南","hasOperationalRail":true,"hasConstructionRail":false}},{"type":"Feature","geometry":{"type":"LineString","coordinates":[[110.13058644274231,20.25],[110.1302442,20.2494701],[110.1301778,20.2493691],[110.1299182,20.2490014]]},"properties":{"key":"way:672825570@detail:440_80","osmType":"way","osmId":672825570,"sourceRegion":"guangdong","featureType":"infrastructure","railClass":"national","mode":"rail","name":"湛海线","ref":"0718","operator":"中国铁路广州局集团有限公司","usage":"main","status":"operational","color":"#E54848","dataOrigin":"datum-2026-08-01","sourceKey":"way:672825570"}},{"type":"Feature","geometry":{"type":"LineString","coordinates":[[110.1255825,20.2372216],[110.1256638,20.2369719],[110.1257539,20.236695]]},"properties":{"key":"way:1432168198@detail:440_80","osmType":"way","osmId":1432168198,"sourceRegion":"guangdong","featureType":"infrastructure","railClass":"minor","mode":"proposed","name":"未命名","service":"yard","status":"operational","color":"#52636F","dataOrigin":"datum-2026-08-01","sourceKey":"way:1432168198"}},{"type":"Feature","geometry":{"type":"LineString","coordinates":[[110.125502,20.2371725],[110.1256638,20.2369719],[110.1258522,20.2367381]]},"properties":{"key":"way:1432168199@detail:440_80","osmType":"way","osmId":1432168199,"sourceRegion":"guangdong","featureType":"infrastructure","railClass":"minor","mode":"proposed","name":"未命名","service":"yard","status":"operational","color":"#52636F","dataOrigin":"datum-2026-08-01","sourceKey":"way:1432168199"}},{"type":"Feature","geometry":{"type":"LineString","coordinates":[[110.1260787,20.2329306],[110.1261002,20.2343803],[110.126127,20.2347729],[110.1261216,20.2354725],[110.1260573,20.2359708],[110.1260143,20.2361772],[110.1257539,20.236695],[110.1256978,20.2368063],[110.125502,20.2371725],[110.1253921,20.2374267],[110.1253358,20.2377689],[110.1252902,20.2380948],[110.1252432,20.2384855]]},"properties":{"key":"way:1432168200@detail:440_80","osmType":"way","osmId":1432168200,"sourceRegion":"guangdong","featureType":"infrastructure","railClass":"minor","mode":"proposed","name":"未命名","service":"yard","status":"operational","color":"#52636F","dataOrigin":"datum-2026-08-01","sourceKey":"way:1432168200"}},{"type":"Feature","geometry":{"type":"LineString","coordinates":[[110.1254565,20.2415841],[110.1253599,20.2410342],[110.1253022,20.2406504],[110.1252848,20.2401886],[110.1253089,20.2398112],[110.1252942,20.239148],[110.1252908,20.2385208],[110.1253317,20.2381024],[110.1253894,20.237818],[110.1255195,20.2373486],[110.1255825,20.2372216],[110.1257099,20.2369649],[110.1258522,20.2367381],[110.12595,20.2365823],[110.1261324,20.236235],[110.1263174,20.2356789],[110.1264301,20.2352309],[110.1264918,20.234423],[110.1264784,20.2329357]]},"properties":{"key":"way:1432168201@detail:440_80","osmType":"way","osmId":1432168201,"sourceRegion":"guangdong","featureType":"infrastructure","railClass":"minor","mode":"proposed","name":"未命名","service":"yard","status":"operational","color":"#52636F","dataOrigin":"datum-2026-08-01","sourceKey":"way:1432168201"}},{"type":"Feature","geometry":{"type":"LineString","coordinates":[[110.1292205,20.2482331],[110.1288387,20.247854],[110.1285061,20.2474362],[110.1278839,20.2464951],[110.1273005,20.2456118],[110.1253679,20.2426888],[110.1251547,20.2422837],[110.1250622,20.2419276],[110.1250071,20.2415609],[110.1249884,20.2410078],[110.1250219,20.240697],[110.1251011,20.2403271]]},"properties":{"key":"way:1432168202@detail:440_80","osmType":"way","osmId":1432168202,"sourceRegion":"guangdong","featureType":"infrastructure","railClass":"minor","mode":"proposed","name":"未命名","service":"yard","status":"operational","color":"#52636F","dataOrigin":"datum-2026-08-01","sourceKey":"way:1432168202"}},{"type":"Feature","geometry":{"type":"LineString","coordinates":[[110.1297043,20.2487207],[110.1292205,20.2482331],[110.1291016,20.2481132],[110.1285799,20.247474],[110.1254202,20.2427304],[110.1252151,20.2423453],[110.1251037,20.2420006],[110.125042,20.2415979],[110.12503,20.2413488],[110.1250072,20.2410103],[110.1250447,20.2407171],[110.1251011,20.2403271],[110.1251654,20.2401413]]},"properties":{"key":"way:1432168203@detail:440_80","osmType":"way","osmId":1432168203,"sourceRegion":"guangdong","featureType":"infrastructure","railClass":"minor","mode":"proposed","name":"未命名","service":"yard","status":"operational","color":"#52636F","dataOrigin":"datum-2026-08-01","sourceKey":"way:1432168203"}},{"type":"Feature","geometry":{"type":"LineString","coordinates":[[110.1291016,20.2481132],[110.1286268,20.2474664],[110.1265427,20.2443284],[110.125443,20.2427153],[110.1252513,20.2423328],[110.1251332,20.241988],[110.1250581,20.2416017],[110.1250434,20.2413412],[110.1250313,20.2410103],[110.1250702,20.2407398],[110.1251373,20.2403749]]},"properties":{"key":"way:1432168204@detail:440_80","osmType":"way","osmId":1432168204,"sourceRegion":"guangdong","featureType":"infrastructure","railClass":"minor","mode":"proposed","name":"未命名","service":"yard","status":"operational","color":"#52636F","dataOrigin":"datum-2026-08-01","sourceKey":"way:1432168204"}},{"type":"Feature","geometry":{"type":"LineString","coordinates":[[110.1288676,20.2476577],[110.1286711,20.247457],[110.1265655,20.2443045],[110.1254913,20.2427178],[110.1252821,20.242329],[110.1251587,20.2419792],[110.1250796,20.2416004],[110.1250702,20.2413437],[110.1250595,20.2410103],[110.1250984,20.2407574],[110.1251373,20.2403749],[110.1251654,20.2401413],[110.1251906,20.2399319],[110.1252488,20.2394198]]},"properties":{"key":"way:1432168205@detail:440_80","osmType":"way","osmId":1432168205,"sourceRegion":"guangdong","featureType":"infrastructure","railClass":"minor","mode":"proposed","name":"未命名","service":"yard","status":"operational","color":"#52636F","dataOrigin":"datum-2026-08-01","sourceKey":"way:1432168205"}},{"type":"Feature","geometry":{"type":"LineString","coordinates":[[110.1302752,20.2494507],[110.13066970377768,20.25]]},"properties":{"key":"way:1432168206@detail:440_80","osmType":"way","osmId":1432168206,"sourceRegion":"guangdong","featureType":"infrastructure","railClass":"minor","mode":"proposed","name":"未命名","service":"yard","status":"operational","color":"#52636F","dataOrigin":"datum-2026-08-01","sourceKey":"way:1432168206"}},{"type":"Feature","geometry":{"type":"LineString","coordinates":[[110.1293363,20.2479559],[110.1301973,20.2492745],[110.13067764776842,20.25]]},"properties":{"key":"way:1432168207@detail:440_80","osmType":"way","osmId":1432168207,"sourceRegion":"guangdong","featureType":"infrastructure","railClass":"minor","mode":"proposed","name":"未命名","service":"yard","status":"operational","color":"#52636F","dataOrigin":"datum-2026-08-01","sourceKey":"way:1432168207"}},{"type":"Feature","geometry":{"type":"LineString","coordinates":[[110.1252479,20.2316415],[110.125272,20.2312935],[110.125283,20.2310995],[110.1252806,20.230813],[110.1252739,20.2300102]]},"properties":{"key":"way:1432168210@detail:440_80","osmType":"way","osmId":1432168210,"sourceRegion":"guangdong","featureType":"infrastructure","railClass":"minor","mode":"rail","name":"未命名","service":"yard","status":"operational","color":"#52636F","dataOrigin":"datum-2026-08-01","sourceKey":"way:1432168210"}},{"type":"Feature","geometry":{"type":"LineString","coordinates":[[110.1252479,20.2316415],[110.1252428,20.2310998],[110.1252404,20.2308133],[110.1252337,20.2300106]]},"properties":{"key":"way:1432168211@detail:440_80","osmType":"way","osmId":1432168211,"sourceRegion":"guangdong","featureType":"infrastructure","railClass":"minor","mode":"rail","name":"未命名","service":"yard","status":"operational","color":"#52636F","dataOrigin":"datum-2026-08-01","sourceKey":"way:1432168211"}},{"type":"Feature","geometry":{"type":"LineString","coordinates":[[110.1252077,20.2316377],[110.1252035,20.2311001],[110.1252011,20.2308136],[110.1251945,20.2300109]]},"properties":{"key":"way:1432168212@detail:440_80","osmType":"way","osmId":1432168212,"sourceRegion":"guangdong","featureType":"infrastructure","railClass":"minor","mode":"rail","name":"未命名","service":"yard","status":"operational","color":"#52636F","dataOrigin":"datum-2026-08-01","sourceKey":"way:1432168212"}},{"type":"Feature","geometry":{"type":"LineString","coordinates":[[110.1252077,20.2316377],[110.1251782,20.2312835],[110.1251681,20.2311004],[110.1251657,20.2308138],[110.125159,20.2300111]]},"properties":{"key":"way:1432168213@detail:440_80","osmType":"way","osmId":1432168213,"sourceRegion":"guangdong","featureType":"infrastructure","railClass":"minor","mode":"rail","name":"未命名","service":"yard","status":"operational","color":"#52636F","dataOrigin":"datum-2026-08-01","sourceKey":"way:1432168213"}},{"type":"Feature","geometry":{"type":"LineString","coordinates":[[110.1252083,20.2349956],[110.1251916,20.2329803]]},"properties":{"key":"way:1432168214@detail:440_80","osmType":"way","osmId":1432168214,"sourceRegion":"guangdong","featureType":"infrastructure","railClass":"minor","mode":"rail","name":"未命名","service":"yard","status":"operational","color":"#52636F","dataOrigin":"datum-2026-08-01","sourceKey":"way:1432168214"}},{"type":"Feature","geometry":{"type":"LineString","coordinates":[[110.1252663,20.2349981],[110.1252546,20.2329973]]},"properties":{"key":"way:1432168215@detail:440_80","osmType":"way","osmId":1432168215,"sourceRegion":"guangdong","featureType":"infrastructure","railClass":"minor","mode":"rail","name":"未命名","service":"yard","status":"operational","color":"#52636F","dataOrigin":"datum-2026-08-01","sourceKey":"way:1432168215"}},{"type":"Feature","geometry":{"type":"LineString","coordinates":[[110.1251741,20.2375487],[110.1251902,20.2373015],[110.1252171,20.2370215],[110.1252191,20.2368541],[110.1252083,20.2349956]]},"properties":{"key":"way:1432168216@detail:440_80","osmType":"way","osmId":1432168216,"sourceRegion":"guangdong","featureType":"infrastructure","railClass":"minor","mode":"rail","name":"未命名","service":"yard","status":"operational","color":"#52636F","dataOrigin":"datum-2026-08-01","sourceKey":"way:1432168216"}},{"type":"Feature","geometry":{"type":"LineString","coordinates":[[110.1253203,20.2355763],[110.1253056,20.233585],[110.1252962,20.2334315],[110.1252788,20.2332874],[110.1252546,20.2329973]]},"properties":{"key":"way:1432168217@detail:440_80","osmType":"way","osmId":1432168217,"sourceRegion":"guangdong","featureType":"infrastructure","railClass":"minor","mode":"rail","name":"未命名","service":"yard","status":"operational","color":"#52636F","dataOrigin":"datum-2026-08-01","sourceKey":"way:1432168217"}},{"type":"Feature","geometry":{"type":"LineString","coordinates":[[110.1251741,20.2375487],[110.1251627,20.2355788]]},"properties":{"key":"way:1432168218@detail:440_80","osmType":"way","osmId":1432168218,"sourceRegion":"guangdong","featureType":"infrastructure","railClass":"minor","mode":"rail","name":"未命名","service":"yard","status":"operational","color":"#52636F","dataOrigin":"datum-2026-08-01","sourceKey":"way:1432168218"}},{"type":"Feature","geometry":{"type":"LineString","coordinates":[[110.1252734,20.2375437],[110.1252821,20.2373197],[110.1252781,20.2370039],[110.1252663,20.2349981]]},"properties":{"key":"way:1432168219@detail:440_80","osmType":"way","osmId":1432168219,"sourceRegion":"guangdong","featureType":"infrastructure","railClass":"minor","mode":"rail","name":"未命名","service":"yard","status":"operational","color":"#52636F","dataOrigin":"datum-2026-08-01","sourceKey":"way:1432168219"}},{"type":"Feature","geometry":{"type":"LineString","coordinates":[[110.1251902,20.2398804],[110.1251809,20.2385906],[110.1251802,20.2384862],[110.1251741,20.2375487]]},"properties":{"key":"way:1432168220@detail:440_80","osmType":"way","osmId":1432168220,"sourceRegion":"guangdong","featureType":"infrastructure","railClass":"minor","mode":"rail","name":"未命名","service":"yard","status":"operational","color":"#52636F","dataOrigin":"datum-2026-08-01","sourceKey":"way:1432168220"}},{"type":"Feature","geometry":{"type":"LineString","coordinates":[[110.1253203,20.2355763],[110.1252663,20.2349981]]},"properties":{"key":"way:1432168221@detail:440_80","osmType":"way","osmId":1432168221,"sourceRegion":"guangdong","featureType":"infrastructure","railClass":"minor","mode":"rail","name":"未命名","service":"yard","status":"operational","color":"#52636F","dataOrigin":"datum-2026-08-01","sourceKey":"way:1432168221"}},{"type":"Feature","geometry":{"type":"LineString","coordinates":[[110.1251627,20.2355788],[110.1252083,20.2349956]]},"properties":{"key":"way:1432168222@detail:440_80","osmType":"way","osmId":1432168222,"sourceRegion":"guangdong","featureType":"infrastructure","railClass":"minor","mode":"rail","name":"未命名","service":"yard","status":"operational","color":"#52636F","dataOrigin":"datum-2026-08-01","sourceKey":"way:1432168222"}},{"type":"Feature","geometry":{"type":"LineString","coordinates":[[110.125211,20.2323977],[110.1252292,20.2321308],[110.1252466,20.2318768]]},"properties":{"key":"way:1432168223@detail:440_80","osmType":"way","osmId":1432168223,"sourceRegion":"guangdong","featureType":"infrastructure","railClass":"minor","mode":"rail","name":"未命名","service":"yard","status":"operational","color":"#52636F","dataOrigin":"datum-2026-08-01","sourceKey":"way:1432168223"}},{"type":"Feature","geometry":{"type":"LineString","coordinates":[[110.1252506,20.2323996],[110.1252292,20.2321308],[110.125209,20.2318761]]},"properties":{"key":"way:1432168224@detail:440_80","osmType":"way","osmId":1432168224,"sourceRegion":"guangdong","featureType":"infrastructure","railClass":"minor","mode":"rail","name":"未命名","service":"yard","status":"operational","color":"#52636F","dataOrigin":"datum-2026-08-01","sourceKey":"way:1432168224"}},{"type":"Feature","geometry":{"type":"LineString","coordinates":[[110.1252546,20.2329973],[110.1252506,20.2323996],[110.1252466,20.2318768],[110.1252479,20.2316415]]},"properties":{"key":"way:1432168225@detail:440_80","osmType":"way","osmId":1432168225,"sourceRegion":"guangdong","featureType":"infrastructure","railClass":"minor","mode":"rail","name":"未命名","service":"yard","status":"operational","color":"#52636F","dataOrigin":"datum-2026-08-01","sourceKey":"way:1432168225"}},{"type":"Feature","geometry":{"type":"LineString","coordinates":[[110.1252734,20.2375437],[110.125315,20.2371731],[110.1253244,20.2370265],[110.1253277,20.2368604],[110.1253203,20.2355763]]},"properties":{"key":"way:1432168226@detail:440_80","osmType":"way","osmId":1432168226,"sourceRegion":"guangdong","featureType":"infrastructure","railClass":"minor","mode":"rail","name":"未命名","service":"yard","status":"operational","color":"#52636F","dataOrigin":"datum-2026-08-01","sourceKey":"way:1432168226"}},{"type":"Feature","geometry":{"type":"LineString","coordinates":[[110.1251916,20.2329803],[110.1251909,20.2328325],[110.1251963,20.2327431],[110.1252063,20.2326142],[110.125211,20.232494],[110.125211,20.2323977],[110.125209,20.2318761],[110.1252077,20.2316377]]},"properties":{"key":"way:1432168227@detail:440_80","osmType":"way","osmId":1432168227,"sourceRegion":"guangdong","featureType":"infrastructure","railClass":"minor","mode":"rail","name":"未命名","service":"yard","status":"operational","color":"#52636F","dataOrigin":"datum-2026-08-01","sourceKey":"way:1432168227"}},{"type":"Feature","geometry":{"type":"LineString","coordinates":[[110.1251802,20.2384862],[110.1251916,20.2382502],[110.1252218,20.2380023],[110.1252499,20.2377557]]},"properties":{"key":"way:1432168228@detail:440_80","osmType":"way","osmId":1432168228,"sourceRegion":"guangdong","featureType":"infrastructure","railClass":"minor","mode":"rail","name":"未命名","service":"yard","status":"operational","color":"#52636F","dataOrigin":"datum-2026-08-01","sourceKey":"way:1432168228"}},{"type":"Feature","geometry":{"type":"LineString","coordinates":[[110.1252486,20.2393494],[110.1252332,20.2390876],[110.1251983,20.2388045],[110.1251809,20.2385906]]},"properties":{"key":"way:1432168229@detail:440_80","osmType":"way","osmId":1432168229,"sourceRegion":"guangdong","featureType":"infrastructure","railClass":"minor","mode":"rail","name":"未命名","service":"yard","status":"operational","color":"#52636F","dataOrigin":"datum-2026-08-01","sourceKey":"way:1432168229"}},{"type":"Feature","geometry":{"type":"LineString","coordinates":[[110.1252513,20.2401352],[110.1252707,20.2398709],[110.1252881,20.2397105],[110.1252969,20.2395362],[110.1252955,20.2393877],[110.1252942,20.239148]]},"properties":{"key":"way:1432168230@detail:440_80","osmType":"way","osmId":1432168230,"sourceRegion":"guangdong","featureType":"infrastructure","railClass":"minor","mode":"rail","name":"未命名","service":"yard","status":"operational","color":"#52636F","dataOrigin":"datum-2026-08-01","sourceKey":"way:1432168230"}},{"type":"Feature","geometry":{"type":"LineString","coordinates":[[110.1251627,20.2355788],[110.125148,20.2336869],[110.12515,20.233517],[110.1251916,20.2329803]]},"properties":{"key":"way:1432168231@detail:440_80","osmType":"way","osmId":1432168231,"sourceRegion":"guangdong","featureType":"infrastructure","railClass":"minor","mode":"rail","name":"未命名","service":"yard","status":"operational","color":"#52636F","dataOrigin":"datum-2026-08-01","sourceKey":"way:1432168231"}},{"type":"Feature","geometry":{"type":"LineString","coordinates":[[110.1253297,20.2412217],[110.1252761,20.240809],[110.125264,20.2407115],[110.1252129,20.2402084],[110.1251909,20.2399923],[110.1251906,20.2399319],[110.1251902,20.2398804]]},"properties":{"key":"way:1432168232@detail:440_80","osmType":"way","osmId":1432168232,"sourceRegion":"guangdong","featureType":"infrastructure","railClass":"national","mode":"rail","name":"湛海线","ref":"0718","operator":"中国铁路广州局集团有限公司","usage":"main","status":"operational","color":"#E54848","dataOrigin":"datum-2026-08-01","sourceKey":"way:1432168232"}},{"type":"Feature","geometry":{"type":"LineString","coordinates":[[110.1299182,20.2490014],[110.1295508,20.2484478],[110.1291861,20.2478937],[110.1286094,20.2470267],[110.127977,20.2460667],[110.1267325,20.2441969],[110.1257616,20.2427285],[110.1256804,20.2425876],[110.1256134,20.2424523],[110.1255544,20.2423208],[110.1255054,20.2421912],[110.1254551,20.2420207],[110.1254169,20.2418722],[110.1253854,20.2416728],[110.1253659,20.2415117],[110.1253297,20.2412217]]},"properties":{"key":"way:1432168233@detail:440_80","osmType":"way","osmId":1432168233,"sourceRegion":"guangdong","featureType":"infrastructure","railClass":"national","mode":"rail","name":"湛海线","ref":"0718","operator":"中国铁路广州局集团有限公司","usage":"main","status":"operational","color":"#E54848","dataOrigin":"datum-2026-08-01","sourceKey":"way:1432168233"}},{"type":"Feature","geometry":{"type":"LineString","coordinates":[[110.1299182,20.2490014],[110.1297043,20.2487207],[110.1295495,20.2485177],[110.1292042,20.2480817]]},"properties":{"key":"way:1432168234@detail:440_80","osmType":"way","osmId":1432168234,"sourceRegion":"guangdong","featureType":"infrastructure","railClass":"minor","mode":"rail","name":"未命名","service":"siding","status":"operational","color":"#52636F","dataOrigin":"datum-2026-08-01","sourceKey":"way:1432168234"}},{"type":"Feature","geometry":{"type":"LineString","coordinates":[[110.125264,20.2407115],[110.1252539,20.240485],[110.1252499,20.2402124],[110.1252513,20.2401352],[110.1252488,20.2394198],[110.1252486,20.2393494],[110.1252432,20.2384855],[110.1252385,20.2380237],[110.1252499,20.2377557],[110.1252734,20.2375437]]},"properties":{"key":"way:1432168235@detail:440_80","osmType":"way","osmId":1432168235,"sourceRegion":"guangdong","featureType":"infrastructure","railClass":"minor","mode":"rail","name":"未命名","service":"yard","status":"operational","color":"#52636F","dataOrigin":"datum-2026-08-01","sourceKey":"way:1432168235"}},{"type":"Feature","geometry":{"type":"LineString","coordinates":[[110.1296092,20.248446],[110.1294362,20.2481264],[110.1293363,20.2479559],[110.1291284,20.2476344],[110.1288948,20.247281],[110.1268127,20.2441429],[110.1259752,20.2428846],[110.1258997,20.2427631],[110.1258105,20.2426027],[110.1257455,20.2424668],[110.1256683,20.2422969],[110.125614,20.242156],[110.1255617,20.2419962],[110.1255094,20.2418093],[110.1254565,20.2415841],[110.1253887,20.2413035],[110.1253297,20.2410625],[110.1252761,20.240809]]},"properties":{"key":"way:1432168236@detail:440_80","osmType":"way","osmId":1432168236,"sourceRegion":"guangdong","featureType":"infrastructure","railClass":"minor","mode":"rail","name":"未命名","service":"siding","status":"operational","color":"#52636F","dataOrigin":"datum-2026-08-01","sourceKey":"way:1432168236"}},{"type":"Feature","geometry":{"type":"LineString","coordinates":[[110.1296092,20.248446],[110.1288541,20.2473047],[110.1267721,20.2441667],[110.1259346,20.2429084],[110.1258561,20.2427895],[110.1257689,20.242636],[110.1256898,20.2424831],[110.1256227,20.2423296],[110.1255523,20.2421415],[110.125502,20.241976],[110.1254679,20.2418301],[110.1254377,20.2416992],[110.1253767,20.2414589],[110.1253297,20.2412217]]},"properties":{"key":"way:1432168237@detail:440_80","osmType":"way","osmId":1432168237,"sourceRegion":"guangdong","featureType":"infrastructure","railClass":"minor","mode":"rail","name":"未命名","service":"siding","status":"operational","color":"#52636F","dataOrigin":"datum-2026-08-01","sourceKey":"way:1432168237"}},{"type":"Feature","geometry":{"type":"LineString","coordinates":[[110.1251205,20.2388586],[110.1251225,20.2390908],[110.1251286,20.2393085],[110.1251487,20.2394871],[110.1251788,20.2397001],[110.1251902,20.2398804]]},"properties":{"key":"way:1432168238@detail:440_80","osmType":"way","osmId":1432168238,"sourceRegion":"guangdong","featureType":"infrastructure","railClass":"minor","mode":"rail","name":"未命名","service":"yard","status":"operational","color":"#52636F","dataOrigin":"datum-2026-08-01","sourceKey":"way:1432168238"}},{"type":"Feature","geometry":{"type":"LineString","coordinates":[[110.1251943,20.2408071],[110.1251916,20.2403975],[110.1251913,20.2402061],[110.1251909,20.2399923]]},"properties":{"key":"way:1432168239@detail:440_80","osmType":"way","osmId":1432168239,"sourceRegion":"guangdong","featureType":"infrastructure","railClass":"minor","mode":"rail","name":"未命名","service":"siding","status":"operational","color":"#52636F","dataOrigin":"datum-2026-08-01","sourceKey":"way:1432168239"}},{"type":"Feature","geometry":{"type":"LineString","coordinates":[[110.1295495,20.2485177],[110.1293845,20.2482893],[110.1292283,20.2480502],[110.1287629,20.2473475],[110.1266936,20.2442258],[110.125724,20.2427681],[110.1256127,20.2425894],[110.1255215,20.2424189],[110.1254551,20.2422711],[110.1253921,20.2421019],[110.1253472,20.2419502],[110.1253069,20.2417728],[110.1252841,20.2416376],[110.125262,20.241445],[110.1252385,20.2412645],[110.1252077,20.241004],[110.1251943,20.2408071]]},"properties":{"key":"way:1432168240@detail:440_80","osmType":"way","osmId":1432168240,"sourceRegion":"guangdong","featureType":"infrastructure","railClass":"minor","mode":"rail","name":"未命名","service":"siding","status":"operational","color":"#52636F","dataOrigin":"datum-2026-08-01","sourceKey":"way:1432168240"}},{"type":"Feature","geometry":{"type":"LineString","coordinates":[[110.1292042,20.2480817],[110.1289634,20.2477388],[110.1287261,20.2473771],[110.1266534,20.2442541],[110.1257267,20.24286],[110.1256053,20.24267],[110.1255208,20.2425297],[110.1254477,20.2423875],[110.1253887,20.2422484],[110.1253304,20.2421012],[110.1252674,20.2418722],[110.1252251,20.2416432],[110.125199,20.2414029],[110.1251969,20.2412752],[110.1251936,20.2411185],[110.1251943,20.2408071]]},"properties":{"key":"way:1432168241@detail:440_80","osmType":"way","osmId":1432168241,"sourceRegion":"guangdong","featureType":"infrastructure","railClass":"minor","mode":"rail","name":"未命名","service":"siding","status":"operational","color":"#52636F","dataOrigin":"datum-2026-08-01","sourceKey":"way:1432168241"}},{"type":"Feature","geometry":{"type":"LineString","coordinates":[[110.1292042,20.2480817],[110.1288676,20.2476577],[110.1287522,20.2475035],[110.1286842,20.2474023],[110.1266152,20.2442787],[110.1256932,20.2428883],[110.1255718,20.2427058],[110.1254725,20.2425485],[110.1253961,20.2424038],[110.1253337,20.242273],[110.1252855,20.242149],[110.1252466,20.2420383],[110.1252063,20.2419056],[110.1251788,20.2417848],[110.1251567,20.2416558],[110.1251379,20.2415281],[110.1251292,20.2414054],[110.1251218,20.2412733],[110.1251212,20.2411682],[110.1251292,20.2410594],[110.1251426,20.2409222],[110.1251607,20.240763],[110.1251748,20.2406429],[110.1251916,20.2403975]]},"properties":{"key":"way:1432168242@detail:440_80","osmType":"way","osmId":1432168242,"sourceRegion":"guangdong","featureType":"infrastructure","railClass":"minor","mode":"rail","name":"未命名","service":"siding","status":"operational","color":"#52636F","dataOrigin":"datum-2026-08-01","sourceKey":"way:1432168242"}},{"type":"Feature","geometry":{"type":"LineString","coordinates":[[110.13062973721408,20.25],[110.1302442,20.2494701]]},"properties":{"key":"way:1432168243@detail:440_80","osmType":"way","osmId":1432168243,"sourceRegion":"guangdong","featureType":"infrastructure","railClass":"minor","mode":"rail","name":"未命名","service":"yard","status":"operational","color":"#52636F","dataOrigin":"datum-2026-08-01","sourceKey":"way:1432168243"}},{"type":"Feature","geometry":{"type":"LineString","coordinates":[[110.1301778,20.2493691],[110.129744,20.2486498],[110.1296092,20.248446]]},"properties":{"key":"way:1432168244@detail:440_80","osmType":"way","osmId":1432168244,"sourceRegion":"guangdong","featureType":"infrastructure","railClass":"minor","mode":"rail","name":"未命名","service":"siding","status":"operational","color":"#52636F","dataOrigin":"datum-2026-08-01","sourceKey":"way:1432168244"}},{"type":"Feature","geometry":{"type":"LineString","coordinates":[[110.13063952044482,20.25],[110.1302752,20.2494507],[110.129744,20.2486498]]},"properties":{"key":"way:1432168245@detail:440_80","osmType":"way","osmId":1432168245,"sourceRegion":"guangdong","featureType":"infrastructure","railClass":"minor","mode":"rail","name":"未命名","service":"yard","status":"operational","color":"#52636F","dataOrigin":"datum-2026-08-01","sourceKey":"way:1432168245"}}]}