{"type":"FeatureCollection","features":[{"type":"Feature","geometry":{"type":"LineString","coordinates":[[110.24987162345593,21.75],[110.2498268,21.7494812],[110.2498037,21.7492424],[110.2497934,21.7490828],[110.2498343,21.7482582],[110.2498535,21.7480278],[110.2498661,21.7478946],[110.2499129,21.7475392],[110.2499691,21.7471979],[110.25,21.746946556983193]]},"properties":{"key":"way:1178567300@detail:440_86","osmType":"way","osmId":1178567300,"sourceRegion":"guangdong","featureType":"infrastructure","railClass":"national","mode":"rail","name":"黎湛线","ref":"0752","operator":"中国铁路南宁局集团有限公司","usage":"main","status":"operational","color":"#E54848","dataOrigin":"datum-2026-08-01","sourceKey":"way:1178567300"}},{"type":"Feature","geometry":{"type":"LineString","coordinates":[[110.25,21.746587247386724],[110.2499346,21.7471384],[110.2498541,21.7477198],[110.2498219,21.7479166],[110.2498045,21.7480898],[110.2497876,21.7484108],[110.2497569,21.749032],[110.2497569,21.7490978],[110.2497738,21.7492767],[110.24983451171566,21.75]]},"properties":{"key":"way:1178567301@detail:440_86","osmType":"way","osmId":1178567301,"sourceRegion":"guangdong","featureType":"infrastructure","railClass":"national","mode":"rail","name":"黎湛线","ref":"0752","operator":"中国铁路南宁局集团有限公司","usage":"main","status":"operational","color":"#E54848","dataOrigin":"datum-2026-08-01","sourceKey":"way:1178567301"}},{"type":"Feature","geometry":{"type":"LineString","coordinates":[[110.0468301,21.5354458],[110.0435686,21.538799],[110.0381183,21.5437488],[110.0315952,21.5482594],[110.0243854,21.5532089],[110.0184202,21.5565617],[110.0151586,21.5580185],[110.0126857,21.5589614],[110.0114679,21.5593756],[110.0054598,21.5614311],[110.0,21.563140746458497]]},"properties":{"key":"way:1460538482@detail:440_86","osmType":"way","osmId":1460538482,"sourceRegion":"guangdong","featureType":"infrastructure","railClass":"construction","mode":"construction","name":"合湛高铁","nameEn":"Hepu–Zhanjiang Highspeed Railway","usage":"main","highspeed":"yes","status":"construction","color":"#E54848","dataOrigin":"datum-2026-08-01","sourceKey":"way:1460538482"}},{"type":"Feature","geometry":{"type":"LineString","coordinates":[[110.07413959160101,21.5],[110.0695967,21.506122],[110.0674295,21.508857],[110.0628805,21.5144467],[110.0563573,21.5228307],[110.0518727,21.5295776],[110.0468301,21.5354458]]},"properties":{"key":"way:1460540746@detail:440_86","osmType":"way","osmId":1460540746,"sourceRegion":"guangdong","featureType":"infrastructure","railClass":"construction","mode":"construction","name":"合湛高铁","nameEn":"Hepu–Zhanjiang Highspeed Railway","usage":"main","highspeed":"yes","status":"construction","color":"#E54848","dataOrigin":"datum-2026-08-01","sourceKey":"way:1460540746"}}]}