{"type":"FeatureCollection","features":[{"type":"Feature","geometry":{"type":"Point","coordinates":[110.2371545,21.3334454]},"properties":{"key":"node:13374222462","osmType":"node","osmId":13374222462,"sourceRegion":"guangdong","featureType":"station","railClass":"minor","mode":"station","name":"遂溪","nameEn":"Suixinan","status":"operational","color":"#52636F","dataOrigin":"datum-2026-08-01","sourceKey":"node:13374222462","stationGroup":"遂溪","hasOperationalRail":true,"hasConstructionRail":false}},{"type":"Feature","geometry":{"type":"Point","coordinates":[110.0829058,21.4876244]},"properties":{"key":"node:13685903984","osmType":"node","osmId":13685903984,"sourceRegion":"guangdong","featureType":"station","railClass":"minor","mode":"station","name":"廉江南","nameEn":"Lianjiangnan","status":"operational","color":"#52636F","dataOrigin":"datum-2026-08-01","sourceKey":"node:13685903984","stationGroup":"廉江南","hasOperationalRail":true,"hasConstructionRail":false}},{"type":"Feature","geometry":{"type":"LineString","coordinates":[[110.25,21.387440143934423],[110.2485153,21.3869923],[110.2479003,21.386801],[110.2478313,21.3867795],[110.2477372,21.3867507],[110.246545,21.3863858],[110.2456626,21.3862061],[110.2447737,21.3860649],[110.2439846,21.3859131],[110.2413081,21.3855579],[110.239647,21.3853178]]},"properties":{"key":"way:107358578@detail:440_85","osmType":"way","osmId":107358578,"sourceRegion":"guangdong","featureType":"infrastructure","railClass":"national","mode":"rail","name":"未命名","usage":"branch","status":"operational","color":"#E54848","dataOrigin":"datum-2026-08-01","sourceKey":"way:107358578"}},{"type":"Feature","geometry":{"type":"LineString","coordinates":[[110.2166692,21.3814491],[110.2171485,21.3814286],[110.2185585,21.3811852],[110.2192787,21.3809918]]},"properties":{"key":"way:188065133@detail:440_85","osmType":"way","osmId":188065133,"sourceRegion":"guangdong","featureType":"infrastructure","railClass":"minor","mode":"rail","name":"未命名","service":"siding","status":"operational","color":"#52636F","dataOrigin":"datum-2026-08-01","sourceKey":"way:188065133"}},{"type":"Feature","geometry":{"type":"LineString","coordinates":[[110.23854,21.3851632],[110.2374928,21.385022],[110.2335779,21.3844894],[110.2322719,21.3843353],[110.2320375,21.3843076],[110.2319026,21.3842917],[110.2318644,21.3842872],[110.2314634,21.3842084],[110.2306038,21.3839964],[110.2301142,21.3838402],[110.2295816,21.3836611],[110.2271267,21.382695],[110.22526,21.3819475],[110.224191,21.3815429],[110.2229144,21.3810646],[110.2224629,21.3809447],[110.2219498,21.3808368],[110.2214662,21.380783],[110.2209767,21.3807703],[110.2204091,21.3808015],[110.2201182,21.3808465],[110.2192787,21.3809918],[110.2166692,21.3814491],[110.2156061,21.381635]]},"properties":{"key":"way:1226367732@detail:440_85","osmType":"way","osmId":1226367732,"sourceRegion":"guangdong","featureType":"infrastructure","railClass":"national","mode":"rail","name":"未命名","usage":"branch","status":"operational","color":"#E54848","dataOrigin":"datum-2026-08-01","sourceKey":"way:1226367732"}},{"type":"Feature","geometry":{"type":"LineString","coordinates":[[110.239647,21.3853178],[110.23854,21.3851632]]},"properties":{"key":"way:1226367733@detail:440_85","osmType":"way","osmId":1226367733,"sourceRegion":"guangdong","featureType":"infrastructure","railClass":"national","mode":"rail","name":"未命名","usage":"branch","bridge":"yes","status":"operational","color":"#E54848","dataOrigin":"datum-2026-08-01","sourceKey":"way:1226367733"}},{"type":"Feature","geometry":{"type":"LineString","coordinates":[[110.25,21.32583396891979],[110.2453834,21.3284962],[110.2386671,21.3325737],[110.2298265,21.3375305],[110.2248483,21.3402087],[110.2144414,21.3463744],[110.2074462,21.3508611],[110.2024036,21.3537589],[110.1959234,21.3576359],[110.1884132,21.3618924],[110.1723575,21.3714842],[110.162487,21.3773988],[110.1508569,21.3858707],[110.1446342,21.390466],[110.1369524,21.3959803],[110.1309871,21.4005354],[110.125494,21.4058895],[110.1202154,21.411523],[110.1164817,21.4169965],[110.1133489,21.4222701],[110.1106882,21.4275834],[110.1075983,21.4341749],[110.1053667,21.4402867],[110.1036071,21.4483155],[110.1026201,21.4527491],[110.1012039,21.4583209],[110.0998521,21.462255],[110.098114,21.4664686],[110.0956142,21.4708518],[110.092299,21.4752947],[110.0875783,21.4815645],[110.0829005,21.4876144],[110.0789737,21.4933646],[110.0743818,21.4996736],[110.07413959160101,21.5]]},"properties":{"key":"way:1460540746@detail:440_85","osmType":"way","osmId":1460540746,"sourceRegion":"guangdong","featureType":"infrastructure","railClass":"construction","mode":"construction","name":"合湛高铁","nameEn":"Hepu–Zhanjiang Highspeed Railway","usage":"main","highspeed":"yes","status":"construction","color":"#E54848","dataOrigin":"datum-2026-08-01","sourceKey":"way:1460540746"}}]}