{"type":"FeatureCollection","features":[{"type":"Feature","geometry":{"type":"LineString","coordinates":[[110.25,21.869101542923428],[110.251176,21.865971],[110.2513305,21.8651588],[110.2515082,21.864456],[110.251677,21.863704],[110.2519414,21.8622953],[110.2521077,21.8614315],[110.2526199,21.8587608],[110.2526957,21.8584045],[110.2527536,21.8581543],[110.2528209,21.8579034],[110.2528828,21.8577155],[110.2529155,21.857616],[110.2530597,21.8572136],[110.2535737,21.8559239],[110.2541324,21.8545959],[110.254333,21.8541474],[110.2547982,21.8530085],[110.2552855,21.8517947],[110.2559193,21.8502648],[110.2565772,21.8487494],[110.2572916,21.846992],[110.2579172,21.8454438],[110.2580614,21.8449992],[110.2581321,21.8447105],[110.2581971,21.8443564],[110.2582569,21.8440133],[110.2583075,21.8434413],[110.2584472,21.8419969],[110.2585961,21.8404446],[110.2586619,21.8398437],[110.2587033,21.8395327],[110.2587522,21.8392375],[110.2587988,21.8390174],[110.258899,21.8385502],[110.2590574,21.8380174],[110.2596628,21.8366279],[110.2600724,21.8358075],[110.2608155,21.8343782],[110.2613828,21.8333252],[110.2621159,21.831891],[110.2624903,21.8311635],[110.26288,21.8303276],[110.2632114,21.8293783],[110.2634326,21.8286759],[110.2637758,21.8276014],[110.2640206,21.8269099],[110.2644749,21.8255003],[110.2646642,21.8248743],[110.2647969,21.8243531],[110.2648662,21.8237451],[110.2648833,21.8234036],[110.2648681,21.8228309],[110.2648352,21.8224856],[110.2647778,21.822171],[110.2646952,21.8217996],[110.2645569,21.8213348],[110.26444,21.8210461],[110.2642877,21.8207004],[110.264217,21.8205656],[110.2638164,21.8198851],[110.2633291,21.8192799],[110.2631422,21.8190689],[110.2626973,21.8186328],[110.2619255,21.8179177],[110.2586648,21.8149175],[110.2582622,21.8145494],[110.2570385,21.813403],[110.2566132,21.8129488],[110.2565101,21.8128345],[110.2561454,21.8123771],[110.2559278,21.8120588],[110.2556176,21.8115797],[110.2554213,21.8112273],[110.255257,21.8108818],[110.2550214,21.8103648],[110.2549002,21.8100058],[110.2546958,21.8093864],[110.2546058,21.8089978],[110.2545608,21.8087218],[110.2545161,21.8084225],[110.2544639,21.8080553],[110.2544238,21.8076722],[110.2542226,21.8051248],[110.2541623,21.8043165],[110.2540742,21.8033109],[110.253917,21.8012617],[110.2537024,21.7986997],[110.2531908,21.7923589],[110.253039,21.7904587],[110.2529274,21.7889788],[110.2528347,21.7882126],[110.2525957,21.7870839],[110.2525408,21.7869073],[110.2524137,21.786528],[110.2518075,21.7848322],[110.2516338,21.7843465],[110.2513253,21.7834835],[110.2512209,21.7831757],[110.2511202,21.7828401],[110.2510562,21.7825958],[110.2509955,21.7823402],[110.2509473,21.7821026],[110.2508985,21.7818073],[110.2508639,21.7815542],[110.2508353,21.7812709],[110.2508146,21.7809829],[110.2508022,21.780743],[110.250256,21.763834]]},"properties":{"key":"way:327756457@detail:441_87","osmType":"way","osmId":327756457,"sourceRegion":"guangdong","featureType":"infrastructure","railClass":"national","mode":"rail","name":"黎湛线","ref":"0752","operator":"中国铁路南宁局集团有限公司","usage":"main","status":"operational","color":"#E54848","dataOrigin":"datum-2026-08-01","sourceKey":"way:327756457"}},{"type":"Feature","geometry":{"type":"LineString","coordinates":[[110.250256,21.763834],[110.2501756,21.7601436],[110.2500122,21.7559514],[110.25,21.755512435369774]]},"properties":{"key":"way:1178567300@detail:441_87","osmType":"way","osmId":1178567300,"sourceRegion":"guangdong","featureType":"infrastructure","railClass":"national","mode":"rail","name":"黎湛线","ref":"0752","operator":"中国铁路南宁局集团有限公司","usage":"main","status":"operational","color":"#E54848","dataOrigin":"datum-2026-08-01","sourceKey":"way:1178567300"}},{"type":"Feature","geometry":{"type":"LineString","coordinates":[[110.25,21.756908999245194],[110.2500381,21.7587424],[110.2501458,21.7619753],[110.2502281,21.7640624],[110.2503018,21.7663384],[110.2503226,21.7669076],[110.2503453,21.7676492],[110.2504183,21.7701721],[110.2505116,21.7728468],[110.250582,21.7752965],[110.2507061,21.7787712],[110.2507391,21.7799267],[110.2507677,21.7809],[110.2507731,21.7813225],[110.250798,21.7817661],[110.2508471,21.7821219],[110.2508915,21.7824018],[110.2510325,21.7829621],[110.2511727,21.7834264],[110.2513116,21.7838642],[110.251572,21.7845646],[110.251976,21.7857128],[110.2522665,21.7865141],[110.2523621,21.7867775],[110.2524871,21.7871358],[110.2526105,21.787551],[110.252735,21.7881299],[110.2528311,21.78866],[110.2528619,21.7888919],[110.2529428,21.7898213],[110.2530503,21.791172],[110.2532548,21.7936954],[110.2534204,21.7958473],[110.2536277,21.7985038],[110.2538784,21.8015399],[110.2541073,21.8043297],[110.2541761,21.8051295],[110.2542361,21.8059181],[110.2544202,21.8080668],[110.2544507,21.8083482],[110.2544914,21.8086504],[110.2545337,21.8089132],[110.2546277,21.8093044],[110.2547458,21.8097405],[110.2549108,21.8102102],[110.2550826,21.8106214],[110.2552249,21.8109454],[110.2554443,21.8113582],[110.2557073,21.8118217],[110.2559731,21.8122204],[110.2562276,21.8125616],[110.2565685,21.8129728],[110.256802,21.813222],[110.2570629,21.8134829],[110.2582202,21.8145555],[110.2606793,21.8168348],[110.2618945,21.8179465],[110.262371,21.8183788],[110.2625989,21.8185922],[110.2630156,21.8189977],[110.2632007,21.8191923],[110.2633103,21.8193142],[110.2634326,21.8194661],[110.2635486,21.8196085],[110.2638171,21.8199805],[110.2639697,21.8202166],[110.2641493,21.8205251],[110.2642434,21.8207039],[110.2643198,21.8208759],[110.2644285,21.8211167],[110.2644905,21.8212888],[110.2645863,21.8215871],[110.2647006,21.821997],[110.264745,21.8222291],[110.2647883,21.8225057],[110.2648227,21.8228089],[110.2648404,21.8231394],[110.2648422,21.8233646],[110.2648319,21.8236271],[110.2647983,21.823974],[110.2647535,21.8243259],[110.2647189,21.8244618],[110.2646436,21.8247621],[110.2642422,21.8260822],[110.2638176,21.8273952],[110.263302,21.8289892],[110.2628735,21.8302065],[110.262785,21.8303883],[110.2621688,21.8316011],[110.261483,21.8329337],[110.2607507,21.834338],[110.2598773,21.8360191],[110.259235,21.8373255],[110.2591406,21.8375858],[110.2589888,21.8380206],[110.2588486,21.8385011],[110.2587381,21.8390134],[110.2586389,21.8395736],[110.2585396,21.8404574],[110.2584538,21.8412915],[110.2583492,21.8426035],[110.2582258,21.8438782],[110.2581748,21.8442566],[110.2580917,21.8447247],[110.2579951,21.8450857],[110.2577993,21.8456583],[110.2576223,21.8460815],[110.2572951,21.8468583],[110.2567935,21.8481105],[110.2562705,21.8493678],[110.2558547,21.8503337],[110.2554873,21.8511851],[110.2549978,21.8524149],[110.2548623,21.8527435],[110.2547979,21.852914],[110.2547282,21.8530584],[110.2544747,21.8536858],[110.2536821,21.8555666],[110.2534823,21.8560595],[110.2532651,21.856586],[110.2528895,21.8575456],[110.252738,21.8580622],[110.2526723,21.8583024],[110.2525154,21.8591239],[110.2524014,21.8597848],[110.2522646,21.860437],[110.2521291,21.8611228],[110.2520071,21.8617315],[110.2519092,21.8622866],[110.2517979,21.8628691],[110.2516745,21.8634777],[110.251531,21.8641747],[110.251413,21.8646937],[110.2512601,21.8652501],[110.2511112,21.8656969],[110.2509342,21.8661773],[110.250717,21.8667349],[110.250489,21.8673361],[110.2502878,21.867865],[110.25,21.86860099226734]]},"properties":{"key":"way:1178567301@detail:441_87","osmType":"way","osmId":1178567301,"sourceRegion":"guangdong","featureType":"infrastructure","railClass":"national","mode":"rail","name":"黎湛线","ref":"0752","operator":"中国铁路南宁局集团有限公司","usage":"main","status":"operational","color":"#E54848","dataOrigin":"datum-2026-08-01","sourceKey":"way:1178567301"}}]}