{"type":"FeatureCollection","features":[{"type":"Feature","geometry":{"type":"Point","coordinates":[110.2974215,21.6987758]},"properties":{"key":"node:1692209441","osmType":"node","osmId":1692209441,"sourceRegion":"guangdong","featureType":"station","railClass":"minor","mode":"station","name":"河唇","nameEn":"Hechun","status":"operational","color":"#52636F","dataOrigin":"datum-2026-08-01","sourceKey":"node:1692209441","stationGroup":"河唇","hasOperationalRail":true,"hasConstructionRail":false}},{"type":"Feature","geometry":{"type":"Point","coordinates":[110.292717,21.6175577]},"properties":{"key":"node:1692209463","osmType":"node","osmId":1692209463,"sourceRegion":"guangdong","featureType":"station","railClass":"minor","mode":"station","name":"廉江","nameEn":"Lianjiang","status":"operational","color":"#52636F","dataOrigin":"datum-2026-08-01","sourceKey":"node:1692209463","stationGroup":"廉江","hasOperationalRail":true,"hasConstructionRail":false}},{"type":"Feature","geometry":{"type":"Point","coordinates":[110.3028064,21.6724224]},"properties":{"key":"node:9189836469","osmType":"node","osmId":9189836469,"sourceRegion":"guangdong","featureType":"station","railClass":"minor","mode":"station","name":"高田","status":"operational","color":"#52636F","dataOrigin":"datum-2026-08-01","sourceKey":"node:9189836469","stationGroup":"高田","hasOperationalRail":true,"hasConstructionRail":false}},{"type":"Feature","geometry":{"type":"Point","coordinates":[110.2509028,21.7402613]},"properties":{"key":"node:9189836470","osmType":"node","osmId":9189836470,"sourceRegion":"guangdong","featureType":"station","railClass":"minor","mode":"station","name":"飞凤坡","status":"operational","color":"#52636F","dataOrigin":"datum-2026-08-01","sourceKey":"node:9189836470","stationGroup":"飞凤坡","hasOperationalRail":true,"hasConstructionRail":false}},{"type":"Feature","geometry":{"type":"Point","coordinates":[110.4160818,21.6567202]},"properties":{"key":"node:9192069850","osmType":"node","osmId":9192069850,"sourceRegion":"guangdong","featureType":"station","railClass":"minor","mode":"station","name":"新安圩","status":"operational","color":"#52636F","dataOrigin":"datum-2026-08-01","sourceKey":"node:9192069850","stationGroup":"新安圩","hasOperationalRail":true,"hasConstructionRail":false}},{"type":"Feature","geometry":{"type":"Point","coordinates":[110.3280732,21.6795407]},"properties":{"key":"node:9192069851","osmType":"node","osmId":9192069851,"sourceRegion":"guangdong","featureType":"station","railClass":"minor","mode":"station","name":"龙田面","status":"operational","color":"#52636F","dataOrigin":"datum-2026-08-01","sourceKey":"node:9192069851","stationGroup":"龙田面","hasOperationalRail":true,"hasConstructionRail":false}},{"type":"Feature","geometry":{"type":"LineString","coordinates":[[110.2500207,21.7464128],[110.2500457,21.7462258],[110.2500936,21.7459759],[110.2502289,21.7454426],[110.2502799,21.7451837],[110.2504479,21.7439867],[110.2505384,21.7433555],[110.2506481,21.7427263],[110.2507243,21.7422701],[110.250879,21.741538],[110.2510609,21.7403287],[110.2512932,21.7388853],[110.2513752,21.7384116],[110.252048,21.734238],[110.2523414,21.7328616],[110.2524288,21.7325575],[110.2527724,21.7316964],[110.2528975,21.731445],[110.2530852,21.7311327],[110.2533397,21.7307112],[110.2535651,21.7303583],[110.2537946,21.7300583],[110.2540755,21.7297032],[110.2600015,21.7229894],[110.2601825,21.722802],[110.2607156,21.7221249],[110.2608247,21.7219648],[110.2616032,21.7207766]]},"properties":{"key":"way:48997558@detail:441_86","osmType":"way","osmId":48997558,"sourceRegion":"guangdong","featureType":"infrastructure","railClass":"national","mode":"rail","name":"黎湛线","ref":"0752","operator":"中国铁路南宁局集团有限公司","usage":"main","status":"operational","color":"#E54848","dataOrigin":"datum-2026-08-01","sourceKey":"way:48997558"}},{"type":"Feature","geometry":{"type":"LineString","coordinates":[[110.4123269,21.6604016],[110.412739,21.6599821],[110.4159151,21.656739],[110.4162492,21.6564028],[110.4178053,21.6548099],[110.4183289,21.6542925],[110.4187394,21.6538427],[110.4196295,21.6529394],[110.4197758,21.6527917],[110.421033,21.651523],[110.4214255,21.6511072],[110.422143,21.650478],[110.4257727,21.6474863],[110.426491,21.646978],[110.427578,21.64618],[110.42913,21.645185],[110.430156,21.644613],[110.4307776,21.6443544]]},"properties":{"key":"way:48997559@detail:441_86","osmType":"way","osmId":48997559,"sourceRegion":"guangdong","featureType":"infrastructure","railClass":"national","mode":"rail","name":"河茂线","nameEn":"Hemao Line","ref":"0753","operator":"中国铁路南宁局集团有限公司","usage":"branch","status":"operational","color":"#E54848","dataOrigin":"datum-2026-08-01","sourceKey":"way:48997559"}},{"type":"Feature","geometry":{"type":"LineString","coordinates":[[110.31915,21.6802845],[110.3162432,21.6813404],[110.3157833,21.6814966],[110.3149494,21.6817619],[110.3136705,21.6822254],[110.3130895,21.6824421],[110.3114985,21.6830579],[110.3110304,21.683209],[110.31056,21.6833358],[110.3101083,21.6834451],[110.3096542,21.6835333],[110.3091923,21.6836032],[110.3087159,21.6836532],[110.3061322,21.683799],[110.3056664,21.6838361],[110.3052171,21.683899],[110.3047757,21.6839796],[110.3043289,21.6840925],[110.3039184,21.6842159],[110.3035042,21.6843714],[110.3030988,21.6845413],[110.3027153,21.6847326],[110.3023292,21.6849513],[110.3019306,21.685209],[110.3015637,21.6854789],[110.3012128,21.6857663],[110.3008865,21.6860818],[110.3005684,21.6864246],[110.3002652,21.6867897],[110.2999915,21.6871648],[110.2997599,21.687541],[110.2995535,21.687917],[110.2993499,21.688349],[110.2991968,21.688745],[110.2990745,21.6891293],[110.2989417,21.689623],[110.298738,21.6904907],[110.2984031,21.6917469]]},"properties":{"key":"way:156985903@detail:441_86","osmType":"way","osmId":156985903,"sourceRegion":"guangdong","featureType":"infrastructure","railClass":"national","mode":"rail","name":"河茂线","nameEn":"Hemao Line","ref":"0753","operator":"中国铁路南宁局集团有限公司","usage":"branch","status":"operational","color":"#E54848","dataOrigin":"datum-2026-08-01","sourceKey":"way:156985903"}},{"type":"Feature","geometry":{"type":"LineString","coordinates":[[110.2901355,21.7118546],[110.2914483,21.711537]]},"properties":{"key":"way:156985909@detail:441_86","osmType":"way","osmId":156985909,"sourceRegion":"guangdong","featureType":"infrastructure","railClass":"national","mode":"rail","name":"黎湛线","ref":"0752","operator":"中国铁路南宁局集团有限公司","usage":"main","bridge":"yes","status":"operational","color":"#E54848","dataOrigin":"datum-2026-08-01","sourceKey":"way:156985909"}},{"type":"Feature","geometry":{"type":"LineString","coordinates":[[110.31915,21.6802845],[110.3198347,21.6800365]]},"properties":{"key":"way:156985914@detail:441_86","osmType":"way","osmId":156985914,"sourceRegion":"guangdong","featureType":"infrastructure","railClass":"national","mode":"rail","name":"河茂线","nameEn":"Hemao Line","ref":"0753","operator":"中国铁路南宁局集团有限公司","usage":"branch","bridge":"yes","status":"operational","color":"#E54848","dataOrigin":"datum-2026-08-01","sourceKey":"way:156985914"}},{"type":"Feature","geometry":{"type":"LineString","coordinates":[[110.3595689,21.6810709],[110.360091,21.680593],[110.360506,21.680075],[110.360758,21.679658],[110.361066,21.678895],[110.362155,21.674524],[110.362493,21.673745],[110.362881,21.673163],[110.363346,21.67267],[110.363888,21.672223],[110.366583,21.669773],[110.3666595,21.6696751],[110.367021,21.669503],[110.367331,21.66937],[110.367649,21.669259],[110.368171,21.669166],[110.368696,21.669138],[110.3692102,21.6691292],[110.3696534,21.669164],[110.373554,21.669626],[110.374726,21.669846],[110.375204,21.670016],[110.37577,21.670346],[110.377639,21.671916],[110.378816,21.672828],[110.379371,21.67321],[110.380121,21.67361],[110.381284,21.673953],[110.381981,21.674063],[110.382509,21.674088],[110.383566,21.67398],[110.384423,21.673766],[110.385234,21.673415],[110.3855637,21.6731972],[110.387086,21.672318],[110.389463,21.671014],[110.3902106,21.6706261],[110.391089,21.670181],[110.3925964,21.6695305],[110.39598,21.668171],[110.398644,21.666983],[110.409583,21.662351],[110.4104642,21.6619629],[110.4108056,21.6617551],[110.4109944,21.6616252],[110.4114368,21.6612652],[110.4123269,21.6604016]]},"properties":{"key":"way:156985933@detail:441_86","osmType":"way","osmId":156985933,"sourceRegion":"guangdong","featureType":"infrastructure","railClass":"national","mode":"rail","name":"河茂线","nameEn":"Hemao Line","ref":"0753","operator":"中国铁路南宁局集团有限公司","usage":"branch","status":"operational","color":"#E54848","dataOrigin":"datum-2026-08-01","sourceKey":"way:156985933"}},{"type":"Feature","geometry":{"type":"LineString","coordinates":[[110.2965205,21.7060503],[110.2965635,21.7054397],[110.2965758,21.705266],[110.2966351,21.7044238],[110.2966415,21.7043322],[110.2966487,21.7042303],[110.2970782,21.6981298],[110.2971095,21.6977732],[110.2971458,21.6974667],[110.2971969,21.6971364],[110.2972698,21.6967751],[110.2981809,21.6927325],[110.298273,21.692324],[110.2983223,21.6921053],[110.2984031,21.6917469],[110.2986945,21.6904381],[110.3018736,21.6761387],[110.3022748,21.6743752],[110.3024161,21.673713],[110.3025287,21.673121],[110.3026222,21.6724664],[110.3026925,21.6718608],[110.302744,21.6712333],[110.3029713,21.66715],[110.3030029,21.6665587],[110.3035726,21.6556059],[110.303649,21.6536802],[110.30368,21.6530874],[110.3036888,21.6524589],[110.3037178,21.6516258],[110.3037165,21.6511249],[110.3036034,21.6498746],[110.3033824,21.6487232],[110.3033519,21.6485621],[110.3032992,21.6483708],[110.3032324,21.6481089],[110.3030566,21.6475464],[110.3025692,21.6461001],[110.3003843,21.6398029]]},"properties":{"key":"way:188902242@detail:441_86","osmType":"way","osmId":188902242,"sourceRegion":"guangdong","featureType":"infrastructure","railClass":"national","mode":"rail","name":"黎湛线","ref":"0752","operator":"中国铁路南宁局集团有限公司","usage":"main","status":"operational","color":"#E54848","dataOrigin":"datum-2026-08-01","sourceKey":"way:188902242"}},{"type":"Feature","geometry":{"type":"LineString","coordinates":[[110.2637969,21.7152735],[110.2639009,21.7145403],[110.2640545,21.7137948]]},"properties":{"key":"way:327752214@detail:441_86","osmType":"way","osmId":327752214,"sourceRegion":"guangdong","featureType":"infrastructure","railClass":"national","mode":"rail","name":"黎湛线","ref":"0752","operator":"中国铁路南宁局集团有限公司","usage":"main","tunnel":"yes","status":"operational","color":"#E54848","dataOrigin":"datum-2026-08-01","sourceKey":"way:327752214"}},{"type":"Feature","geometry":{"type":"LineString","coordinates":[[110.2643022,21.7137877],[110.2641802,21.7143528],[110.2641175,21.7149179]]},"properties":{"key":"way:327752215@detail:441_86","osmType":"way","osmId":327752215,"sourceRegion":"guangdong","featureType":"infrastructure","railClass":"national","mode":"rail","name":"黎湛线","ref":"0752","operator":"中国铁路南宁局集团有限公司","usage":"main","tunnel":"yes","status":"operational","color":"#E54848","dataOrigin":"datum-2026-08-01","sourceKey":"way:327752215"}},{"type":"Feature","geometry":{"type":"LineString","coordinates":[[110.2616032,21.7207766],[110.2621936,21.7199187]]},"properties":{"key":"way:327752216@detail:441_86","osmType":"way","osmId":327752216,"sourceRegion":"guangdong","featureType":"infrastructure","railClass":"national","mode":"rail","name":"黎湛线","ref":"0752","operator":"中国铁路南宁局集团有限公司","usage":"main","bridge":"yes","status":"operational","color":"#E54848","dataOrigin":"datum-2026-08-01","sourceKey":"way:327752216"}},{"type":"Feature","geometry":{"type":"LineString","coordinates":[[110.2616672,21.720808],[110.2622571,21.7199501]]},"properties":{"key":"way:327752217@detail:441_86","osmType":"way","osmId":327752217,"sourceRegion":"guangdong","featureType":"infrastructure","railClass":"national","mode":"rail","name":"黎湛线","ref":"0752","operator":"中国铁路南宁局集团有限公司","usage":"main","bridge":"yes","status":"operational","color":"#E54848","dataOrigin":"datum-2026-08-01","sourceKey":"way:327752217"}},{"type":"Feature","geometry":{"type":"LineString","coordinates":[[110.2616672,21.720808],[110.2612401,21.7214622],[110.260688,21.7222504],[110.260508,21.7224841],[110.2601684,21.7229089],[110.2591129,21.7241083],[110.2566669,21.7268821],[110.2547674,21.7290179],[110.2542401,21.7296007],[110.2541731,21.7296748],[110.253818,21.7300818],[110.253606,21.7303684],[110.2531797,21.7310497],[110.2529742,21.7313794],[110.2528201,21.7316809],[110.2526823,21.7320106],[110.2525185,21.732434],[110.2524321,21.732677],[110.2523597,21.7329264],[110.2521779,21.7337317],[110.2521207,21.7339974],[110.2520502,21.7344889],[110.2516974,21.7366727]]},"properties":{"key":"way:327752218@detail:441_86","osmType":"way","osmId":327752218,"sourceRegion":"guangdong","featureType":"infrastructure","railClass":"national","mode":"rail","name":"黎湛线","ref":"0752","operator":"中国铁路南宁局集团有限公司","usage":"main","status":"operational","color":"#E54848","dataOrigin":"datum-2026-08-01","sourceKey":"way:327752218"}},{"type":"Feature","geometry":{"type":"LineString","coordinates":[[110.2645942,21.7127231],[110.2647891,21.7122476],[110.2649741,21.7118623],[110.2651774,21.7114544],[110.2656142,21.7106174],[110.265787,21.7103344],[110.2659389,21.7101006],[110.2659731,21.7100591],[110.2662717,21.709697],[110.2665367,21.709395],[110.2667292,21.7091975],[110.2669491,21.7089828],[110.2672322,21.7087526],[110.2674623,21.7085685],[110.2677845,21.7083359],[110.2681933,21.7081008],[110.2686687,21.7078533],[110.2690646,21.7076901],[110.2693062,21.7076011],[110.2696723,21.7074777],[110.2704794,21.7072219],[110.2716175,21.7068521],[110.2719374,21.7067588],[110.2722923,21.7066612],[110.2725678,21.7065961],[110.2728715,21.7065424],[110.2732403,21.7065088],[110.2737004,21.706476],[110.274067,21.7064731],[110.2743043,21.706476],[110.2746062,21.7064975],[110.2748006,21.706515],[110.2751145,21.7065658],[110.2754563,21.706624],[110.276331,21.70685],[110.27713,21.707178],[110.277688,21.707498],[110.278673,21.708268],[110.28098,21.710565],[110.281878,21.711313],[110.282361,21.711636],[110.283053,21.711998],[110.284145,21.712386],[110.28494,21.712556],[110.28555,21.712618],[110.286361,21.71262],[110.286968,21.712561],[110.287764,21.712423],[110.2901355,21.7118546]]},"properties":{"key":"way:327752219@detail:441_86","osmType":"way","osmId":327752219,"sourceRegion":"guangdong","featureType":"infrastructure","railClass":"national","mode":"rail","name":"黎湛线","ref":"0752","operator":"中国铁路南宁局集团有限公司","usage":"main","status":"operational","color":"#E54848","dataOrigin":"datum-2026-08-01","sourceKey":"way:327752219"}},{"type":"Feature","geometry":{"type":"LineString","coordinates":[[110.2645942,21.7127231],[110.2644632,21.7131133],[110.2643022,21.7137877]]},"properties":{"key":"way:327752220@detail:441_86","osmType":"way","osmId":327752220,"sourceRegion":"guangdong","featureType":"infrastructure","railClass":"national","mode":"rail","name":"黎湛线","ref":"0752","operator":"中国铁路南宁局集团有限公司","usage":"main","status":"operational","color":"#E54848","dataOrigin":"datum-2026-08-01","sourceKey":"way:327752220"}},{"type":"Feature","geometry":{"type":"LineString","coordinates":[[110.2621936,21.7199187],[110.2629702,21.7186697],[110.2632711,21.7180096],[110.263572,21.7170335],[110.2636929,21.7162613],[110.2637969,21.7152735]]},"properties":{"key":"way:327752221@detail:441_86","osmType":"way","osmId":327752221,"sourceRegion":"guangdong","featureType":"infrastructure","railClass":"national","mode":"rail","name":"黎湛线","ref":"0752","operator":"中国铁路南宁局集团有限公司","usage":"main","status":"operational","color":"#E54848","dataOrigin":"datum-2026-08-01","sourceKey":"way:327752221"}},{"type":"Feature","geometry":{"type":"LineString","coordinates":[[110.2622571,21.7199501],[110.2628784,21.7189681],[110.2632276,21.7183334],[110.2634834,21.7177711],[110.2637995,21.7169402],[110.2640101,21.7161137],[110.2640902,21.715523],[110.2641175,21.7149179]]},"properties":{"key":"way:327752222@detail:441_86","osmType":"way","osmId":327752222,"sourceRegion":"guangdong","featureType":"infrastructure","railClass":"national","mode":"rail","name":"黎湛线","ref":"0752","operator":"中国铁路南宁局集团有限公司","usage":"main","status":"operational","color":"#E54848","dataOrigin":"datum-2026-08-01","sourceKey":"way:327752222"}},{"type":"Feature","geometry":{"type":"LineString","coordinates":[[110.2960257,21.7118289],[110.2961855,21.7113554],[110.2962615,21.7108819],[110.2964021,21.7089068],[110.2965179,21.7074762],[110.2965399,21.7072044],[110.296545,21.706439]]},"properties":{"key":"way:327765237@detail:441_86","osmType":"way","osmId":327765237,"sourceRegion":"guangdong","featureType":"infrastructure","railClass":"minor","mode":"rail","name":"未命名","service":"spur","status":"operational","color":"#52636F","dataOrigin":"datum-2026-08-01","sourceKey":"way:327765237"}},{"type":"Feature","geometry":{"type":"LineString","coordinates":[[110.2782018,21.5633705],[110.2779852,21.5628735]]},"properties":{"key":"way:327776648@detail:441_86","osmType":"way","osmId":327776648,"sourceRegion":"guangdong","featureType":"infrastructure","railClass":"national","mode":"rail","name":"黎湛线","ref":"0752","operator":"中国铁路南宁局集团有限公司","usage":"main","bridge":"yes","status":"operational","color":"#E54848","dataOrigin":"datum-2026-08-01","sourceKey":"way:327776648"}},{"type":"Feature","geometry":{"type":"LineString","coordinates":[[110.2878099,21.6035087],[110.2876255,21.6029509]]},"properties":{"key":"way:327776649@detail:441_86","osmType":"way","osmId":327776649,"sourceRegion":"guangdong","featureType":"infrastructure","railClass":"national","mode":"rail","name":"黎湛线","ref":"0752","operator":"中国铁路南宁局集团有限公司","usage":"main","bridge":"yes","status":"operational","color":"#E54848","dataOrigin":"datum-2026-08-01","sourceKey":"way:327776649"}},{"type":"Feature","geometry":{"type":"LineString","coordinates":[[110.2876255,21.6029509],[110.2855136,21.596951]]},"properties":{"key":"way:327776651@detail:441_86","osmType":"way","osmId":327776651,"sourceRegion":"guangdong","featureType":"infrastructure","railClass":"national","mode":"rail","name":"黎湛线","ref":"0752","operator":"中国铁路南宁局集团有限公司","usage":"main","status":"operational","color":"#E54848","dataOrigin":"datum-2026-08-01","sourceKey":"way:327776651"}},{"type":"Feature","geometry":{"type":"LineString","coordinates":[[110.2779852,21.5628735],[110.2714962,21.5475262],[110.2664984,21.5353185],[110.2637829,21.5288795],[110.2636933,21.5286787],[110.2573958,21.513695],[110.2571183,21.5129504],[110.2569085,21.5123072],[110.2567171,21.5116308],[110.2565227,21.5107796],[110.256382,21.5099882],[110.2562812,21.5092453],[110.2561806,21.5080799],[110.2561496,21.5069442],[110.2561315,21.5057067],[110.256119,21.5046537],[110.2561,21.5029476],[110.2560841,21.5017472],[110.2560703,21.5003571],[110.25606651711657,21.5]]},"properties":{"key":"way:327776653@detail:441_86","osmType":"way","osmId":327776653,"sourceRegion":"guangdong","featureType":"infrastructure","railClass":"national","mode":"rail","name":"黎湛线","ref":"0752","operator":"中国铁路南宁局集团有限公司","usage":"main","status":"operational","color":"#E54848","dataOrigin":"datum-2026-08-01","sourceKey":"way:327776653"}},{"type":"Feature","geometry":{"type":"LineString","coordinates":[[110.2911578,21.6131186],[110.2910726,21.6128622]]},"properties":{"key":"way:393505971@detail:441_86","osmType":"way","osmId":393505971,"sourceRegion":"guangdong","featureType":"infrastructure","railClass":"national","mode":"rail","name":"黎湛线","ref":"0752","operator":"中国铁路南宁局集团有限公司","usage":"main","bridge":"yes","status":"operational","color":"#E54848","dataOrigin":"datum-2026-08-01","sourceKey":"way:393505971"}},{"type":"Feature","geometry":{"type":"LineString","coordinates":[[110.4307776,21.6443544],[110.4308539,21.6443192]]},"properties":{"key":"way:393505974@detail:441_86","osmType":"way","osmId":393505974,"sourceRegion":"guangdong","featureType":"infrastructure","railClass":"national","mode":"rail","name":"河茂线","nameEn":"Hemao Line","ref":"0753","operator":"中国铁路南宁局集团有限公司","usage":"branch","bridge":"yes","status":"operational","color":"#E54848","dataOrigin":"datum-2026-08-01","sourceKey":"way:393505974"}},{"type":"Feature","geometry":{"type":"LineString","coordinates":[[110.2910726,21.6128622],[110.2910433,21.6127805],[110.2909325,21.6124641],[110.2902065,21.6103906]]},"properties":{"key":"way:393505976@detail:441_86","osmType":"way","osmId":393505976,"sourceRegion":"guangdong","featureType":"infrastructure","railClass":"national","mode":"rail","name":"黎湛线","ref":"0752","operator":"中国铁路南宁局集团有限公司","usage":"main","status":"operational","color":"#E54848","dataOrigin":"datum-2026-08-01","sourceKey":"way:393505976"}},{"type":"Feature","geometry":{"type":"LineString","coordinates":[[110.2902065,21.6103906],[110.2901774,21.6103009]]},"properties":{"key":"way:393505978@detail:441_86","osmType":"way","osmId":393505978,"sourceRegion":"guangdong","featureType":"infrastructure","railClass":"national","mode":"rail","name":"黎湛线","ref":"0752","operator":"中国铁路南宁局集团有限公司","usage":"main","bridge":"yes","status":"operational","color":"#E54848","dataOrigin":"datum-2026-08-01","sourceKey":"way:393505978"}},{"type":"Feature","geometry":{"type":"LineString","coordinates":[[110.2901774,21.6103009],[110.2889581,21.6068178]]},"properties":{"key":"way:393505979@detail:441_86","osmType":"way","osmId":393505979,"sourceRegion":"guangdong","featureType":"infrastructure","railClass":"national","mode":"rail","name":"黎湛线","ref":"0752","operator":"中国铁路南宁局集团有限公司","usage":"main","status":"operational","color":"#E54848","dataOrigin":"datum-2026-08-01","sourceKey":"way:393505979"}},{"type":"Feature","geometry":{"type":"LineString","coordinates":[[110.4957716,21.6361475],[110.496596,21.636163],[110.497261,21.636093],[110.498773,21.635778],[110.499613,21.635525],[110.5,21.635367529180176]]},"properties":{"key":"way:393505980@detail:441_86","osmType":"way","osmId":393505980,"sourceRegion":"guangdong","featureType":"infrastructure","railClass":"national","mode":"rail","name":"河茂线","nameEn":"Hemao Line","ref":"0753","operator":"中国铁路南宁局集团有限公司","usage":"branch","status":"operational","color":"#E54848","dataOrigin":"datum-2026-08-01","sourceKey":"way:393505980"}},{"type":"Feature","geometry":{"type":"LineString","coordinates":[[110.3003843,21.6398029],[110.3003311,21.6396439]]},"properties":{"key":"way:393522516@detail:441_86","osmType":"way","osmId":393522516,"sourceRegion":"guangdong","featureType":"infrastructure","railClass":"national","mode":"rail","name":"黎湛线","ref":"0752","operator":"中国铁路南宁局集团有限公司","usage":"main","bridge":"yes","status":"operational","color":"#E54848","dataOrigin":"datum-2026-08-01","sourceKey":"way:393522516"}},{"type":"Feature","geometry":{"type":"LineString","coordinates":[[110.3003311,21.6396439],[110.2954972,21.625665],[110.2953318,21.6251868],[110.2952619,21.6249849],[110.2950991,21.6245142],[110.2945188,21.6228364],[110.291463,21.6140012],[110.291305,21.6135443],[110.2911995,21.6132392],[110.2911578,21.6131186]]},"properties":{"key":"way:393522518@detail:441_86","osmType":"way","osmId":393522518,"sourceRegion":"guangdong","featureType":"infrastructure","railClass":"national","mode":"rail","name":"黎湛线","ref":"0752","operator":"中国铁路南宁局集团有限公司","usage":"main","status":"operational","color":"#E54848","dataOrigin":"datum-2026-08-01","sourceKey":"way:393522518"}},{"type":"Feature","geometry":{"type":"LineString","coordinates":[[110.2964686,21.7060499],[110.2964392,21.7063955],[110.2963935,21.706752],[110.2963162,21.7071656],[110.2962102,21.7075469],[110.2960743,21.7079346],[110.2959283,21.7082795],[110.2957341,21.7086383],[110.2955308,21.7089498],[110.2953086,21.7092461],[110.2951149,21.7094771],[110.2947981,21.7098069],[110.2944714,21.7100958],[110.2941356,21.7103457],[110.2938324,21.7105381],[110.2934565,21.7107522],[110.2931373,21.7109149],[110.2928517,21.711034],[110.2924753,21.7111612],[110.2920169,21.7112893],[110.2914288,21.7114303]]},"properties":{"key":"way:393909456@detail:441_86","osmType":"way","osmId":393909456,"sourceRegion":"guangdong","featureType":"infrastructure","railClass":"national","mode":"rail","name":"黎湛线","ref":"0752","operator":"中国铁路南宁局集团有限公司","usage":"main","status":"operational","color":"#E54848","dataOrigin":"datum-2026-08-01","sourceKey":"way:393909456"}},{"type":"Feature","geometry":{"type":"LineString","coordinates":[[110.3029713,21.66715],[110.3029502,21.6685358],[110.3027782,21.6717583],[110.3027471,21.6721762],[110.3027078,21.6725237],[110.3026477,21.6729357],[110.3025694,21.673327],[110.301922,21.6761476],[110.3017497,21.6769608],[110.3016948,21.6774431],[110.3016773,21.6778186],[110.3016846,21.6782303],[110.3017393,21.6785919],[110.3018355,21.678942],[110.3019774,21.6792902],[110.3021354,21.6795975],[110.3023593,21.6799415],[110.302583,21.6802176],[110.3028906,21.6805096],[110.3031934,21.6807495],[110.3035047,21.6809424],[110.3038455,21.68112],[110.3042258,21.6812655],[110.3046439,21.6813834],[110.3050916,21.6814556],[110.3120507,21.6823102],[110.3123774,21.682324],[110.3127207,21.6823145],[110.3130385,21.6822832],[110.3133764,21.6822185],[110.313705,21.6821379],[110.3149494,21.6817619]]},"properties":{"key":"way:570463030@detail:441_86","osmType":"way","osmId":570463030,"sourceRegion":"guangdong","featureType":"infrastructure","railClass":"national","mode":"rail","name":"黎河联络线","ref":"1752","usage":"branch","status":"operational","color":"#E54848","dataOrigin":"datum-2026-08-01","sourceKey":"way:570463030"}},{"type":"Feature","geometry":{"type":"LineString","coordinates":[[110.2964686,21.7060499],[110.2965124,21.7054352],[110.2965247,21.7052618],[110.2965844,21.7044242],[110.2965913,21.7043269],[110.2966023,21.7041722],[110.2966449,21.7035732],[110.297033,21.6981223],[110.2970629,21.697773],[110.2970997,21.697458],[110.2971519,21.6971335],[110.2972247,21.6967654],[110.2979149,21.6936824],[110.2979582,21.6934891],[110.2982165,21.6923352],[110.2984434,21.6913219],[110.2984727,21.691191],[110.3022299,21.6743688],[110.3023669,21.6737099],[110.3024757,21.6731161],[110.3025725,21.6724578],[110.3026407,21.6718499],[110.3026916,21.671239],[110.3030232,21.6651443],[110.3031521,21.6626268],[110.3032756,21.6603537],[110.3033722,21.6583226],[110.3035658,21.6547467],[110.3036022,21.6537674],[110.303645,21.6530252],[110.3036572,21.6524168],[110.3036796,21.6517499],[110.3036829,21.651393],[110.3036686,21.6510322],[110.3036318,21.6504842],[110.3035769,21.6500137],[110.3034016,21.6490434],[110.3032642,21.6484369],[110.3032379,21.6483418],[110.3031777,21.6481228],[110.3030063,21.6475592],[110.3027404,21.6467308],[110.3015309,21.6432389],[110.3003511,21.6398151]]},"properties":{"key":"way:711351596@detail:441_86","osmType":"way","osmId":711351596,"sourceRegion":"guangdong","featureType":"infrastructure","railClass":"national","mode":"rail","name":"黎湛线","ref":"0752","operator":"中国铁路南宁局集团有限公司","usage":"main","status":"operational","color":"#E54848","dataOrigin":"datum-2026-08-01","sourceKey":"way:711351596"}},{"type":"Feature","geometry":{"type":"LineString","coordinates":[[110.2854448,21.5967496],[110.2833463,21.5904796],[110.2831421,21.5898044],[110.2829692,21.5891376],[110.2828457,21.5885327],[110.2827318,21.5878826],[110.2826556,21.5873401],[110.2825922,21.5867596],[110.2825474,21.5861812],[110.282516,21.5853292],[110.2825236,21.5792617],[110.2825079,21.5786488],[110.2824564,21.5778459],[110.2823964,21.5770134],[110.2823234,21.5763318],[110.2822419,21.5756303],[110.2821165,21.5748166],[110.2819718,21.5740568],[110.2818094,21.5732715],[110.2816341,21.5725462],[110.2813214,21.5713279],[110.2810256,21.5703835],[110.2807148,21.5694949],[110.2804103,21.5686819],[110.2799384,21.567549],[110.2794857,21.5664621],[110.2782018,21.5633705]]},"properties":{"key":"way:813239668@detail:441_86","osmType":"way","osmId":813239668,"sourceRegion":"guangdong","featureType":"infrastructure","railClass":"national","mode":"rail","name":"黎湛线","ref":"0752","operator":"中国铁路南宁局集团有限公司","usage":"main","status":"operational","color":"#E54848","dataOrigin":"datum-2026-08-01","sourceKey":"way:813239668"}},{"type":"Feature","geometry":{"type":"LineString","coordinates":[[110.2855136,21.596951],[110.2854448,21.5967496]]},"properties":{"key":"way:813239669@detail:441_86","osmType":"way","osmId":813239669,"sourceRegion":"guangdong","featureType":"infrastructure","railClass":"national","mode":"rail","name":"黎湛线","ref":"0752","operator":"中国铁路南宁局集团有限公司","usage":"main","bridge":"yes","status":"operational","color":"#E54848","dataOrigin":"datum-2026-08-01","sourceKey":"way:813239669"}},{"type":"Feature","geometry":{"type":"LineString","coordinates":[[110.2889105,21.6066847],[110.2878099,21.6035087]]},"properties":{"key":"way:904749916@detail:441_86","osmType":"way","osmId":904749916,"sourceRegion":"guangdong","featureType":"infrastructure","railClass":"national","mode":"rail","name":"黎湛线","ref":"0752","operator":"中国铁路南宁局集团有限公司","usage":"main","status":"operational","color":"#E54848","dataOrigin":"datum-2026-08-01","sourceKey":"way:904749916"}},{"type":"Feature","geometry":{"type":"LineString","coordinates":[[110.2889581,21.6068178],[110.2889105,21.6066847]]},"properties":{"key":"way:904749917@detail:441_86","osmType":"way","osmId":904749917,"sourceRegion":"guangdong","featureType":"infrastructure","railClass":"national","mode":"rail","name":"黎湛线","ref":"0752","operator":"中国铁路南宁局集团有限公司","usage":"main","bridge":"yes","status":"operational","color":"#E54848","dataOrigin":"datum-2026-08-01","sourceKey":"way:904749917"}},{"type":"Feature","geometry":{"type":"LineString","coordinates":[[110.2889076,21.6068341],[110.2901313,21.6103143]]},"properties":{"key":"way:904749918@detail:441_86","osmType":"way","osmId":904749918,"sourceRegion":"guangdong","featureType":"infrastructure","railClass":"national","mode":"rail","name":"黎湛线","ref":"0752","operator":"中国铁路南宁局集团有限公司","usage":"main","status":"operational","color":"#E54848","dataOrigin":"datum-2026-08-01","sourceKey":"way:904749918"}},{"type":"Feature","geometry":{"type":"LineString","coordinates":[[110.2888584,21.6066952],[110.2889076,21.6068341]]},"properties":{"key":"way:904749919@detail:441_86","osmType":"way","osmId":904749919,"sourceRegion":"guangdong","featureType":"infrastructure","railClass":"national","mode":"rail","name":"黎湛线","ref":"0752","operator":"中国铁路南宁局集团有限公司","usage":"main","bridge":"yes","status":"operational","color":"#E54848","dataOrigin":"datum-2026-08-01","sourceKey":"way:904749919"}},{"type":"Feature","geometry":{"type":"LineString","coordinates":[[110.2910909,21.6101009],[110.2910131,21.6102169]]},"properties":{"key":"way:904749920@detail:441_86","osmType":"way","osmId":904749920,"sourceRegion":"guangdong","featureType":"infrastructure","railClass":"minor","mode":"rail","name":"未命名","service":"yard","bridge":"yes","status":"operational","color":"#52636F","dataOrigin":"datum-2026-08-01","sourceKey":"way:904749920"}},{"type":"Feature","geometry":{"type":"LineString","coordinates":[[110.2920243,21.6070735],[110.2915791,21.6091433],[110.2914342,21.6095498],[110.2912572,21.6098765],[110.2910909,21.6101009]]},"properties":{"key":"way:904749921@detail:441_86","osmType":"way","osmId":904749921,"sourceRegion":"guangdong","featureType":"infrastructure","railClass":"minor","mode":"rail","name":"未命名","service":"yard","status":"operational","color":"#52636F","dataOrigin":"datum-2026-08-01","sourceKey":"way:904749921"}},{"type":"Feature","geometry":{"type":"LineString","coordinates":[[110.2905115,21.610339],[110.2905169,21.6105622],[110.2905545,21.6107991],[110.290737,21.6116312],[110.290821,21.6119493]]},"properties":{"key":"way:904749922@detail:441_86","osmType":"way","osmId":904749922,"sourceRegion":"guangdong","featureType":"infrastructure","railClass":"minor","mode":"rail","name":"未命名","service":"yard","status":"operational","color":"#52636F","dataOrigin":"datum-2026-08-01","sourceKey":"way:904749922"}},{"type":"Feature","geometry":{"type":"LineString","coordinates":[[110.2905156,21.6102243],[110.2905115,21.610339]]},"properties":{"key":"way:904749923@detail:441_86","osmType":"way","osmId":904749923,"sourceRegion":"guangdong","featureType":"infrastructure","railClass":"minor","mode":"rail","name":"未命名","service":"yard","bridge":"yes","status":"operational","color":"#52636F","dataOrigin":"datum-2026-08-01","sourceKey":"way:904749923"}},{"type":"Feature","geometry":{"type":"LineString","coordinates":[[110.2912572,21.6069189],[110.2907449,21.6093603],[110.2906872,21.6095635],[110.2905889,21.609835]]},"properties":{"key":"way:904749924@detail:441_86","osmType":"way","osmId":904749924,"sourceRegion":"guangdong","featureType":"infrastructure","railClass":"minor","mode":"rail","name":"未命名","service":"yard","status":"operational","color":"#52636F","dataOrigin":"datum-2026-08-01","sourceKey":"way:904749924"}},{"type":"Feature","geometry":{"type":"LineString","coordinates":[[110.2921316,21.6068017],[110.2916542,21.6090174],[110.2916099,21.6091508],[110.2914342,21.6095498]]},"properties":{"key":"way:904749925@detail:441_86","osmType":"way","osmId":904749925,"sourceRegion":"guangdong","featureType":"infrastructure","railClass":"minor","mode":"rail","name":"未命名","service":"yard","status":"operational","color":"#52636F","dataOrigin":"datum-2026-08-01","sourceKey":"way:904749925"}},{"type":"Feature","geometry":{"type":"LineString","coordinates":[[110.2910131,21.6102169],[110.2908951,21.6104101],[110.2907959,21.6106321],[110.2907342,21.610839],[110.2906993,21.6110834],[110.290737,21.6116312]]},"properties":{"key":"way:904749926@detail:441_86","osmType":"way","osmId":904749926,"sourceRegion":"guangdong","featureType":"infrastructure","railClass":"minor","mode":"rail","name":"未命名","service":"yard","status":"operational","color":"#52636F","dataOrigin":"datum-2026-08-01","sourceKey":"way:904749926"}},{"type":"Feature","geometry":{"type":"LineString","coordinates":[[110.2911687,21.6070536],[110.2906532,21.6095534],[110.2905889,21.609835],[110.2905303,21.6101059],[110.2905156,21.6102243]]},"properties":{"key":"way:904749927@detail:441_86","osmType":"way","osmId":904749927,"sourceRegion":"guangdong","featureType":"infrastructure","railClass":"minor","mode":"rail","name":"未命名","service":"yard","status":"operational","color":"#52636F","dataOrigin":"datum-2026-08-01","sourceKey":"way:904749927"}},{"type":"Feature","geometry":{"type":"LineString","coordinates":[[110.2906462,21.6117906],[110.2909325,21.6124641]]},"properties":{"key":"way:904749928@detail:441_86","osmType":"way","osmId":904749928,"sourceRegion":"guangdong","featureType":"infrastructure","railClass":"minor","mode":"rail","name":"未命名","service":"crossover","status":"operational","color":"#52636F","dataOrigin":"datum-2026-08-01","sourceKey":"way:904749928"}},{"type":"Feature","geometry":{"type":"LineString","coordinates":[[110.2901604,21.6104041],[110.2906462,21.6117906],[110.2910268,21.6128764]]},"properties":{"key":"way:904749930@detail:441_86","osmType":"way","osmId":904749930,"sourceRegion":"guangdong","featureType":"infrastructure","railClass":"national","mode":"rail","name":"黎湛线","ref":"0752","operator":"中国铁路南宁局集团有限公司","usage":"main","status":"operational","color":"#E54848","dataOrigin":"datum-2026-08-01","sourceKey":"way:904749930"}},{"type":"Feature","geometry":{"type":"LineString","coordinates":[[110.2901313,21.6103143],[110.2901604,21.6104041]]},"properties":{"key":"way:904749931@detail:441_86","osmType":"way","osmId":904749931,"sourceRegion":"guangdong","featureType":"infrastructure","railClass":"national","mode":"rail","name":"黎湛线","ref":"0752","operator":"中国铁路南宁局集团有限公司","usage":"main","bridge":"yes","status":"operational","color":"#E54848","dataOrigin":"datum-2026-08-01","sourceKey":"way:904749931"}},{"type":"Feature","geometry":{"type":"LineString","coordinates":[[110.25602531095795,21.5],[110.2560287,21.5003521],[110.256041,21.5017487],[110.2560583,21.5029504],[110.2560731,21.5046382],[110.2560879,21.5057069],[110.2561125,21.5069361],[110.2561396,21.5080781],[110.2562382,21.5092522],[110.2563393,21.5099952],[110.2564798,21.5107772],[110.2566696,21.5116348],[110.2568692,21.5123227],[110.2570713,21.5129442],[110.2573559,21.5137059],[110.26365,21.5286798],[110.2637483,21.5289078],[110.2664569,21.5353275],[110.2714425,21.5475391],[110.2779432,21.5628899]]},"properties":{"key":"way:904749932@detail:441_86","osmType":"way","osmId":904749932,"sourceRegion":"guangdong","featureType":"infrastructure","railClass":"national","mode":"rail","name":"黎湛线","ref":"0752","operator":"中国铁路南宁局集团有限公司","usage":"main","status":"operational","color":"#E54848","dataOrigin":"datum-2026-08-01","sourceKey":"way:904749932"}},{"type":"Feature","geometry":{"type":"LineString","coordinates":[[110.2908664,21.6120799],[110.2910433,21.6127805]]},"properties":{"key":"way:904749933@detail:441_86","osmType":"way","osmId":904749933,"sourceRegion":"guangdong","featureType":"infrastructure","railClass":"minor","mode":"rail","name":"未命名","service":"siding","status":"operational","color":"#52636F","dataOrigin":"datum-2026-08-01","sourceKey":"way:904749933"}},{"type":"Feature","geometry":{"type":"LineString","coordinates":[[110.2912528,21.613091],[110.2913149,21.613218]]},"properties":{"key":"way:904749934@detail:441_86","osmType":"way","osmId":904749934,"sourceRegion":"guangdong","featureType":"infrastructure","railClass":"minor","mode":"rail","name":"未命名","service":"siding","status":"operational","color":"#52636F","dataOrigin":"datum-2026-08-01","sourceKey":"way:904749934"}},{"type":"Feature","geometry":{"type":"LineString","coordinates":[[110.2911326,21.612845],[110.2912528,21.613091]]},"properties":{"key":"way:904749935@detail:441_86","osmType":"way","osmId":904749935,"sourceRegion":"guangdong","featureType":"infrastructure","railClass":"minor","mode":"rail","name":"未命名","service":"siding","bridge":"yes","status":"operational","color":"#52636F","dataOrigin":"datum-2026-08-01","sourceKey":"way:904749935"}},{"type":"Feature","geometry":{"type":"LineString","coordinates":[[110.2911326,21.612845],[110.2908664,21.6120799],[110.290821,21.6119493],[110.2902706,21.6103672]]},"properties":{"key":"way:904749936@detail:441_86","osmType":"way","osmId":904749936,"sourceRegion":"guangdong","featureType":"infrastructure","railClass":"minor","mode":"rail","name":"未命名","service":"siding","status":"operational","color":"#52636F","dataOrigin":"datum-2026-08-01","sourceKey":"way:904749936"}},{"type":"Feature","geometry":{"type":"LineString","coordinates":[[110.2902412,21.6102828],[110.2897478,21.6088927]]},"properties":{"key":"way:904749937@detail:441_86","osmType":"way","osmId":904749937,"sourceRegion":"guangdong","featureType":"infrastructure","railClass":"minor","mode":"rail","name":"未命名","service":"siding","status":"operational","color":"#52636F","dataOrigin":"datum-2026-08-01","sourceKey":"way:904749937"}},{"type":"Feature","geometry":{"type":"LineString","coordinates":[[110.2902706,21.6103672],[110.2902412,21.6102828]]},"properties":{"key":"way:904749938@detail:441_86","osmType":"way","osmId":904749938,"sourceRegion":"guangdong","featureType":"infrastructure","railClass":"minor","mode":"rail","name":"未命名","service":"siding","bridge":"yes","status":"operational","color":"#52636F","dataOrigin":"datum-2026-08-01","sourceKey":"way:904749938"}},{"type":"Feature","geometry":{"type":"LineString","coordinates":[[110.2954972,21.625665],[110.2956634,21.6262966]]},"properties":{"key":"way:904749939@detail:441_86","osmType":"way","osmId":904749939,"sourceRegion":"guangdong","featureType":"infrastructure","railClass":"minor","mode":"rail","name":"未命名","service":"crossover","status":"operational","color":"#52636F","dataOrigin":"datum-2026-08-01","sourceKey":"way:904749939"}},{"type":"Feature","geometry":{"type":"LineString","coordinates":[[110.2953318,21.6251868],[110.2956473,21.6259118]]},"properties":{"key":"way:904749940@detail:441_86","osmType":"way","osmId":904749940,"sourceRegion":"guangdong","featureType":"infrastructure","railClass":"minor","mode":"rail","name":"未命名","service":"siding","status":"operational","color":"#52636F","dataOrigin":"datum-2026-08-01","sourceKey":"way:904749940"}},{"type":"Feature","geometry":{"type":"LineString","coordinates":[[110.2950322,21.6241376],[110.2952619,21.6249849]]},"properties":{"key":"way:904749941@detail:441_86","osmType":"way","osmId":904749941,"sourceRegion":"guangdong","featureType":"infrastructure","railClass":"minor","mode":"rail","name":"未命名","service":"siding","status":"operational","color":"#52636F","dataOrigin":"datum-2026-08-01","sourceKey":"way:904749941"}},{"type":"Feature","geometry":{"type":"LineString","coordinates":[[110.2948038,21.6238119],[110.2950991,21.6245142]]},"properties":{"key":"way:904749942@detail:441_86","osmType":"way","osmId":904749942,"sourceRegion":"guangdong","featureType":"infrastructure","railClass":"minor","mode":"rail","name":"未命名","service":"crossover","status":"operational","color":"#52636F","dataOrigin":"datum-2026-08-01","sourceKey":"way:904749942"}},{"type":"Feature","geometry":{"type":"LineString","coordinates":[[110.2965626,21.6285517],[110.2956473,21.6259118],[110.2950322,21.6241376],[110.294905,21.6237706],[110.2948502,21.6236123],[110.2947012,21.6231822],[110.2943364,21.6221698]]},"properties":{"key":"way:904749943@detail:441_86","osmType":"way","osmId":904749943,"sourceRegion":"guangdong","featureType":"infrastructure","railClass":"minor","mode":"rail","name":"未命名","service":"siding","status":"operational","color":"#52636F","dataOrigin":"datum-2026-08-01","sourceKey":"way:904749943"}},{"type":"Feature","geometry":{"type":"LineString","coordinates":[[110.2947012,21.6231822],[110.2944705,21.6222646],[110.2943659,21.6219255],[110.2921343,21.6154684],[110.2918822,21.614759]]},"properties":{"key":"way:904749944@detail:441_86","osmType":"way","osmId":904749944,"sourceRegion":"guangdong","featureType":"infrastructure","railClass":"minor","mode":"rail","name":"未命名","service":"siding","status":"operational","color":"#52636F","dataOrigin":"datum-2026-08-01","sourceKey":"way:904749944"}},{"type":"Feature","geometry":{"type":"LineString","coordinates":[[110.294787,21.6233629],[110.2947387,21.6229104],[110.2946529,21.6225314],[110.2945778,21.6222396],[110.2922282,21.6154473],[110.2921396,21.6152278],[110.2917817,21.6144343]]},"properties":{"key":"way:904749945@detail:441_86","osmType":"way","osmId":904749945,"sourceRegion":"guangdong","featureType":"infrastructure","railClass":"minor","mode":"rail","name":"未命名","service":"yard","status":"operational","color":"#52636F","dataOrigin":"datum-2026-08-01","sourceKey":"way:904749945"}},{"type":"Feature","geometry":{"type":"LineString","coordinates":[[110.2947387,21.6229104],[110.2947038,21.6225762],[110.2946261,21.6222247],[110.2922751,21.6154298],[110.292204,21.6152303],[110.2920806,21.6149535],[110.2917817,21.6144343],[110.2915748,21.6140748]]},"properties":{"key":"way:904749946@detail:441_86","osmType":"way","osmId":904749946,"sourceRegion":"guangdong","featureType":"infrastructure","railClass":"minor","mode":"rail","name":"未命名","service":"yard","status":"operational","color":"#52636F","dataOrigin":"datum-2026-08-01","sourceKey":"way:904749946"}},{"type":"Feature","geometry":{"type":"LineString","coordinates":[[110.2912178,21.6131014],[110.2911326,21.612845]]},"properties":{"key":"way:904749947@detail:441_86","osmType":"way","osmId":904749947,"sourceRegion":"guangdong","featureType":"infrastructure","railClass":"minor","mode":"rail","name":"未命名","service":"siding","bridge":"yes","status":"operational","color":"#52636F","dataOrigin":"datum-2026-08-01","sourceKey":"way:904749947"}},{"type":"Feature","geometry":{"type":"LineString","coordinates":[[110.2915167,21.6139453],[110.2912178,21.6131014]]},"properties":{"key":"way:904749948@detail:441_86","osmType":"way","osmId":904749948,"sourceRegion":"guangdong","featureType":"infrastructure","railClass":"minor","mode":"rail","name":"未命名","service":"siding","status":"operational","color":"#52636F","dataOrigin":"datum-2026-08-01","sourceKey":"way:904749948"}},{"type":"Feature","geometry":{"type":"LineString","coordinates":[[110.2911116,21.6131319],[110.2914941,21.6142425],[110.2915583,21.6144282],[110.2947599,21.6236851],[110.2948038,21.6238119],[110.2956634,21.6262966],[110.3002956,21.6396524]]},"properties":{"key":"way:904749950@detail:441_86","osmType":"way","osmId":904749950,"sourceRegion":"guangdong","featureType":"infrastructure","railClass":"national","mode":"rail","name":"黎湛线","ref":"0752","operator":"中国铁路南宁局集团有限公司","usage":"main","status":"operational","color":"#E54848","dataOrigin":"datum-2026-08-01","sourceKey":"way:904749950"}},{"type":"Feature","geometry":{"type":"LineString","coordinates":[[110.2910268,21.6128764],[110.2911116,21.6131319]]},"properties":{"key":"way:904749951@detail:441_86","osmType":"way","osmId":904749951,"sourceRegion":"guangdong","featureType":"infrastructure","railClass":"national","mode":"rail","name":"黎湛线","ref":"0752","operator":"中国铁路南宁局集团有限公司","usage":"main","bridge":"yes","status":"operational","color":"#E54848","dataOrigin":"datum-2026-08-01","sourceKey":"way:904749951"}},{"type":"Feature","geometry":{"type":"LineString","coordinates":[[110.2945188,21.6228364],[110.2943364,21.6221698],[110.2917373,21.6146518],[110.291463,21.6140012]]},"properties":{"key":"way:904749952@detail:441_86","osmType":"way","osmId":904749952,"sourceRegion":"guangdong","featureType":"infrastructure","railClass":"minor","mode":"rail","name":"未命名","service":"siding","status":"operational","color":"#52636F","dataOrigin":"datum-2026-08-01","sourceKey":"way:904749952"}},{"type":"Feature","geometry":{"type":"LineString","coordinates":[[110.2948502,21.6236123],[110.294787,21.6233629],[110.2946717,21.6228156],[110.2946046,21.6225064],[110.2945268,21.6222459],[110.2921785,21.6154572],[110.2918822,21.614759],[110.2915748,21.6140748],[110.2915167,21.6139453],[110.2911995,21.6132392]]},"properties":{"key":"way:904749953@detail:441_86","osmType":"way","osmId":904749953,"sourceRegion":"guangdong","featureType":"infrastructure","railClass":"minor","mode":"rail","name":"未命名","service":"yard","status":"operational","color":"#52636F","dataOrigin":"datum-2026-08-01","sourceKey":"way:904749953"}},{"type":"Feature","geometry":{"type":"LineString","coordinates":[[110.291305,21.6135443],[110.2914941,21.6142425]]},"properties":{"key":"way:904749954@detail:441_86","osmType":"way","osmId":904749954,"sourceRegion":"guangdong","featureType":"infrastructure","railClass":"minor","mode":"rail","name":"未命名","service":"crossover","status":"operational","color":"#52636F","dataOrigin":"datum-2026-08-01","sourceKey":"way:904749954"}},{"type":"Feature","geometry":{"type":"LineString","coordinates":[[110.2914155,21.6141606],[110.2917212,21.6150458]]},"properties":{"key":"way:904749955@detail:441_86","osmType":"way","osmId":904749955,"sourceRegion":"guangdong","featureType":"infrastructure","railClass":"minor","mode":"rail","name":"未命名","service":"siding","status":"operational","color":"#52636F","dataOrigin":"datum-2026-08-01","sourceKey":"way:904749955"}},{"type":"Feature","geometry":{"type":"LineString","coordinates":[[110.2931133,21.6192549],[110.2941406,21.6222646],[110.2942573,21.6225388],[110.2944651,21.6229877]]},"properties":{"key":"way:904749956@detail:441_86","osmType":"way","osmId":904749956,"sourceRegion":"guangdong","featureType":"infrastructure","railClass":"minor","mode":"rail","name":"未命名","service":"yard","status":"operational","color":"#52636F","dataOrigin":"datum-2026-08-01","sourceKey":"way:904749956"}},{"type":"Feature","geometry":{"type":"LineString","coordinates":[[110.2915583,21.6144282],[110.2917212,21.6150458],[110.2944651,21.6229877],[110.2947599,21.6236851]]},"properties":{"key":"way:904749957@detail:441_86","osmType":"way","osmId":904749957,"sourceRegion":"guangdong","featureType":"infrastructure","railClass":"minor","mode":"rail","name":"未命名","service":"siding","status":"operational","color":"#52636F","dataOrigin":"datum-2026-08-01","sourceKey":"way:904749957"}},{"type":"Feature","geometry":{"type":"LineString","coordinates":[[110.3003511,21.6398151],[110.3002956,21.6396524]]},"properties":{"key":"way:1178032807@detail:441_86","osmType":"way","osmId":1178032807,"sourceRegion":"guangdong","featureType":"infrastructure","railClass":"national","mode":"rail","name":"黎湛线","ref":"0752","operator":"中国铁路南宁局集团有限公司","usage":"main","bridge":"yes","status":"operational","color":"#E54848","dataOrigin":"datum-2026-08-01","sourceKey":"way:1178032807"}},{"type":"Feature","geometry":{"type":"LineString","coordinates":[[110.2965205,21.7060503],[110.2964926,21.7064032],[110.2964553,21.7067605],[110.2963831,21.7071786],[110.2962858,21.707576],[110.2961593,21.7079599],[110.2960087,21.7083217],[110.2958177,21.7086803],[110.2956284,21.7089924],[110.2953942,21.7093143],[110.2952031,21.7095388],[110.2948707,21.7098825],[110.2945437,21.7101656],[110.2941989,21.7104247],[110.2938948,21.7106299],[110.2935235,21.7108465],[110.2931977,21.7110122],[110.2928947,21.7111317],[110.2925111,21.7112596],[110.2920651,21.7113851],[110.2914483,21.711537]]},"properties":{"key":"way:1178037719@detail:441_86","osmType":"way","osmId":1178037719,"sourceRegion":"guangdong","featureType":"infrastructure","railClass":"national","mode":"rail","name":"黎湛线","ref":"0752","operator":"中国铁路南宁局集团有限公司","usage":"main","status":"operational","color":"#E54848","dataOrigin":"datum-2026-08-01","sourceKey":"way:1178037719"}},{"type":"Feature","geometry":{"type":"LineString","coordinates":[[110.2914288,21.7114303],[110.2901135,21.7117468]]},"properties":{"key":"way:1178037734@detail:441_86","osmType":"way","osmId":1178037734,"sourceRegion":"guangdong","featureType":"infrastructure","railClass":"national","mode":"rail","name":"黎湛线","ref":"0752","operator":"中国铁路南宁局集团有限公司","usage":"main","bridge":"yes","status":"operational","color":"#E54848","dataOrigin":"datum-2026-08-01","sourceKey":"way:1178037734"}},{"type":"Feature","geometry":{"type":"LineString","coordinates":[[110.2901135,21.7117468],[110.2873212,21.712373],[110.2869276,21.7124374],[110.2865339,21.7124838],[110.2861568,21.7125018],[110.2858796,21.7125018],[110.285522,21.7124915],[110.2852392,21.7124683],[110.2850581,21.712442],[110.2846379,21.7123853],[110.2842324,21.7123014],[110.2839863,21.7122317],[110.2836649,21.7121243],[110.2832405,21.7119681],[110.2829583,21.7118515],[110.2824732,21.7116115],[110.2821257,21.7113896],[110.281779,21.7111632],[110.2814628,21.7109143],[110.2811532,21.7106514],[110.2804606,21.7099742],[110.2788129,21.7083194],[110.278418,21.7079766],[110.2781259,21.7077501],[110.2778444,21.7075569],[110.2775463,21.7073568],[110.2771371,21.7071349],[110.2768935,21.707018],[110.2765921,21.7068867],[110.2761487,21.7067325],[110.2758378,21.7066329],[110.2755373,21.7065568],[110.2747335,21.7064171],[110.2741436,21.7063875]]},"properties":{"key":"way:1178037735@detail:441_86","osmType":"way","osmId":1178037735,"sourceRegion":"guangdong","featureType":"infrastructure","railClass":"national","mode":"rail","name":"黎湛线","ref":"0752","operator":"中国铁路南宁局集团有限公司","usage":"main","status":"operational","color":"#E54848","dataOrigin":"datum-2026-08-01","sourceKey":"way:1178037735"}},{"type":"Feature","geometry":{"type":"LineString","coordinates":[[110.412739,21.6599821],[110.4131755,21.659624],[110.4134129,21.6593947],[110.4137685,21.6590305],[110.4160094,21.6567465],[110.4166567,21.6560769],[110.4171612,21.6555599],[110.4179502,21.6547585],[110.4186942,21.6540156],[110.41927,21.6534274],[110.4194118,21.6532652],[110.4196308,21.6530046],[110.4197758,21.6527917]]},"properties":{"key":"way:1178038830@detail:441_86","osmType":"way","osmId":1178038830,"sourceRegion":"guangdong","featureType":"infrastructure","railClass":"national","mode":"rail","name":"未命名","status":"operational","color":"#E54848","dataOrigin":"datum-2026-08-01","sourceKey":"way:1178038830"}},{"type":"Feature","geometry":{"type":"LineString","coordinates":[[110.2640545,21.7137948],[110.2643472,21.7130565],[110.2647208,21.7122875],[110.2649791,21.7117511],[110.2654909,21.7107504],[110.2658635,21.7101397],[110.2660182,21.7099273],[110.2665243,21.7093093],[110.2673737,21.7085181],[110.2680436,21.7080635],[110.2688835,21.707601],[110.2699292,21.7072613],[110.2720522,21.7066291],[110.2729213,21.7064447],[110.2733289,21.7064029],[110.273748,21.706377],[110.2741436,21.7063875]]},"properties":{"key":"way:1178052644@detail:441_86","osmType":"way","osmId":1178052644,"sourceRegion":"guangdong","featureType":"infrastructure","railClass":"national","mode":"rail","name":"黎湛线","ref":"0752","operator":"中国铁路南宁局集团有限公司","usage":"main","status":"operational","color":"#E54848","dataOrigin":"datum-2026-08-01","sourceKey":"way:1178052644"}},{"type":"Feature","geometry":{"type":"LineString","coordinates":[[110.2503339,21.7451828],[110.2504209,21.7444923],[110.2506091,21.7432039],[110.2507459,21.7424631],[110.2508359,21.7419751],[110.2509635,21.7412808],[110.2512592,21.7394471],[110.2516974,21.7366727]]},"properties":{"key":"way:1178564059@detail:441_86","osmType":"way","osmId":1178564059,"sourceRegion":"guangdong","featureType":"infrastructure","railClass":"national","mode":"rail","name":"黎湛线","ref":"0752","operator":"中国铁路南宁局集团有限公司","usage":"main","status":"operational","color":"#E54848","dataOrigin":"datum-2026-08-01","sourceKey":"way:1178564059"}},{"type":"Feature","geometry":{"type":"LineString","coordinates":[[110.2508834,21.7421484],[110.2509593,21.7417486],[110.2510075,21.7414904],[110.2511694,21.7404543],[110.2513692,21.7393476]]},"properties":{"key":"way:1178564060@detail:441_86","osmType":"way","osmId":1178564060,"sourceRegion":"guangdong","featureType":"infrastructure","railClass":"minor","mode":"rail","name":"未命名","service":"siding","status":"operational","color":"#52636F","dataOrigin":"datum-2026-08-01","sourceKey":"way:1178564060"}},{"type":"Feature","geometry":{"type":"LineString","coordinates":[[110.2503339,21.7451828],[110.2503916,21.7449612],[110.2504491,21.7446726],[110.2504838,21.7444677],[110.2505408,21.7441115],[110.250735,21.7429886],[110.2508834,21.7421484]]},"properties":{"key":"way:1178565218@detail:441_86","osmType":"way","osmId":1178565218,"sourceRegion":"guangdong","featureType":"infrastructure","railClass":"national","mode":"rail","name":"未命名","status":"operational","color":"#E54848","dataOrigin":"datum-2026-08-01","sourceKey":"way:1178565218"}},{"type":"Feature","geometry":{"type":"LineString","coordinates":[[110.2502938,21.7453661],[110.2503339,21.7451828]]},"properties":{"key":"way:1178565219@detail:441_86","osmType":"way","osmId":1178565219,"sourceRegion":"guangdong","featureType":"infrastructure","railClass":"national","mode":"rail","name":"黎湛线","ref":"0752","operator":"中国铁路南宁局集团有限公司","usage":"main","status":"operational","color":"#E54848","dataOrigin":"datum-2026-08-01","sourceKey":"way:1178565219"}},{"type":"Feature","geometry":{"type":"LineString","coordinates":[[110.25,21.746946556983193],[110.2500049,21.7469067],[110.2500314,21.7466747],[110.2500576,21.7464858],[110.2500987,21.7462234],[110.2501288,21.746087],[110.2501841,21.7458548],[110.2502427,21.7455844],[110.2502938,21.7453661]]},"properties":{"key":"way:1178567300@detail:441_86","osmType":"way","osmId":1178567300,"sourceRegion":"guangdong","featureType":"infrastructure","railClass":"national","mode":"rail","name":"黎湛线","ref":"0752","operator":"中国铁路南宁局集团有限公司","usage":"main","status":"operational","color":"#E54848","dataOrigin":"datum-2026-08-01","sourceKey":"way:1178567300"}},{"type":"Feature","geometry":{"type":"LineString","coordinates":[[110.2500207,21.7464128],[110.25,21.746587247386724]]},"properties":{"key":"way:1178567301@detail:441_86","osmType":"way","osmId":1178567301,"sourceRegion":"guangdong","featureType":"infrastructure","railClass":"national","mode":"rail","name":"黎湛线","ref":"0752","operator":"中国铁路南宁局集团有限公司","usage":"main","status":"operational","color":"#E54848","dataOrigin":"datum-2026-08-01","sourceKey":"way:1178567301"}},{"type":"Feature","geometry":{"type":"LineString","coordinates":[[110.3030029,21.6665587],[110.3030232,21.6651443]]},"properties":{"key":"way:1299488121@detail:441_86","osmType":"way","osmId":1299488121,"sourceRegion":"guangdong","featureType":"infrastructure","railClass":"minor","mode":"rail","name":"未命名","service":"crossover","status":"operational","color":"#52636F","dataOrigin":"datum-2026-08-01","sourceKey":"way:1299488121"}},{"type":"Feature","geometry":{"type":"LineString","coordinates":[[110.3136705,21.6822254],[110.3147757,21.6818865]]},"properties":{"key":"way:1299488122@detail:441_86","osmType":"way","osmId":1299488122,"sourceRegion":"guangdong","featureType":"infrastructure","railClass":"minor","mode":"rail","name":"未命名","service":"yard","status":"operational","color":"#52636F","dataOrigin":"datum-2026-08-01","sourceKey":"way:1299488122"}},{"type":"Feature","geometry":{"type":"LineString","coordinates":[[110.3198347,21.6800365],[110.3204763,21.6798581],[110.3211451,21.6796933],[110.321976,21.679618],[110.322926,21.6795708],[110.3233113,21.6795516],[110.3255682,21.6794395],[110.3262841,21.6794087],[110.3267888,21.6794119],[110.3272909,21.6794286],[110.3279503,21.6794693],[110.332589,21.679909],[110.3329469,21.679945],[110.3332207,21.6799725],[110.3338354,21.6800343],[110.3359605,21.6801992],[110.3478666,21.6813216],[110.355584,21.682143],[110.3564378,21.6821479],[110.3569416,21.6821319],[110.357301,21.682105],[110.357798,21.681998],[110.35843,21.681769],[110.359465,21.681166]]},"properties":{"key":"way:1299488123@detail:441_86","osmType":"way","osmId":1299488123,"sourceRegion":"guangdong","featureType":"infrastructure","railClass":"national","mode":"rail","name":"河茂线","nameEn":"Hemao Line","ref":"0753","operator":"中国铁路南宁局集团有限公司","usage":"branch","status":"operational","color":"#E54848","dataOrigin":"datum-2026-08-01","sourceKey":"way:1299488123"}},{"type":"Feature","geometry":{"type":"LineString","coordinates":[[110.359465,21.681166],[110.3595689,21.6810709]]},"properties":{"key":"way:1299488124@detail:441_86","osmType":"way","osmId":1299488124,"sourceRegion":"guangdong","featureType":"infrastructure","railClass":"national","mode":"rail","name":"河茂线","nameEn":"Hemao Line","ref":"0753","operator":"中国铁路南宁局集团有限公司","usage":"branch","bridge":"yes","status":"operational","color":"#E54848","dataOrigin":"datum-2026-08-01","sourceKey":"way:1299488124"}},{"type":"Feature","geometry":{"type":"LineString","coordinates":[[110.322926,21.6795708],[110.3235873,21.6795903],[110.3238598,21.6795784],[110.325626,21.6794899],[110.3260626,21.6794673],[110.3264352,21.6794553],[110.3267474,21.6794538],[110.3271662,21.6794633],[110.3276309,21.6794884],[110.3280343,21.6795223],[110.3288035,21.6795997],[110.3317136,21.6798802],[110.3320735,21.6799123],[110.332358,21.6799287],[110.3329469,21.679945]]},"properties":{"key":"way:1299488125@detail:441_86","osmType":"way","osmId":1299488125,"sourceRegion":"guangdong","featureType":"infrastructure","railClass":"minor","mode":"rail","name":"未命名","service":"yard","status":"operational","color":"#52636F","dataOrigin":"datum-2026-08-01","sourceKey":"way:1299488125"}},{"type":"Feature","geometry":{"type":"LineString","coordinates":[[110.3233113,21.6795516],[110.3238099,21.6794905],[110.3240826,21.6794593],[110.3243572,21.6794472],[110.3258842,21.6793823],[110.3264136,21.6793599],[110.3269861,21.6793682],[110.3272962,21.6793761],[110.3277082,21.6794028],[110.3281009,21.6794397],[110.3316869,21.6797742],[110.3324006,21.6798448],[110.3326434,21.6798723],[110.3332207,21.6799725]]},"properties":{"key":"way:1299488126@detail:441_86","osmType":"way","osmId":1299488126,"sourceRegion":"guangdong","featureType":"infrastructure","railClass":"minor","mode":"rail","name":"未命名","service":"yard","status":"operational","color":"#52636F","dataOrigin":"datum-2026-08-01","sourceKey":"way:1299488126"}},{"type":"Feature","geometry":{"type":"LineString","coordinates":[[110.3029502,21.6685358],[110.3030353,21.6670402]]},"properties":{"key":"way:1487651017@detail:441_86","osmType":"way","osmId":1487651017,"sourceRegion":"guangdong","featureType":"infrastructure","railClass":"minor","mode":"rail","name":"未命名","service":"yard","status":"operational","color":"#52636F","dataOrigin":"datum-2026-08-01","sourceKey":"way:1487651017"}},{"type":"Feature","geometry":{"type":"LineString","coordinates":[[110.3017497,21.6769608],[110.3018736,21.6761387]]},"properties":{"key":"way:1487651018@detail:441_86","osmType":"way","osmId":1487651018,"sourceRegion":"guangdong","featureType":"infrastructure","railClass":"minor","mode":"rail","name":"未命名","service":"crossover","status":"operational","color":"#52636F","dataOrigin":"datum-2026-08-01","sourceKey":"way:1487651018"}},{"type":"Feature","geometry":{"type":"LineString","coordinates":[[110.2984727,21.691191],[110.2986945,21.6904381]]},"properties":{"key":"way:1487702598@detail:441_86","osmType":"way","osmId":1487702598,"sourceRegion":"guangdong","featureType":"infrastructure","railClass":"minor","mode":"rail","name":"未命名","service":"crossover","status":"operational","color":"#52636F","dataOrigin":"datum-2026-08-01","sourceKey":"way:1487702598"}},{"type":"Feature","geometry":{"type":"LineString","coordinates":[[110.2965247,21.7052618],[110.2965801,21.7048413],[110.2966351,21.7044238]]},"properties":{"key":"way:1487702599@detail:441_86","osmType":"way","osmId":1487702599,"sourceRegion":"guangdong","featureType":"infrastructure","railClass":"minor","mode":"rail","name":"未命名","service":"crossover","status":"operational","color":"#52636F","dataOrigin":"datum-2026-08-01","sourceKey":"way:1487702599"}},{"type":"Feature","geometry":{"type":"LineString","coordinates":[[110.2965758,21.705266],[110.2965801,21.7048413],[110.2965844,21.7044242]]},"properties":{"key":"way:1487702600@detail:441_86","osmType":"way","osmId":1487702600,"sourceRegion":"guangdong","featureType":"infrastructure","railClass":"minor","mode":"rail","name":"未命名","service":"crossover","status":"operational","color":"#52636F","dataOrigin":"datum-2026-08-01","sourceKey":"way:1487702600"}},{"type":"Feature","geometry":{"type":"LineString","coordinates":[[110.2965124,21.7054352],[110.2963688,21.7063688],[110.2962795,21.7069442],[110.2961871,21.7073306],[110.2960546,21.7077371],[110.2959128,21.7081064],[110.2957218,21.7084986],[110.2955092,21.7088392],[110.2952535,21.7091884],[110.2949916,21.7094947],[110.2946712,21.7098153],[110.294323,21.7101188]]},"properties":{"key":"way:1487702601@detail:441_86","osmType":"way","osmId":1487702601,"sourceRegion":"guangdong","featureType":"infrastructure","railClass":"minor","mode":"rail","name":"未命名","service":"yard","status":"operational","color":"#52636F","dataOrigin":"datum-2026-08-01","sourceKey":"way:1487702601"}},{"type":"Feature","geometry":{"type":"LineString","coordinates":[[110.2965179,21.7074762],[110.2965685,21.7072028],[110.2965942,21.7070097],[110.2966269,21.7066214]]},"properties":{"key":"way:1487702602@detail:441_86","osmType":"way","osmId":1487702602,"sourceRegion":"guangdong","featureType":"infrastructure","railClass":"minor","mode":"rail","name":"未命名","service":"yard","status":"operational","color":"#52636F","dataOrigin":"datum-2026-08-01","sourceKey":"way:1487702602"}},{"type":"Feature","geometry":{"type":"LineString","coordinates":[[110.2966487,21.7042303],[110.2967591,21.7034496],[110.2967708,21.7032817],[110.2971311,21.6981305],[110.2971616,21.6977755],[110.2971961,21.6974752],[110.297249,21.6971446],[110.2973221,21.696782],[110.2980898,21.6933708],[110.2981517,21.693096],[110.298738,21.6904907]]},"properties":{"key":"way:1487702603@detail:441_86","osmType":"way","osmId":1487702603,"sourceRegion":"guangdong","featureType":"infrastructure","railClass":"minor","mode":"rail","name":"未命名","service":"siding","status":"operational","color":"#52636F","dataOrigin":"datum-2026-08-01","sourceKey":"way:1487702603"}},{"type":"Feature","geometry":{"type":"LineString","coordinates":[[110.2967591,21.7034496],[110.2966955,21.704338],[110.2965929,21.7057708],[110.2965597,21.7062333],[110.296545,21.706439],[110.2965091,21.7068167],[110.2964624,21.7071245],[110.2963852,21.7074371],[110.2962652,21.7078592],[110.2961676,21.708133],[110.2960497,21.708388],[110.2958668,21.7087222],[110.2956777,21.7090263],[110.295444,21.7093436],[110.2952529,21.7095759],[110.2950171,21.7098252],[110.294765,21.7100546],[110.2945049,21.7102671]]},"properties":{"key":"way:1487702604@detail:441_86","osmType":"way","osmId":1487702604,"sourceRegion":"guangdong","featureType":"infrastructure","railClass":"minor","mode":"rail","name":"未命名","service":"yard","status":"operational","color":"#52636F","dataOrigin":"datum-2026-08-01","sourceKey":"way:1487702604"}},{"type":"Feature","geometry":{"type":"LineString","coordinates":[[110.2963852,21.7074371],[110.2962916,21.7079234],[110.2961656,21.7086713],[110.2961107,21.7089224],[110.2960457,21.7091453],[110.2959623,21.7093587],[110.2958485,21.709574],[110.2954358,21.7102463]]},"properties":{"key":"way:1487702605@detail:441_86","osmType":"way","osmId":1487702605,"sourceRegion":"guangdong","featureType":"infrastructure","railClass":"minor","mode":"rail","name":"未命名","service":"yard","status":"operational","color":"#52636F","dataOrigin":"datum-2026-08-01","sourceKey":"way:1487702605"}},{"type":"Feature","geometry":{"type":"LineString","coordinates":[[110.2962916,21.7079234],[110.2962042,21.708235],[110.2958973,21.7092756],[110.2958058,21.7094947],[110.295692,21.7097081],[110.2953911,21.710218]]},"properties":{"key":"way:1487702606@detail:441_86","osmType":"way","osmId":1487702606,"sourceRegion":"guangdong","featureType":"infrastructure","railClass":"minor","mode":"rail","name":"未命名","service":"yard","status":"operational","color":"#52636F","dataOrigin":"datum-2026-08-01","sourceKey":"way:1487702606"}},{"type":"Feature","geometry":{"type":"LineString","coordinates":[[110.2965597,21.7062333],[110.2965635,21.7054397]]},"properties":{"key":"way:1487702607@detail:441_86","osmType":"way","osmId":1487702607,"sourceRegion":"guangdong","featureType":"infrastructure","railClass":"minor","mode":"rail","name":"未命名","service":"yard","status":"operational","color":"#52636F","dataOrigin":"datum-2026-08-01","sourceKey":"way:1487702607"}},{"type":"Feature","geometry":{"type":"LineString","coordinates":[[110.2967708,21.7032817],[110.2968808,21.7024607],[110.2971891,21.6981368],[110.2972218,21.6977789],[110.2972559,21.6974804],[110.2973088,21.6971498],[110.2973799,21.6967929],[110.2979586,21.6941878],[110.2979835,21.6940757],[110.2980898,21.6933708]]},"properties":{"key":"way:1487702608@detail:441_86","osmType":"way","osmId":1487702608,"sourceRegion":"guangdong","featureType":"infrastructure","railClass":"minor","mode":"rail","name":"未命名","service":"siding","status":"operational","color":"#52636F","dataOrigin":"datum-2026-08-01","sourceKey":"way:1487702608"}},{"type":"Feature","geometry":{"type":"LineString","coordinates":[[110.2979835,21.6940757],[110.2982077,21.6930798]]},"properties":{"key":"way:1487702609@detail:441_86","osmType":"way","osmId":1487702609,"sourceRegion":"guangdong","featureType":"infrastructure","railClass":"minor","mode":"rail","name":"未命名","service":"yard","status":"operational","color":"#52636F","dataOrigin":"datum-2026-08-01","sourceKey":"way:1487702609"}},{"type":"Feature","geometry":{"type":"LineString","coordinates":[[110.2981517,21.693096],[110.298273,21.692324]]},"properties":{"key":"way:1487702610@detail:441_86","osmType":"way","osmId":1487702610,"sourceRegion":"guangdong","featureType":"infrastructure","railClass":"minor","mode":"rail","name":"未命名","service":"siding","status":"operational","color":"#52636F","dataOrigin":"datum-2026-08-01","sourceKey":"way:1487702610"}},{"type":"Feature","geometry":{"type":"LineString","coordinates":[[110.2983223,21.6921053],[110.2984434,21.6913219]]},"properties":{"key":"way:1487702611@detail:441_86","osmType":"way","osmId":1487702611,"sourceRegion":"guangdong","featureType":"infrastructure","railClass":"minor","mode":"rail","name":"未命名","service":"crossover","status":"operational","color":"#52636F","dataOrigin":"datum-2026-08-01","sourceKey":"way:1487702611"}},{"type":"Feature","geometry":{"type":"LineString","coordinates":[[110.2979582,21.6934891],[110.2981809,21.6927325]]},"properties":{"key":"way:1487702612@detail:441_86","osmType":"way","osmId":1487702612,"sourceRegion":"guangdong","featureType":"infrastructure","railClass":"minor","mode":"rail","name":"未命名","service":"crossover","status":"operational","color":"#52636F","dataOrigin":"datum-2026-08-01","sourceKey":"way:1487702612"}},{"type":"Feature","geometry":{"type":"LineString","coordinates":[[110.2979586,21.6941878],[110.2978808,21.6947222],[110.2978224,21.6950238],[110.297743,21.6953818],[110.29768,21.6957159],[110.2973601,21.6978378]]},"properties":{"key":"way:1487702613@detail:441_86","osmType":"way","osmId":1487702613,"sourceRegion":"guangdong","featureType":"infrastructure","railClass":"minor","mode":"rail","name":"未命名","service":"yard","status":"operational","color":"#52636F","dataOrigin":"datum-2026-08-01","sourceKey":"way:1487702613"}},{"type":"Feature","geometry":{"type":"LineString","coordinates":[[110.2979149,21.6936824],[110.29775,21.6942232],[110.2975422,21.6948871],[110.2974418,21.6952755],[110.29701,21.6972207],[110.2969456,21.6975521],[110.2969,21.6978637],[110.2968734,21.6981157],[110.2965931,21.7020363],[110.2965809,21.7023291],[110.2965939,21.7030109],[110.2965956,21.7031015],[110.2966073,21.7037096],[110.2966023,21.7041722]]},"properties":{"key":"way:1487702614@detail:441_86","osmType":"way","osmId":1487702614,"sourceRegion":"guangdong","featureType":"infrastructure","railClass":"minor","mode":"rail","name":"未命名","service":"siding","status":"operational","color":"#52636F","dataOrigin":"datum-2026-08-01","sourceKey":"way:1487702614"}},{"type":"Feature","geometry":{"type":"LineString","coordinates":[[110.29775,21.6942232],[110.2976075,21.6947851],[110.2970541,21.6972368],[110.2969911,21.6975687],[110.2969478,21.6978673],[110.2969213,21.6981189],[110.2966471,21.7020333],[110.2966347,21.7023359],[110.2966471,21.7031892],[110.2966449,21.7035732]]},"properties":{"key":"way:1487702615@detail:441_86","osmType":"way","osmId":1487702615,"sourceRegion":"guangdong","featureType":"infrastructure","railClass":"minor","mode":"rail","name":"未命名","service":"siding","status":"operational","color":"#52636F","dataOrigin":"datum-2026-08-01","sourceKey":"way:1487702615"}},{"type":"Feature","geometry":{"type":"LineString","coordinates":[[110.2982165,21.6923352],[110.2980974,21.6927358],[110.297925,21.6932624],[110.2977775,21.6937131],[110.2976299,21.6941637],[110.2975628,21.6944244],[110.2969571,21.6972074],[110.2968941,21.6975372],[110.2968474,21.6978496],[110.2968194,21.6981187],[110.2965428,21.7020298],[110.2965326,21.7023263],[110.2965448,21.702587],[110.2965939,21.7030109]]},"properties":{"key":"way:1487702616@detail:441_86","osmType":"way","osmId":1487702616,"sourceRegion":"guangdong","featureType":"infrastructure","railClass":"minor","mode":"rail","name":"未命名","service":"siding","status":"operational","color":"#52636F","dataOrigin":"datum-2026-08-01","sourceKey":"way:1487702616"}},{"type":"Feature","geometry":{"type":"LineString","coordinates":[[110.2977775,21.6937131],[110.2976501,21.6939976],[110.2975705,21.6942097],[110.2975156,21.6944169],[110.2969087,21.6971923],[110.296845,21.6975294],[110.296799,21.6978434],[110.2967689,21.6981279],[110.2964875,21.7020937],[110.2964733,21.7024488]]},"properties":{"key":"way:1487702617@detail:441_86","osmType":"way","osmId":1487702617,"sourceRegion":"guangdong","featureType":"infrastructure","railClass":"minor","mode":"rail","name":"未命名","service":"siding","status":"operational","color":"#52636F","dataOrigin":"datum-2026-08-01","sourceKey":"way:1487702617"}},{"type":"Feature","geometry":{"type":"LineString","coordinates":[[110.297925,21.6932624],[110.29778,21.6935982],[110.2976105,21.6939603],[110.2975397,21.6941421],[110.2974796,21.6943468],[110.2974318,21.6945529],[110.2968559,21.6971815],[110.2967888,21.6975233],[110.2967462,21.6978368],[110.2967136,21.6981239],[110.2964616,21.701686],[110.2964575,21.7019466],[110.2964733,21.7024488],[110.2964917,21.702767]]},"properties":{"key":"way:1487702618@detail:441_86","osmType":"way","osmId":1487702618,"sourceRegion":"guangdong","featureType":"infrastructure","railClass":"minor","mode":"rail","name":"未命名","service":"siding","status":"operational","color":"#52636F","dataOrigin":"datum-2026-08-01","sourceKey":"way:1487702618"}},{"type":"Feature","geometry":{"type":"LineString","coordinates":[[110.29778,21.6935982],[110.2976166,21.6938787],[110.2975321,21.6940431],[110.2974611,21.6942326],[110.2974155,21.6944033],[110.296813,21.6971736],[110.2967459,21.6975212],[110.2967012,21.6978366],[110.2966686,21.6981312],[110.2964084,21.7017348],[110.2964023,21.7019747],[110.2964166,21.7022089],[110.2964917,21.702767],[110.2965365,21.7031003],[110.2965748,21.7034298],[110.2966073,21.7037096]]},"properties":{"key":"way:1487702619@detail:441_86","osmType":"way","osmId":1487702619,"sourceRegion":"guangdong","featureType":"infrastructure","railClass":"minor","mode":"rail","name":"未命名","service":"siding","status":"operational","color":"#52636F","dataOrigin":"datum-2026-08-01","sourceKey":"way:1487702619"}},{"type":"Feature","geometry":{"type":"LineString","coordinates":[[110.2965365,21.7031003],[110.2965568,21.7037122],[110.2965561,21.703988],[110.2965438,21.7042354],[110.2965372,21.7043212],[110.2964644,21.7052776],[110.2964267,21.7057727],[110.2963688,21.7063688]]},"properties":{"key":"way:1487702620@detail:441_86","osmType":"way","osmId":1487702620,"sourceRegion":"guangdong","featureType":"infrastructure","railClass":"minor","mode":"rail","name":"未命名","service":"yard","status":"operational","color":"#52636F","dataOrigin":"datum-2026-08-01","sourceKey":"way:1487702620"}},{"type":"Feature","geometry":{"type":"LineString","coordinates":[[110.2965956,21.7031015],[110.2965748,21.7034298],[110.2965568,21.7037122]]},"properties":{"key":"way:1487702621@detail:441_86","osmType":"way","osmId":1487702621,"sourceRegion":"guangdong","featureType":"infrastructure","railClass":"minor","mode":"rail","name":"未命名","service":"yard","status":"operational","color":"#52636F","dataOrigin":"datum-2026-08-01","sourceKey":"way:1487702621"}},{"type":"Feature","geometry":{"type":"LineString","coordinates":[[110.2964644,21.7052776],[110.2964613,21.7049946],[110.2964511,21.7048416],[110.2964308,21.7046943],[110.2963962,21.7045206],[110.2959328,21.702613]]},"properties":{"key":"way:1487702622@detail:441_86","osmType":"way","osmId":1487702622,"sourceRegion":"guangdong","featureType":"infrastructure","railClass":"minor","mode":"rail","name":"未命名","service":"yard","status":"operational","color":"#52636F","dataOrigin":"datum-2026-08-01","sourceKey":"way:1487702622"}},{"type":"Feature","geometry":{"type":"LineString","coordinates":[[110.2964267,21.7057727],[110.2964244,21.7054512],[110.2964067,21.7050829],[110.2963837,21.7049054],[110.2963501,21.7047623],[110.2962997,21.7046217],[110.2962434,21.7044983],[110.2961571,21.7043335],[110.2951998,21.7025054]]},"properties":{"key":"way:1487702623@detail:441_86","osmType":"way","osmId":1487702623,"sourceRegion":"guangdong","featureType":"infrastructure","railClass":"minor","mode":"rail","name":"未命名","service":"yard","status":"operational","color":"#52636F","dataOrigin":"datum-2026-08-01","sourceKey":"way:1487702623"}},{"type":"Feature","geometry":{"type":"LineString","coordinates":[[110.2961571,21.7043335],[110.2960061,21.7041167],[110.2958893,21.7039243],[110.2951509,21.7025238]]},"properties":{"key":"way:1487702624@detail:441_86","osmType":"way","osmId":1487702624,"sourceRegion":"guangdong","featureType":"infrastructure","railClass":"minor","mode":"rail","name":"未命名","service":"yard","status":"operational","color":"#52636F","dataOrigin":"datum-2026-08-01","sourceKey":"way:1487702624"}},{"type":"Feature","geometry":{"type":"LineString","coordinates":[[110.2965399,21.7072044],[110.2966984,21.7049991],[110.2967455,21.7043433],[110.2967988,21.7036016],[110.2968808,21.7024607]]},"properties":{"key":"way:1487702625@detail:441_86","osmType":"way","osmId":1487702625,"sourceRegion":"guangdong","featureType":"infrastructure","railClass":"minor","mode":"rail","name":"未命名","service":"yard","status":"operational","color":"#52636F","dataOrigin":"datum-2026-08-01","sourceKey":"way:1487702625"}},{"type":"Feature","geometry":{"type":"LineString","coordinates":[[110.2967988,21.7036016],[110.2968333,21.7033931],[110.2968706,21.7032283],[110.296936,21.7030221]]},"properties":{"key":"way:1487702626@detail:441_86","osmType":"way","osmId":1487702626,"sourceRegion":"guangdong","featureType":"infrastructure","railClass":"minor","mode":"rail","name":"未命名","service":"yard","status":"operational","color":"#52636F","dataOrigin":"datum-2026-08-01","sourceKey":"way:1487702626"}},{"type":"Feature","geometry":{"type":"LineString","coordinates":[[110.2966984,21.7049991],[110.2965929,21.7057708]]},"properties":{"key":"way:1487702627@detail:441_86","osmType":"way","osmId":1487702627,"sourceRegion":"guangdong","featureType":"infrastructure","railClass":"minor","mode":"rail","name":"未命名","service":"yard","status":"operational","color":"#52636F","dataOrigin":"datum-2026-08-01","sourceKey":"way:1487702627"}},{"type":"Feature","geometry":{"type":"LineString","coordinates":[[110.495669,21.6361469],[110.4957716,21.6361475]]},"properties":{"key":"way:1490745382@detail:441_86","osmType":"way","osmId":1490745382,"sourceRegion":"guangdong","featureType":"infrastructure","railClass":"national","mode":"rail","name":"河茂线","nameEn":"Hemao Line","ref":"0753","operator":"中国铁路南宁局集团有限公司","usage":"branch","bridge":"yes","status":"operational","color":"#E54848","dataOrigin":"datum-2026-08-01","sourceKey":"way:1490745382"}},{"type":"Feature","geometry":{"type":"LineString","coordinates":[[110.4308539,21.6443192],[110.437261,21.641153],[110.44097,21.639256],[110.444453,21.637526],[110.445999,21.636808],[110.452144,21.633728],[110.453049,21.633321],[110.453734,21.633089],[110.454198,21.632968],[110.455184,21.63286],[110.457813,21.632868],[110.458748,21.632928],[110.461876,21.633384],[110.462751,21.633426],[110.46363,21.633408],[110.465326,21.633293],[110.470102,21.6328928],[110.470808,21.632849],[110.472769,21.632776],[110.473941,21.632768],[110.476514,21.632873],[110.4778022,21.6328851],[110.485043,21.63304],[110.485843,21.633153],[110.486868,21.633444],[110.491741,21.635298],[110.492943,21.635719],[110.493779,21.635946],[110.494648,21.63611],[110.495669,21.6361469]]},"properties":{"key":"way:1490745383@detail:441_86","osmType":"way","osmId":1490745383,"sourceRegion":"guangdong","featureType":"infrastructure","railClass":"national","mode":"rail","name":"河茂线","nameEn":"Hemao Line","ref":"0753","operator":"中国铁路南宁局集团有限公司","usage":"branch","status":"operational","color":"#E54848","dataOrigin":"datum-2026-08-01","sourceKey":"way:1490745383"}},{"type":"Feature","geometry":{"type":"LineString","coordinates":[[110.2516974,21.7366727],[110.2516702,21.7375067],[110.2513692,21.7393476]]},"properties":{"key":"way:1525963175@detail:441_86","osmType":"way","osmId":1525963175,"sourceRegion":"guangdong","featureType":"infrastructure","railClass":"minor","mode":"rail","name":"未命名","service":"siding","status":"operational","color":"#52636F","dataOrigin":"datum-2026-08-01","sourceKey":"way:1525963175"}},{"type":"Feature","geometry":{"type":"LineString","coordinates":[[110.2781527,21.5633804],[110.2794438,21.5664694],[110.2798959,21.5675582],[110.280361,21.5686925],[110.28067,21.5695061],[110.2809789,21.5703984],[110.2812717,21.5713451],[110.2815917,21.5725451],[110.2817617,21.5732717],[110.2819269,21.5740533],[110.2820723,21.5748258],[110.2821956,21.5756349],[110.2822818,21.5763409],[110.2823508,21.5770033],[110.2824149,21.5778514],[110.2824642,21.578649],[110.2824766,21.5792634],[110.2824744,21.5853272],[110.2825131,21.5861871],[110.2825517,21.5867558],[110.2826161,21.5873464],[110.282689,21.5878811],[110.2828011,21.5885432],[110.282924,21.5891469],[110.2831049,21.5898145],[110.2833077,21.5904792],[110.2854053,21.5967644]]},"properties":{"key":"way:1545660398@detail:441_86","osmType":"way","osmId":1545660398,"sourceRegion":"guangdong","featureType":"infrastructure","railClass":"national","mode":"rail","name":"黎湛线","ref":"0752","operator":"中国铁路南宁局集团有限公司","usage":"main","status":"operational","color":"#E54848","dataOrigin":"datum-2026-08-01","sourceKey":"way:1545660398"}},{"type":"Feature","geometry":{"type":"LineString","coordinates":[[110.2779432,21.5628899],[110.2781527,21.5633804]]},"properties":{"key":"way:1545660399@detail:441_86","osmType":"way","osmId":1545660399,"sourceRegion":"guangdong","featureType":"infrastructure","railClass":"national","mode":"rail","name":"黎湛线","ref":"0752","operator":"中国铁路南宁局集团有限公司","usage":"main","bridge":"yes","status":"operational","color":"#E54848","dataOrigin":"datum-2026-08-01","sourceKey":"way:1545660399"}},{"type":"Feature","geometry":{"type":"LineString","coordinates":[[110.2854744,21.5969661],[110.2875626,21.602969]]},"properties":{"key":"way:1545660400@detail:441_86","osmType":"way","osmId":1545660400,"sourceRegion":"guangdong","featureType":"infrastructure","railClass":"national","mode":"rail","name":"黎湛线","ref":"0752","operator":"中国铁路南宁局集团有限公司","usage":"main","status":"operational","color":"#E54848","dataOrigin":"datum-2026-08-01","sourceKey":"way:1545660400"}},{"type":"Feature","geometry":{"type":"LineString","coordinates":[[110.2854053,21.5967644],[110.2854744,21.5969661]]},"properties":{"key":"way:1545660401@detail:441_86","osmType":"way","osmId":1545660401,"sourceRegion":"guangdong","featureType":"infrastructure","railClass":"national","mode":"rail","name":"黎湛线","ref":"0752","operator":"中国铁路南宁局集团有限公司","usage":"main","bridge":"yes","status":"operational","color":"#E54848","dataOrigin":"datum-2026-08-01","sourceKey":"way:1545660401"}},{"type":"Feature","geometry":{"type":"LineString","coordinates":[[110.2877457,21.6035275],[110.2888584,21.6066952]]},"properties":{"key":"way:1545660402@detail:441_86","osmType":"way","osmId":1545660402,"sourceRegion":"guangdong","featureType":"infrastructure","railClass":"national","mode":"rail","name":"黎湛线","ref":"0752","operator":"中国铁路南宁局集团有限公司","usage":"main","status":"operational","color":"#E54848","dataOrigin":"datum-2026-08-01","sourceKey":"way:1545660402"}},{"type":"Feature","geometry":{"type":"LineString","coordinates":[[110.2875626,21.602969],[110.2877457,21.6035275]]},"properties":{"key":"way:1545660403@detail:441_86","osmType":"way","osmId":1545660403,"sourceRegion":"guangdong","featureType":"infrastructure","railClass":"national","mode":"rail","name":"黎湛线","ref":"0752","operator":"中国铁路南宁局集团有限公司","usage":"main","bridge":"yes","status":"operational","color":"#E54848","dataOrigin":"datum-2026-08-01","sourceKey":"way:1545660403"}}]}