{"type":"FeatureCollection","features":[{"type":"Feature","geometry":{"type":"LineString","coordinates":[[110.5,21.058191679681105],[110.5043435,21.0582042],[110.5069365,21.0582117],[110.5117396,21.0582255],[110.5120079,21.0582263],[110.5122966,21.0582271],[110.5162662,21.0582421]]},"properties":{"key":"way:711335225@detail:442_84","osmType":"way","osmId":711335225,"sourceRegion":"guangdong","featureType":"infrastructure","railClass":"minor","mode":"rail","name":"未命名","service":"siding","status":"operational","color":"#52636F","dataOrigin":"datum-2026-08-01","sourceKey":"way:711335225"}},{"type":"Feature","geometry":{"type":"LineString","coordinates":[[110.5,21.053908281245366],[110.5005826,21.0539126],[110.5020567,21.0539237],[110.5023723,21.0539261],[110.502639,21.0539281],[110.5033798,21.0539337],[110.5055201,21.0539498],[110.5075049,21.0540299]]},"properties":{"key":"way:711335227@detail:442_84","osmType":"way","osmId":711335227,"sourceRegion":"guangdong","featureType":"infrastructure","railClass":"minor","mode":"rail","name":"未命名","service":"siding","status":"operational","color":"#52636F","dataOrigin":"datum-2026-08-01","sourceKey":"way:711335227"}},{"type":"Feature","geometry":{"type":"LineString","coordinates":[[110.5033798,21.0539337],[110.5037986,21.0539962],[110.5041394,21.0540513],[110.5051016,21.0542868],[110.5055961,21.0543907],[110.5066223,21.0544517],[110.5075714,21.054479]]},"properties":{"key":"way:730820408@detail:442_84","osmType":"way","osmId":730820408,"sourceRegion":"guangdong","featureType":"infrastructure","railClass":"national","mode":"rail","name":"未命名","status":"operational","color":"#E54848","dataOrigin":"datum-2026-08-01","sourceKey":"way:730820408"}},{"type":"Feature","geometry":{"type":"LineString","coordinates":[[110.5023438,21.0538764],[110.5020913,21.0538406],[110.5018619,21.0537941],[110.5016363,21.0536944],[110.5015391,21.0536566],[110.5013668,21.0535457],[110.5012502,21.0534692],[110.5010939,21.0533027],[110.5010224,21.0532168],[110.5008797,21.0530455],[110.5,21.051950535853177]]},"properties":{"key":"way:730820409@detail:442_84","osmType":"way","osmId":730820409,"sourceRegion":"guangdong","featureType":"infrastructure","railClass":"national","mode":"rail","name":"未命名","status":"operational","color":"#E54848","dataOrigin":"datum-2026-08-01","sourceKey":"way:730820409"}},{"type":"Feature","geometry":{"type":"LineString","coordinates":[[110.5017237,21.0538721],[110.5014197,21.0538131],[110.5011257,21.0537049],[110.5009424,21.0536176],[110.5007159,21.0534603],[110.5005387,21.0533017],[110.5,21.05260451833026]]},"properties":{"key":"way:730820410@detail:442_84","osmType":"way","osmId":730820410,"sourceRegion":"guangdong","featureType":"infrastructure","railClass":"national","mode":"rail","name":"未命名","status":"operational","color":"#E54848","dataOrigin":"datum-2026-08-01","sourceKey":"way:730820410"}},{"type":"Feature","geometry":{"type":"LineString","coordinates":[[110.5075049,21.0539498],[110.5055281,21.0538972],[110.5040127,21.0538922],[110.502639,21.0538792],[110.5023438,21.0538764],[110.5017237,21.0538721],[110.5002003,21.0538657],[110.5,21.053864848263643]]},"properties":{"key":"way:730820415@detail:442_84","osmType":"way","osmId":730820415,"sourceRegion":"guangdong","featureType":"infrastructure","railClass":"national","mode":"rail","name":"未命名","status":"operational","color":"#E54848","dataOrigin":"datum-2026-08-01","sourceKey":"way:730820415"}},{"type":"Feature","geometry":{"type":"LineString","coordinates":[[110.5099498,21.0610138],[110.5099589,21.0601154],[110.509976,21.0598765],[110.5099833,21.0597738],[110.5100931,21.0593944],[110.510217,21.0590965],[110.5102272,21.0590719],[110.5104549,21.058776],[110.5106705,21.0586014],[110.5107314,21.0585521],[110.5109021,21.058453],[110.5110403,21.0583776],[110.5113371,21.0582638],[110.5117396,21.0582255]]},"properties":{"key":"way:1245534962@detail:442_84","osmType":"way","osmId":1245534962,"sourceRegion":"guangdong","featureType":"infrastructure","railClass":"minor","mode":"rail","name":"未命名","service":"spur","status":"operational","color":"#52636F","dataOrigin":"datum-2026-08-01","sourceKey":"way:1245534962"}},{"type":"Feature","geometry":{"type":"LineString","coordinates":[[110.5002003,21.0538657],[110.5005826,21.0539126]]},"properties":{"key":"way:1286574382@detail:442_84","osmType":"way","osmId":1286574382,"sourceRegion":"guangdong","featureType":"infrastructure","railClass":"minor","mode":"rail","name":"未命名","service":"spur","status":"operational","color":"#52636F","dataOrigin":"datum-2026-08-01","sourceKey":"way:1286574382"}},{"type":"Feature","geometry":{"type":"LineString","coordinates":[[110.5,21.05392019543147],[110.5002824,21.0539589],[110.5020522,21.0539646],[110.5023692,21.0539657],[110.5026391,21.0539665],[110.5027778,21.053967],[110.5031546,21.0539682],[110.5035509,21.0540056],[110.5040875,21.054086],[110.5048745,21.0542782],[110.5054318,21.0544039],[110.5056668,21.0544508],[110.5058834,21.0544729],[110.5075129,21.0545592]]},"properties":{"key":"way:1286574383@detail:442_84","osmType":"way","osmId":1286574383,"sourceRegion":"guangdong","featureType":"infrastructure","railClass":"minor","mode":"rail","name":"未命名","usage":"industrial","status":"operational","color":"#52636F","dataOrigin":"datum-2026-08-01","sourceKey":"way:1286574383"}},{"type":"Feature","geometry":{"type":"LineString","coordinates":[[110.5020567,21.0539237],[110.5023692,21.0539657]]},"properties":{"key":"way:1286574384@detail:442_84","osmType":"way","osmId":1286574384,"sourceRegion":"guangdong","featureType":"infrastructure","railClass":"minor","mode":"rail","name":"未命名","usage":"industrial","service":"crossover","status":"operational","color":"#52636F","dataOrigin":"datum-2026-08-01","sourceKey":"way:1286574384"}},{"type":"Feature","geometry":{"type":"LineString","coordinates":[[110.5020522,21.0539646],[110.5023723,21.0539261]]},"properties":{"key":"way:1286574385@detail:442_84","osmType":"way","osmId":1286574385,"sourceRegion":"guangdong","featureType":"infrastructure","railClass":"minor","mode":"rail","name":"未命名","usage":"industrial","service":"crossover","status":"operational","color":"#52636F","dataOrigin":"datum-2026-08-01","sourceKey":"way:1286574385"}},{"type":"Feature","geometry":{"type":"LineString","coordinates":[[110.5027778,21.053967],[110.5031712,21.0540096],[110.5037397,21.0540729]]},"properties":{"key":"way:1286574386@detail:442_84","osmType":"way","osmId":1286574386,"sourceRegion":"guangdong","featureType":"infrastructure","railClass":"minor","mode":"rail","name":"未命名","usage":"industrial","service":"spur","status":"operational","color":"#52636F","dataOrigin":"datum-2026-08-01","sourceKey":"way:1286574386"}},{"type":"Feature","geometry":{"type":"LineString","coordinates":[[110.5106705,21.0586014],[110.5103576,21.0587515],[110.5100032,21.0588521],[110.5097598,21.0589786],[110.5095565,21.0591281],[110.5094024,21.0592805],[110.5091837,21.0596457],[110.5091375,21.0597923],[110.509125,21.0598722],[110.5091036,21.0601127],[110.5090882,21.0621909]]},"properties":{"key":"way:1286574390@detail:442_84","osmType":"way","osmId":1286574390,"sourceRegion":"guangdong","featureType":"infrastructure","railClass":"minor","mode":"rail","name":"未命名","usage":"industrial","service":"siding","status":"operational","color":"#52636F","dataOrigin":"datum-2026-08-01","sourceKey":"way:1286574390"}},{"type":"Feature","geometry":{"type":"LineString","coordinates":[[110.510217,21.0590965],[110.5100544,21.0594169],[110.5099632,21.0596071],[110.5099015,21.0597648],[110.5098773,21.059876],[110.5098666,21.0600051],[110.5098693,21.0601151],[110.5098639,21.0610188]]},"properties":{"key":"way:1286574391@detail:442_84","osmType":"way","osmId":1286574391,"sourceRegion":"guangdong","featureType":"infrastructure","railClass":"minor","mode":"rail","name":"未命名","usage":"industrial","service":"siding","status":"operational","color":"#52636F","dataOrigin":"datum-2026-08-01","sourceKey":"way:1286574391"}},{"type":"Feature","geometry":{"type":"LineString","coordinates":[[110.5069365,21.0582117],[110.507297,21.058163],[110.5108063,21.0581745],[110.5115796,21.0581774],[110.5120079,21.0582263]]},"properties":{"key":"way:1286574392@detail:442_84","osmType":"way","osmId":1286574392,"sourceRegion":"guangdong","featureType":"infrastructure","railClass":"minor","mode":"rail","name":"未命名","usage":"industrial","service":"siding","status":"operational","color":"#52636F","dataOrigin":"datum-2026-08-01","sourceKey":"way:1286574392"}}]}