{"type":"FeatureCollection","features":[{"type":"Feature","geometry":{"type":"Point","coordinates":[110.6474814,21.6557754]},"properties":{"key":"node:5078329376","osmType":"node","osmId":5078329376,"sourceRegion":"guangdong","featureType":"station","railClass":"minor","mode":"station","name":"化州","nameEn":"Huazhou","status":"operational","color":"#52636F","dataOrigin":"datum-2026-08-01","sourceKey":"node:5078329376","stationGroup":"化州","hasOperationalRail":true,"hasConstructionRail":false}},{"type":"Feature","geometry":{"type":"Point","coordinates":[110.7424157,21.6719458]},"properties":{"key":"node:8689278108","osmType":"node","osmId":8689278108,"sourceRegion":"guangdong","featureType":"station","railClass":"minor","mode":"station","name":"山底岭","operator":"中国铁路南宁局集团有限公司","status":"operational","color":"#52636F","dataOrigin":"datum-2026-08-01","sourceKey":"node:8689278108","stationGroup":"山底岭","hasOperationalRail":true,"hasConstructionRail":false}},{"type":"Feature","geometry":{"type":"Point","coordinates":[110.5276912,21.6342128]},"properties":{"key":"node:9192069849","osmType":"node","osmId":9192069849,"sourceRegion":"guangdong","featureType":"station","railClass":"minor","mode":"station","name":"米山","status":"operational","color":"#52636F","dataOrigin":"datum-2026-08-01","sourceKey":"node:9192069849","stationGroup":"米山","hasOperationalRail":true,"hasConstructionRail":false}},{"type":"Feature","geometry":{"type":"LineString","coordinates":[[110.6346529,21.6519068],[110.6411406,21.6536141],[110.6413525,21.6536689],[110.653173,21.656919],[110.6556792,21.6576093],[110.657646,21.658151],[110.659104,21.658613],[110.66024,21.659036],[110.662125,21.659824],[110.6657851,21.6611861],[110.6660852,21.6613083],[110.6667101,21.6615563],[110.6669757,21.6616361],[110.6672256,21.6616937],[110.6742121,21.6628594],[110.67494,21.662956],[110.680686,21.66397],[110.6917043,21.6657666],[110.7004211,21.6672459],[110.7007769,21.6672991],[110.7011841,21.6673595],[110.705188,21.668081],[110.7154088,21.6698031],[110.721618,21.670828],[110.722773,21.670971],[110.72395,21.671053],[110.726343,21.671051],[110.7346486,21.670675],[110.7358514,21.6706183],[110.7361889,21.6706228],[110.7369271,21.6706356],[110.7374611,21.6706658],[110.7423828,21.6715736],[110.744361,21.6719384],[110.7474297,21.6725412],[110.75,21.6730533792808]]},"properties":{"key":"way:48997557@detail:442_86","osmType":"way","osmId":48997557,"sourceRegion":"guangdong","featureType":"infrastructure","railClass":"national","mode":"rail","name":"河茂线","nameEn":"Hemao Line","ref":"0753","operator":"中国铁路南宁局集团有限公司","usage":"branch","status":"operational","color":"#E54848","dataOrigin":"datum-2026-08-01","sourceKey":"way:48997557"}},{"type":"Feature","geometry":{"type":"LineString","coordinates":[[110.6315496,21.651067],[110.6346529,21.6519068]]},"properties":{"key":"way:48997560@detail:442_86","osmType":"way","osmId":48997560,"sourceRegion":"guangdong","featureType":"infrastructure","railClass":"national","mode":"rail","name":"河茂线","nameEn":"Hemao Line","ref":"0753","operator":"中国铁路南宁局集团有限公司","usage":"branch","bridge":"yes","status":"operational","color":"#E54848","dataOrigin":"datum-2026-08-01","sourceKey":"way:48997560"}},{"type":"Feature","geometry":{"type":"LineString","coordinates":[[110.5,21.635367529180176],[110.503931,21.633768],[110.504555,21.633585],[110.505419,21.633479],[110.506236,21.633485],[110.507254,21.633633],[110.5111876,21.6343998],[110.512879,21.634798],[110.515419,21.63528],[110.517961,21.635751],[110.519034,21.635816],[110.520106,21.635711],[110.522283,21.635314],[110.524551,21.634966],[110.525854,21.634697],[110.526606,21.634591],[110.528021,21.634276],[110.528914,21.634156],[110.530871,21.63387],[110.532396,21.633468],[110.5339122,21.6331189],[110.5345344,21.6330593],[110.5349875,21.6330365],[110.5357977,21.6330238],[110.536956,21.6331329],[110.5371733,21.6331781],[110.5381537,21.6333826],[110.5393221,21.6336941],[110.553011,21.637015],[110.55445,21.637293],[110.55594,21.637481],[110.556804,21.637536],[110.558108,21.63753],[110.5645499,21.6372046],[110.569908,21.636934],[110.571064,21.637078],[110.574581,21.63793],[110.575643,21.63811],[110.578578,21.638308],[110.585471,21.638616],[110.5869178,21.6386789],[110.59082,21.638916],[110.591976,21.639014],[110.592763,21.639138],[110.5939534,21.6394386],[110.5940568,21.6394651],[110.602868,21.641696],[110.6071463,21.643096],[110.6083953,21.643496],[110.6116551,21.6446243],[110.6138304,21.6453248],[110.6153968,21.6458733],[110.6162176,21.6461276],[110.618698,21.64695],[110.6197581,21.6472993],[110.6225209,21.648225],[110.6230142,21.648363],[110.6289296,21.6503262],[110.6299841,21.6506106],[110.6315496,21.651067]]},"properties":{"key":"way:393505980@detail:442_86","osmType":"way","osmId":393505980,"sourceRegion":"guangdong","featureType":"infrastructure","railClass":"national","mode":"rail","name":"河茂线","nameEn":"Hemao Line","ref":"0753","operator":"中国铁路南宁局集团有限公司","usage":"branch","status":"operational","color":"#E54848","dataOrigin":"datum-2026-08-01","sourceKey":"way:393505980"}},{"type":"Feature","geometry":{"type":"LineString","coordinates":[[110.6556792,21.6576093],[110.6550498,21.6575167],[110.6546246,21.6575023],[110.654412,21.6575167],[110.6535801,21.6576369],[110.6508787,21.6580816]]},"properties":{"key":"way:1226965485@detail:442_86","osmType":"way","osmId":1226965485,"sourceRegion":"guangdong","featureType":"infrastructure","railClass":"national","mode":"rail","name":"未命名","status":"operational","color":"#E54848","dataOrigin":"datum-2026-08-01","sourceKey":"way:1226965485"}}]}