{"type":"FeatureCollection","features":[{"type":"Feature","geometry":{"type":"Point","coordinates":[110.8675472,22.1444504]},"properties":{"key":"node:12732987421","osmType":"node","osmId":12732987421,"sourceRegion":"guangdong","featureType":"station","railClass":"minor","mode":"station","name":"潭头","status":"operational","color":"#52636F","dataOrigin":"datum-2026-08-01","sourceKey":"node:12732987421","stationGroup":"潭头","hasOperationalRail":true,"hasConstructionRail":false}},{"type":"Feature","geometry":{"type":"LineString","coordinates":[[110.86502650219236,22.0],[110.8643675,22.0005939],[110.8625758,22.0017876],[110.8595824,22.0035881],[110.8574796,22.0050304],[110.856117,22.0060451],[110.8532524,22.0085517]]},"properties":{"key":"way:513136794@detail:443_88","osmType":"way","osmId":513136794,"sourceRegion":"guangdong","featureType":"infrastructure","railClass":"national","mode":"rail","name":"益湛线","ref":"0072","operator":"中国铁路广州局集团有限公司","usage":"main","status":"operational","color":"#E54848","dataOrigin":"datum-2026-08-01","sourceKey":"way:513136794"}},{"type":"Feature","geometry":{"type":"LineString","coordinates":[[110.8368695,22.0488363],[110.8371377,22.0467878],[110.8374059,22.0438592],[110.837599,22.0423775],[110.8379745,22.0395333],[110.8383566,22.0358388]]},"properties":{"key":"way:513136797@detail:443_88","osmType":"way","osmId":513136797,"sourceRegion":"guangdong","featureType":"infrastructure","railClass":"national","mode":"rail","name":"益湛线","ref":"0072","operator":"中国铁路广州局集团有限公司","usage":"main","status":"operational","color":"#E54848","dataOrigin":"datum-2026-08-01","sourceKey":"way:513136797"}},{"type":"Feature","geometry":{"type":"LineString","coordinates":[[110.836671,22.0504274],[110.8368695,22.0488363]]},"properties":{"key":"way:513136798@detail:443_88","osmType":"way","osmId":513136798,"sourceRegion":"guangdong","featureType":"infrastructure","railClass":"national","mode":"rail","name":"益湛线","ref":"0072","operator":"中国铁路广州局集团有限公司","usage":"main","bridge":"yes","status":"operational","color":"#E54848","dataOrigin":"datum-2026-08-01","sourceKey":"way:513136798"}},{"type":"Feature","geometry":{"type":"LineString","coordinates":[[110.8361506,22.0573533],[110.8364403,22.0521328],[110.836671,22.0504274]]},"properties":{"key":"way:513136799@detail:443_88","osmType":"way","osmId":513136799,"sourceRegion":"guangdong","featureType":"infrastructure","railClass":"national","mode":"rail","name":"益湛线","ref":"0072","operator":"中国铁路广州局集团有限公司","usage":"main","status":"operational","color":"#E54848","dataOrigin":"datum-2026-08-01","sourceKey":"way:513136799"}},{"type":"Feature","geometry":{"type":"LineString","coordinates":[[110.8360283,22.058741],[110.8361506,22.0573533]]},"properties":{"key":"way:513136800@detail:443_88","osmType":"way","osmId":513136800,"sourceRegion":"guangdong","featureType":"infrastructure","railClass":"national","mode":"rail","name":"益湛线","ref":"0072","operator":"中国铁路广州局集团有限公司","usage":"main","tunnel":"yes","status":"operational","color":"#E54848","dataOrigin":"datum-2026-08-01","sourceKey":"way:513136800"}},{"type":"Feature","geometry":{"type":"LineString","coordinates":[[110.8632839,22.1421664],[110.8610067,22.1409515],[110.8591318,22.1399205]]},"properties":{"key":"way:513136801@detail:443_88","osmType":"way","osmId":513136801,"sourceRegion":"guangdong","featureType":"infrastructure","railClass":"national","mode":"rail","name":"益湛线","ref":"0072","operator":"中国铁路广州局集团有限公司","usage":"main","bridge":"yes","status":"operational","color":"#E54848","dataOrigin":"datum-2026-08-01","sourceKey":"way:513136801"}},{"type":"Feature","geometry":{"type":"LineString","coordinates":[[110.8591318,22.1399205],[110.8578229,22.1390907],[110.8567285,22.1383006],[110.8556235,22.1372969],[110.8544648,22.1360049],[110.8536279,22.1349614],[110.852834,22.1334508],[110.8523619,22.1322781],[110.8519757,22.1312247],[110.8510423,22.1280046],[110.849508,22.1229557],[110.8481669,22.1182545],[110.8474159,22.1158193],[110.8471799,22.1145073],[110.8452272,22.1049054]]},"properties":{"key":"way:513136802@detail:443_88","osmType":"way","osmId":513136802,"sourceRegion":"guangdong","featureType":"infrastructure","railClass":"national","mode":"rail","name":"益湛线","ref":"0072","operator":"中国铁路广州局集团有限公司","usage":"main","status":"operational","color":"#E54848","dataOrigin":"datum-2026-08-01","sourceKey":"way:513136802"}},{"type":"Feature","geometry":{"type":"LineString","coordinates":[[110.8774191,22.1597722],[110.8771402,22.1589078],[110.8767592,22.1577427],[110.8759465,22.1551965],[110.8754209,22.1538773],[110.8748629,22.1527048],[110.8740556,22.1514204],[110.8732885,22.150423],[110.8701718,22.1469562],[110.8683264,22.1452073],[110.8668673,22.144134],[110.8654833,22.1433688],[110.8632839,22.1421664]]},"properties":{"key":"way:513136803@detail:443_88","osmType":"way","osmId":513136803,"sourceRegion":"guangdong","featureType":"infrastructure","railClass":"national","mode":"rail","name":"益湛线","ref":"0072","operator":"中国铁路广州局集团有限公司","usage":"main","status":"operational","color":"#E54848","dataOrigin":"datum-2026-08-01","sourceKey":"way:513136803"}},{"type":"Feature","geometry":{"type":"LineString","coordinates":[[110.878315,22.1626861],[110.8780763,22.1618365],[110.8778027,22.1609546],[110.8774191,22.1597722]]},"properties":{"key":"way:513136804@detail:443_88","osmType":"way","osmId":513136804,"sourceRegion":"guangdong","featureType":"infrastructure","railClass":"national","mode":"rail","name":"益湛线","ref":"0072","operator":"中国铁路广州局集团有限公司","usage":"main","bridge":"yes","status":"operational","color":"#E54848","dataOrigin":"datum-2026-08-01","sourceKey":"way:513136804"}},{"type":"Feature","geometry":{"type":"LineString","coordinates":[[110.8838242,22.1816578],[110.8833682,22.1805402]]},"properties":{"key":"way:513136805@detail:443_88","osmType":"way","osmId":513136805,"sourceRegion":"guangdong","featureType":"infrastructure","railClass":"national","mode":"rail","name":"益湛线","ref":"0072","operator":"中国铁路广州局集团有限公司","usage":"main","tunnel":"yes","status":"operational","color":"#E54848","dataOrigin":"datum-2026-08-01","sourceKey":"way:513136805"}},{"type":"Feature","geometry":{"type":"LineString","coordinates":[[110.8813143,22.172148],[110.8812708,22.1720158],[110.8807558,22.170436],[110.8802623,22.1688811],[110.8795595,22.1665958],[110.879125,22.1652148],[110.8784705,22.1632226],[110.878315,22.1626861]]},"properties":{"key":"way:513136806@detail:443_88","osmType":"way","osmId":513136806,"sourceRegion":"guangdong","featureType":"infrastructure","railClass":"national","mode":"rail","name":"益湛线","ref":"0072","operator":"中国铁路广州局集团有限公司","usage":"main","status":"operational","color":"#E54848","dataOrigin":"datum-2026-08-01","sourceKey":"way:513136806"}},{"type":"Feature","geometry":{"type":"LineString","coordinates":[[110.8886629,22.1897197],[110.8878529,22.1884034]]},"properties":{"key":"way:513136807@detail:443_88","osmType":"way","osmId":513136807,"sourceRegion":"guangdong","featureType":"infrastructure","railClass":"national","mode":"rail","name":"益湛线","ref":"0072","operator":"中国铁路广州局集团有限公司","usage":"main","tunnel":"yes","status":"operational","color":"#E54848","dataOrigin":"datum-2026-08-01","sourceKey":"way:513136807"}},{"type":"Feature","geometry":{"type":"LineString","coordinates":[[110.8878529,22.1884034],[110.88678,22.186799],[110.8845591,22.1831729],[110.8841729,22.1824476],[110.8838242,22.1816578]]},"properties":{"key":"way:513136808@detail:443_88","osmType":"way","osmId":513136808,"sourceRegion":"guangdong","featureType":"infrastructure","railClass":"national","mode":"rail","name":"益湛线","ref":"0072","operator":"中国铁路广州局集团有限公司","usage":"main","status":"operational","color":"#E54848","dataOrigin":"datum-2026-08-01","sourceKey":"way:513136808"}},{"type":"Feature","geometry":{"type":"LineString","coordinates":[[110.9242558,22.2482102],[110.9235209,22.2471527],[110.9227484,22.2461746],[110.9176601,22.2410283],[110.915764,22.2390494],[110.9150505,22.2382649],[110.9146321,22.2377386],[110.9140903,22.2370037],[110.9135538,22.2361546],[110.9113383,22.2324702],[110.9061134,22.2238993],[110.9043673,22.2208502],[110.9037638,22.2200308],[110.9011137,22.2165197],[110.8994293,22.2142949],[110.8987105,22.2131824],[110.8980667,22.2118812],[110.8969724,22.2095669],[110.8956849,22.2064877],[110.8940542,22.2023952],[110.8919406,22.1973093],[110.8917069,22.1967428]]},"properties":{"key":"way:513136809@detail:443_88","osmType":"way","osmId":513136809,"sourceRegion":"guangdong","featureType":"infrastructure","railClass":"national","mode":"rail","name":"益湛线","ref":"0072","operator":"中国铁路广州局集团有限公司","usage":"main","status":"operational","color":"#E54848","dataOrigin":"datum-2026-08-01","sourceKey":"way:513136809"}},{"type":"Feature","geometry":{"type":"LineString","coordinates":[[110.92528132325582,22.25],[110.9247923,22.249104],[110.9242558,22.2482102]]},"properties":{"key":"way:513136829@detail:443_88","osmType":"way","osmId":513136829,"sourceRegion":"guangdong","featureType":"infrastructure","railClass":"national","mode":"rail","name":"益湛线","ref":"0072","operator":"中国铁路广州局集团有限公司","usage":"main","bridge":"yes","status":"operational","color":"#E54848","dataOrigin":"datum-2026-08-01","sourceKey":"way:513136829"}},{"type":"Feature","geometry":{"type":"LineString","coordinates":[[110.8395706,22.0260027],[110.839777,22.0251324],[110.8401203,22.0238395],[110.8405173,22.0227156],[110.8413327,22.0211242],[110.8422044,22.0197342],[110.8426255,22.0191349],[110.8431002,22.0185133],[110.8434892,22.0180359],[110.8438781,22.0175895],[110.8441128,22.0173632]]},"properties":{"key":"way:943811175@detail:443_88","osmType":"way","osmId":943811175,"sourceRegion":"guangdong","featureType":"infrastructure","railClass":"national","mode":"rail","name":"益湛线","ref":"0072","operator":"中国铁路广州局集团有限公司","usage":"main","status":"operational","color":"#E54848","dataOrigin":"datum-2026-08-01","sourceKey":"way:943811175"}},{"type":"Feature","geometry":{"type":"LineString","coordinates":[[110.8395373,22.0261434],[110.8395706,22.0260027]]},"properties":{"key":"way:943811176@detail:443_88","osmType":"way","osmId":943811176,"sourceRegion":"guangdong","featureType":"infrastructure","railClass":"national","mode":"rail","name":"益湛线","ref":"0072","operator":"中国铁路广州局集团有限公司","usage":"main","bridge":"yes","status":"operational","color":"#E54848","dataOrigin":"datum-2026-08-01","sourceKey":"way:943811176"}},{"type":"Feature","geometry":{"type":"LineString","coordinates":[[110.8905827,22.194018],[110.8898914,22.1923423],[110.8891994,22.1907976],[110.8886629,22.1897197]]},"properties":{"key":"way:944101791@detail:443_88","osmType":"way","osmId":944101791,"sourceRegion":"guangdong","featureType":"infrastructure","railClass":"national","mode":"rail","name":"益湛线","ref":"0072","operator":"中国铁路广州局集团有限公司","usage":"main","status":"operational","color":"#E54848","dataOrigin":"datum-2026-08-01","sourceKey":"way:944101791"}},{"type":"Feature","geometry":{"type":"LineString","coordinates":[[110.8917069,22.1967428],[110.8905827,22.194018]]},"properties":{"key":"way:944101792@detail:443_88","osmType":"way","osmId":944101792,"sourceRegion":"guangdong","featureType":"infrastructure","railClass":"national","mode":"rail","name":"益湛线","ref":"0072","operator":"中国铁路广州局集团有限公司","usage":"main","bridge":"yes","status":"operational","color":"#E54848","dataOrigin":"datum-2026-08-01","sourceKey":"way:944101792"}},{"type":"Feature","geometry":{"type":"LineString","coordinates":[[110.8814263,22.1724884],[110.8813143,22.172148]]},"properties":{"key":"way:944101794@detail:443_88","osmType":"way","osmId":944101794,"sourceRegion":"guangdong","featureType":"infrastructure","railClass":"national","mode":"rail","name":"益湛线","ref":"0072","operator":"中国铁路广州局集团有限公司","usage":"main","bridge":"yes","status":"operational","color":"#E54848","dataOrigin":"datum-2026-08-01","sourceKey":"way:944101794"}},{"type":"Feature","geometry":{"type":"LineString","coordinates":[[110.8833682,22.1805402],[110.8829606,22.1792436],[110.8826977,22.1778279],[110.8815765,22.1729447],[110.8814263,22.1724884]]},"properties":{"key":"way:944101795@detail:443_88","osmType":"way","osmId":944101795,"sourceRegion":"guangdong","featureType":"infrastructure","railClass":"national","mode":"rail","name":"益湛线","ref":"0072","operator":"中国铁路广州局集团有限公司","usage":"main","status":"operational","color":"#E54848","dataOrigin":"datum-2026-08-01","sourceKey":"way:944101795"}},{"type":"Feature","geometry":{"type":"LineString","coordinates":[[110.8376991,22.0764586],[110.8376098,22.0759068],[110.8358502,22.0662724],[110.8357322,22.0648306],[110.8356893,22.0632696],[110.8357429,22.061977],[110.8360283,22.058741]]},"properties":{"key":"way:956437618@detail:443_88","osmType":"way","osmId":956437618,"sourceRegion":"guangdong","featureType":"infrastructure","railClass":"national","mode":"rail","name":"益湛线","ref":"0072","operator":"中国铁路广州局集团有限公司","usage":"main","status":"operational","color":"#E54848","dataOrigin":"datum-2026-08-01","sourceKey":"way:956437618"}},{"type":"Feature","geometry":{"type":"LineString","coordinates":[[110.8377147,22.0765552],[110.8376991,22.0764586]]},"properties":{"key":"way:956437619@detail:443_88","osmType":"way","osmId":956437619,"sourceRegion":"guangdong","featureType":"infrastructure","railClass":"national","mode":"rail","name":"益湛线","ref":"0072","operator":"中国铁路广州局集团有限公司","usage":"main","bridge":"yes","status":"operational","color":"#E54848","dataOrigin":"datum-2026-08-01","sourceKey":"way:956437619"}},{"type":"Feature","geometry":{"type":"LineString","coordinates":[[110.8448249,22.1028602],[110.8443475,22.1009392],[110.8432799,22.0978129],[110.8406782,22.090203],[110.8399165,22.0879165],[110.8393586,22.0855504],[110.8389938,22.0835124],[110.8384305,22.0805149],[110.8380014,22.0781636],[110.8377868,22.0770004],[110.8377147,22.0765552]]},"properties":{"key":"way:956555312@detail:443_88","osmType":"way","osmId":956555312,"sourceRegion":"guangdong","featureType":"infrastructure","railClass":"national","mode":"rail","name":"益湛线","ref":"0072","operator":"中国铁路广州局集团有限公司","usage":"main","status":"operational","color":"#E54848","dataOrigin":"datum-2026-08-01","sourceKey":"way:956555312"}},{"type":"Feature","geometry":{"type":"LineString","coordinates":[[110.8452272,22.1049054],[110.8450475,22.1038542],[110.8449456,22.1033298],[110.8448249,22.1028602]]},"properties":{"key":"way:956555313@detail:443_88","osmType":"way","osmId":956555313,"sourceRegion":"guangdong","featureType":"infrastructure","railClass":"national","mode":"rail","name":"益湛线","ref":"0072","operator":"中国铁路广州局集团有限公司","usage":"main","bridge":"yes","status":"operational","color":"#E54848","dataOrigin":"datum-2026-08-01","sourceKey":"way:956555313"}},{"type":"Feature","geometry":{"type":"LineString","coordinates":[[110.8385217,22.0342425],[110.8394071,22.026859],[110.8395179,22.0262251],[110.8395373,22.0261434]]},"properties":{"key":"way:969576218@detail:443_88","osmType":"way","osmId":969576218,"sourceRegion":"guangdong","featureType":"infrastructure","railClass":"national","mode":"rail","name":"益湛线","ref":"0072","operator":"中国铁路广州局集团有限公司","usage":"main","status":"operational","color":"#E54848","dataOrigin":"datum-2026-08-01","sourceKey":"way:969576218"}},{"type":"Feature","geometry":{"type":"LineString","coordinates":[[110.8383566,22.0358388],[110.8385217,22.0342425]]},"properties":{"key":"way:969576219@detail:443_88","osmType":"way","osmId":969576219,"sourceRegion":"guangdong","featureType":"infrastructure","railClass":"national","mode":"rail","name":"益湛线","ref":"0072","operator":"中国铁路广州局集团有限公司","usage":"main","bridge":"yes","status":"operational","color":"#E54848","dataOrigin":"datum-2026-08-01","sourceKey":"way:969576219"}},{"type":"Feature","geometry":{"type":"LineString","coordinates":[[110.8454369,22.0160867],[110.8532524,22.0085517]]},"properties":{"key":"way:970345535@detail:443_88","osmType":"way","osmId":970345535,"sourceRegion":"guangdong","featureType":"infrastructure","railClass":"national","mode":"rail","name":"益湛线","ref":"0072","operator":"中国铁路广州局集团有限公司","usage":"main","status":"operational","color":"#E54848","dataOrigin":"datum-2026-08-01","sourceKey":"way:970345535"}},{"type":"Feature","geometry":{"type":"LineString","coordinates":[[110.8441128,22.0173632],[110.8454369,22.0160867]]},"properties":{"key":"way:970345536@detail:443_88","osmType":"way","osmId":970345536,"sourceRegion":"guangdong","featureType":"infrastructure","railClass":"national","mode":"rail","name":"益湛线","ref":"0072","operator":"中国铁路广州局集团有限公司","usage":"main","bridge":"yes","status":"operational","color":"#E54848","dataOrigin":"datum-2026-08-01","sourceKey":"way:970345536"}}]}