{"type":"FeatureCollection","features":[{"type":"Feature","geometry":{"type":"Point","coordinates":[110.9745661,22.6237686]},"properties":{"key":"node:12732987420","osmType":"node","osmId":12732987420,"sourceRegion":"guangdong","featureType":"station","railClass":"minor","mode":"halt","name":"旺科","status":"operational","color":"#52636F","dataOrigin":"datum-2026-08-01","sourceKey":"node:12732987420","stationGroup":"旺科","hasOperationalRail":true,"hasConstructionRail":false}},{"type":"Feature","geometry":{"type":"LineString","coordinates":[[110.9752314,22.6555689],[110.9758349,22.6519566],[110.9760873,22.6502217],[110.9764063,22.6491547],[110.9770417,22.6477545]]},"properties":{"key":"way:628130106@detail:443_90","osmType":"way","osmId":628130106,"sourceRegion":"guangdong","featureType":"infrastructure","railClass":"national","mode":"rail","name":"益湛线","ref":"0072","operator":"中国铁路广州局集团有限公司","usage":"main","bridge":"yes","status":"operational","color":"#E54848","dataOrigin":"datum-2026-08-01","sourceKey":"way:628130106"}},{"type":"Feature","geometry":{"type":"LineString","coordinates":[[110.9784951,22.6448846],[110.9793125,22.6420917],[110.9794864,22.6385937]]},"properties":{"key":"way:628130116@detail:443_90","osmType":"way","osmId":628130116,"sourceRegion":"guangdong","featureType":"infrastructure","railClass":"national","mode":"rail","name":"益湛线","ref":"0072","operator":"中国铁路广州局集团有限公司","usage":"main","tunnel":"yes","status":"operational","color":"#E54848","dataOrigin":"datum-2026-08-01","sourceKey":"way:628130116"}},{"type":"Feature","geometry":{"type":"LineString","coordinates":[[110.9773948,22.6317703],[110.9770525,22.630555],[110.9766034,22.6292006],[110.9762463,22.6280883],[110.9754486,22.6255437],[110.9748952,22.6238944],[110.9740798,22.6213239],[110.9738632,22.6206848],[110.9734699,22.6193783],[110.9731421,22.6183321],[110.9730941,22.6181943]]},"properties":{"key":"way:628130117@detail:443_90","osmType":"way","osmId":628130117,"sourceRegion":"guangdong","featureType":"infrastructure","railClass":"national","mode":"rail","name":"益湛线","ref":"0072","operator":"中国铁路广州局集团有限公司","usage":"main","status":"operational","color":"#E54848","dataOrigin":"datum-2026-08-01","sourceKey":"way:628130117"}},{"type":"Feature","geometry":{"type":"LineString","coordinates":[[110.9732146,22.6703606],[110.973687,22.6648116],[110.9752314,22.6555689]]},"properties":{"key":"way:846421445@detail:443_90","osmType":"way","osmId":846421445,"sourceRegion":"guangdong","featureType":"infrastructure","railClass":"national","mode":"rail","name":"益湛线","ref":"0072","operator":"中国铁路广州局集团有限公司","usage":"main","status":"operational","color":"#E54848","dataOrigin":"datum-2026-08-01","sourceKey":"way:846421445"}},{"type":"Feature","geometry":{"type":"LineString","coordinates":[[110.9770417,22.6477545],[110.977857,22.6462464],[110.9784951,22.6448846]]},"properties":{"key":"way:846421446@detail:443_90","osmType":"way","osmId":846421446,"sourceRegion":"guangdong","featureType":"infrastructure","railClass":"national","mode":"rail","name":"益湛线","ref":"0072","operator":"中国铁路广州局集团有限公司","usage":"main","status":"operational","color":"#E54848","dataOrigin":"datum-2026-08-01","sourceKey":"way:846421446"}},{"type":"Feature","geometry":{"type":"LineString","coordinates":[[110.9561571,22.5010738],[110.95650412321949,22.5]]},"properties":{"key":"way:911798410@detail:443_90","osmType":"way","osmId":911798410,"sourceRegion":"guangdong","featureType":"infrastructure","railClass":"national","mode":"rail","name":"益湛线","ref":"0072","operator":"中国铁路广州局集团有限公司","usage":"main","tunnel":"yes","status":"operational","color":"#E54848","dataOrigin":"datum-2026-08-01","sourceKey":"way:911798410"}},{"type":"Feature","geometry":{"type":"LineString","coordinates":[[110.9559667,22.502473],[110.9561571,22.5010738]]},"properties":{"key":"way:911798411@detail:443_90","osmType":"way","osmId":911798411,"sourceRegion":"guangdong","featureType":"infrastructure","railClass":"national","mode":"rail","name":"益湛线","ref":"0072","operator":"中国铁路广州局集团有限公司","usage":"main","status":"operational","color":"#E54848","dataOrigin":"datum-2026-08-01","sourceKey":"way:911798411"}},{"type":"Feature","geometry":{"type":"LineString","coordinates":[[110.9559086,22.5041507],[110.9559667,22.502473]]},"properties":{"key":"way:911798418@detail:443_90","osmType":"way","osmId":911798418,"sourceRegion":"guangdong","featureType":"infrastructure","railClass":"national","mode":"rail","name":"益湛线","ref":"0072","operator":"中国铁路广州局集团有限公司","usage":"main","tunnel":"yes","status":"operational","color":"#E54848","dataOrigin":"datum-2026-08-01","sourceKey":"way:911798418"}},{"type":"Feature","geometry":{"type":"LineString","coordinates":[[110.9558382,22.5053289],[110.9559086,22.5041507]]},"properties":{"key":"way:911798419@detail:443_90","osmType":"way","osmId":911798419,"sourceRegion":"guangdong","featureType":"infrastructure","railClass":"national","mode":"rail","name":"益湛线","ref":"0072","operator":"中国铁路广州局集团有限公司","usage":"main","status":"operational","color":"#E54848","dataOrigin":"datum-2026-08-01","sourceKey":"way:911798419"}},{"type":"Feature","geometry":{"type":"LineString","coordinates":[[110.9555737,22.5078784],[110.9558382,22.5053289]]},"properties":{"key":"way:911798420@detail:443_90","osmType":"way","osmId":911798420,"sourceRegion":"guangdong","featureType":"infrastructure","railClass":"national","mode":"rail","name":"益湛线","ref":"0072","operator":"中国铁路广州局集团有限公司","usage":"main","tunnel":"yes","status":"operational","color":"#E54848","dataOrigin":"datum-2026-08-01","sourceKey":"way:911798420"}},{"type":"Feature","geometry":{"type":"LineString","coordinates":[[110.9552267,22.5098567],[110.9554192,22.5092215],[110.9555396,22.5087555],[110.955561,22.5086431],[110.9555737,22.5078784]]},"properties":{"key":"way:911798421@detail:443_90","osmType":"way","osmId":911798421,"sourceRegion":"guangdong","featureType":"infrastructure","railClass":"national","mode":"rail","name":"益湛线","ref":"0072","operator":"中国铁路广州局集团有限公司","usage":"main","bridge":"yes","status":"operational","color":"#E54848","dataOrigin":"datum-2026-08-01","sourceKey":"way:911798421"}},{"type":"Feature","geometry":{"type":"LineString","coordinates":[[110.954998,22.5113215],[110.9552267,22.5098567]]},"properties":{"key":"way:911798422@detail:443_90","osmType":"way","osmId":911798422,"sourceRegion":"guangdong","featureType":"infrastructure","railClass":"national","mode":"rail","name":"益湛线","ref":"0072","operator":"中国铁路广州局集团有限公司","usage":"main","tunnel":"yes","status":"operational","color":"#E54848","dataOrigin":"datum-2026-08-01","sourceKey":"way:911798422"}},{"type":"Feature","geometry":{"type":"LineString","coordinates":[[110.9543055,22.5151708],[110.9546372,22.5134452],[110.9548189,22.5122988],[110.954998,22.5113215]]},"properties":{"key":"way:911798423@detail:443_90","osmType":"way","osmId":911798423,"sourceRegion":"guangdong","featureType":"infrastructure","railClass":"national","mode":"rail","name":"益湛线","ref":"0072","operator":"中国铁路广州局集团有限公司","usage":"main","bridge":"yes","status":"operational","color":"#E54848","dataOrigin":"datum-2026-08-01","sourceKey":"way:911798423"}},{"type":"Feature","geometry":{"type":"LineString","coordinates":[[110.9558635,22.5311391],[110.9556017,22.5307426],[110.95547,22.5305582],[110.9543643,22.528861],[110.9540445,22.5282893],[110.9537388,22.5277111],[110.9534794,22.5269863],[110.9531917,22.5260161],[110.9530724,22.5252808],[110.9529885,22.5245259],[110.9529478,22.5240142],[110.9529282,22.5235024],[110.9529824,22.5225746],[110.9530605,22.5219637],[110.9531285,22.5216533],[110.9533216,22.5205362],[110.9543055,22.5151708]]},"properties":{"key":"way:911798424@detail:443_90","osmType":"way","osmId":911798424,"sourceRegion":"guangdong","featureType":"infrastructure","railClass":"national","mode":"rail","name":"益湛线","ref":"0072","operator":"中国铁路广州局集团有限公司","usage":"main","status":"operational","color":"#E54848","dataOrigin":"datum-2026-08-01","sourceKey":"way:911798424"}},{"type":"Feature","geometry":{"type":"LineString","coordinates":[[110.9559868,22.5313258],[110.9558635,22.5311391]]},"properties":{"key":"way:911798425@detail:443_90","osmType":"way","osmId":911798425,"sourceRegion":"guangdong","featureType":"infrastructure","railClass":"national","mode":"rail","name":"益湛线","ref":"0072","operator":"中国铁路广州局集团有限公司","usage":"main","bridge":"yes","status":"operational","color":"#E54848","dataOrigin":"datum-2026-08-01","sourceKey":"way:911798425"}},{"type":"Feature","geometry":{"type":"LineString","coordinates":[[110.9592759,22.5405688],[110.9592767,22.5388008],[110.9591929,22.5379322],[110.9591297,22.5375078],[110.9590454,22.5371029],[110.9589639,22.5367494],[110.958847,22.5364023],[110.9587401,22.5360106],[110.95851,22.5354441],[110.9582367,22.5348328],[110.9580433,22.5344889],[110.9578229,22.5341161],[110.9575954,22.5337629],[110.9559868,22.5313258]]},"properties":{"key":"way:911798426@detail:443_90","osmType":"way","osmId":911798426,"sourceRegion":"guangdong","featureType":"infrastructure","railClass":"national","mode":"rail","name":"益湛线","ref":"0072","operator":"中国铁路广州局集团有限公司","usage":"main","status":"operational","color":"#E54848","dataOrigin":"datum-2026-08-01","sourceKey":"way:911798426"}},{"type":"Feature","geometry":{"type":"LineString","coordinates":[[110.9592116,22.5443287],[110.9592324,22.5424263]]},"properties":{"key":"way:911798427@detail:443_90","osmType":"way","osmId":911798427,"sourceRegion":"guangdong","featureType":"infrastructure","railClass":"national","mode":"rail","name":"益湛线","ref":"0072","operator":"中国铁路广州局集团有限公司","usage":"main","tunnel":"yes","status":"operational","color":"#E54848","dataOrigin":"datum-2026-08-01","sourceKey":"way:911798427"}},{"type":"Feature","geometry":{"type":"LineString","coordinates":[[110.9592491,22.5417312],[110.9592524,22.5415951],[110.9592586,22.5413624],[110.9592759,22.5405688]]},"properties":{"key":"way:911798428@detail:443_90","osmType":"way","osmId":911798428,"sourceRegion":"guangdong","featureType":"infrastructure","railClass":"national","mode":"rail","name":"益湛线","ref":"0072","operator":"中国铁路广州局集团有限公司","usage":"main","bridge":"yes","status":"operational","color":"#E54848","dataOrigin":"datum-2026-08-01","sourceKey":"way:911798428"}},{"type":"Feature","geometry":{"type":"LineString","coordinates":[[110.9592324,22.5424263],[110.9592491,22.5417312]]},"properties":{"key":"way:911798429@detail:443_90","osmType":"way","osmId":911798429,"sourceRegion":"guangdong","featureType":"infrastructure","railClass":"national","mode":"rail","name":"益湛线","ref":"0072","operator":"中国铁路广州局集团有限公司","usage":"main","status":"operational","color":"#E54848","dataOrigin":"datum-2026-08-01","sourceKey":"way:911798429"}},{"type":"Feature","geometry":{"type":"LineString","coordinates":[[110.9592478,22.5500738],[110.959186,22.5495378],[110.9591838,22.5488026],[110.9591889,22.5481793],[110.959168,22.5477057],[110.9591576,22.5473769],[110.9591704,22.546743],[110.9592019,22.5461049],[110.9592116,22.5443287]]},"properties":{"key":"way:911798430@detail:443_90","osmType":"way","osmId":911798430,"sourceRegion":"guangdong","featureType":"infrastructure","railClass":"national","mode":"rail","name":"益湛线","ref":"0072","operator":"中国铁路广州局集团有限公司","usage":"main","status":"operational","color":"#E54848","dataOrigin":"datum-2026-08-01","sourceKey":"way:911798430"}},{"type":"Feature","geometry":{"type":"LineString","coordinates":[[110.959461,22.5524209],[110.959434,22.5519764],[110.9593788,22.5512909],[110.9593095,22.5506097],[110.9592478,22.5500738]]},"properties":{"key":"way:911798431@detail:443_90","osmType":"way","osmId":911798431,"sourceRegion":"guangdong","featureType":"infrastructure","railClass":"national","mode":"rail","name":"益湛线","ref":"0072","operator":"中国铁路广州局集团有限公司","usage":"main","bridge":"yes","status":"operational","color":"#E54848","dataOrigin":"datum-2026-08-01","sourceKey":"way:911798431"}},{"type":"Feature","geometry":{"type":"LineString","coordinates":[[110.9600529,22.5594222],[110.9597974,22.5568719],[110.9597789,22.556689],[110.9597372,22.5559621],[110.9597022,22.5554997],[110.9596444,22.555036],[110.959619,22.5548081],[110.9595449,22.553855],[110.959461,22.5524209]]},"properties":{"key":"way:911798432@detail:443_90","osmType":"way","osmId":911798432,"sourceRegion":"guangdong","featureType":"infrastructure","railClass":"national","mode":"rail","name":"益湛线","ref":"0072","operator":"中国铁路广州局集团有限公司","usage":"main","status":"operational","color":"#E54848","dataOrigin":"datum-2026-08-01","sourceKey":"way:911798432"}},{"type":"Feature","geometry":{"type":"LineString","coordinates":[[110.9604566,22.5632917],[110.9603918,22.5628848],[110.9603556,22.5625074],[110.9602846,22.5617692],[110.9601814,22.5606009],[110.9601634,22.5604],[110.9600529,22.5594222]]},"properties":{"key":"way:911798433@detail:443_90","osmType":"way","osmId":911798433,"sourceRegion":"guangdong","featureType":"infrastructure","railClass":"national","mode":"rail","name":"益湛线","ref":"0072","operator":"中国铁路广州局集团有限公司","usage":"main","bridge":"yes","status":"operational","color":"#E54848","dataOrigin":"datum-2026-08-01","sourceKey":"way:911798433"}},{"type":"Feature","geometry":{"type":"LineString","coordinates":[[110.962328,22.5676569],[110.9617101,22.5665168],[110.9613719,22.5658754],[110.9610256,22.5651716],[110.9609379,22.5649486],[110.9608529,22.5647231],[110.9606991,22.5642491],[110.9605641,22.5637677],[110.9604663,22.563348],[110.9604566,22.5632917]]},"properties":{"key":"way:911798434@detail:443_90","osmType":"way","osmId":911798434,"sourceRegion":"guangdong","featureType":"infrastructure","railClass":"national","mode":"rail","name":"益湛线","ref":"0072","operator":"中国铁路广州局集团有限公司","usage":"main","status":"operational","color":"#E54848","dataOrigin":"datum-2026-08-01","sourceKey":"way:911798434"}},{"type":"Feature","geometry":{"type":"LineString","coordinates":[[110.9649868,22.5724057],[110.962328,22.5676569]]},"properties":{"key":"way:911798435@detail:443_90","osmType":"way","osmId":911798435,"sourceRegion":"guangdong","featureType":"infrastructure","railClass":"national","mode":"rail","name":"益湛线","ref":"0072","operator":"中国铁路广州局集团有限公司","usage":"main","tunnel":"yes","status":"operational","color":"#E54848","dataOrigin":"datum-2026-08-01","sourceKey":"way:911798435"}},{"type":"Feature","geometry":{"type":"LineString","coordinates":[[110.965723,22.5737076],[110.9654843,22.5732688],[110.9652403,22.572835],[110.9649868,22.5724057]]},"properties":{"key":"way:911798436@detail:443_90","osmType":"way","osmId":911798436,"sourceRegion":"guangdong","featureType":"infrastructure","railClass":"national","mode":"rail","name":"益湛线","ref":"0072","operator":"中国铁路广州局集团有限公司","usage":"main","status":"operational","color":"#E54848","dataOrigin":"datum-2026-08-01","sourceKey":"way:911798436"}},{"type":"Feature","geometry":{"type":"LineString","coordinates":[[110.9675228,22.5782301],[110.965723,22.5737076]]},"properties":{"key":"way:911798437@detail:443_90","osmType":"way","osmId":911798437,"sourceRegion":"guangdong","featureType":"infrastructure","railClass":"national","mode":"rail","name":"益湛线","ref":"0072","operator":"中国铁路广州局集团有限公司","usage":"main","tunnel":"yes","status":"operational","color":"#E54848","dataOrigin":"datum-2026-08-01","sourceKey":"way:911798437"}},{"type":"Feature","geometry":{"type":"LineString","coordinates":[[110.9677893,22.5803856],[110.9678118,22.5799792],[110.9677983,22.5796468],[110.9677249,22.5792232],[110.9676259,22.5786368],[110.9675869,22.5784412],[110.9675228,22.5782301]]},"properties":{"key":"way:911798438@detail:443_90","osmType":"way","osmId":911798438,"sourceRegion":"guangdong","featureType":"infrastructure","railClass":"national","mode":"rail","name":"益湛线","ref":"0072","operator":"中国铁路广州局集团有限公司","usage":"main","status":"operational","color":"#E54848","dataOrigin":"datum-2026-08-01","sourceKey":"way:911798438"}},{"type":"Feature","geometry":{"type":"LineString","coordinates":[[110.9658325,22.588492],[110.9666719,22.5850476],[110.9677893,22.5803856]]},"properties":{"key":"way:911798439@detail:443_90","osmType":"way","osmId":911798439,"sourceRegion":"guangdong","featureType":"infrastructure","railClass":"national","mode":"rail","name":"益湛线","ref":"0072","operator":"中国铁路广州局集团有限公司","usage":"main","tunnel":"yes","status":"operational","color":"#E54848","dataOrigin":"datum-2026-08-01","sourceKey":"way:911798439"}},{"type":"Feature","geometry":{"type":"LineString","coordinates":[[110.9651073,22.5896926],[110.9654644,22.5891539],[110.9656672,22.5888205],[110.9658325,22.588492]]},"properties":{"key":"way:911798440@detail:443_90","osmType":"way","osmId":911798440,"sourceRegion":"guangdong","featureType":"infrastructure","railClass":"national","mode":"rail","name":"益湛线","ref":"0072","operator":"中国铁路广州局集团有限公司","usage":"main","bridge":"yes","status":"operational","color":"#E54848","dataOrigin":"datum-2026-08-01","sourceKey":"way:911798440"}},{"type":"Feature","geometry":{"type":"LineString","coordinates":[[110.9636306,22.5922613],[110.9637317,22.5920578],[110.9641057,22.5913456],[110.9642511,22.5910966],[110.9647234,22.5902262],[110.9648153,22.5900817],[110.9649127,22.589952],[110.9651073,22.5896926]]},"properties":{"key":"way:911798441@detail:443_90","osmType":"way","osmId":911798441,"sourceRegion":"guangdong","featureType":"infrastructure","railClass":"national","mode":"rail","name":"益湛线","ref":"0072","operator":"中国铁路广州局集团有限公司","usage":"main","status":"operational","color":"#E54848","dataOrigin":"datum-2026-08-01","sourceKey":"way:911798441"}},{"type":"Feature","geometry":{"type":"LineString","coordinates":[[110.9635728,22.5923775],[110.9636306,22.5922613]]},"properties":{"key":"way:911798442@detail:443_90","osmType":"way","osmId":911798442,"sourceRegion":"guangdong","featureType":"infrastructure","railClass":"national","mode":"rail","name":"益湛线","ref":"0072","operator":"中国铁路广州局集团有限公司","usage":"main","bridge":"yes","status":"operational","color":"#E54848","dataOrigin":"datum-2026-08-01","sourceKey":"way:911798442"}},{"type":"Feature","geometry":{"type":"LineString","coordinates":[[110.9628309,22.5949373],[110.9628676,22.5947136],[110.9629643,22.5942936],[110.9630697,22.5939236],[110.9631508,22.5935974],[110.96337,22.5928848],[110.9635728,22.5923775]]},"properties":{"key":"way:911798443@detail:443_90","osmType":"way","osmId":911798443,"sourceRegion":"guangdong","featureType":"infrastructure","railClass":"national","mode":"rail","name":"益湛线","ref":"0072","operator":"中国铁路广州局集团有限公司","usage":"main","status":"operational","color":"#E54848","dataOrigin":"datum-2026-08-01","sourceKey":"way:911798443"}},{"type":"Feature","geometry":{"type":"LineString","coordinates":[[110.9627526,22.596782],[110.9627555,22.5966583],[110.9627586,22.5965219],[110.9627766,22.5957438],[110.962783,22.595623],[110.9628309,22.5949373]]},"properties":{"key":"way:911798444@detail:443_90","osmType":"way","osmId":911798444,"sourceRegion":"guangdong","featureType":"infrastructure","railClass":"national","mode":"rail","name":"益湛线","ref":"0072","operator":"中国铁路广州局集团有限公司","usage":"main","bridge":"yes","status":"operational","color":"#E54848","dataOrigin":"datum-2026-08-01","sourceKey":"way:911798444"}},{"type":"Feature","geometry":{"type":"LineString","coordinates":[[110.9630488,22.5989952],[110.962928,22.5983472],[110.9628213,22.5976991],[110.9627526,22.596782]]},"properties":{"key":"way:911798445@detail:443_90","osmType":"way","osmId":911798445,"sourceRegion":"guangdong","featureType":"infrastructure","railClass":"national","mode":"rail","name":"益湛线","ref":"0072","operator":"中国铁路广州局集团有限公司","usage":"main","status":"operational","color":"#E54848","dataOrigin":"datum-2026-08-01","sourceKey":"way:911798445"}},{"type":"Feature","geometry":{"type":"LineString","coordinates":[[110.9644549,22.6030522],[110.9630488,22.5989952]]},"properties":{"key":"way:911798446@detail:443_90","osmType":"way","osmId":911798446,"sourceRegion":"guangdong","featureType":"infrastructure","railClass":"national","mode":"rail","name":"益湛线","ref":"0072","operator":"中国铁路广州局集团有限公司","usage":"main","tunnel":"yes","status":"operational","color":"#E54848","dataOrigin":"datum-2026-08-01","sourceKey":"way:911798446"}},{"type":"Feature","geometry":{"type":"LineString","coordinates":[[110.9649492,22.6043764],[110.9644549,22.6030522]]},"properties":{"key":"way:911798447@detail:443_90","osmType":"way","osmId":911798447,"sourceRegion":"guangdong","featureType":"infrastructure","railClass":"national","mode":"rail","name":"益湛线","ref":"0072","operator":"中国铁路广州局集团有限公司","usage":"main","status":"operational","color":"#E54848","dataOrigin":"datum-2026-08-01","sourceKey":"way:911798447"}},{"type":"Feature","geometry":{"type":"LineString","coordinates":[[110.9667644,22.608646],[110.9661132,22.6075184],[110.9649492,22.6043764]]},"properties":{"key":"way:911798448@detail:443_90","osmType":"way","osmId":911798448,"sourceRegion":"guangdong","featureType":"infrastructure","railClass":"national","mode":"rail","name":"益湛线","ref":"0072","operator":"中国铁路广州局集团有限公司","usage":"main","tunnel":"yes","status":"operational","color":"#E54848","dataOrigin":"datum-2026-08-01","sourceKey":"way:911798448"}},{"type":"Feature","geometry":{"type":"LineString","coordinates":[[110.9696882,22.6124837],[110.9691337,22.6117788],[110.9682618,22.6106892],[110.9681699,22.6105692]]},"properties":{"key":"way:911798449@detail:443_90","osmType":"way","osmId":911798449,"sourceRegion":"guangdong","featureType":"infrastructure","railClass":"national","mode":"rail","name":"益湛线","ref":"0072","operator":"中国铁路广州局集团有限公司","usage":"main","bridge":"yes","status":"operational","color":"#E54848","dataOrigin":"datum-2026-08-01","sourceKey":"way:911798449"}},{"type":"Feature","geometry":{"type":"LineString","coordinates":[[110.9681699,22.6105692],[110.9676519,22.609893],[110.9667644,22.608646]]},"properties":{"key":"way:911798450@detail:443_90","osmType":"way","osmId":911798450,"sourceRegion":"guangdong","featureType":"infrastructure","railClass":"national","mode":"rail","name":"益湛线","ref":"0072","operator":"中国铁路广州局集团有限公司","usage":"main","status":"operational","color":"#E54848","dataOrigin":"datum-2026-08-01","sourceKey":"way:911798450"}},{"type":"Feature","geometry":{"type":"LineString","coordinates":[[110.9720134,22.6156279],[110.9719013,22.6154526],[110.9717636,22.6152287],[110.9715896,22.6149798],[110.9713874,22.6146804],[110.9711665,22.6143896],[110.9708656,22.6140104],[110.9704301,22.6134637],[110.969715,22.6125178],[110.9696882,22.6124837]]},"properties":{"key":"way:911798451@detail:443_90","osmType":"way","osmId":911798451,"sourceRegion":"guangdong","featureType":"infrastructure","railClass":"national","mode":"rail","name":"益湛线","ref":"0072","operator":"中国铁路广州局集团有限公司","usage":"main","status":"operational","color":"#E54848","dataOrigin":"datum-2026-08-01","sourceKey":"way:911798451"}},{"type":"Feature","geometry":{"type":"LineString","coordinates":[[110.9730941,22.6181943],[110.9726843,22.6169606],[110.9724112,22.616384],[110.9721558,22.6158638],[110.9720134,22.6156279]]},"properties":{"key":"way:911798452@detail:443_90","osmType":"way","osmId":911798452,"sourceRegion":"guangdong","featureType":"infrastructure","railClass":"national","mode":"rail","name":"益湛线","ref":"0072","operator":"中国铁路广州局集团有限公司","usage":"main","bridge":"yes","status":"operational","color":"#E54848","dataOrigin":"datum-2026-08-01","sourceKey":"way:911798452"}},{"type":"Feature","geometry":{"type":"LineString","coordinates":[[110.9785221,22.6352285],[110.9773948,22.6317703]]},"properties":{"key":"way:911798454@detail:443_90","osmType":"way","osmId":911798454,"sourceRegion":"guangdong","featureType":"infrastructure","railClass":"national","mode":"rail","name":"益湛线","ref":"0072","operator":"中国铁路广州局集团有限公司","usage":"main","tunnel":"yes","status":"operational","color":"#E54848","dataOrigin":"datum-2026-08-01","sourceKey":"way:911798454"}},{"type":"Feature","geometry":{"type":"LineString","coordinates":[[110.9794864,22.6385937],[110.9794357,22.6383008],[110.9793727,22.6380192],[110.9792159,22.6374503],[110.9789754,22.6366483],[110.9788396,22.6361754],[110.9786723,22.6356861],[110.9785221,22.6352285]]},"properties":{"key":"way:911798455@detail:443_90","osmType":"way","osmId":911798455,"sourceRegion":"guangdong","featureType":"infrastructure","railClass":"national","mode":"rail","name":"益湛线","ref":"0072","operator":"中国铁路广州局集团有限公司","usage":"main","status":"operational","color":"#E54848","dataOrigin":"datum-2026-08-01","sourceKey":"way:911798455"}}]}