{"type":"FeatureCollection","features":[{"type":"Feature","geometry":{"type":"Point","coordinates":[110.9609272,22.3327248]},"properties":{"key":"node:5041838931","osmType":"node","osmId":5041838931,"sourceRegion":"guangdong","featureType":"station","railClass":"minor","mode":"station","name":"信宜","nameEn":"Xinyi","status":"operational","color":"#52636F","dataOrigin":"datum-2026-08-01","sourceKey":"node:5041838931","stationGroup":"信宜","hasOperationalRail":true,"hasConstructionRail":false}},{"type":"Feature","geometry":{"type":"Point","coordinates":[110.9675969,22.4742449]},"properties":{"key":"node:12732987422","osmType":"node","osmId":12732987422,"sourceRegion":"guangdong","featureType":"station","railClass":"minor","mode":"station","name":"池洞","status":"operational","color":"#52636F","dataOrigin":"datum-2026-08-01","sourceKey":"node:12732987422","stationGroup":"池洞","hasOperationalRail":true,"hasConstructionRail":false}},{"type":"Feature","geometry":{"type":"LineString","coordinates":[[110.943466,22.29991],[110.9432352,22.2995295]]},"properties":{"key":"way:513136810@detail:443_89","osmType":"way","osmId":513136810,"sourceRegion":"guangdong","featureType":"infrastructure","railClass":"national","mode":"rail","name":"益湛线","ref":"0072","operator":"中国铁路广州局集团有限公司","usage":"main","status":"operational","color":"#E54848","dataOrigin":"datum-2026-08-01","sourceKey":"way:513136810"}},{"type":"Feature","geometry":{"type":"LineString","coordinates":[[110.9432352,22.2995295],[110.9429133,22.2988545],[110.9426504,22.2982391],[110.9424573,22.297708]]},"properties":{"key":"way:513136811@detail:443_89","osmType":"way","osmId":513136811,"sourceRegion":"guangdong","featureType":"infrastructure","railClass":"national","mode":"rail","name":"益湛线","ref":"0072","operator":"中国铁路广州局集团有限公司","usage":"main","bridge":"yes","status":"operational","color":"#E54848","dataOrigin":"datum-2026-08-01","sourceKey":"way:513136811"}},{"type":"Feature","geometry":{"type":"LineString","coordinates":[[110.9424573,22.297708],[110.9421194,22.2967203]]},"properties":{"key":"way:513136812@detail:443_89","osmType":"way","osmId":513136812,"sourceRegion":"guangdong","featureType":"infrastructure","railClass":"national","mode":"rail","name":"益湛线","ref":"0072","operator":"中国铁路广州局集团有限公司","usage":"main","status":"operational","color":"#E54848","dataOrigin":"datum-2026-08-01","sourceKey":"way:513136812"}},{"type":"Feature","geometry":{"type":"LineString","coordinates":[[110.9421194,22.2967203],[110.9419531,22.2959957],[110.9418029,22.2951271],[110.9415883,22.293504],[110.9414756,22.2922185],[110.9413201,22.2909925],[110.941143,22.2894191]]},"properties":{"key":"way:513136813@detail:443_89","osmType":"way","osmId":513136813,"sourceRegion":"guangdong","featureType":"infrastructure","railClass":"national","mode":"rail","name":"益湛线","ref":"0072","operator":"中国铁路广州局集团有限公司","usage":"main","bridge":"yes","status":"operational","color":"#E54848","dataOrigin":"datum-2026-08-01","sourceKey":"way:513136813"}},{"type":"Feature","geometry":{"type":"LineString","coordinates":[[110.941143,22.2894191],[110.9409767,22.2879498]]},"properties":{"key":"way:513136814@detail:443_89","osmType":"way","osmId":513136814,"sourceRegion":"guangdong","featureType":"infrastructure","railClass":"national","mode":"rail","name":"益湛线","ref":"0072","operator":"中国铁路广州局集团有限公司","usage":"main","status":"operational","color":"#E54848","dataOrigin":"datum-2026-08-01","sourceKey":"way:513136814"}},{"type":"Feature","geometry":{"type":"LineString","coordinates":[[110.9409767,22.2879498],[110.9408319,22.2868677]]},"properties":{"key":"way:513136815@detail:443_89","osmType":"way","osmId":513136815,"sourceRegion":"guangdong","featureType":"infrastructure","railClass":"national","mode":"rail","name":"益湛线","ref":"0072","operator":"中国铁路广州局集团有限公司","usage":"main","bridge":"yes","status":"operational","color":"#E54848","dataOrigin":"datum-2026-08-01","sourceKey":"way:513136815"}},{"type":"Feature","geometry":{"type":"LineString","coordinates":[[110.9408319,22.2868677],[110.940628,22.2850212],[110.9405529,22.2844355]]},"properties":{"key":"way:513136816@detail:443_89","osmType":"way","osmId":513136816,"sourceRegion":"guangdong","featureType":"infrastructure","railClass":"national","mode":"rail","name":"益湛线","ref":"0072","operator":"中国铁路广州局集团有限公司","usage":"main","status":"operational","color":"#E54848","dataOrigin":"datum-2026-08-01","sourceKey":"way:513136816"}},{"type":"Feature","geometry":{"type":"LineString","coordinates":[[110.9405529,22.2844355],[110.9403062,22.2821671]]},"properties":{"key":"way:513136817@detail:443_89","osmType":"way","osmId":513136817,"sourceRegion":"guangdong","featureType":"infrastructure","railClass":"national","mode":"rail","name":"益湛线","ref":"0072","operator":"中国铁路广州局集团有限公司","usage":"main","bridge":"yes","status":"operational","color":"#E54848","dataOrigin":"datum-2026-08-01","sourceKey":"way:513136817"}},{"type":"Feature","geometry":{"type":"LineString","coordinates":[[110.9403062,22.2821671],[110.9402043,22.2812488]]},"properties":{"key":"way:513136818@detail:443_89","osmType":"way","osmId":513136818,"sourceRegion":"guangdong","featureType":"infrastructure","railClass":"national","mode":"rail","name":"益湛线","ref":"0072","operator":"中国铁路广州局集团有限公司","usage":"main","status":"operational","color":"#E54848","dataOrigin":"datum-2026-08-01","sourceKey":"way:513136818"}},{"type":"Feature","geometry":{"type":"LineString","coordinates":[[110.9402043,22.2812488],[110.9400809,22.2799035]]},"properties":{"key":"way:513136819@detail:443_89","osmType":"way","osmId":513136819,"sourceRegion":"guangdong","featureType":"infrastructure","railClass":"national","mode":"rail","name":"益湛线","ref":"0072","operator":"中国铁路广州局集团有限公司","usage":"main","bridge":"yes","status":"operational","color":"#E54848","dataOrigin":"datum-2026-08-01","sourceKey":"way:513136819"}},{"type":"Feature","geometry":{"type":"LineString","coordinates":[[110.9400809,22.2799035],[110.9398663,22.27833],[110.9396893,22.2768557]]},"properties":{"key":"way:513136820@detail:443_89","osmType":"way","osmId":513136820,"sourceRegion":"guangdong","featureType":"infrastructure","railClass":"national","mode":"rail","name":"益湛线","ref":"0072","operator":"中国铁路广州局集团有限公司","usage":"main","status":"operational","color":"#E54848","dataOrigin":"datum-2026-08-01","sourceKey":"way:513136820"}},{"type":"Feature","geometry":{"type":"LineString","coordinates":[[110.9396893,22.2768557],[110.9394801,22.275421]]},"properties":{"key":"way:513136821@detail:443_89","osmType":"way","osmId":513136821,"sourceRegion":"guangdong","featureType":"infrastructure","railClass":"national","mode":"rail","name":"益湛线","ref":"0072","operator":"中国铁路广州局集团有限公司","usage":"main","bridge":"yes","status":"operational","color":"#E54848","dataOrigin":"datum-2026-08-01","sourceKey":"way:513136821"}},{"type":"Feature","geometry":{"type":"LineString","coordinates":[[110.9394801,22.275421],[110.9391636,22.2741701],[110.9386057,22.2726064]]},"properties":{"key":"way:513136822@detail:443_89","osmType":"way","osmId":513136822,"sourceRegion":"guangdong","featureType":"infrastructure","railClass":"national","mode":"rail","name":"益湛线","ref":"0072","operator":"中国铁路广州局集团有限公司","usage":"main","status":"operational","color":"#E54848","dataOrigin":"datum-2026-08-01","sourceKey":"way:513136822"}},{"type":"Feature","geometry":{"type":"LineString","coordinates":[[110.9386057,22.2726064],[110.938198,22.2713753]]},"properties":{"key":"way:513136823@detail:443_89","osmType":"way","osmId":513136823,"sourceRegion":"guangdong","featureType":"infrastructure","railClass":"national","mode":"rail","name":"益湛线","ref":"0072","operator":"中国铁路广州局集团有限公司","usage":"main","bridge":"yes","status":"operational","color":"#E54848","dataOrigin":"datum-2026-08-01","sourceKey":"way:513136823"}},{"type":"Feature","geometry":{"type":"LineString","coordinates":[[110.938198,22.2713753],[110.9379458,22.2705859],[110.9375864,22.2696229],[110.9369695,22.268208]]},"properties":{"key":"way:513136824@detail:443_89","osmType":"way","osmId":513136824,"sourceRegion":"guangdong","featureType":"infrastructure","railClass":"national","mode":"rail","name":"益湛线","ref":"0072","operator":"中国铁路广州局集团有限公司","usage":"main","status":"operational","color":"#E54848","dataOrigin":"datum-2026-08-01","sourceKey":"way:513136824"}},{"type":"Feature","geometry":{"type":"LineString","coordinates":[[110.9369695,22.268208],[110.936417,22.26724],[110.9357679,22.2662223]]},"properties":{"key":"way:513136825@detail:443_89","osmType":"way","osmId":513136825,"sourceRegion":"guangdong","featureType":"infrastructure","railClass":"national","mode":"rail","name":"益湛线","ref":"0072","operator":"中国铁路广州局集团有限公司","usage":"main","tunnel":"yes","status":"operational","color":"#E54848","dataOrigin":"datum-2026-08-01","sourceKey":"way:513136825"}},{"type":"Feature","geometry":{"type":"LineString","coordinates":[[110.9357679,22.2662223],[110.9349847,22.2652244],[110.9339601,22.2639287],[110.9329623,22.2626032]]},"properties":{"key":"way:513136826@detail:443_89","osmType":"way","osmId":513136826,"sourceRegion":"guangdong","featureType":"infrastructure","railClass":"national","mode":"rail","name":"益湛线","ref":"0072","operator":"中国铁路广州局集团有限公司","usage":"main","status":"operational","color":"#E54848","dataOrigin":"datum-2026-08-01","sourceKey":"way:513136826"}},{"type":"Feature","geometry":{"type":"LineString","coordinates":[[110.9329623,22.2626032],[110.9322524,22.2616774]]},"properties":{"key":"way:513136827@detail:443_89","osmType":"way","osmId":513136827,"sourceRegion":"guangdong","featureType":"infrastructure","railClass":"national","mode":"rail","name":"益湛线","ref":"0072","operator":"中国铁路广州局集团有限公司","usage":"main","bridge":"yes","status":"operational","color":"#E54848","dataOrigin":"datum-2026-08-01","sourceKey":"way:513136827"}},{"type":"Feature","geometry":{"type":"LineString","coordinates":[[110.9322524,22.2616774],[110.931192,22.2602947],[110.9299046,22.2586712],[110.9293896,22.2578719],[110.9288156,22.2568889],[110.9276403,22.2547519]]},"properties":{"key":"way:513136828@detail:443_89","osmType":"way","osmId":513136828,"sourceRegion":"guangdong","featureType":"infrastructure","railClass":"national","mode":"rail","name":"益湛线","ref":"0072","operator":"中国铁路广州局集团有限公司","usage":"main","status":"operational","color":"#E54848","dataOrigin":"datum-2026-08-01","sourceKey":"way:513136828"}},{"type":"Feature","geometry":{"type":"LineString","coordinates":[[110.9276403,22.2547519],[110.9264982,22.2524503],[110.925318,22.2500672],[110.92528132325582,22.25]]},"properties":{"key":"way:513136829@detail:443_89","osmType":"way","osmId":513136829,"sourceRegion":"guangdong","featureType":"infrastructure","railClass":"national","mode":"rail","name":"益湛线","ref":"0072","operator":"中国铁路广州局集团有限公司","usage":"main","bridge":"yes","status":"operational","color":"#E54848","dataOrigin":"datum-2026-08-01","sourceKey":"way:513136829"}},{"type":"Feature","geometry":{"type":"LineString","coordinates":[[110.9771973,22.3515394],[110.9755075,22.3503834]]},"properties":{"key":"way:513136830@detail:443_89","osmType":"way","osmId":513136830,"sourceRegion":"guangdong","featureType":"infrastructure","railClass":"national","mode":"rail","name":"益湛线","ref":"0072","operator":"中国铁路广州局集团有限公司","usage":"main","bridge":"yes","status":"operational","color":"#E54848","dataOrigin":"datum-2026-08-01","sourceKey":"way:513136830"}},{"type":"Feature","geometry":{"type":"LineString","coordinates":[[110.9755075,22.3503834],[110.9740215,22.3493961]]},"properties":{"key":"way:513136831@detail:443_89","osmType":"way","osmId":513136831,"sourceRegion":"guangdong","featureType":"infrastructure","railClass":"national","mode":"rail","name":"益湛线","ref":"0072","operator":"中国铁路广州局集团有限公司","usage":"main","status":"operational","color":"#E54848","dataOrigin":"datum-2026-08-01","sourceKey":"way:513136831"}},{"type":"Feature","geometry":{"type":"LineString","coordinates":[[110.9740215,22.3493961],[110.9734261,22.3489595],[110.972836,22.348503],[110.9722888,22.3479721],[110.9716462,22.3472894]]},"properties":{"key":"way:513136832@detail:443_89","osmType":"way","osmId":513136832,"sourceRegion":"guangdong","featureType":"infrastructure","railClass":"national","mode":"rail","name":"岑茂铁路","operator":"中国铁路广州局集团有限公司","usage":"main","bridge":"yes","status":"operational","color":"#E54848","dataOrigin":"datum-2026-08-01","sourceKey":"way:513136832"}},{"type":"Feature","geometry":{"type":"LineString","coordinates":[[110.9716462,22.3472894],[110.9710228,22.346444],[110.9704703,22.3455658]]},"properties":{"key":"way:513136833@detail:443_89","osmType":"way","osmId":513136833,"sourceRegion":"guangdong","featureType":"infrastructure","railClass":"national","mode":"rail","name":"岑茂铁路","operator":"中国铁路广州局集团有限公司","usage":"main","status":"operational","color":"#E54848","dataOrigin":"datum-2026-08-01","sourceKey":"way:513136833"}},{"type":"Feature","geometry":{"type":"LineString","coordinates":[[110.9690541,22.3427873],[110.9678203,22.3403908],[110.9670585,22.3391354],[110.966388,22.3383118]]},"properties":{"key":"way:513136834@detail:443_89","osmType":"way","osmId":513136834,"sourceRegion":"guangdong","featureType":"infrastructure","railClass":"national","mode":"rail","name":"益湛线","ref":"0072","operator":"中国铁路广州局集团有限公司","usage":"main","status":"operational","color":"#E54848","dataOrigin":"datum-2026-08-01","sourceKey":"way:513136834"}},{"type":"Feature","geometry":{"type":"LineString","coordinates":[[110.966388,22.3383118],[110.9655511,22.337369],[110.9648212,22.3365856],[110.9646821,22.3364362]]},"properties":{"key":"way:513136835@detail:443_89","osmType":"way","osmId":513136835,"sourceRegion":"guangdong","featureType":"infrastructure","railClass":"national","mode":"rail","name":"益湛线","ref":"0072","operator":"中国铁路广州局集团有限公司","usage":"main","bridge":"yes","status":"operational","color":"#E54848","dataOrigin":"datum-2026-08-01","sourceKey":"way:513136835"}},{"type":"Feature","geometry":{"type":"LineString","coordinates":[[110.9646821,22.3364362],[110.9627005,22.3342405],[110.957236,22.3282431]]},"properties":{"key":"way:513136836@detail:443_89","osmType":"way","osmId":513136836,"sourceRegion":"guangdong","featureType":"infrastructure","railClass":"national","mode":"rail","name":"益湛线","ref":"0072","operator":"中国铁路广州局集团有限公司","usage":"main","status":"operational","color":"#E54848","dataOrigin":"datum-2026-08-01","sourceKey":"way:513136836"}},{"type":"Feature","geometry":{"type":"LineString","coordinates":[[110.957236,22.3282431],[110.9557611,22.3266857],[110.9548813,22.3256783],[110.9546292,22.3253707],[110.9540766,22.324666]]},"properties":{"key":"way:513136837@detail:443_89","osmType":"way","osmId":513136837,"sourceRegion":"guangdong","featureType":"infrastructure","railClass":"national","mode":"rail","name":"益湛线","ref":"0072","operator":"中国铁路广州局集团有限公司","usage":"main","bridge":"yes","status":"operational","color":"#E54848","dataOrigin":"datum-2026-08-01","sourceKey":"way:513136837"}},{"type":"Feature","geometry":{"type":"LineString","coordinates":[[110.9540766,22.324666],[110.9535724,22.3238968],[110.9531486,22.3232765]]},"properties":{"key":"way:513136838@detail:443_89","osmType":"way","osmId":513136838,"sourceRegion":"guangdong","featureType":"infrastructure","railClass":"national","mode":"rail","name":"益湛线","ref":"0072","operator":"中国铁路广州局集团有限公司","usage":"main","status":"operational","color":"#E54848","dataOrigin":"datum-2026-08-01","sourceKey":"way:513136838"}},{"type":"Feature","geometry":{"type":"LineString","coordinates":[[110.9531486,22.3232765],[110.9527302,22.3225322],[110.9523439,22.3216737]]},"properties":{"key":"way:513136839@detail:443_89","osmType":"way","osmId":513136839,"sourceRegion":"guangdong","featureType":"infrastructure","railClass":"national","mode":"rail","name":"益湛线","ref":"0072","operator":"中国铁路广州局集团有限公司","usage":"main","bridge":"yes","status":"operational","color":"#E54848","dataOrigin":"datum-2026-08-01","sourceKey":"way:513136839"}},{"type":"Feature","geometry":{"type":"LineString","coordinates":[[110.9523439,22.3216737],[110.9521186,22.3210931],[110.9518343,22.3202594],[110.9515178,22.3190336]]},"properties":{"key":"way:513136840@detail:443_89","osmType":"way","osmId":513136840,"sourceRegion":"guangdong","featureType":"infrastructure","railClass":"national","mode":"rail","name":"益湛线","ref":"0072","operator":"中国铁路广州局集团有限公司","usage":"main","status":"operational","color":"#E54848","dataOrigin":"datum-2026-08-01","sourceKey":"way:513136840"}},{"type":"Feature","geometry":{"type":"LineString","coordinates":[[110.9515178,22.3190336],[110.9513569,22.3182198],[110.950917,22.3157186],[110.9504127,22.313138]]},"properties":{"key":"way:513136841@detail:443_89","osmType":"way","osmId":513136841,"sourceRegion":"guangdong","featureType":"infrastructure","railClass":"national","mode":"rail","name":"益湛线","ref":"0072","operator":"中国铁路广州局集团有限公司","usage":"main","bridge":"yes","status":"operational","color":"#E54848","dataOrigin":"datum-2026-08-01","sourceKey":"way:513136841"}},{"type":"Feature","geometry":{"type":"LineString","coordinates":[[110.9504127,22.313138],[110.949989,22.3110338]]},"properties":{"key":"way:513136842@detail:443_89","osmType":"way","osmId":513136842,"sourceRegion":"guangdong","featureType":"infrastructure","railClass":"national","mode":"rail","name":"益湛线","ref":"0072","operator":"中国铁路广州局集团有限公司","usage":"main","status":"operational","color":"#E54848","dataOrigin":"datum-2026-08-01","sourceKey":"way:513136842"}},{"type":"Feature","geometry":{"type":"LineString","coordinates":[[110.949989,22.3110338],[110.9497529,22.3100809],[110.9494364,22.3090685]]},"properties":{"key":"way:513136843@detail:443_89","osmType":"way","osmId":513136843,"sourceRegion":"guangdong","featureType":"infrastructure","railClass":"national","mode":"rail","name":"益湛线","ref":"0072","operator":"中国铁路广州局集团有限公司","usage":"main","bridge":"yes","status":"operational","color":"#E54848","dataOrigin":"datum-2026-08-01","sourceKey":"way:513136843"}},{"type":"Feature","geometry":{"type":"LineString","coordinates":[[110.9494364,22.3090685],[110.9490877,22.3081504]]},"properties":{"key":"way:513136844@detail:443_89","osmType":"way","osmId":513136844,"sourceRegion":"guangdong","featureType":"infrastructure","railClass":"national","mode":"rail","name":"益湛线","ref":"0072","operator":"中国铁路广州局集团有限公司","usage":"main","status":"operational","color":"#E54848","dataOrigin":"datum-2026-08-01","sourceKey":"way:513136844"}},{"type":"Feature","geometry":{"type":"LineString","coordinates":[[110.9490877,22.3081504],[110.9487551,22.307396],[110.9480256,22.3061801]]},"properties":{"key":"way:513136845@detail:443_89","osmType":"way","osmId":513136845,"sourceRegion":"guangdong","featureType":"infrastructure","railClass":"national","mode":"rail","name":"益湛线","ref":"0072","operator":"中国铁路广州局集团有限公司","usage":"main","bridge":"yes","status":"operational","color":"#E54848","dataOrigin":"datum-2026-08-01","sourceKey":"way:513136845"}},{"type":"Feature","geometry":{"type":"LineString","coordinates":[[110.9480256,22.3061801],[110.9474087,22.3053314],[110.9467061,22.3043812]]},"properties":{"key":"way:513136846@detail:443_89","osmType":"way","osmId":513136846,"sourceRegion":"guangdong","featureType":"infrastructure","railClass":"national","mode":"rail","name":"益湛线","ref":"0072","operator":"中国铁路广州局集团有限公司","usage":"main","status":"operational","color":"#E54848","dataOrigin":"datum-2026-08-01","sourceKey":"way:513136846"}},{"type":"Feature","geometry":{"type":"LineString","coordinates":[[110.9467061,22.3043812],[110.9462174,22.303778],[110.9451771,22.302433],[110.9446782,22.3017481],[110.9442061,22.3011277],[110.9437984,22.3005222],[110.943466,22.29991]]},"properties":{"key":"way:513136847@detail:443_89","osmType":"way","osmId":513136847,"sourceRegion":"guangdong","featureType":"infrastructure","railClass":"national","mode":"rail","name":"益湛线","ref":"0072","operator":"中国铁路广州局集团有限公司","usage":"main","bridge":"yes","status":"operational","color":"#E54848","dataOrigin":"datum-2026-08-01","sourceKey":"way:513136847"}},{"type":"Feature","geometry":{"type":"LineString","coordinates":[[110.9798022,22.3547223],[110.979284,22.3538514],[110.9788334,22.3532312],[110.978238,22.3525466],[110.9778464,22.3520951],[110.9771973,22.3515394]]},"properties":{"key":"way:513136848@detail:443_89","osmType":"way","osmId":513136848,"sourceRegion":"guangdong","featureType":"infrastructure","railClass":"national","mode":"rail","name":"益湛线","ref":"0072","operator":"中国铁路广州局集团有限公司","usage":"main","status":"operational","color":"#E54848","dataOrigin":"datum-2026-08-01","sourceKey":"way:513136848"}},{"type":"Feature","geometry":{"type":"LineString","coordinates":[[110.9773407,22.4225172],[110.9777284,22.4222856]]},"properties":{"key":"way:513136849@detail:443_89","osmType":"way","osmId":513136849,"sourceRegion":"guangdong","featureType":"infrastructure","railClass":"national","mode":"rail","name":"益湛线","ref":"0072","operator":"中国铁路广州局集团有限公司","usage":"main","status":"operational","color":"#E54848","dataOrigin":"datum-2026-08-01","sourceKey":"way:513136849"}},{"type":"Feature","geometry":{"type":"LineString","coordinates":[[110.9825177,22.4163428],[110.9827065,22.4157993]]},"properties":{"key":"way:513136850@detail:443_89","osmType":"way","osmId":513136850,"sourceRegion":"guangdong","featureType":"infrastructure","railClass":"national","mode":"rail","name":"益湛线","ref":"0072","operator":"中国铁路广州局集团有限公司","usage":"main","status":"operational","color":"#E54848","dataOrigin":"datum-2026-08-01","sourceKey":"way:513136850"}},{"type":"Feature","geometry":{"type":"LineString","coordinates":[[110.9827065,22.4157993],[110.9829211,22.4150752],[110.9829962,22.4145],[110.9830499,22.4137164]]},"properties":{"key":"way:513136851@detail:443_89","osmType":"way","osmId":513136851,"sourceRegion":"guangdong","featureType":"infrastructure","railClass":"national","mode":"rail","name":"益湛线","ref":"0072","operator":"中国铁路广州局集团有限公司","usage":"main","tunnel":"yes","status":"operational","color":"#E54848","dataOrigin":"datum-2026-08-01","sourceKey":"way:513136851"}},{"type":"Feature","geometry":{"type":"LineString","coordinates":[[110.9830499,22.4137164],[110.9830552,22.4133395]]},"properties":{"key":"way:513136852@detail:443_89","osmType":"way","osmId":513136852,"sourceRegion":"guangdong","featureType":"infrastructure","railClass":"national","mode":"rail","name":"益湛线","ref":"0072","operator":"中国铁路广州局集团有限公司","usage":"main","status":"operational","color":"#E54848","dataOrigin":"datum-2026-08-01","sourceKey":"way:513136852"}},{"type":"Feature","geometry":{"type":"LineString","coordinates":[[110.9830552,22.4133395],[110.9830499,22.4123278],[110.9828326,22.410907]]},"properties":{"key":"way:513136853@detail:443_89","osmType":"way","osmId":513136853,"sourceRegion":"guangdong","featureType":"infrastructure","railClass":"national","mode":"rail","name":"益湛线","ref":"0072","operator":"中国铁路广州局集团有限公司","usage":"main","tunnel":"yes","status":"operational","color":"#E54848","dataOrigin":"datum-2026-08-01","sourceKey":"way:513136853"}},{"type":"Feature","geometry":{"type":"LineString","coordinates":[[110.9828326,22.410907],[110.9825885,22.4099226],[110.9824938,22.409537]]},"properties":{"key":"way:513136854@detail:443_89","osmType":"way","osmId":513136854,"sourceRegion":"guangdong","featureType":"infrastructure","railClass":"national","mode":"rail","name":"益湛线","ref":"0072","operator":"中国铁路广州局集团有限公司","usage":"main","status":"operational","color":"#E54848","dataOrigin":"datum-2026-08-01","sourceKey":"way:513136854"}},{"type":"Feature","geometry":{"type":"LineString","coordinates":[[110.9824938,22.409537],[110.98239,22.4091142],[110.9822398,22.4085191],[110.9820467,22.4077951]]},"properties":{"key":"way:513136855@detail:443_89","osmType":"way","osmId":513136855,"sourceRegion":"guangdong","featureType":"infrastructure","railClass":"national","mode":"rail","name":"益湛线","ref":"0072","operator":"中国铁路广州局集团有限公司","usage":"main","bridge":"yes","status":"operational","color":"#E54848","dataOrigin":"datum-2026-08-01","sourceKey":"way:513136855"}},{"type":"Feature","geometry":{"type":"LineString","coordinates":[[110.9820467,22.4077951],[110.9819126,22.4072842],[110.981816,22.4068379]]},"properties":{"key":"way:513136856@detail:443_89","osmType":"way","osmId":513136856,"sourceRegion":"guangdong","featureType":"infrastructure","railClass":"national","mode":"rail","name":"益湛线","ref":"0072","operator":"中国铁路广州局集团有限公司","usage":"main","status":"operational","color":"#E54848","dataOrigin":"datum-2026-08-01","sourceKey":"way:513136856"}},{"type":"Feature","geometry":{"type":"LineString","coordinates":[[110.981816,22.4068379],[110.9817195,22.4062824],[110.9816744,22.4057817]]},"properties":{"key":"way:513136857@detail:443_89","osmType":"way","osmId":513136857,"sourceRegion":"guangdong","featureType":"infrastructure","railClass":"national","mode":"rail","name":"益湛线","ref":"0072","operator":"中国铁路广州局集团有限公司","usage":"main","bridge":"yes","status":"operational","color":"#E54848","dataOrigin":"datum-2026-08-01","sourceKey":"way:513136857"}},{"type":"Feature","geometry":{"type":"LineString","coordinates":[[110.9816744,22.4057817],[110.9816605,22.4056278],[110.9816229,22.4051269]]},"properties":{"key":"way:513136858@detail:443_89","osmType":"way","osmId":513136858,"sourceRegion":"guangdong","featureType":"infrastructure","railClass":"national","mode":"rail","name":"益湛线","ref":"0072","operator":"中国铁路广州局集团有限公司","usage":"main","status":"operational","color":"#E54848","dataOrigin":"datum-2026-08-01","sourceKey":"way:513136858"}},{"type":"Feature","geometry":{"type":"LineString","coordinates":[[110.9816229,22.4051269],[110.981639,22.4041499]]},"properties":{"key":"way:513136859@detail:443_89","osmType":"way","osmId":513136859,"sourceRegion":"guangdong","featureType":"infrastructure","railClass":"national","mode":"rail","name":"益湛线","ref":"0072","operator":"中国铁路广州局集团有限公司","usage":"main","bridge":"yes","status":"operational","color":"#E54848","dataOrigin":"datum-2026-08-01","sourceKey":"way:513136859"}},{"type":"Feature","geometry":{"type":"LineString","coordinates":[[110.981639,22.4041499],[110.9816551,22.4038771]]},"properties":{"key":"way:513136860@detail:443_89","osmType":"way","osmId":513136860,"sourceRegion":"guangdong","featureType":"infrastructure","railClass":"national","mode":"rail","name":"益湛线","ref":"0072","operator":"中国铁路广州局集团有限公司","usage":"main","status":"operational","color":"#E54848","dataOrigin":"datum-2026-08-01","sourceKey":"way:513136860"}},{"type":"Feature","geometry":{"type":"LineString","coordinates":[[110.9816551,22.4038771],[110.9817249,22.4030984]]},"properties":{"key":"way:513136861@detail:443_89","osmType":"way","osmId":513136861,"sourceRegion":"guangdong","featureType":"infrastructure","railClass":"national","mode":"rail","name":"益湛线","ref":"0072","operator":"中国铁路广州局集团有限公司","usage":"main","tunnel":"yes","status":"operational","color":"#E54848","dataOrigin":"datum-2026-08-01","sourceKey":"way:513136861"}},{"type":"Feature","geometry":{"type":"LineString","coordinates":[[110.9817249,22.4030984],[110.9817463,22.4028108]]},"properties":{"key":"way:513136862@detail:443_89","osmType":"way","osmId":513136862,"sourceRegion":"guangdong","featureType":"infrastructure","railClass":"national","mode":"rail","name":"益湛线","ref":"0072","operator":"中国铁路广州局集团有限公司","usage":"main","status":"operational","color":"#E54848","dataOrigin":"datum-2026-08-01","sourceKey":"way:513136862"}},{"type":"Feature","geometry":{"type":"LineString","coordinates":[[110.9817463,22.4028108],[110.9818911,22.4013725]]},"properties":{"key":"way:513136863@detail:443_89","osmType":"way","osmId":513136863,"sourceRegion":"guangdong","featureType":"infrastructure","railClass":"national","mode":"rail","name":"益湛线","ref":"0072","operator":"中国铁路广州局集团有限公司","usage":"main","bridge":"yes","status":"operational","color":"#E54848","dataOrigin":"datum-2026-08-01","sourceKey":"way:513136863"}},{"type":"Feature","geometry":{"type":"LineString","coordinates":[[110.9818911,22.4013725],[110.9819555,22.4006286]]},"properties":{"key":"way:513136864@detail:443_89","osmType":"way","osmId":513136864,"sourceRegion":"guangdong","featureType":"infrastructure","railClass":"national","mode":"rail","name":"益湛线","ref":"0072","operator":"中国铁路广州局集团有限公司","usage":"main","status":"operational","color":"#E54848","dataOrigin":"datum-2026-08-01","sourceKey":"way:513136864"}},{"type":"Feature","geometry":{"type":"LineString","coordinates":[[110.9819555,22.4006286],[110.9820996,22.3990526]]},"properties":{"key":"way:513136865@detail:443_89","osmType":"way","osmId":513136865,"sourceRegion":"guangdong","featureType":"infrastructure","railClass":"national","mode":"rail","name":"益湛线","ref":"0072","operator":"中国铁路广州局集团有限公司","usage":"main","bridge":"yes","status":"operational","color":"#E54848","dataOrigin":"datum-2026-08-01","sourceKey":"way:513136865"}},{"type":"Feature","geometry":{"type":"LineString","coordinates":[[110.9820996,22.3990526],[110.9821486,22.3985158]]},"properties":{"key":"way:513136866@detail:443_89","osmType":"way","osmId":513136866,"sourceRegion":"guangdong","featureType":"infrastructure","railClass":"national","mode":"rail","name":"益湛线","ref":"0072","operator":"中国铁路广州局集团有限公司","usage":"main","status":"operational","color":"#E54848","dataOrigin":"datum-2026-08-01","sourceKey":"way:513136866"}},{"type":"Feature","geometry":{"type":"LineString","coordinates":[[110.9821486,22.3985158],[110.9822881,22.3970774]]},"properties":{"key":"way:513136867@detail:443_89","osmType":"way","osmId":513136867,"sourceRegion":"guangdong","featureType":"infrastructure","railClass":"national","mode":"rail","name":"益湛线","ref":"0072","operator":"中国铁路广州局集团有限公司","usage":"main","bridge":"yes","status":"operational","color":"#E54848","dataOrigin":"datum-2026-08-01","sourceKey":"way:513136867"}},{"type":"Feature","geometry":{"type":"LineString","coordinates":[[110.9822881,22.3970774],[110.9823042,22.3968592]]},"properties":{"key":"way:513136868@detail:443_89","osmType":"way","osmId":513136868,"sourceRegion":"guangdong","featureType":"infrastructure","railClass":"national","mode":"rail","name":"益湛线","ref":"0072","operator":"中国铁路广州局集团有限公司","usage":"main","status":"operational","color":"#E54848","dataOrigin":"datum-2026-08-01","sourceKey":"way:513136868"}},{"type":"Feature","geometry":{"type":"LineString","coordinates":[[110.9823042,22.3968592],[110.9824276,22.3955101]]},"properties":{"key":"way:513136869@detail:443_89","osmType":"way","osmId":513136869,"sourceRegion":"guangdong","featureType":"infrastructure","railClass":"national","mode":"rail","name":"益湛线","ref":"0072","operator":"中国铁路广州局集团有限公司","usage":"main","tunnel":"yes","status":"operational","color":"#E54848","dataOrigin":"datum-2026-08-01","sourceKey":"way:513136869"}},{"type":"Feature","geometry":{"type":"LineString","coordinates":[[110.9824276,22.3955101],[110.9824598,22.3951927]]},"properties":{"key":"way:513136870@detail:443_89","osmType":"way","osmId":513136870,"sourceRegion":"guangdong","featureType":"infrastructure","railClass":"national","mode":"rail","name":"益湛线","ref":"0072","operator":"中国铁路广州局集团有限公司","usage":"main","status":"operational","color":"#E54848","dataOrigin":"datum-2026-08-01","sourceKey":"way:513136870"}},{"type":"Feature","geometry":{"type":"LineString","coordinates":[[110.9824598,22.3951927],[110.9825724,22.3944091],[110.9826851,22.3937246]]},"properties":{"key":"way:513136871@detail:443_89","osmType":"way","osmId":513136871,"sourceRegion":"guangdong","featureType":"infrastructure","railClass":"national","mode":"rail","name":"益湛线","ref":"0072","operator":"中国铁路广州局集团有限公司","usage":"main","bridge":"yes","status":"operational","color":"#E54848","dataOrigin":"datum-2026-08-01","sourceKey":"way:513136871"}},{"type":"Feature","geometry":{"type":"LineString","coordinates":[[110.9826851,22.3937246],[110.9828997,22.3927673]]},"properties":{"key":"way:513136872@detail:443_89","osmType":"way","osmId":513136872,"sourceRegion":"guangdong","featureType":"infrastructure","railClass":"national","mode":"rail","name":"益湛线","ref":"0072","operator":"中国铁路广州局集团有限公司","usage":"main","status":"operational","color":"#E54848","dataOrigin":"datum-2026-08-01","sourceKey":"way:513136872"}},{"type":"Feature","geometry":{"type":"LineString","coordinates":[[110.9828997,22.3927673],[110.9834254,22.3908082],[110.9836936,22.3899253]]},"properties":{"key":"way:513136873@detail:443_89","osmType":"way","osmId":513136873,"sourceRegion":"guangdong","featureType":"infrastructure","railClass":"national","mode":"rail","name":"益湛线","ref":"0072","operator":"中国铁路广州局集团有限公司","usage":"main","bridge":"yes","status":"operational","color":"#E54848","dataOrigin":"datum-2026-08-01","sourceKey":"way:513136873"}},{"type":"Feature","geometry":{"type":"LineString","coordinates":[[110.9836936,22.3899253],[110.9843641,22.3875593]]},"properties":{"key":"way:513136874@detail:443_89","osmType":"way","osmId":513136874,"sourceRegion":"guangdong","featureType":"infrastructure","railClass":"national","mode":"rail","name":"益湛线","ref":"0072","operator":"中国铁路广州局集团有限公司","usage":"main","status":"operational","color":"#E54848","dataOrigin":"datum-2026-08-01","sourceKey":"way:513136874"}},{"type":"Feature","geometry":{"type":"LineString","coordinates":[[110.9843641,22.3875593],[110.9851903,22.3846626]]},"properties":{"key":"way:513136875@detail:443_89","osmType":"way","osmId":513136875,"sourceRegion":"guangdong","featureType":"infrastructure","railClass":"national","mode":"rail","name":"益湛线","ref":"0072","operator":"中国铁路广州局集团有限公司","usage":"main","tunnel":"yes","status":"operational","color":"#E54848","dataOrigin":"datum-2026-08-01","sourceKey":"way:513136875"}},{"type":"Feature","geometry":{"type":"LineString","coordinates":[[110.9851903,22.3846626],[110.9855443,22.3834275],[110.9860486,22.3816765]]},"properties":{"key":"way:513136876@detail:443_89","osmType":"way","osmId":513136876,"sourceRegion":"guangdong","featureType":"infrastructure","railClass":"national","mode":"rail","name":"益湛线","ref":"0072","operator":"中国铁路广州局集团有限公司","usage":"main","status":"operational","color":"#E54848","dataOrigin":"datum-2026-08-01","sourceKey":"way:513136876"}},{"type":"Feature","geometry":{"type":"LineString","coordinates":[[110.9860486,22.3816765],[110.9864348,22.3803373]]},"properties":{"key":"way:513136877@detail:443_89","osmType":"way","osmId":513136877,"sourceRegion":"guangdong","featureType":"infrastructure","railClass":"national","mode":"rail","name":"益湛线","ref":"0072","operator":"中国铁路广州局集团有限公司","usage":"main","tunnel":"yes","status":"operational","color":"#E54848","dataOrigin":"datum-2026-08-01","sourceKey":"way:513136877"}},{"type":"Feature","geometry":{"type":"LineString","coordinates":[[110.9865482,22.379875],[110.986644,22.3794841],[110.9868479,22.378616],[110.9869337,22.3778769]]},"properties":{"key":"way:513136878@detail:443_89","osmType":"way","osmId":513136878,"sourceRegion":"guangdong","featureType":"infrastructure","railClass":"national","mode":"rail","name":"益湛线","ref":"0072","operator":"中国铁路广州局集团有限公司","usage":"main","status":"operational","color":"#E54848","dataOrigin":"datum-2026-08-01","sourceKey":"way:513136878"}},{"type":"Feature","geometry":{"type":"LineString","coordinates":[[110.9869337,22.3778769],[110.987041,22.3767459],[110.9870142,22.3752627]]},"properties":{"key":"way:513136879@detail:443_89","osmType":"way","osmId":513136879,"sourceRegion":"guangdong","featureType":"infrastructure","railClass":"national","mode":"rail","name":"益湛线","ref":"0072","operator":"中国铁路广州局集团有限公司","usage":"main","tunnel":"yes","status":"operational","color":"#E54848","dataOrigin":"datum-2026-08-01","sourceKey":"way:513136879"}},{"type":"Feature","geometry":{"type":"LineString","coordinates":[[110.9870142,22.3752627],[110.9867889,22.373586]]},"properties":{"key":"way:513136880@detail:443_89","osmType":"way","osmId":513136880,"sourceRegion":"guangdong","featureType":"infrastructure","railClass":"national","mode":"rail","name":"益湛线","ref":"0072","operator":"中国铁路广州局集团有限公司","usage":"main","status":"operational","color":"#E54848","dataOrigin":"datum-2026-08-01","sourceKey":"way:513136880"}},{"type":"Feature","geometry":{"type":"LineString","coordinates":[[110.9867889,22.373586],[110.9864938,22.3721326]]},"properties":{"key":"way:513136881@detail:443_89","osmType":"way","osmId":513136881,"sourceRegion":"guangdong","featureType":"infrastructure","railClass":"national","mode":"rail","name":"益湛线","ref":"0072","operator":"中国铁路广州局集团有限公司","usage":"main","tunnel":"yes","status":"operational","color":"#E54848","dataOrigin":"datum-2026-08-01","sourceKey":"way:513136881"}},{"type":"Feature","geometry":{"type":"LineString","coordinates":[[110.9864938,22.3721326],[110.9863973,22.3715621]]},"properties":{"key":"way:513136882@detail:443_89","osmType":"way","osmId":513136882,"sourceRegion":"guangdong","featureType":"infrastructure","railClass":"national","mode":"rail","name":"益湛线","ref":"0072","operator":"中国铁路广州局集团有限公司","usage":"main","status":"operational","color":"#E54848","dataOrigin":"datum-2026-08-01","sourceKey":"way:513136882"}},{"type":"Feature","geometry":{"type":"LineString","coordinates":[[110.9863973,22.3715621],[110.9858876,22.3693149]]},"properties":{"key":"way:513136883@detail:443_89","osmType":"way","osmId":513136883,"sourceRegion":"guangdong","featureType":"infrastructure","railClass":"national","mode":"rail","name":"益湛线","ref":"0072","operator":"中国铁路广州局集团有限公司","usage":"main","tunnel":"yes","status":"operational","color":"#E54848","dataOrigin":"datum-2026-08-01","sourceKey":"way:513136883"}},{"type":"Feature","geometry":{"type":"LineString","coordinates":[[110.9858876,22.3693149],[110.9856033,22.3679805]]},"properties":{"key":"way:513136884@detail:443_89","osmType":"way","osmId":513136884,"sourceRegion":"guangdong","featureType":"infrastructure","railClass":"national","mode":"rail","name":"益湛线","ref":"0072","operator":"中国铁路广州局集团有限公司","usage":"main","status":"operational","color":"#E54848","dataOrigin":"datum-2026-08-01","sourceKey":"way:513136884"}},{"type":"Feature","geometry":{"type":"LineString","coordinates":[[110.9856033,22.3679805],[110.9855229,22.3675985]]},"properties":{"key":"way:513136885@detail:443_89","osmType":"way","osmId":513136885,"sourceRegion":"guangdong","featureType":"infrastructure","railClass":"national","mode":"rail","name":"益湛线","ref":"0072","operator":"中国铁路广州局集团有限公司","usage":"main","bridge":"yes","status":"operational","color":"#E54848","dataOrigin":"datum-2026-08-01","sourceKey":"way:513136885"}},{"type":"Feature","geometry":{"type":"LineString","coordinates":[[110.9855229,22.3675985],[110.9852225,22.3661896]]},"properties":{"key":"way:513136886@detail:443_89","osmType":"way","osmId":513136886,"sourceRegion":"guangdong","featureType":"infrastructure","railClass":"national","mode":"rail","name":"益湛线","ref":"0072","operator":"中国铁路广州局集团有限公司","usage":"main","status":"operational","color":"#E54848","dataOrigin":"datum-2026-08-01","sourceKey":"way:513136886"}},{"type":"Feature","geometry":{"type":"LineString","coordinates":[[110.9852225,22.3661896],[110.9849971,22.365381],[110.9847236,22.3645426],[110.9842515,22.3632974]]},"properties":{"key":"way:513136888@detail:443_89","osmType":"way","osmId":513136888,"sourceRegion":"guangdong","featureType":"infrastructure","railClass":"national","mode":"rail","name":"益湛线","ref":"0072","operator":"中国铁路广州局集团有限公司","usage":"main","bridge":"yes","status":"operational","color":"#E54848","dataOrigin":"datum-2026-08-01","sourceKey":"way:513136888"}},{"type":"Feature","geometry":{"type":"LineString","coordinates":[[110.9842515,22.3632974],[110.9841442,22.3630493]]},"properties":{"key":"way:513136889@detail:443_89","osmType":"way","osmId":513136889,"sourceRegion":"guangdong","featureType":"infrastructure","railClass":"national","mode":"rail","name":"益湛线","ref":"0072","operator":"中国铁路广州局集团有限公司","usage":"main","status":"operational","color":"#E54848","dataOrigin":"datum-2026-08-01","sourceKey":"way:513136889"}},{"type":"Feature","geometry":{"type":"LineString","coordinates":[[110.9841442,22.3630493],[110.9834361,22.3616603]]},"properties":{"key":"way:513136890@detail:443_89","osmType":"way","osmId":513136890,"sourceRegion":"guangdong","featureType":"infrastructure","railClass":"national","mode":"rail","name":"益湛线","ref":"0072","operator":"中国铁路广州局集团有限公司","usage":"main","tunnel":"yes","status":"operational","color":"#E54848","dataOrigin":"datum-2026-08-01","sourceKey":"way:513136890"}},{"type":"Feature","geometry":{"type":"LineString","coordinates":[[110.9834361,22.3616603],[110.9831357,22.3610302]]},"properties":{"key":"way:513136892@detail:443_89","osmType":"way","osmId":513136892,"sourceRegion":"guangdong","featureType":"infrastructure","railClass":"national","mode":"rail","name":"益湛线","ref":"0072","operator":"中国铁路广州局集团有限公司","usage":"main","status":"operational","color":"#E54848","dataOrigin":"datum-2026-08-01","sourceKey":"way:513136892"}},{"type":"Feature","geometry":{"type":"LineString","coordinates":[[110.9831357,22.3610302],[110.9823525,22.3595469]]},"properties":{"key":"way:513136893@detail:443_89","osmType":"way","osmId":513136893,"sourceRegion":"guangdong","featureType":"infrastructure","railClass":"national","mode":"rail","name":"益湛线","ref":"0072","operator":"中国铁路广州局集团有限公司","usage":"main","bridge":"yes","status":"operational","color":"#E54848","dataOrigin":"datum-2026-08-01","sourceKey":"way:513136893"}},{"type":"Feature","geometry":{"type":"LineString","coordinates":[[110.9823525,22.3595469],[110.9817249,22.3583314]]},"properties":{"key":"way:513136895@detail:443_89","osmType":"way","osmId":513136895,"sourceRegion":"guangdong","featureType":"infrastructure","railClass":"national","mode":"rail","name":"益湛线","ref":"0072","operator":"中国铁路广州局集团有限公司","usage":"main","status":"operational","color":"#E54848","dataOrigin":"datum-2026-08-01","sourceKey":"way:513136895"}},{"type":"Feature","geometry":{"type":"LineString","coordinates":[[110.9817249,22.3583314],[110.9809202,22.3567984]]},"properties":{"key":"way:513136897@detail:443_89","osmType":"way","osmId":513136897,"sourceRegion":"guangdong","featureType":"infrastructure","railClass":"national","mode":"rail","name":"益湛线","ref":"0072","operator":"中国铁路广州局集团有限公司","usage":"main","bridge":"yes","status":"operational","color":"#E54848","dataOrigin":"datum-2026-08-01","sourceKey":"way:513136897"}},{"type":"Feature","geometry":{"type":"LineString","coordinates":[[110.9809202,22.3567984],[110.9805071,22.3560443]]},"properties":{"key":"way:513136899@detail:443_89","osmType":"way","osmId":513136899,"sourceRegion":"guangdong","featureType":"infrastructure","railClass":"national","mode":"rail","name":"益湛线","ref":"0072","operator":"中国铁路广州局集团有限公司","usage":"main","status":"operational","color":"#E54848","dataOrigin":"datum-2026-08-01","sourceKey":"way:513136899"}},{"type":"Feature","geometry":{"type":"LineString","coordinates":[[110.9805071,22.3560443],[110.9801316,22.3553448],[110.9798022,22.3547223]]},"properties":{"key":"way:513136901@detail:443_89","osmType":"way","osmId":513136901,"sourceRegion":"guangdong","featureType":"infrastructure","railClass":"national","mode":"rail","name":"益湛线","ref":"0072","operator":"中国铁路广州局集团有限公司","usage":"main","bridge":"yes","status":"operational","color":"#E54848","dataOrigin":"datum-2026-08-01","sourceKey":"way:513136901"}},{"type":"Feature","geometry":{"type":"LineString","coordinates":[[110.9704703,22.3455658],[110.9699392,22.3445834],[110.9694457,22.3435762],[110.9690541,22.3427873]]},"properties":{"key":"way:513136903@detail:443_89","osmType":"way","osmId":513136903,"sourceRegion":"guangdong","featureType":"infrastructure","railClass":"national","mode":"rail","name":"岑茂铁路","operator":"中国铁路广州局集团有限公司","usage":"main","bridge":"yes","status":"operational","color":"#E54848","dataOrigin":"datum-2026-08-01","sourceKey":"way:513136903"}},{"type":"Feature","geometry":{"type":"LineString","coordinates":[[110.9746149,22.4241758],[110.9750881,22.4239785],[110.9758763,22.4235701],[110.9763706,22.4232594],[110.9768592,22.4228916],[110.9773407,22.4225172]]},"properties":{"key":"way:513136904@detail:443_89","osmType":"way","osmId":513136904,"sourceRegion":"guangdong","featureType":"infrastructure","railClass":"national","mode":"rail","name":"益湛线","ref":"0072","operator":"中国铁路广州局集团有限公司","usage":"main","bridge":"yes","status":"operational","color":"#E54848","dataOrigin":"datum-2026-08-01","sourceKey":"way:513136904"}},{"type":"Feature","geometry":{"type":"LineString","coordinates":[[110.9744086,22.4243036],[110.9746149,22.4241758]]},"properties":{"key":"way:513136905@detail:443_89","osmType":"way","osmId":513136905,"sourceRegion":"guangdong","featureType":"infrastructure","railClass":"national","mode":"rail","name":"益湛线","ref":"0072","operator":"中国铁路广州局集团有限公司","usage":"main","status":"operational","color":"#E54848","dataOrigin":"datum-2026-08-01","sourceKey":"way:513136905"}},{"type":"Feature","geometry":{"type":"LineString","coordinates":[[110.9731579,22.4249733],[110.9744086,22.4243036]]},"properties":{"key":"way:513136906@detail:443_89","osmType":"way","osmId":513136906,"sourceRegion":"guangdong","featureType":"infrastructure","railClass":"national","mode":"rail","name":"益湛线","ref":"0072","operator":"中国铁路广州局集团有限公司","usage":"main","tunnel":"yes","status":"operational","color":"#E54848","dataOrigin":"datum-2026-08-01","sourceKey":"way:513136906"}},{"type":"Feature","geometry":{"type":"LineString","coordinates":[[110.9694611,22.428637],[110.9699205,22.4280501]]},"properties":{"key":"way:513136907@detail:443_89","osmType":"way","osmId":513136907,"sourceRegion":"guangdong","featureType":"infrastructure","railClass":"national","mode":"rail","name":"益湛线","ref":"0072","operator":"中国铁路广州局集团有限公司","usage":"main","status":"operational","color":"#E54848","dataOrigin":"datum-2026-08-01","sourceKey":"way:513136907"}},{"type":"Feature","geometry":{"type":"LineString","coordinates":[[110.9711819,22.4265697],[110.9717594,22.4260526]]},"properties":{"key":"way:513136908@detail:443_89","osmType":"way","osmId":513136908,"sourceRegion":"guangdong","featureType":"infrastructure","railClass":"national","mode":"rail","name":"益湛线","ref":"0072","operator":"中国铁路广州局集团有限公司","usage":"main","status":"operational","color":"#E54848","dataOrigin":"datum-2026-08-01","sourceKey":"way:513136908"}},{"type":"Feature","geometry":{"type":"LineString","coordinates":[[110.9717594,22.4260526],[110.9723688,22.4256404],[110.9729717,22.4251201]]},"properties":{"key":"way:513136909@detail:443_89","osmType":"way","osmId":513136909,"sourceRegion":"guangdong","featureType":"infrastructure","railClass":"national","mode":"rail","name":"益湛线","ref":"0072","operator":"中国铁路广州局集团有限公司","usage":"main","bridge":"yes","status":"operational","color":"#E54848","dataOrigin":"datum-2026-08-01","sourceKey":"way:513136909"}},{"type":"Feature","geometry":{"type":"LineString","coordinates":[[110.9729717,22.4251201],[110.9731579,22.4249733]]},"properties":{"key":"way:513136910@detail:443_89","osmType":"way","osmId":513136910,"sourceRegion":"guangdong","featureType":"infrastructure","railClass":"national","mode":"rail","name":"益湛线","ref":"0072","operator":"中国铁路广州局集团有限公司","usage":"main","status":"operational","color":"#E54848","dataOrigin":"datum-2026-08-01","sourceKey":"way:513136910"}},{"type":"Feature","geometry":{"type":"LineString","coordinates":[[110.9699205,22.4280501],[110.9704853,22.4274848],[110.9706679,22.4272812],[110.9711819,22.4265697]]},"properties":{"key":"way:513136911@detail:443_89","osmType":"way","osmId":513136911,"sourceRegion":"guangdong","featureType":"infrastructure","railClass":"national","mode":"rail","name":"益湛线","ref":"0072","operator":"中国铁路广州局集团有限公司","usage":"main","bridge":"yes","status":"operational","color":"#E54848","dataOrigin":"datum-2026-08-01","sourceKey":"way:513136911"}},{"type":"Feature","geometry":{"type":"LineString","coordinates":[[110.9678825,22.4342643],[110.9678979,22.433772]]},"properties":{"key":"way:513136912@detail:443_89","osmType":"way","osmId":513136912,"sourceRegion":"guangdong","featureType":"infrastructure","railClass":"national","mode":"rail","name":"益湛线","ref":"0072","operator":"中国铁路广州局集团有限公司","usage":"main","status":"operational","color":"#E54848","dataOrigin":"datum-2026-08-01","sourceKey":"way:513136912"}},{"type":"Feature","geometry":{"type":"LineString","coordinates":[[110.9679891,22.4354267],[110.9679148,22.4345872],[110.9678825,22.4342643]]},"properties":{"key":"way:513136913@detail:443_89","osmType":"way","osmId":513136913,"sourceRegion":"guangdong","featureType":"infrastructure","railClass":"national","mode":"rail","name":"益湛线","ref":"0072","operator":"中国铁路广州局集团有限公司","usage":"main","bridge":"yes","status":"operational","color":"#E54848","dataOrigin":"datum-2026-08-01","sourceKey":"way:513136913"}},{"type":"Feature","geometry":{"type":"LineString","coordinates":[[110.9680923,22.4320388],[110.9682887,22.431341]]},"properties":{"key":"way:513136914@detail:443_89","osmType":"way","osmId":513136914,"sourceRegion":"guangdong","featureType":"infrastructure","railClass":"national","mode":"rail","name":"益湛线","ref":"0072","operator":"中国铁路广州局集团有限公司","usage":"main","status":"operational","color":"#E54848","dataOrigin":"datum-2026-08-01","sourceKey":"way:513136914"}},{"type":"Feature","geometry":{"type":"LineString","coordinates":[[110.9678979,22.433772],[110.9679462,22.4331939],[110.9680282,22.4325819],[110.9680923,22.4320388]]},"properties":{"key":"way:513136915@detail:443_89","osmType":"way","osmId":513136915,"sourceRegion":"guangdong","featureType":"infrastructure","railClass":"national","mode":"rail","name":"益湛线","ref":"0072","operator":"中国铁路广州局集团有限公司","usage":"main","bridge":"yes","status":"operational","color":"#E54848","dataOrigin":"datum-2026-08-01","sourceKey":"way:513136915"}},{"type":"Feature","geometry":{"type":"LineString","coordinates":[[110.9682887,22.431341],[110.9685227,22.4307921],[110.9686404,22.4305346],[110.9687273,22.4302714],[110.9688791,22.4299302],[110.9690353,22.4296393],[110.9692848,22.4291385],[110.9694611,22.428637]]},"properties":{"key":"way:513136916@detail:443_89","osmType":"way","osmId":513136916,"sourceRegion":"guangdong","featureType":"infrastructure","railClass":"national","mode":"rail","name":"益湛线","ref":"0072","operator":"中国铁路广州局集团有限公司","usage":"main","bridge":"yes","status":"operational","color":"#E54848","dataOrigin":"datum-2026-08-01","sourceKey":"way:513136916"}},{"type":"Feature","geometry":{"type":"LineString","coordinates":[[110.9680243,22.4356598],[110.9679891,22.4354267]]},"properties":{"key":"way:513136917@detail:443_89","osmType":"way","osmId":513136917,"sourceRegion":"guangdong","featureType":"infrastructure","railClass":"national","mode":"rail","name":"益湛线","ref":"0072","operator":"中国铁路广州局集团有限公司","usage":"main","status":"operational","color":"#E54848","dataOrigin":"datum-2026-08-01","sourceKey":"way:513136917"}},{"type":"Feature","geometry":{"type":"LineString","coordinates":[[110.9689263,22.438602],[110.968641,22.4379696],[110.968442,22.4374397],[110.9683233,22.4368857],[110.968241,22.4364821],[110.9681624,22.4362334],[110.9680243,22.4356598]]},"properties":{"key":"way:513136918@detail:443_89","osmType":"way","osmId":513136918,"sourceRegion":"guangdong","featureType":"infrastructure","railClass":"national","mode":"rail","name":"益湛线","ref":"0072","operator":"中国铁路广州局集团有限公司","usage":"main","bridge":"yes","status":"operational","color":"#E54848","dataOrigin":"datum-2026-08-01","sourceKey":"way:513136918"}},{"type":"Feature","geometry":{"type":"LineString","coordinates":[[110.9691284,22.4390165],[110.9689263,22.438602]]},"properties":{"key":"way:513136919@detail:443_89","osmType":"way","osmId":513136919,"sourceRegion":"guangdong","featureType":"infrastructure","railClass":"national","mode":"rail","name":"益湛线","ref":"0072","operator":"中国铁路广州局集团有限公司","usage":"main","status":"operational","color":"#E54848","dataOrigin":"datum-2026-08-01","sourceKey":"way:513136919"}},{"type":"Feature","geometry":{"type":"LineString","coordinates":[[110.9697634,22.4402001],[110.9696422,22.4399709]]},"properties":{"key":"way:513136920@detail:443_89","osmType":"way","osmId":513136920,"sourceRegion":"guangdong","featureType":"infrastructure","railClass":"national","mode":"rail","name":"益湛线","ref":"0072","operator":"中国铁路广州局集团有限公司","usage":"main","status":"operational","color":"#E54848","dataOrigin":"datum-2026-08-01","sourceKey":"way:513136920"}},{"type":"Feature","geometry":{"type":"LineString","coordinates":[[110.9713006,22.4430774],[110.9711551,22.4427943],[110.9706848,22.4418528],[110.9704698,22.441485],[110.9697634,22.4402001]]},"properties":{"key":"way:513136921@detail:443_89","osmType":"way","osmId":513136921,"sourceRegion":"guangdong","featureType":"infrastructure","railClass":"national","mode":"rail","name":"益湛线","ref":"0072","operator":"中国铁路广州局集团有限公司","usage":"main","bridge":"yes","status":"operational","color":"#E54848","dataOrigin":"datum-2026-08-01","sourceKey":"way:513136921"}},{"type":"Feature","geometry":{"type":"LineString","coordinates":[[110.9696422,22.4399709],[110.9691284,22.4390165]]},"properties":{"key":"way:513136922@detail:443_89","osmType":"way","osmId":513136922,"sourceRegion":"guangdong","featureType":"infrastructure","railClass":"national","mode":"rail","name":"益湛线","ref":"0072","operator":"中国铁路广州局集团有限公司","usage":"main","tunnel":"yes","status":"operational","color":"#E54848","dataOrigin":"datum-2026-08-01","sourceKey":"way:513136922"}},{"type":"Feature","geometry":{"type":"LineString","coordinates":[[110.9713801,22.4432578],[110.9713006,22.4430774]]},"properties":{"key":"way:513136923@detail:443_89","osmType":"way","osmId":513136923,"sourceRegion":"guangdong","featureType":"infrastructure","railClass":"national","mode":"rail","name":"益湛线","ref":"0072","operator":"中国铁路广州局集团有限公司","usage":"main","status":"operational","color":"#E54848","dataOrigin":"datum-2026-08-01","sourceKey":"way:513136923"}},{"type":"Feature","geometry":{"type":"LineString","coordinates":[[110.972746,22.4457713],[110.9713801,22.4432578]]},"properties":{"key":"way:513136924@detail:443_89","osmType":"way","osmId":513136924,"sourceRegion":"guangdong","featureType":"infrastructure","railClass":"national","mode":"rail","name":"益湛线","ref":"0072","operator":"中国铁路广州局集团有限公司","usage":"main","tunnel":"yes","status":"operational","color":"#E54848","dataOrigin":"datum-2026-08-01","sourceKey":"way:513136924"}},{"type":"Feature","geometry":{"type":"LineString","coordinates":[[110.9745675,22.4494832],[110.9744735,22.4491683],[110.9743618,22.4488665],[110.9742167,22.4485097],[110.9738874,22.4478102],[110.9735945,22.4473029],[110.9732252,22.4466666],[110.9728594,22.4459927]]},"properties":{"key":"way:513136925@detail:443_89","osmType":"way","osmId":513136925,"sourceRegion":"guangdong","featureType":"infrastructure","railClass":"national","mode":"rail","name":"益湛线","ref":"0072","operator":"中国铁路广州局集团有限公司","usage":"main","bridge":"yes","status":"operational","color":"#E54848","dataOrigin":"datum-2026-08-01","sourceKey":"way:513136925"}},{"type":"Feature","geometry":{"type":"LineString","coordinates":[[110.9728594,22.4459927],[110.972746,22.4457713]]},"properties":{"key":"way:513136926@detail:443_89","osmType":"way","osmId":513136926,"sourceRegion":"guangdong","featureType":"infrastructure","railClass":"national","mode":"rail","name":"益湛线","ref":"0072","operator":"中国铁路广州局集团有限公司","usage":"main","status":"operational","color":"#E54848","dataOrigin":"datum-2026-08-01","sourceKey":"way:513136926"}},{"type":"Feature","geometry":{"type":"LineString","coordinates":[[110.9746329,22.4496757],[110.9745675,22.4494832]]},"properties":{"key":"way:513136927@detail:443_89","osmType":"way","osmId":513136927,"sourceRegion":"guangdong","featureType":"infrastructure","railClass":"national","mode":"rail","name":"益湛线","ref":"0072","operator":"中国铁路广州局集团有限公司","usage":"main","status":"operational","color":"#E54848","dataOrigin":"datum-2026-08-01","sourceKey":"way:513136927"}},{"type":"Feature","geometry":{"type":"LineString","coordinates":[[110.9751294,22.4531213],[110.9751534,22.4520157],[110.9750461,22.4511828],[110.9749067,22.4504986],[110.9746329,22.4496757]]},"properties":{"key":"way:513136928@detail:443_89","osmType":"way","osmId":513136928,"sourceRegion":"guangdong","featureType":"infrastructure","railClass":"national","mode":"rail","name":"益湛线","ref":"0072","operator":"中国铁路广州局集团有限公司","usage":"main","tunnel":"yes","status":"operational","color":"#E54848","dataOrigin":"datum-2026-08-01","sourceKey":"way:513136928"}},{"type":"Feature","geometry":{"type":"LineString","coordinates":[[110.9745326,22.4566351],[110.9746805,22.45616],[110.9749655,22.4551696],[110.9751091,22.4546234],[110.9751524,22.4543192],[110.9751796,22.4540187],[110.9751656,22.4535855],[110.9751294,22.4531213]]},"properties":{"key":"way:513136930@detail:443_89","osmType":"way","osmId":513136930,"sourceRegion":"guangdong","featureType":"infrastructure","railClass":"national","mode":"rail","name":"益湛线","ref":"0072","operator":"中国铁路广州局集团有限公司","usage":"main","bridge":"yes","status":"operational","color":"#E54848","dataOrigin":"datum-2026-08-01","sourceKey":"way:513136930"}},{"type":"Feature","geometry":{"type":"LineString","coordinates":[[110.9741246,22.4584324],[110.9741678,22.4583064]]},"properties":{"key":"way:513136931@detail:443_89","osmType":"way","osmId":513136931,"sourceRegion":"guangdong","featureType":"infrastructure","railClass":"national","mode":"rail","name":"益湛线","ref":"0072","operator":"中国铁路广州局集团有限公司","usage":"main","status":"operational","color":"#E54848","dataOrigin":"datum-2026-08-01","sourceKey":"way:513136931"}},{"type":"Feature","geometry":{"type":"LineString","coordinates":[[110.9741678,22.4583064],[110.9742787,22.457939],[110.9743691,22.4574797]]},"properties":{"key":"way:513136932@detail:443_89","osmType":"way","osmId":513136932,"sourceRegion":"guangdong","featureType":"infrastructure","railClass":"national","mode":"rail","name":"益湛线","ref":"0072","operator":"中国铁路广州局集团有限公司","usage":"main","bridge":"yes","status":"operational","color":"#E54848","dataOrigin":"datum-2026-08-01","sourceKey":"way:513136932"}},{"type":"Feature","geometry":{"type":"LineString","coordinates":[[110.9743691,22.4574797],[110.9745326,22.4566351]]},"properties":{"key":"way:513136933@detail:443_89","osmType":"way","osmId":513136933,"sourceRegion":"guangdong","featureType":"infrastructure","railClass":"national","mode":"rail","name":"益湛线","ref":"0072","operator":"中国铁路广州局集团有限公司","usage":"main","status":"operational","color":"#E54848","dataOrigin":"datum-2026-08-01","sourceKey":"way:513136933"}},{"type":"Feature","geometry":{"type":"LineString","coordinates":[[110.9737184,22.4601089],[110.9741246,22.4584324]]},"properties":{"key":"way:513136934@detail:443_89","osmType":"way","osmId":513136934,"sourceRegion":"guangdong","featureType":"infrastructure","railClass":"national","mode":"rail","name":"益湛线","ref":"0072","operator":"中国铁路广州局集团有限公司","usage":"main","tunnel":"yes","status":"operational","color":"#E54848","dataOrigin":"datum-2026-08-01","sourceKey":"way:513136934"}},{"type":"Feature","geometry":{"type":"LineString","coordinates":[[110.9736892,22.4603411],[110.9737184,22.4601089]]},"properties":{"key":"way:513136935@detail:443_89","osmType":"way","osmId":513136935,"sourceRegion":"guangdong","featureType":"infrastructure","railClass":"national","mode":"rail","name":"益湛线","ref":"0072","operator":"中国铁路广州局集团有限公司","usage":"main","status":"operational","color":"#E54848","dataOrigin":"datum-2026-08-01","sourceKey":"way:513136935"}},{"type":"Feature","geometry":{"type":"LineString","coordinates":[[110.9658482,22.476218],[110.9663813,22.4756224],[110.9665716,22.4753878],[110.9675574,22.4741356],[110.9681773,22.473359],[110.96871,22.4724337],[110.9691666,22.4715155],[110.9695453,22.4705908],[110.9701689,22.4693406],[110.9703877,22.4688361],[110.9707081,22.4682231],[110.9709739,22.4676565],[110.9712468,22.46709],[110.9714735,22.4666568]]},"properties":{"key":"way:513136936@detail:443_89","osmType":"way","osmId":513136936,"sourceRegion":"guangdong","featureType":"infrastructure","railClass":"national","mode":"rail","name":"益湛线","ref":"0072","operator":"中国铁路广州局集团有限公司","usage":"main","status":"operational","color":"#E54848","dataOrigin":"datum-2026-08-01","sourceKey":"way:513136936"}},{"type":"Feature","geometry":{"type":"LineString","coordinates":[[110.9630287,22.4875873],[110.9630436,22.4868447]]},"properties":{"key":"way:513136937@detail:443_89","osmType":"way","osmId":513136937,"sourceRegion":"guangdong","featureType":"infrastructure","railClass":"national","mode":"rail","name":"益湛线","ref":"0072","operator":"中国铁路广州局集团有限公司","usage":"main","status":"operational","color":"#E54848","dataOrigin":"datum-2026-08-01","sourceKey":"way:513136937"}},{"type":"Feature","geometry":{"type":"LineString","coordinates":[[110.9630436,22.4868447],[110.963003,22.485333],[110.9629559,22.4836454],[110.9629774,22.4827643],[110.9629822,22.4822811]]},"properties":{"key":"way:513136938@detail:443_89","osmType":"way","osmId":513136938,"sourceRegion":"guangdong","featureType":"infrastructure","railClass":"national","mode":"rail","name":"益湛线","ref":"0072","operator":"中国铁路广州局集团有限公司","usage":"main","bridge":"yes","status":"operational","color":"#E54848","dataOrigin":"datum-2026-08-01","sourceKey":"way:513136938"}},{"type":"Feature","geometry":{"type":"LineString","coordinates":[[110.9629822,22.4822811],[110.9632122,22.4809414],[110.963518,22.4800294],[110.963895,22.4790765],[110.96437,22.4782078],[110.9649077,22.4773403],[110.9656209,22.4764356],[110.9658482,22.476218]]},"properties":{"key":"way:513136939@detail:443_89","osmType":"way","osmId":513136939,"sourceRegion":"guangdong","featureType":"infrastructure","railClass":"national","mode":"rail","name":"益湛线","ref":"0072","operator":"中国铁路广州局集团有限公司","usage":"main","status":"operational","color":"#E54848","dataOrigin":"datum-2026-08-01","sourceKey":"way:513136939"}},{"type":"Feature","geometry":{"type":"LineString","coordinates":[[110.9629055,22.4885958],[110.9629914,22.4881401],[110.963005,22.4880405],[110.9630287,22.4875873]]},"properties":{"key":"way:513136940@detail:443_89","osmType":"way","osmId":513136940,"sourceRegion":"guangdong","featureType":"infrastructure","railClass":"national","mode":"rail","name":"益湛线","ref":"0072","operator":"中国铁路广州局集团有限公司","usage":"main","bridge":"yes","status":"operational","color":"#E54848","dataOrigin":"datum-2026-08-01","sourceKey":"way:513136940"}},{"type":"Feature","geometry":{"type":"LineString","coordinates":[[110.9777284,22.4222856],[110.9782755,22.4219186],[110.978753,22.4215913],[110.9790748,22.4213384],[110.9796381,22.4208723],[110.9801906,22.4203417],[110.9807432,22.4197119],[110.9812865,22.4189646],[110.9815961,22.4184375],[110.981977,22.4177134],[110.982331,22.4168803],[110.9825177,22.4163428]]},"properties":{"key":"way:513136941@detail:443_89","osmType":"way","osmId":513136941,"sourceRegion":"guangdong","featureType":"infrastructure","railClass":"national","mode":"rail","name":"益湛线","ref":"0072","operator":"中国铁路广州局集团有限公司","usage":"main","bridge":"yes","status":"operational","color":"#E54848","dataOrigin":"datum-2026-08-01","sourceKey":"way:513136941"}},{"type":"Feature","geometry":{"type":"LineString","coordinates":[[110.9614209,22.4924407],[110.9618894,22.4915718],[110.9623006,22.4908459],[110.9625652,22.4900259],[110.962607,22.489831],[110.9629055,22.4885958]]},"properties":{"key":"way:582564566@detail:443_89","osmType":"way","osmId":582564566,"sourceRegion":"guangdong","featureType":"infrastructure","railClass":"national","mode":"rail","name":"益湛线","ref":"0072","operator":"中国铁路广州局集团有限公司","usage":"main","status":"operational","color":"#E54848","dataOrigin":"datum-2026-08-01","sourceKey":"way:582564566"}},{"type":"Feature","geometry":{"type":"LineString","coordinates":[[110.95650412321949,22.5],[110.9569226,22.4987051]]},"properties":{"key":"way:911798410@detail:443_89","osmType":"way","osmId":911798410,"sourceRegion":"guangdong","featureType":"infrastructure","railClass":"national","mode":"rail","name":"益湛线","ref":"0072","operator":"中国铁路广州局集团有限公司","usage":"main","tunnel":"yes","status":"operational","color":"#E54848","dataOrigin":"datum-2026-08-01","sourceKey":"way:911798410"}},{"type":"Feature","geometry":{"type":"LineString","coordinates":[[110.9574596,22.4976616],[110.958245,22.4965315]]},"properties":{"key":"way:911798412@detail:443_89","osmType":"way","osmId":911798412,"sourceRegion":"guangdong","featureType":"infrastructure","railClass":"national","mode":"rail","name":"益湛线","ref":"0072","operator":"中国铁路广州局集团有限公司","usage":"main","tunnel":"yes","status":"operational","color":"#E54848","dataOrigin":"datum-2026-08-01","sourceKey":"way:911798412"}},{"type":"Feature","geometry":{"type":"LineString","coordinates":[[110.9569226,22.4987051],[110.9572467,22.4981465],[110.9574596,22.4976616]]},"properties":{"key":"way:911798413@detail:443_89","osmType":"way","osmId":911798413,"sourceRegion":"guangdong","featureType":"infrastructure","railClass":"national","mode":"rail","name":"益湛线","ref":"0072","operator":"中国铁路广州局集团有限公司","usage":"main","status":"operational","color":"#E54848","dataOrigin":"datum-2026-08-01","sourceKey":"way:911798413"}},{"type":"Feature","geometry":{"type":"LineString","coordinates":[[110.958245,22.4965315],[110.9596383,22.4947849]]},"properties":{"key":"way:911798414@detail:443_89","osmType":"way","osmId":911798414,"sourceRegion":"guangdong","featureType":"infrastructure","railClass":"national","mode":"rail","name":"益湛线","ref":"0072","operator":"中国铁路广州局集团有限公司","usage":"main","status":"operational","color":"#E54848","dataOrigin":"datum-2026-08-01","sourceKey":"way:911798414"}},{"type":"Feature","geometry":{"type":"LineString","coordinates":[[110.9596383,22.4947849],[110.9602135,22.4940638]]},"properties":{"key":"way:911798415@detail:443_89","osmType":"way","osmId":911798415,"sourceRegion":"guangdong","featureType":"infrastructure","railClass":"national","mode":"rail","name":"益湛线","ref":"0072","operator":"中国铁路广州局集团有限公司","usage":"main","tunnel":"yes","status":"operational","color":"#E54848","dataOrigin":"datum-2026-08-01","sourceKey":"way:911798415"}},{"type":"Feature","geometry":{"type":"LineString","coordinates":[[110.9602135,22.4940638],[110.9604752,22.4937357],[110.9606646,22.493506],[110.9608343,22.4932785]]},"properties":{"key":"way:911798416@detail:443_89","osmType":"way","osmId":911798416,"sourceRegion":"guangdong","featureType":"infrastructure","railClass":"national","mode":"rail","name":"益湛线","ref":"0072","operator":"中国铁路广州局集团有限公司","usage":"main","status":"operational","color":"#E54848","dataOrigin":"datum-2026-08-01","sourceKey":"way:911798416"}},{"type":"Feature","geometry":{"type":"LineString","coordinates":[[110.9608343,22.4932785],[110.961098,22.4929248],[110.9613615,22.492551],[110.9614209,22.4924407]]},"properties":{"key":"way:911798417@detail:443_89","osmType":"way","osmId":911798417,"sourceRegion":"guangdong","featureType":"infrastructure","railClass":"national","mode":"rail","name":"益湛线","ref":"0072","operator":"中国铁路广州局集团有限公司","usage":"main","bridge":"yes","status":"operational","color":"#E54848","dataOrigin":"datum-2026-08-01","sourceKey":"way:911798417"}},{"type":"Feature","geometry":{"type":"LineString","coordinates":[[110.9714735,22.4666568],[110.9715826,22.4664483],[110.9719145,22.4658876],[110.972218,22.4652877],[110.9725762,22.4642939],[110.9727065,22.4639551],[110.9731411,22.4627219],[110.9732185,22.4624442],[110.973377,22.4618914],[110.9734655,22.4616118],[110.9735035,22.4614963],[110.9735636,22.4613032],[110.9736003,22.461123],[110.9736594,22.4607359],[110.9736892,22.4603411]]},"properties":{"key":"way:911798456@detail:443_89","osmType":"way","osmId":911798456,"sourceRegion":"guangdong","featureType":"infrastructure","railClass":"national","mode":"rail","name":"益湛线","ref":"0072","operator":"中国铁路广州局集团有限公司","usage":"main","bridge":"yes","status":"operational","color":"#E54848","dataOrigin":"datum-2026-08-01","sourceKey":"way:911798456"}},{"type":"Feature","geometry":{"type":"LineString","coordinates":[[110.9864348,22.3803373],[110.9865482,22.379875]]},"properties":{"key":"way:919134089@detail:443_89","osmType":"way","osmId":919134089,"sourceRegion":"guangdong","featureType":"infrastructure","railClass":"national","mode":"rail","name":"益湛线","ref":"0072","operator":"中国铁路广州局集团有限公司","usage":"main","bridge":"yes","status":"operational","color":"#E54848","dataOrigin":"datum-2026-08-01","sourceKey":"way:919134089"}}]}