{"type":"FeatureCollection","features":[{"type":"Feature","geometry":{"type":"Point","coordinates":[111.0049905,21.4371033]},"properties":{"key":"node:13588835322","osmType":"node","osmId":13588835322,"sourceRegion":"guangdong","featureType":"station","railClass":"minor","mode":"station","name":"塘霞俚街","status":"operational","color":"#52636F","dataOrigin":"datum-2026-08-01","sourceKey":"node:13588835322","stationGroup":"塘霞俚街","hasOperationalRail":true,"hasConstructionRail":false}},{"type":"Feature","geometry":{"type":"Point","coordinates":[111.0246595,21.4493758]},"properties":{"key":"node:13588835323","osmType":"node","osmId":13588835323,"sourceRegion":"guangdong","featureType":"station","railClass":"minor","mode":"station","name":"虎头山","status":"operational","color":"#52636F","dataOrigin":"datum-2026-08-01","sourceKey":"node:13588835323","stationGroup":"虎头山","hasOperationalRail":true,"hasConstructionRail":false}},{"type":"Feature","geometry":{"type":"Point","coordinates":[111.0446046,21.4566005]},"properties":{"key":"node:13588835324","osmType":"node","osmId":13588835324,"sourceRegion":"guangdong","featureType":"station","railClass":"minor","mode":"station","name":"第一滩","status":"operational","color":"#52636F","dataOrigin":"datum-2026-08-01","sourceKey":"node:13588835324","stationGroup":"第一滩","hasOperationalRail":true,"hasConstructionRail":false}},{"type":"Feature","geometry":{"type":"LineString","coordinates":[[111.0,21.432542462223942],[111.0001288,21.4326518],[111.0003863,21.4328703],[111.0007229,21.4332048],[111.0009751,21.433437],[111.0012326,21.4337192],[111.0017958,21.4342647],[111.0027105,21.4351866],[111.0028439,21.4353489],[111.0029579,21.4354775],[111.0031349,21.4356304],[111.003385,21.4358719],[111.0035104,21.435988],[111.0037096,21.4361609],[111.0039309,21.436355],[111.0040871,21.4364774],[111.0041917,21.436541],[111.0044143,21.436674],[111.0046396,21.4368232],[111.0048328,21.4369574],[111.0051533,21.4371721],[111.0052076,21.4372045],[111.0053417,21.4372376],[111.0054959,21.4372975],[111.0059445,21.4375129],[111.0060706,21.4375722],[111.0061551,21.4376321],[111.0063576,21.4378106],[111.0064635,21.4379217],[111.0065769,21.4380403],[111.0066768,21.4381607],[111.0067546,21.4382413],[111.0069162,21.4383467],[111.0072984,21.4385714],[111.0077912,21.4387537],[111.0082452,21.4391032],[111.0084759,21.4392493],[111.008905,21.4395164],[111.0091867,21.4397548],[111.0093784,21.439846],[111.0096755,21.4399777],[111.010167,21.4403003],[111.0106713,21.4406024],[111.0114102,21.4411255],[111.0129176,21.4421466],[111.0134487,21.4425173],[111.0138081,21.4428038],[111.0146584,21.4434298],[111.0156776,21.4441775],[111.0162972,21.4445969],[111.0169677,21.4449539],[111.0178864,21.4454607],[111.0180339,21.4455606],[111.0181801,21.4457091],[111.0184523,21.4458864],[111.0191886,21.4463744],[111.0192718,21.4464237],[111.0195118,21.4465417],[111.0200013,21.4467077],[111.0203728,21.446875],[111.0208113,21.4470785],[111.0209555,21.4471346],[111.0214926,21.4474049],[111.0218111,21.4475559],[111.0221558,21.44774],[111.0222691,21.4478055],[111.0224032,21.4479023],[111.0225709,21.4480346],[111.0227707,21.4481819],[111.0229994,21.448356],[111.0231898,21.4484777],[111.0233232,21.4486025],[111.0234721,21.4487299],[111.0236236,21.4488297],[111.0239287,21.4489907],[111.0245249,21.4492597],[111.0251398,21.4495312],[111.0253952,21.4496373],[111.0256454,21.4496991],[111.0258754,21.4497734],[111.0260873,21.449842],[111.0263917,21.4499981],[111.0268074,21.4502502],[111.027132,21.4504187],[111.027374,21.4506378],[111.0276,21.450722],[111.0279635,21.4508943],[111.0283014,21.4510515],[111.0288486,21.4513349],[111.0291034,21.4514759],[111.0291812,21.4515533],[111.0293636,21.4517505],[111.0294816,21.4518204],[111.0295647,21.4518666],[111.0296465,21.4518754],[111.0297739,21.4518491],[111.0298531,21.4518167],[111.0299121,21.4518142],[111.0299845,21.4518154],[111.03012,21.4518741],[111.0304753,21.4520401],[111.0307597,21.4521375],[111.031048,21.4522086],[111.0313337,21.4523085],[111.0315442,21.4523871],[111.031734,21.4524695],[111.0318272,21.4524876],[111.0319874,21.4525257],[111.032133,21.4525831],[111.0323851,21.4526698],[111.0326392,21.452751],[111.0327854,21.4528202],[111.0330865,21.45297],[111.0332032,21.4530281],[111.0333031,21.4530711],[111.0336551,21.453259],[111.0337644,21.4533108],[111.0338938,21.4533357],[111.0341111,21.4534019],[111.0342928,21.4534674],[111.0344135,21.4535111],[111.0345456,21.4535898],[111.034614,21.4536777],[111.034673,21.4537876],[111.0347159,21.4538725],[111.0347736,21.4538974],[111.0348554,21.4538837],[111.0349104,21.4538313],[111.0350043,21.4537951],[111.0351115,21.4537951],[111.0353053,21.4538182],[111.0360047,21.4540747],[111.0360892,21.4540809],[111.0362381,21.4541396],[111.0362998,21.4541833],[111.0363427,21.4542519],[111.0364231,21.454383],[111.0364956,21.4544816],[111.0366042,21.4545265],[111.0366793,21.454534],[111.0368228,21.454509],[111.0369328,21.4544753],[111.0370065,21.4544616],[111.0371272,21.4545065],[111.0372546,21.4545714],[111.0373847,21.4546064],[111.0375041,21.4546351],[111.0378689,21.4547537],[111.0383181,21.454881],[111.038872,21.4550757],[111.0397424,21.4554077],[111.040252,21.4555925],[111.0409547,21.4558471],[111.0411653,21.4559182],[111.0413678,21.4559669],[111.0415073,21.4559969],[111.0417178,21.4560006],[111.0419512,21.4560206],[111.0421523,21.4560593],[111.0430066,21.4561629],[111.0436571,21.4562927],[111.0437925,21.456322],[111.0439668,21.45637],[111.0444879,21.4565404],[111.0453321,21.4567932],[111.0455158,21.4568482]]},"properties":{"key":"way:1472937248@detail:444_85","osmType":"way","osmId":1472937248,"sourceRegion":"guangdong","featureType":"infrastructure","railClass":"minor","mode":"narrow_gauge","name":"未命名","usage":"tourism","status":"operational","color":"#52636F","dataOrigin":"datum-2026-08-01","sourceKey":"way:1472937248"}}]}