{"type":"FeatureCollection","features":[{"type":"Feature","geometry":{"type":"LineString","coordinates":[[111.4469467,23.2614654],[111.4490066,23.2602284],[111.4510355,23.2587359],[111.4536415,23.2566798]]},"properties":{"key":"way:505060324@detail:445_93","osmType":"way","osmId":505060324,"sourceRegion":"guangdong","featureType":"infrastructure","railClass":"highspeed","mode":"rail","name":"南广线","nameEn":"Nanguang Line","ref":"3029","usage":"main","highspeed":"yes","tunnel":"yes","status":"operational","color":"#E54848","dataOrigin":"datum-2026-08-01","sourceKey":"way:505060324"}},{"type":"Feature","geometry":{"type":"LineString","coordinates":[[111.4451657,23.2624658],[111.4469467,23.2614654]]},"properties":{"key":"way:549412336@detail:445_93","osmType":"way","osmId":549412336,"sourceRegion":"guangdong","featureType":"infrastructure","railClass":"highspeed","mode":"rail","name":"南广线","nameEn":"Nanguang Line","ref":"3029","usage":"main","highspeed":"yes","status":"operational","color":"#E54848","dataOrigin":"datum-2026-08-01","sourceKey":"way:549412336"}},{"type":"Feature","geometry":{"type":"LineString","coordinates":[[111.4410941,23.2645308],[111.4423976,23.2639148],[111.443787,23.26321],[111.4451657,23.2624658]]},"properties":{"key":"way:549412337@detail:445_93","osmType":"way","osmId":549412337,"sourceRegion":"guangdong","featureType":"infrastructure","railClass":"highspeed","mode":"rail","name":"南广线","nameEn":"Nanguang Line","ref":"3029","usage":"main","highspeed":"yes","bridge":"yes","status":"operational","color":"#E54848","dataOrigin":"datum-2026-08-01","sourceKey":"way:549412337"}},{"type":"Feature","geometry":{"type":"LineString","coordinates":[[111.4363963,23.2665657],[111.4374838,23.2661423],[111.4391361,23.2653538],[111.4410941,23.2645308]]},"properties":{"key":"way:549412338@detail:445_93","osmType":"way","osmId":549412338,"sourceRegion":"guangdong","featureType":"infrastructure","railClass":"highspeed","mode":"rail","name":"南广线","nameEn":"Nanguang Line","ref":"3029","usage":"main","highspeed":"yes","status":"operational","color":"#E54848","dataOrigin":"datum-2026-08-01","sourceKey":"way:549412338"}},{"type":"Feature","geometry":{"type":"LineString","coordinates":[[111.4343969,23.2673953],[111.4349626,23.2671477]]},"properties":{"key":"way:549412339@detail:445_93","osmType":"way","osmId":549412339,"sourceRegion":"guangdong","featureType":"infrastructure","railClass":"highspeed","mode":"rail","name":"南广线","nameEn":"Nanguang Line","ref":"3029","usage":"main","highspeed":"yes","status":"operational","color":"#E54848","dataOrigin":"datum-2026-08-01","sourceKey":"way:549412339"}},{"type":"Feature","geometry":{"type":"LineString","coordinates":[[111.4349626,23.2671477],[111.4363963,23.2665657]]},"properties":{"key":"way:549412341@detail:445_93","osmType":"way","osmId":549412341,"sourceRegion":"guangdong","featureType":"infrastructure","railClass":"highspeed","mode":"rail","name":"南广线","nameEn":"Nanguang Line","ref":"3029","usage":"main","highspeed":"yes","tunnel":"yes","status":"operational","color":"#E54848","dataOrigin":"datum-2026-08-01","sourceKey":"way:549412341"}},{"type":"Feature","geometry":{"type":"LineString","coordinates":[[111.4326881,23.2681431],[111.4343969,23.2673953]]},"properties":{"key":"way:549412342@detail:445_93","osmType":"way","osmId":549412342,"sourceRegion":"guangdong","featureType":"infrastructure","railClass":"highspeed","mode":"rail","name":"南广线","nameEn":"Nanguang Line","ref":"3029","usage":"main","highspeed":"yes","tunnel":"yes","status":"operational","color":"#E54848","dataOrigin":"datum-2026-08-01","sourceKey":"way:549412342"}},{"type":"Feature","geometry":{"type":"LineString","coordinates":[[111.4025055,23.2902548],[111.4036022,23.2893225],[111.4051257,23.2876078],[111.4065419,23.2861098],[111.407722,23.2849667],[111.4096747,23.2831927],[111.4111338,23.2817736],[111.4132367,23.2802953],[111.4156828,23.2786593],[111.4174424,23.2775161],[111.4193092,23.2762151],[111.4208112,23.2752099],[111.4225493,23.2740666],[111.4240942,23.2730613],[111.4258323,23.2719772],[111.4275704,23.2708339],[111.4294157,23.2697891],[111.43154,23.268705],[111.4326881,23.2681431]]},"properties":{"key":"way:549412343@detail:445_93","osmType":"way","osmId":549412343,"sourceRegion":"guangdong","featureType":"infrastructure","railClass":"highspeed","mode":"rail","name":"南广线","nameEn":"Nanguang Line","ref":"3029","usage":"main","highspeed":"yes","bridge":"yes","status":"operational","color":"#E54848","dataOrigin":"datum-2026-08-01","sourceKey":"way:549412343"}},{"type":"Feature","geometry":{"type":"LineString","coordinates":[[111.3964304,23.2964359],[111.397535,23.295309]]},"properties":{"key":"way:549412344@detail:445_93","osmType":"way","osmId":549412344,"sourceRegion":"guangdong","featureType":"infrastructure","railClass":"highspeed","mode":"rail","name":"南广线","nameEn":"Nanguang Line","ref":"3029","usage":"main","highspeed":"yes","tunnel":"yes","status":"operational","color":"#E54848","dataOrigin":"datum-2026-08-01","sourceKey":"way:549412344"}},{"type":"Feature","geometry":{"type":"LineString","coordinates":[[111.397535,23.295309],[111.3986669,23.294161],[111.4003567,23.2924365]]},"properties":{"key":"way:549412345@detail:445_93","osmType":"way","osmId":549412345,"sourceRegion":"guangdong","featureType":"infrastructure","railClass":"highspeed","mode":"rail","name":"南广线","nameEn":"Nanguang Line","ref":"3029","usage":"main","highspeed":"yes","status":"operational","color":"#E54848","dataOrigin":"datum-2026-08-01","sourceKey":"way:549412345"}},{"type":"Feature","geometry":{"type":"LineString","coordinates":[[111.4003567,23.2924365],[111.4025055,23.2902548]]},"properties":{"key":"way:549412346@detail:445_93","osmType":"way","osmId":549412346,"sourceRegion":"guangdong","featureType":"infrastructure","railClass":"highspeed","mode":"rail","name":"南广线","nameEn":"Nanguang Line","ref":"3029","usage":"main","highspeed":"yes","status":"operational","color":"#E54848","dataOrigin":"datum-2026-08-01","sourceKey":"way:549412346"}},{"type":"Feature","geometry":{"type":"LineString","coordinates":[[111.3905988,23.3012707],[111.3921008,23.3001424],[111.3936263,23.2989893],[111.3947207,23.2980877],[111.3955897,23.2972353],[111.3964304,23.2964359]]},"properties":{"key":"way:549412347@detail:445_93","osmType":"way","osmId":549412347,"sourceRegion":"guangdong","featureType":"infrastructure","railClass":"highspeed","mode":"rail","name":"南广线","nameEn":"Nanguang Line","ref":"3029","usage":"main","highspeed":"yes","status":"operational","color":"#E54848","dataOrigin":"datum-2026-08-01","sourceKey":"way:549412347"}},{"type":"Feature","geometry":{"type":"LineString","coordinates":[[111.340642,23.3279666],[111.3546525,23.3226255],[111.3581989,23.3207646],[111.3607941,23.3197305],[111.3635407,23.3181935],[111.3663946,23.3166368],[111.3688836,23.3154347],[111.3713942,23.3140751],[111.3737975,23.3128139],[111.3759218,23.3115921],[111.3778959,23.3102915],[111.3796769,23.3091289],[111.3821445,23.307375],[111.3878308,23.3031971],[111.3905988,23.3012707]]},"properties":{"key":"way:549412348@detail:445_93","osmType":"way","osmId":549412348,"sourceRegion":"guangdong","featureType":"infrastructure","railClass":"highspeed","mode":"rail","name":"南广线","nameEn":"Nanguang Line","ref":"3029","usage":"main","highspeed":"yes","tunnel":"yes","status":"operational","color":"#E54848","dataOrigin":"datum-2026-08-01","sourceKey":"way:549412348"}},{"type":"Feature","geometry":{"type":"LineString","coordinates":[[111.331058,23.3344136],[111.3336757,23.332478],[111.3357121,23.3310058],[111.3370693,23.3300847],[111.3386571,23.3291192],[111.3394082,23.3286562],[111.340642,23.3279666]]},"properties":{"key":"way:549412349@detail:445_93","osmType":"way","osmId":549412349,"sourceRegion":"guangdong","featureType":"infrastructure","railClass":"highspeed","mode":"rail","name":"南广线","nameEn":"Nanguang Line","ref":"3029","usage":"main","highspeed":"yes","status":"operational","color":"#E54848","dataOrigin":"datum-2026-08-01","sourceKey":"way:549412349"}},{"type":"Feature","geometry":{"type":"LineString","coordinates":[[111.3406108,23.3279103],[111.3393712,23.3286031],[111.3386191,23.3290668],[111.33703,23.3300331],[111.3356705,23.3309557],[111.333633,23.3324287],[111.3310148,23.3343647]]},"properties":{"key":"way:631439590@detail:445_93","osmType":"way","osmId":631439590,"sourceRegion":"guangdong","featureType":"infrastructure","railClass":"highspeed","mode":"rail","name":"南广线","nameEn":"Nanguang Line","ref":"3029","usage":"main","highspeed":"yes","status":"operational","color":"#E54848","dataOrigin":"datum-2026-08-01","sourceKey":"way:631439590"}},{"type":"Feature","geometry":{"type":"LineString","coordinates":[[111.3905564,23.3012212],[111.3877887,23.3031474],[111.3821021,23.3073255],[111.379636,23.3090783],[111.377856,23.3102402],[111.3758836,23.3115398],[111.3737623,23.3127598],[111.3713598,23.3140206],[111.3688502,23.3153797],[111.3663611,23.3165818],[111.3635053,23.3181395],[111.3607625,23.3196745],[111.3581681,23.3207082],[111.3546222,23.3225689],[111.3406108,23.3279103]]},"properties":{"key":"way:631439594@detail:445_93","osmType":"way","osmId":631439594,"sourceRegion":"guangdong","featureType":"infrastructure","railClass":"highspeed","mode":"rail","name":"南广线","nameEn":"Nanguang Line","ref":"3029","usage":"main","highspeed":"yes","tunnel":"yes","status":"operational","color":"#E54848","dataOrigin":"datum-2026-08-01","sourceKey":"way:631439594"}},{"type":"Feature","geometry":{"type":"LineString","coordinates":[[111.3963802,23.2963929],[111.39554,23.2971919],[111.3946727,23.2980426],[111.3935816,23.2989415],[111.3920573,23.3000937],[111.3905564,23.3012212]]},"properties":{"key":"way:631439599@detail:445_93","osmType":"way","osmId":631439599,"sourceRegion":"guangdong","featureType":"infrastructure","railClass":"highspeed","mode":"rail","name":"南广线","nameEn":"Nanguang Line","ref":"3029","usage":"main","highspeed":"yes","status":"operational","color":"#E54848","dataOrigin":"datum-2026-08-01","sourceKey":"way:631439599"}},{"type":"Feature","geometry":{"type":"LineString","coordinates":[[111.3974841,23.2952668],[111.3963802,23.2963929]]},"properties":{"key":"way:631439602@detail:445_93","osmType":"way","osmId":631439602,"sourceRegion":"guangdong","featureType":"infrastructure","railClass":"highspeed","mode":"rail","name":"南广线","nameEn":"Nanguang Line","ref":"3029","usage":"main","highspeed":"yes","tunnel":"yes","status":"operational","color":"#E54848","dataOrigin":"datum-2026-08-01","sourceKey":"way:631439602"}},{"type":"Feature","geometry":{"type":"LineString","coordinates":[[111.4003058,23.2923943],[111.398616,23.2941188],[111.3974841,23.2952668]]},"properties":{"key":"way:631439607@detail:445_93","osmType":"way","osmId":631439607,"sourceRegion":"guangdong","featureType":"infrastructure","railClass":"highspeed","mode":"rail","name":"南广线","nameEn":"Nanguang Line","ref":"3029","usage":"main","highspeed":"yes","status":"operational","color":"#E54848","dataOrigin":"datum-2026-08-01","sourceKey":"way:631439607"}},{"type":"Feature","geometry":{"type":"LineString","coordinates":[[111.4024567,23.2902105],[111.4003058,23.2923943]]},"properties":{"key":"way:631439611@detail:445_93","osmType":"way","osmId":631439611,"sourceRegion":"guangdong","featureType":"infrastructure","railClass":"highspeed","mode":"rail","name":"南广线","nameEn":"Nanguang Line","ref":"3029","usage":"main","highspeed":"yes","status":"operational","color":"#E54848","dataOrigin":"datum-2026-08-01","sourceKey":"way:631439611"}},{"type":"Feature","geometry":{"type":"LineString","coordinates":[[111.4326572,23.2680868],[111.4315072,23.2686497],[111.429381,23.2697347],[111.4275324,23.2707814],[111.4257931,23.2719255],[111.4240551,23.2730095],[111.4225095,23.2740153],[111.420771,23.2751588],[111.4192683,23.2761645],[111.4174019,23.2774653],[111.4156428,23.2786081],[111.4131957,23.2802448],[111.4110877,23.2817267],[111.4096256,23.2831487],[111.407673,23.2849226],[111.4064911,23.2860675],[111.4050732,23.2875672],[111.4035521,23.2892793],[111.4024567,23.2902105]]},"properties":{"key":"way:631439614@detail:445_93","osmType":"way","osmId":631439614,"sourceRegion":"guangdong","featureType":"infrastructure","railClass":"highspeed","mode":"rail","name":"南广线","nameEn":"Nanguang Line","ref":"3029","usage":"main","highspeed":"yes","bridge":"yes","status":"operational","color":"#E54848","dataOrigin":"datum-2026-08-01","sourceKey":"way:631439614"}},{"type":"Feature","geometry":{"type":"LineString","coordinates":[[111.4343674,23.2673384],[111.4326572,23.2680868]]},"properties":{"key":"way:631439619@detail:445_93","osmType":"way","osmId":631439619,"sourceRegion":"guangdong","featureType":"infrastructure","railClass":"highspeed","mode":"rail","name":"南广线","nameEn":"Nanguang Line","ref":"3029","usage":"main","highspeed":"yes","tunnel":"yes","status":"operational","color":"#E54848","dataOrigin":"datum-2026-08-01","sourceKey":"way:631439619"}},{"type":"Feature","geometry":{"type":"LineString","coordinates":[[111.434934,23.2670904],[111.4343674,23.2673384]]},"properties":{"key":"way:631439624@detail:445_93","osmType":"way","osmId":631439624,"sourceRegion":"guangdong","featureType":"infrastructure","railClass":"highspeed","mode":"rail","name":"南广线","nameEn":"Nanguang Line","ref":"3029","usage":"main","highspeed":"yes","status":"operational","color":"#E54848","dataOrigin":"datum-2026-08-01","sourceKey":"way:631439624"}},{"type":"Feature","geometry":{"type":"LineString","coordinates":[[111.4363691,23.2665079],[111.434934,23.2670904]]},"properties":{"key":"way:631439627@detail:445_93","osmType":"way","osmId":631439627,"sourceRegion":"guangdong","featureType":"infrastructure","railClass":"highspeed","mode":"rail","name":"南广线","nameEn":"Nanguang Line","ref":"3029","usage":"main","highspeed":"yes","tunnel":"yes","status":"operational","color":"#E54848","dataOrigin":"datum-2026-08-01","sourceKey":"way:631439627"}},{"type":"Feature","geometry":{"type":"LineString","coordinates":[[111.4410641,23.2644741],[111.439106,23.2652972],[111.4374546,23.2660853],[111.4363691,23.2665079]]},"properties":{"key":"way:631439632@detail:445_93","osmType":"way","osmId":631439632,"sourceRegion":"guangdong","featureType":"infrastructure","railClass":"highspeed","mode":"rail","name":"南广线","nameEn":"Nanguang Line","ref":"3029","usage":"main","highspeed":"yes","status":"operational","color":"#E54848","dataOrigin":"datum-2026-08-01","sourceKey":"way:631439632"}},{"type":"Feature","geometry":{"type":"LineString","coordinates":[[111.4451304,23.2624118],[111.443753,23.2631553],[111.4423653,23.2638592],[111.4410641,23.2644741]]},"properties":{"key":"way:631439637@detail:445_93","osmType":"way","osmId":631439637,"sourceRegion":"guangdong","featureType":"infrastructure","railClass":"highspeed","mode":"rail","name":"南广线","nameEn":"Nanguang Line","ref":"3029","usage":"main","highspeed":"yes","bridge":"yes","status":"operational","color":"#E54848","dataOrigin":"datum-2026-08-01","sourceKey":"way:631439637"}},{"type":"Feature","geometry":{"type":"LineString","coordinates":[[111.44691,23.2614121],[111.4451304,23.2624118]]},"properties":{"key":"way:631439641@detail:445_93","osmType":"way","osmId":631439641,"sourceRegion":"guangdong","featureType":"infrastructure","railClass":"highspeed","mode":"rail","name":"南广线","nameEn":"Nanguang Line","ref":"3029","usage":"main","highspeed":"yes","status":"operational","color":"#E54848","dataOrigin":"datum-2026-08-01","sourceKey":"way:631439641"}},{"type":"Feature","geometry":{"type":"LineString","coordinates":[[111.4535932,23.2566196],[111.4489699,23.2601751],[111.44691,23.2614121]]},"properties":{"key":"way:631439645@detail:445_93","osmType":"way","osmId":631439645,"sourceRegion":"guangdong","featureType":"infrastructure","railClass":"highspeed","mode":"rail","name":"南广线","nameEn":"Nanguang Line","ref":"3029","usage":"main","highspeed":"yes","tunnel":"yes","status":"operational","color":"#E54848","dataOrigin":"datum-2026-08-01","sourceKey":"way:631439645"}},{"type":"Feature","geometry":{"type":"LineString","coordinates":[[111.4536415,23.2566798],[111.4586611,23.2525342],[111.4594355,23.2519217],[111.46172775544782,23.25]]},"properties":{"key":"way:840660660@detail:445_93","osmType":"way","osmId":840660660,"sourceRegion":"guangdong","featureType":"infrastructure","railClass":"highspeed","mode":"rail","name":"南广线","nameEn":"Nanguang Line","ref":"3029","usage":"main","highspeed":"yes","status":"operational","color":"#E54848","dataOrigin":"datum-2026-08-01","sourceKey":"way:840660660"}},{"type":"Feature","geometry":{"type":"LineString","coordinates":[[111.46160316213358,23.25],[111.4593832,23.2518582],[111.4535932,23.2566196]]},"properties":{"key":"way:840660661@detail:445_93","osmType":"way","osmId":840660661,"sourceRegion":"guangdong","featureType":"infrastructure","railClass":"highspeed","mode":"rail","name":"南广线","nameEn":"Nanguang Line","ref":"3029","usage":"main","highspeed":"yes","status":"operational","color":"#E54848","dataOrigin":"datum-2026-08-01","sourceKey":"way:840660661"}},{"type":"Feature","geometry":{"type":"LineString","coordinates":[[111.4594355,23.2519217],[111.4591748,23.2522426],[111.4586813,23.2527897],[111.4576245,23.2538001]]},"properties":{"key":"way:840660667@detail:445_93","osmType":"way","osmId":840660667,"sourceRegion":"guangdong","featureType":"infrastructure","railClass":"national","mode":"rail","name":"未命名","status":"operational","color":"#E54848","dataOrigin":"datum-2026-08-01","sourceKey":"way:840660667"}},{"type":"Feature","geometry":{"type":"LineString","coordinates":[[111.4551193,23.2557518],[111.4586813,23.2527897]]},"properties":{"key":"way:840660668@detail:445_93","osmType":"way","osmId":840660668,"sourceRegion":"guangdong","featureType":"infrastructure","railClass":"national","mode":"rail","name":"未命名","status":"operational","color":"#E54848","dataOrigin":"datum-2026-08-01","sourceKey":"way:840660668"}}]}