{"type":"FeatureCollection","features":[{"type":"Feature","geometry":{"type":"LineString","coordinates":[[111.3957184,22.807839],[111.3868975,22.8098806],[111.3760476,22.8119507],[111.361329,22.8156526],[111.3423635,22.8209077]]},"properties":{"key":"way:1376693129@detail:445_91","osmType":"way","osmId":1376693129,"sourceRegion":"guangdong","featureType":"infrastructure","railClass":"construction","mode":"construction","name":"南珠高速线","nameEn":"Nanning-Zhuhai Highspeed Railway","usage":"main","highspeed":"yes","status":"construction","color":"#397F9D","dataOrigin":"datum-2026-08-01","sourceKey":"way:1376693129"}},{"type":"Feature","geometry":{"type":"LineString","coordinates":[[111.3957184,22.807839],[111.4010629,22.8065022]]},"properties":{"key":"way:1376693134@detail:445_91","osmType":"way","osmId":1376693134,"sourceRegion":"guangdong","featureType":"infrastructure","railClass":"construction","mode":"construction","name":"南珠高速线","nameEn":"Nanning-Zhuhai Highspeed Railway","usage":"main","highspeed":"yes","status":"construction","color":"#397F9D","dataOrigin":"datum-2026-08-01","sourceKey":"way:1376693134"}},{"type":"Feature","geometry":{"type":"LineString","coordinates":[[111.3423635,22.8209077],[111.335266,22.8227308],[111.3103956,22.8304789],[111.2980766,22.8340752]]},"properties":{"key":"way:1458146909@detail:445_91","osmType":"way","osmId":1458146909,"sourceRegion":"guangdong","featureType":"infrastructure","railClass":"construction","mode":"construction","name":"南珠高速线","nameEn":"Nanning-Zhuhai Highspeed Railway","usage":"main","highspeed":"yes","status":"construction","color":"#397F9D","dataOrigin":"datum-2026-08-01","sourceKey":"way:1458146909"}},{"type":"Feature","geometry":{"type":"LineString","coordinates":[[111.4010629,22.8065022],[111.4197963,22.8024603],[111.4487681,22.7974458],[111.4616542,22.7951397],[111.4736676,22.7924848],[111.4808712,22.7908551],[111.4846479,22.7900031],[111.4861375,22.7897399],[111.4876834,22.789446],[111.4907713,22.7889534],[111.4952264,22.7883522],[111.4979963,22.7881426],[111.5,22.788098971906532]]},"properties":{"key":"way:1458146910@detail:445_91","osmType":"way","osmId":1458146910,"sourceRegion":"guangdong","featureType":"infrastructure","railClass":"construction","mode":"construction","name":"南珠高速线","nameEn":"Nanning-Zhuhai Highspeed Railway","usage":"main","highspeed":"yes","status":"construction","color":"#397F9D","dataOrigin":"datum-2026-08-01","sourceKey":"way:1458146910"}},{"type":"Feature","geometry":{"type":"LineString","coordinates":[[111.4010868,22.8065893],[111.4198164,22.8025482],[111.4487864,22.7975341],[111.4616749,22.7952275],[111.4736906,22.7925721],[111.4808944,22.7909424],[111.4846687,22.7900909],[111.4861565,22.789828],[111.4877016,22.7895343],[111.4907867,22.7890421],[111.4952375,22.7884415],[111.4980014,22.7882324],[111.5,22.788188830064563]]},"properties":{"key":"way:1509798791@detail:445_91","osmType":"way","osmId":1509798791,"sourceRegion":"guangdong","featureType":"infrastructure","railClass":"construction","mode":"construction","name":"南珠高速线","nameEn":"Nanning-Zhuhai Highspeed Railway","usage":"main","highspeed":"yes","status":"construction","color":"#397F9D","dataOrigin":"datum-2026-08-01","sourceKey":"way:1509798791"}},{"type":"Feature","geometry":{"type":"LineString","coordinates":[[111.395743,22.8079259],[111.4010868,22.8065893]]},"properties":{"key":"way:1509798793@detail:445_91","osmType":"way","osmId":1509798793,"sourceRegion":"guangdong","featureType":"infrastructure","railClass":"construction","mode":"construction","name":"南珠高速线","nameEn":"Nanning-Zhuhai Highspeed Railway","usage":"main","highspeed":"yes","status":"construction","color":"#397F9D","dataOrigin":"datum-2026-08-01","sourceKey":"way:1509798793"}},{"type":"Feature","geometry":{"type":"LineString","coordinates":[[111.3423906,22.820994],[111.3352947,22.8228167],[111.3104259,22.8305643],[111.2981047,22.8341612]]},"properties":{"key":"way:1509798802@detail:445_91","osmType":"way","osmId":1509798802,"sourceRegion":"guangdong","featureType":"infrastructure","railClass":"construction","mode":"construction","name":"南珠高速线","nameEn":"Nanning-Zhuhai Highspeed Railway","usage":"main","highspeed":"yes","status":"construction","color":"#397F9D","dataOrigin":"datum-2026-08-01","sourceKey":"way:1509798802"}},{"type":"Feature","geometry":{"type":"LineString","coordinates":[[111.395743,22.8079259],[111.3869193,22.8099682],[111.3760703,22.8120381],[111.3613559,22.815739],[111.3423906,22.820994]]},"properties":{"key":"way:1509798806@detail:445_91","osmType":"way","osmId":1509798806,"sourceRegion":"guangdong","featureType":"infrastructure","railClass":"construction","mode":"construction","name":"南珠高速线","nameEn":"Nanning-Zhuhai Highspeed Railway","usage":"main","highspeed":"yes","status":"construction","color":"#397F9D","dataOrigin":"datum-2026-08-01","sourceKey":"way:1509798806"}}]}