{"type":"FeatureCollection","features":[{"type":"Feature","geometry":{"type":"LineString","coordinates":[[111.46843737771346,22.0],[111.468458,22.000114],[111.468783,22.000988],[111.46926,22.001801],[111.469881,22.002541],[111.470629,22.003189],[111.471478,22.003686],[111.4724519,22.0041336]]},"properties":{"key":"way:424154310@detail:445_88","osmType":"way","osmId":424154310,"sourceRegion":"guangdong","featureType":"infrastructure","railClass":"national","mode":"rail","name":"广茂线","nameEn":"Guangmao Line","ref":"0708","operator":"中国铁路广州局集团有限公司","usage":"main","status":"operational","color":"#E54848","dataOrigin":"datum-2026-08-01","sourceKey":"way:424154310"}},{"type":"Feature","geometry":{"type":"LineString","coordinates":[[111.4724519,22.0041336],[111.4738986,22.0047985]]},"properties":{"key":"way:1191232137@detail:445_88","osmType":"way","osmId":1191232137,"sourceRegion":"guangdong","featureType":"infrastructure","railClass":"national","mode":"rail","name":"广茂线","nameEn":"Guangmao Line","ref":"0708","operator":"中国铁路广州局集团有限公司","usage":"main","bridge":"yes","status":"operational","color":"#E54848","dataOrigin":"datum-2026-08-01","sourceKey":"way:1191232137"}},{"type":"Feature","geometry":{"type":"LineString","coordinates":[[111.4738986,22.0047985],[111.479261,22.007263],[111.480623,22.007798],[111.488114,22.010196],[111.488301,22.0102786],[111.48925,22.010698],[111.490486,22.011516],[111.491545,22.012551],[111.491986,22.01314],[111.495893,22.019583],[111.496521,22.020581],[111.496959,22.02113],[111.497436,22.021639],[111.497965,22.022118],[111.5,22.023709575875483]]},"properties":{"key":"way:1191232138@detail:445_88","osmType":"way","osmId":1191232138,"sourceRegion":"guangdong","featureType":"infrastructure","railClass":"national","mode":"rail","name":"广茂线","nameEn":"Guangmao Line","ref":"0708","operator":"中国铁路广州局集团有限公司","usage":"main","status":"operational","color":"#E54848","dataOrigin":"datum-2026-08-01","sourceKey":"way:1191232138"}}]}