{"type":"FeatureCollection","features":[{"type":"Feature","geometry":{"type":"Point","coordinates":[111.4641282,23.2479552]},"properties":{"key":"node:4346679979","osmType":"node","osmId":4346679979,"sourceRegion":"guangdong","featureType":"station","railClass":"minor","mode":"station","name":"郁南","nameEn":"Yunan","status":"operational","color":"#52636F","dataOrigin":"datum-2026-08-01","sourceKey":"node:4346679979","stationGroup":"郁南","hasOperationalRail":true,"hasConstructionRail":false}},{"type":"Feature","geometry":{"type":"LineString","coordinates":[[111.4987523,23.2022494],[111.5,23.200848674681247]]},"properties":{"key":"way:549412315@detail:445_92","osmType":"way","osmId":549412315,"sourceRegion":"guangdong","featureType":"infrastructure","railClass":"highspeed","mode":"rail","name":"南广线","nameEn":"Nanguang Line","ref":"3029","usage":"main","highspeed":"yes","status":"operational","color":"#E54848","dataOrigin":"datum-2026-08-01","sourceKey":"way:549412315"}},{"type":"Feature","geometry":{"type":"LineString","coordinates":[[111.4979123,23.2033209],[111.4987523,23.2022494]]},"properties":{"key":"way:549412316@detail:445_92","osmType":"way","osmId":549412316,"sourceRegion":"guangdong","featureType":"infrastructure","railClass":"highspeed","mode":"rail","name":"南广线","nameEn":"Nanguang Line","ref":"3029","usage":"main","highspeed":"yes","bridge":"yes","status":"operational","color":"#E54848","dataOrigin":"datum-2026-08-01","sourceKey":"way:549412316"}},{"type":"Feature","geometry":{"type":"LineString","coordinates":[[111.4974044,23.2039687],[111.4979123,23.2033209]]},"properties":{"key":"way:549412317@detail:445_92","osmType":"way","osmId":549412317,"sourceRegion":"guangdong","featureType":"infrastructure","railClass":"highspeed","mode":"rail","name":"南广线","nameEn":"Nanguang Line","ref":"3029","usage":"main","highspeed":"yes","status":"operational","color":"#E54848","dataOrigin":"datum-2026-08-01","sourceKey":"way:549412317"}},{"type":"Feature","geometry":{"type":"LineString","coordinates":[[111.49659,23.205099],[111.4974044,23.2039687]]},"properties":{"key":"way:549412318@detail:445_92","osmType":"way","osmId":549412318,"sourceRegion":"guangdong","featureType":"infrastructure","railClass":"highspeed","mode":"rail","name":"南广线","nameEn":"Nanguang Line","ref":"3029","usage":"main","highspeed":"yes","bridge":"yes","status":"operational","color":"#E54848","dataOrigin":"datum-2026-08-01","sourceKey":"way:549412318"}},{"type":"Feature","geometry":{"type":"LineString","coordinates":[[111.4941482,23.2088103],[111.4961276,23.205788],[111.49659,23.205099]]},"properties":{"key":"way:549412319@detail:445_92","osmType":"way","osmId":549412319,"sourceRegion":"guangdong","featureType":"infrastructure","railClass":"highspeed","mode":"rail","name":"南广线","nameEn":"Nanguang Line","ref":"3029","usage":"main","highspeed":"yes","status":"operational","color":"#E54848","dataOrigin":"datum-2026-08-01","sourceKey":"way:549412319"}},{"type":"Feature","geometry":{"type":"LineString","coordinates":[[111.4932469,23.2103781],[111.4941482,23.2088103]]},"properties":{"key":"way:549412321@detail:445_92","osmType":"way","osmId":549412321,"sourceRegion":"guangdong","featureType":"infrastructure","railClass":"highspeed","mode":"rail","name":"南广线","nameEn":"Nanguang Line","ref":"3029","usage":"main","highspeed":"yes","tunnel":"yes","status":"operational","color":"#E54848","dataOrigin":"datum-2026-08-01","sourceKey":"way:549412321"}},{"type":"Feature","geometry":{"type":"LineString","coordinates":[[111.4920217,23.2127769],[111.4922009,23.212434],[111.4932469,23.2103781]]},"properties":{"key":"way:549412325@detail:445_92","osmType":"way","osmId":549412325,"sourceRegion":"guangdong","featureType":"infrastructure","railClass":"highspeed","mode":"rail","name":"南广线","nameEn":"Nanguang Line","ref":"3029","usage":"main","highspeed":"yes","status":"operational","color":"#E54848","dataOrigin":"datum-2026-08-01","sourceKey":"way:549412325"}},{"type":"Feature","geometry":{"type":"LineString","coordinates":[[111.4911428,23.2144589],[111.4920217,23.2127769]]},"properties":{"key":"way:549412327@detail:445_92","osmType":"way","osmId":549412327,"sourceRegion":"guangdong","featureType":"infrastructure","railClass":"highspeed","mode":"rail","name":"南广线","nameEn":"Nanguang Line","ref":"3029","usage":"main","highspeed":"yes","bridge":"yes","status":"operational","color":"#E54848","dataOrigin":"datum-2026-08-01","sourceKey":"way:549412327"}},{"type":"Feature","geometry":{"type":"LineString","coordinates":[[111.4903126,23.2160478],[111.4911428,23.2144589]]},"properties":{"key":"way:549412328@detail:445_92","osmType":"way","osmId":549412328,"sourceRegion":"guangdong","featureType":"infrastructure","railClass":"highspeed","mode":"rail","name":"南广线","nameEn":"Nanguang Line","ref":"3029","usage":"main","highspeed":"yes","status":"operational","color":"#E54848","dataOrigin":"datum-2026-08-01","sourceKey":"way:549412328"}},{"type":"Feature","geometry":{"type":"LineString","coordinates":[[111.4898967,23.2168292],[111.4903126,23.2160478]]},"properties":{"key":"way:549412329@detail:445_92","osmType":"way","osmId":549412329,"sourceRegion":"guangdong","featureType":"infrastructure","railClass":"highspeed","mode":"rail","name":"南广线","nameEn":"Nanguang Line","ref":"3029","usage":"main","highspeed":"yes","tunnel":"yes","status":"operational","color":"#E54848","dataOrigin":"datum-2026-08-01","sourceKey":"way:549412329"}},{"type":"Feature","geometry":{"type":"LineString","coordinates":[[111.4894651,23.2176401],[111.4898967,23.2168292]]},"properties":{"key":"way:549412330@detail:445_92","osmType":"way","osmId":549412330,"sourceRegion":"guangdong","featureType":"infrastructure","railClass":"highspeed","mode":"rail","name":"南广线","nameEn":"Nanguang Line","ref":"3029","usage":"main","highspeed":"yes","status":"operational","color":"#E54848","dataOrigin":"datum-2026-08-01","sourceKey":"way:549412330"}},{"type":"Feature","geometry":{"type":"LineString","coordinates":[[111.488183,23.2200707],[111.4894651,23.2176401]]},"properties":{"key":"way:549412331@detail:445_92","osmType":"way","osmId":549412331,"sourceRegion":"guangdong","featureType":"infrastructure","railClass":"highspeed","mode":"rail","name":"南广线","nameEn":"Nanguang Line","ref":"3029","usage":"main","highspeed":"yes","tunnel":"yes","status":"operational","color":"#E54848","dataOrigin":"datum-2026-08-01","sourceKey":"way:549412331"}},{"type":"Feature","geometry":{"type":"LineString","coordinates":[[111.4878736,23.2207564],[111.488183,23.2200707]]},"properties":{"key":"way:549412332@detail:445_92","osmType":"way","osmId":549412332,"sourceRegion":"guangdong","featureType":"infrastructure","railClass":"highspeed","mode":"rail","name":"南广线","nameEn":"Nanguang Line","ref":"3029","usage":"main","highspeed":"yes","status":"operational","color":"#E54848","dataOrigin":"datum-2026-08-01","sourceKey":"way:549412332"}},{"type":"Feature","geometry":{"type":"LineString","coordinates":[[111.4856885,23.2248377],[111.4878736,23.2207564]]},"properties":{"key":"way:549412333@detail:445_92","osmType":"way","osmId":549412333,"sourceRegion":"guangdong","featureType":"infrastructure","railClass":"highspeed","mode":"rail","name":"南广线","nameEn":"Nanguang Line","ref":"3029","usage":"main","highspeed":"yes","tunnel":"yes","status":"operational","color":"#E54848","dataOrigin":"datum-2026-08-01","sourceKey":"way:549412333"}},{"type":"Feature","geometry":{"type":"LineString","coordinates":[[111.481631,23.2313849],[111.4821372,23.2306941],[111.4831672,23.2291955],[111.484208,23.2274356],[111.4856885,23.2248377]]},"properties":{"key":"way:549412334@detail:445_92","osmType":"way","osmId":549412334,"sourceRegion":"guangdong","featureType":"infrastructure","railClass":"highspeed","mode":"rail","name":"南广线","nameEn":"Nanguang Line","ref":"3029","usage":"main","highspeed":"yes","bridge":"yes","status":"operational","color":"#E54848","dataOrigin":"datum-2026-08-01","sourceKey":"way:549412334"}},{"type":"Feature","geometry":{"type":"LineString","coordinates":[[111.4856273,23.2248092],[111.4841475,23.2274059],[111.483108,23.2291636],[111.4820798,23.2306597],[111.4815749,23.2313486]]},"properties":{"key":"way:631439650@detail:445_92","osmType":"way","osmId":631439650,"sourceRegion":"guangdong","featureType":"infrastructure","railClass":"highspeed","mode":"rail","name":"南广线","nameEn":"Nanguang Line","ref":"3029","usage":"main","highspeed":"yes","bridge":"yes","status":"operational","color":"#E54848","dataOrigin":"datum-2026-08-01","sourceKey":"way:631439650"}},{"type":"Feature","geometry":{"type":"LineString","coordinates":[[111.4878111,23.2207304],[111.4856273,23.2248092]]},"properties":{"key":"way:631439654@detail:445_92","osmType":"way","osmId":631439654,"sourceRegion":"guangdong","featureType":"infrastructure","railClass":"highspeed","mode":"rail","name":"南广线","nameEn":"Nanguang Line","ref":"3029","usage":"main","highspeed":"yes","tunnel":"yes","status":"operational","color":"#E54848","dataOrigin":"datum-2026-08-01","sourceKey":"way:631439654"}},{"type":"Feature","geometry":{"type":"LineString","coordinates":[[111.4881204,23.2200449],[111.4878111,23.2207304]]},"properties":{"key":"way:631439659@detail:445_92","osmType":"way","osmId":631439659,"sourceRegion":"guangdong","featureType":"infrastructure","railClass":"highspeed","mode":"rail","name":"南广线","nameEn":"Nanguang Line","ref":"3029","usage":"main","highspeed":"yes","status":"operational","color":"#E54848","dataOrigin":"datum-2026-08-01","sourceKey":"way:631439659"}},{"type":"Feature","geometry":{"type":"LineString","coordinates":[[111.4894034,23.2176125],[111.4881204,23.2200449]]},"properties":{"key":"way:631439662@detail:445_92","osmType":"way","osmId":631439662,"sourceRegion":"guangdong","featureType":"infrastructure","railClass":"highspeed","mode":"rail","name":"南广线","nameEn":"Nanguang Line","ref":"3029","usage":"main","highspeed":"yes","tunnel":"yes","status":"operational","color":"#E54848","dataOrigin":"datum-2026-08-01","sourceKey":"way:631439662"}},{"type":"Feature","geometry":{"type":"LineString","coordinates":[[111.4898351,23.2168015],[111.4894034,23.2176125]]},"properties":{"key":"way:631439667@detail:445_92","osmType":"way","osmId":631439667,"sourceRegion":"guangdong","featureType":"infrastructure","railClass":"highspeed","mode":"rail","name":"南广线","nameEn":"Nanguang Line","ref":"3029","usage":"main","highspeed":"yes","status":"operational","color":"#E54848","dataOrigin":"datum-2026-08-01","sourceKey":"way:631439667"}},{"type":"Feature","geometry":{"type":"LineString","coordinates":[[111.4902509,23.2160203],[111.4898351,23.2168015]]},"properties":{"key":"way:631439671@detail:445_92","osmType":"way","osmId":631439671,"sourceRegion":"guangdong","featureType":"infrastructure","railClass":"highspeed","mode":"rail","name":"南广线","nameEn":"Nanguang Line","ref":"3029","usage":"main","highspeed":"yes","tunnel":"yes","status":"operational","color":"#E54848","dataOrigin":"datum-2026-08-01","sourceKey":"way:631439671"}},{"type":"Feature","geometry":{"type":"LineString","coordinates":[[111.491081,23.2144316],[111.4902509,23.2160203]]},"properties":{"key":"way:631439675@detail:445_92","osmType":"way","osmId":631439675,"sourceRegion":"guangdong","featureType":"infrastructure","railClass":"highspeed","mode":"rail","name":"南广线","nameEn":"Nanguang Line","ref":"3029","usage":"main","highspeed":"yes","status":"operational","color":"#E54848","dataOrigin":"datum-2026-08-01","sourceKey":"way:631439675"}},{"type":"Feature","geometry":{"type":"LineString","coordinates":[[111.4919599,23.2127496],[111.491081,23.2144316]]},"properties":{"key":"way:631439679@detail:445_92","osmType":"way","osmId":631439679,"sourceRegion":"guangdong","featureType":"infrastructure","railClass":"highspeed","mode":"rail","name":"南广线","nameEn":"Nanguang Line","ref":"3029","usage":"main","highspeed":"yes","bridge":"yes","status":"operational","color":"#E54848","dataOrigin":"datum-2026-08-01","sourceKey":"way:631439679"}},{"type":"Feature","geometry":{"type":"LineString","coordinates":[[111.4931855,23.21035],[111.4921389,23.212407],[111.4919599,23.2127496]]},"properties":{"key":"way:631439680@detail:445_92","osmType":"way","osmId":631439680,"sourceRegion":"guangdong","featureType":"infrastructure","railClass":"highspeed","mode":"rail","name":"南广线","nameEn":"Nanguang Line","ref":"3029","usage":"main","highspeed":"yes","status":"operational","color":"#E54848","dataOrigin":"datum-2026-08-01","sourceKey":"way:631439680"}},{"type":"Feature","geometry":{"type":"LineString","coordinates":[[111.4940885,23.2087793],[111.4931855,23.21035]]},"properties":{"key":"way:631439684@detail:445_92","osmType":"way","osmId":631439684,"sourceRegion":"guangdong","featureType":"infrastructure","railClass":"highspeed","mode":"rail","name":"南广线","nameEn":"Nanguang Line","ref":"3029","usage":"main","highspeed":"yes","tunnel":"yes","status":"operational","color":"#E54848","dataOrigin":"datum-2026-08-01","sourceKey":"way:631439684"}},{"type":"Feature","geometry":{"type":"LineString","coordinates":[[111.4965322,23.205065],[111.496069,23.2057552],[111.4940885,23.2087793]]},"properties":{"key":"way:631439689@detail:445_92","osmType":"way","osmId":631439689,"sourceRegion":"guangdong","featureType":"infrastructure","railClass":"highspeed","mode":"rail","name":"南广线","nameEn":"Nanguang Line","ref":"3029","usage":"main","highspeed":"yes","status":"operational","color":"#E54848","dataOrigin":"datum-2026-08-01","sourceKey":"way:631439689"}},{"type":"Feature","geometry":{"type":"LineString","coordinates":[[111.497348,23.2039329],[111.4965322,23.205065]]},"properties":{"key":"way:631439693@detail:445_92","osmType":"way","osmId":631439693,"sourceRegion":"guangdong","featureType":"infrastructure","railClass":"highspeed","mode":"rail","name":"南广线","nameEn":"Nanguang Line","ref":"3029","usage":"main","highspeed":"yes","bridge":"yes","status":"operational","color":"#E54848","dataOrigin":"datum-2026-08-01","sourceKey":"way:631439693"}},{"type":"Feature","geometry":{"type":"LineString","coordinates":[[111.4978567,23.2032841],[111.497348,23.2039329]]},"properties":{"key":"way:631439698@detail:445_92","osmType":"way","osmId":631439698,"sourceRegion":"guangdong","featureType":"infrastructure","railClass":"highspeed","mode":"rail","name":"南广线","nameEn":"Nanguang Line","ref":"3029","usage":"main","highspeed":"yes","status":"operational","color":"#E54848","dataOrigin":"datum-2026-08-01","sourceKey":"way:631439698"}},{"type":"Feature","geometry":{"type":"LineString","coordinates":[[111.4986979,23.202211],[111.4978567,23.2032841]]},"properties":{"key":"way:631439702@detail:445_92","osmType":"way","osmId":631439702,"sourceRegion":"guangdong","featureType":"infrastructure","railClass":"highspeed","mode":"rail","name":"南广线","nameEn":"Nanguang Line","ref":"3029","usage":"main","highspeed":"yes","bridge":"yes","status":"operational","color":"#E54848","dataOrigin":"datum-2026-08-01","sourceKey":"way:631439702"}},{"type":"Feature","geometry":{"type":"LineString","coordinates":[[111.5,23.20074917045972],[111.4986979,23.202211]]},"properties":{"key":"way:631439706@detail:445_92","osmType":"way","osmId":631439706,"sourceRegion":"guangdong","featureType":"infrastructure","railClass":"highspeed","mode":"rail","name":"南广线","nameEn":"Nanguang Line","ref":"3029","usage":"main","highspeed":"yes","status":"operational","color":"#E54848","dataOrigin":"datum-2026-08-01","sourceKey":"way:631439706"}},{"type":"Feature","geometry":{"type":"LineString","coordinates":[[111.4784603,23.2352902],[111.479561,23.2339292]]},"properties":{"key":"way:643525231@detail:445_92","osmType":"way","osmId":643525231,"sourceRegion":"guangdong","featureType":"infrastructure","railClass":"highspeed","mode":"rail","name":"南广线","nameEn":"Nanguang Line","ref":"3029","usage":"main","highspeed":"yes","status":"operational","color":"#E54848","dataOrigin":"datum-2026-08-01","sourceKey":"way:643525231"}},{"type":"Feature","geometry":{"type":"LineString","coordinates":[[111.4795058,23.2338814],[111.4785177,23.2351539]]},"properties":{"key":"way:643525232@detail:445_92","osmType":"way","osmId":643525232,"sourceRegion":"guangdong","featureType":"infrastructure","railClass":"highspeed","mode":"rail","name":"南广线","nameEn":"Nanguang Line","ref":"3029","usage":"main","highspeed":"yes","status":"operational","color":"#E54848","dataOrigin":"datum-2026-08-01","sourceKey":"way:643525232"}},{"type":"Feature","geometry":{"type":"LineString","coordinates":[[111.4807735,23.232352],[111.4795058,23.2338814]]},"properties":{"key":"way:643525233@detail:445_92","osmType":"way","osmId":643525233,"sourceRegion":"guangdong","featureType":"infrastructure","railClass":"highspeed","mode":"rail","name":"南广线","nameEn":"Nanguang Line","ref":"3029","usage":"main","highspeed":"yes","bridge":"yes","status":"operational","color":"#E54848","dataOrigin":"datum-2026-08-01","sourceKey":"way:643525233"}},{"type":"Feature","geometry":{"type":"LineString","coordinates":[[111.479561,23.2339292],[111.4808283,23.2323899]]},"properties":{"key":"way:643525234@detail:445_92","osmType":"way","osmId":643525234,"sourceRegion":"guangdong","featureType":"infrastructure","railClass":"highspeed","mode":"rail","name":"南广线","nameEn":"Nanguang Line","ref":"3029","usage":"main","highspeed":"yes","bridge":"yes","status":"operational","color":"#E54848","dataOrigin":"datum-2026-08-01","sourceKey":"way:643525234"}},{"type":"Feature","geometry":{"type":"LineString","coordinates":[[111.4815749,23.2313486],[111.4807735,23.232352]]},"properties":{"key":"way:643525235@detail:445_92","osmType":"way","osmId":643525235,"sourceRegion":"guangdong","featureType":"infrastructure","railClass":"highspeed","mode":"rail","name":"南广线","nameEn":"Nanguang Line","ref":"3029","usage":"main","highspeed":"yes","status":"operational","color":"#E54848","dataOrigin":"datum-2026-08-01","sourceKey":"way:643525235"}},{"type":"Feature","geometry":{"type":"LineString","coordinates":[[111.4808283,23.2323899],[111.481631,23.2313849]]},"properties":{"key":"way:643525236@detail:445_92","osmType":"way","osmId":643525236,"sourceRegion":"guangdong","featureType":"infrastructure","railClass":"highspeed","mode":"rail","name":"南广线","nameEn":"Nanguang Line","ref":"3029","usage":"main","highspeed":"yes","status":"operational","color":"#E54848","dataOrigin":"datum-2026-08-01","sourceKey":"way:643525236"}},{"type":"Feature","geometry":{"type":"LineString","coordinates":[[111.46172775544782,23.25],[111.4702245,23.2428768],[111.4726298,23.2408603],[111.4758336,23.2379322]]},"properties":{"key":"way:840660660@detail:445_92","osmType":"way","osmId":840660660,"sourceRegion":"guangdong","featureType":"infrastructure","railClass":"highspeed","mode":"rail","name":"南广线","nameEn":"Nanguang Line","ref":"3029","usage":"main","highspeed":"yes","status":"operational","color":"#E54848","dataOrigin":"datum-2026-08-01","sourceKey":"way:840660660"}},{"type":"Feature","geometry":{"type":"LineString","coordinates":[[111.4758036,23.237881],[111.4753939,23.238221],[111.4739785,23.2394427],[111.4725755,23.2408157],[111.46160316213358,23.25]]},"properties":{"key":"way:840660661@detail:445_92","osmType":"way","osmId":840660661,"sourceRegion":"guangdong","featureType":"infrastructure","railClass":"highspeed","mode":"rail","name":"南广线","nameEn":"Nanguang Line","ref":"3029","usage":"main","highspeed":"yes","status":"operational","color":"#E54848","dataOrigin":"datum-2026-08-01","sourceKey":"way:840660661"}},{"type":"Feature","geometry":{"type":"LineString","coordinates":[[111.4702245,23.2428768],[111.4697535,23.2434491],[111.4696741,23.2436636],[111.4691978,23.2448994],[111.4688989,23.2453456],[111.4685814,23.2456803],[111.4673905,23.246663]]},"properties":{"key":"way:840660671@detail:445_92","osmType":"way","osmId":840660671,"sourceRegion":"guangdong","featureType":"infrastructure","railClass":"national","mode":"rail","name":"未命名","status":"operational","color":"#E54848","dataOrigin":"datum-2026-08-01","sourceKey":"way:840660671"}},{"type":"Feature","geometry":{"type":"LineString","coordinates":[[111.4696741,23.2436636],[111.4694079,23.2441142],[111.468969,23.2446634],[111.4683479,23.2452041],[111.467087,23.2462725]]},"properties":{"key":"way:840660672@detail:445_92","osmType":"way","osmId":840660672,"sourceRegion":"guangdong","featureType":"infrastructure","railClass":"national","mode":"rail","name":"未命名","status":"operational","color":"#E54848","dataOrigin":"datum-2026-08-01","sourceKey":"way:840660672"}},{"type":"Feature","geometry":{"type":"LineString","coordinates":[[111.4785177,23.2351539],[111.4777651,23.2359699],[111.4758036,23.237881]]},"properties":{"key":"way:1391060965@detail:445_92","osmType":"way","osmId":1391060965,"sourceRegion":"guangdong","featureType":"infrastructure","railClass":"highspeed","mode":"rail","name":"南广线","nameEn":"Nanguang Line","ref":"3029","usage":"main","highspeed":"yes","bridge":"yes","status":"operational","color":"#E54848","dataOrigin":"datum-2026-08-01","sourceKey":"way:1391060965"}},{"type":"Feature","geometry":{"type":"LineString","coordinates":[[111.4758336,23.2379322],[111.4763035,23.2374742],[111.4778224,23.2360082],[111.4780842,23.2356987],[111.4784603,23.2352902]]},"properties":{"key":"way:1391060966@detail:445_92","osmType":"way","osmId":1391060966,"sourceRegion":"guangdong","featureType":"infrastructure","railClass":"highspeed","mode":"rail","name":"南广线","nameEn":"Nanguang Line","ref":"3029","usage":"main","highspeed":"yes","bridge":"yes","status":"operational","color":"#E54848","dataOrigin":"datum-2026-08-01","sourceKey":"way:1391060966"}}]}