{"type":"FeatureCollection","features":[{"type":"Feature","geometry":{"type":"Point","coordinates":[111.3079857,21.4697829]},"properties":{"key":"node:10302396511","osmType":"node","osmId":10302396511,"sourceRegion":"guangdong","featureType":"station","railClass":"minor","mode":"station","name":"博贺","status":"operational","color":"#52636F","dataOrigin":"datum-2026-08-01","sourceKey":"node:10302396511","stationGroup":"博贺","hasOperationalRail":true,"hasConstructionRail":false}},{"type":"Feature","geometry":{"type":"LineString","coordinates":[[111.3263726,21.4926259],[111.323905,21.4884929],[111.3231861,21.4875845],[111.3206756,21.4851386],[111.318878,21.4835004],[111.3185815,21.4832193],[111.3177574,21.4824503],[111.3164847,21.4810696],[111.313083,21.4764839],[111.3117107,21.4745714],[111.3110462,21.4737064],[111.3099924,21.4723344],[111.3084222,21.4702903],[111.3065329,21.4676966],[111.3039865,21.4642853],[111.3036026,21.463771],[111.3027692,21.4626544],[111.3026523,21.4625069]]},"properties":{"key":"way:1126683860@detail:445_85","osmType":"way","osmId":1126683860,"sourceRegion":"guangdong","featureType":"infrastructure","railClass":"national","mode":"rail","name":"博贺疏港铁路","nameEn":"Bohe Dredging Port Railway","usage":"branch","status":"operational","color":"#E54848","dataOrigin":"datum-2026-08-01","sourceKey":"way:1126683860"}},{"type":"Feature","geometry":{"type":"LineString","coordinates":[[111.3026523,21.4625069],[111.3024752,21.4623165],[111.3022831,21.4621408],[111.3020491,21.4619394],[111.3013667,21.4614668],[111.2995234,21.4599496]]},"properties":{"key":"way:1126683862@detail:445_85","osmType":"way","osmId":1126683862,"sourceRegion":"guangdong","featureType":"infrastructure","railClass":"minor","mode":"rail","name":"博贺疏港铁路","nameEn":"Bohe Dredging Port Railway","service":"yard","status":"operational","color":"#52636F","dataOrigin":"datum-2026-08-01","sourceKey":"way:1126683862"}},{"type":"Feature","geometry":{"type":"LineString","coordinates":[[111.33071980541712,21.5],[111.3297093,21.4982261],[111.3288188,21.4967188],[111.3286364,21.4964218],[111.3263726,21.4926259]]},"properties":{"key":"way:1126683866@detail:445_85","osmType":"way","osmId":1126683866,"sourceRegion":"guangdong","featureType":"infrastructure","railClass":"national","mode":"rail","name":"博贺疏港铁路","nameEn":"Bohe Dredging Port Railway","usage":"branch","status":"operational","color":"#E54848","dataOrigin":"datum-2026-08-01","sourceKey":"way:1126683866"}},{"type":"Feature","geometry":{"type":"LineString","coordinates":[[111.3026523,21.4625069],[111.3015034,21.4609385],[111.3003463,21.4593886],[111.29951,21.4582916],[111.2991964,21.4578252],[111.2990732,21.4575895],[111.298872,21.4572046],[111.2986467,21.4567525],[111.2984256,21.4563449],[111.2980743,21.4558566],[111.2978098,21.4555821],[111.2959971,21.4539435],[111.2953336,21.4533462],[111.2934429,21.4517116],[111.2927729,21.4510994],[111.2925272,21.4509098],[111.2923114,21.4507731],[111.2919908,21.4505863],[111.2917691,21.4504664],[111.2914785,21.4503548],[111.2911519,21.4502209],[111.2905017,21.4500397],[111.2896147,21.4497859],[111.2893301,21.4496799],[111.2890454,21.4495433],[111.2887368,21.449362],[111.2884671,21.4491668],[111.2883023,21.449019],[111.2880027,21.4486369],[111.2873195,21.4477467],[111.286954,21.4472704],[111.2834584,21.4427404],[111.2830438,21.4422031],[111.2819729,21.4407953],[111.2818141,21.4405164],[111.2816972,21.4401846],[111.2816522,21.4399782],[111.2816223,21.4397913],[111.2815983,21.4395068],[111.2816043,21.439253],[111.2816433,21.4389407],[111.2817075,21.438691],[111.2818337,21.4383622],[111.281949,21.4381139],[111.2821148,21.4378589],[111.2823095,21.4376173],[111.2825438,21.4373892],[111.2841135,21.4360058],[111.2842532,21.4358827],[111.2863682,21.4340537]]},"properties":{"key":"way:1516760112@detail:445_85","osmType":"way","osmId":1516760112,"sourceRegion":"guangdong","featureType":"infrastructure","railClass":"minor","mode":"rail","name":"博贺疏港铁路","nameEn":"Bohe Dredging Port Railway","usage":"industrial","service":"spur","status":"operational","color":"#52636F","dataOrigin":"datum-2026-08-01","sourceKey":"way:1516760112"}},{"type":"Feature","geometry":{"type":"LineString","coordinates":[[111.3036026,21.463771],[111.3044268,21.4645215],[111.3049472,21.4649694],[111.3051901,21.465256],[111.3099602,21.4716645],[111.3102898,21.472173],[111.3106237,21.4728994],[111.3110462,21.4737064]]},"properties":{"key":"way:1516761132@detail:445_85","osmType":"way","osmId":1516761132,"sourceRegion":"guangdong","featureType":"infrastructure","railClass":"minor","mode":"rail","name":"未命名","usage":"industrial","service":"yard","status":"operational","color":"#52636F","dataOrigin":"datum-2026-08-01","sourceKey":"way:1516761132"}},{"type":"Feature","geometry":{"type":"LineString","coordinates":[[111.3039865,21.4642853],[111.3043034,21.4648309],[111.3092335,21.4714054],[111.3099924,21.4723344]]},"properties":{"key":"way:1517288924@detail:445_85","osmType":"way","osmId":1517288924,"sourceRegion":"guangdong","featureType":"infrastructure","railClass":"minor","mode":"rail","name":"未命名","usage":"industrial","service":"yard","status":"operational","color":"#52636F","dataOrigin":"datum-2026-08-01","sourceKey":"way:1517288924"}}]}