{"type":"FeatureCollection","features":[{"type":"Feature","geometry":{"type":"Point","coordinates":[111.3608215,21.6840348]},"properties":{"key":"node:8976366466","osmType":"node","osmId":8976366466,"sourceRegion":"guangdong","featureType":"station","railClass":"minor","mode":"station","name":"马踏","status":"operational","color":"#52636F","dataOrigin":"datum-2026-08-01","sourceKey":"node:8976366466","stationGroup":"马踏","hasOperationalRail":true,"hasConstructionRail":false}},{"type":"Feature","geometry":{"type":"Point","coordinates":[111.3604164,21.6840708]},"properties":{"key":"node:8976366513","osmType":"node","osmId":8976366513,"sourceRegion":"guangdong","featureType":"station","railClass":"minor","mode":"stop","name":"马踏","status":"operational","color":"#52636F","dataOrigin":"datum-2026-08-01","sourceKey":"node:8976366513","stationGroup":"马踏","hasOperationalRail":true,"hasConstructionRail":false}},{"type":"Feature","geometry":{"type":"Point","coordinates":[111.3603126,21.6842045]},"properties":{"key":"node:8976366514","osmType":"node","osmId":8976366514,"sourceRegion":"guangdong","featureType":"station","railClass":"minor","mode":"stop","name":"马踏","status":"operational","color":"#52636F","dataOrigin":"datum-2026-08-01","sourceKey":"node:8976366514","stationGroup":"马踏","hasOperationalRail":true,"hasConstructionRail":false}},{"type":"Feature","geometry":{"type":"Point","coordinates":[111.3113248,21.5405046]},"properties":{"key":"node:10302396545","osmType":"node","osmId":10302396545,"sourceRegion":"guangdong","featureType":"station","railClass":"minor","mode":"station","name":"电城","status":"operational","color":"#52636F","dataOrigin":"datum-2026-08-01","sourceKey":"node:10302396545","stationGroup":"电城","hasOperationalRail":true,"hasConstructionRail":false}},{"type":"Feature","geometry":{"type":"LineString","coordinates":[[111.3725387,21.6905468],[111.3709699,21.6898563],[111.3689725,21.6889038],[111.368258,21.6885258],[111.3657303,21.6871455],[111.3652776,21.6868888],[111.3635709,21.685921],[111.3624313,21.6852747],[111.3552477,21.6812171],[111.3548734,21.6810057],[111.3534996,21.6802243],[111.3500225,21.6782469]]},"properties":{"key":"way:523814684@detail:445_86","osmType":"way","osmId":523814684,"sourceRegion":"guangdong","featureType":"infrastructure","railClass":"highspeed","mode":"rail","name":"深湛线","nameEn":"Shenzhen-Zhanjiang Railway","ref":"3071","operator":"中国铁路广州局集团有限公司","usage":"main","highspeed":"yes","status":"operational","color":"#E54848","dataOrigin":"datum-2026-08-01","sourceKey":"way:523814684"}},{"type":"Feature","geometry":{"type":"LineString","coordinates":[[111.2814832,21.678444],[111.2772434,21.6794862],[111.2621814,21.6842364],[111.2563281,21.6861009],[111.2534607,21.6870698]]},"properties":{"key":"way:775812325@detail:445_86","osmType":"way","osmId":775812325,"sourceRegion":"guangdong","featureType":"infrastructure","railClass":"highspeed","mode":"rail","name":"深湛线","nameEn":"Shenzhen-Zhanjiang Railway","ref":"3071","operator":"中国铁路广州局集团有限公司","usage":"main","highspeed":"yes","status":"operational","color":"#E54848","dataOrigin":"datum-2026-08-01","sourceKey":"way:775812325"}},{"type":"Feature","geometry":{"type":"LineString","coordinates":[[111.2814724,21.6783493],[111.2772292,21.6794435],[111.2621659,21.6841941],[111.2563133,21.6860584],[111.2534462,21.6869873]]},"properties":{"key":"way:775812326@detail:445_86","osmType":"way","osmId":775812326,"sourceRegion":"guangdong","featureType":"infrastructure","railClass":"highspeed","mode":"rail","name":"深湛线","nameEn":"Shenzhen-Zhanjiang Railway","ref":"3071","operator":"中国铁路广州局集团有限公司","usage":"main","highspeed":"yes","status":"operational","color":"#E54848","dataOrigin":"datum-2026-08-01","sourceKey":"way:775812326"}},{"type":"Feature","geometry":{"type":"LineString","coordinates":[[111.2942827,21.6751975],[111.2933736,21.6754282]]},"properties":{"key":"way:775812327@detail:445_86","osmType":"way","osmId":775812327,"sourceRegion":"guangdong","featureType":"infrastructure","railClass":"highspeed","mode":"rail","name":"深湛线","nameEn":"Shenzhen-Zhanjiang Railway","ref":"3071","operator":"中国铁路广州局集团有限公司","usage":"main","highspeed":"yes","bridge":"yes","status":"operational","color":"#E54848","dataOrigin":"datum-2026-08-01","sourceKey":"way:775812327"}},{"type":"Feature","geometry":{"type":"LineString","coordinates":[[111.2942724,21.6752442],[111.2933915,21.6754676]]},"properties":{"key":"way:775812328@detail:445_86","osmType":"way","osmId":775812328,"sourceRegion":"guangdong","featureType":"infrastructure","railClass":"highspeed","mode":"rail","name":"深湛线","nameEn":"Shenzhen-Zhanjiang Railway","ref":"3071","operator":"中国铁路广州局集团有限公司","usage":"main","highspeed":"yes","bridge":"yes","status":"operational","color":"#E54848","dataOrigin":"datum-2026-08-01","sourceKey":"way:775812328"}},{"type":"Feature","geometry":{"type":"LineString","coordinates":[[111.3215111,21.6692613],[111.3185298,21.6694084],[111.316368,21.6697674],[111.3148177,21.6700565],[111.3126397,21.6705401],[111.2942827,21.6751975]]},"properties":{"key":"way:880574703@detail:445_86","osmType":"way","osmId":880574703,"sourceRegion":"guangdong","featureType":"infrastructure","railClass":"highspeed","mode":"rail","name":"深湛线","nameEn":"Shenzhen-Zhanjiang Railway","ref":"3071","operator":"中国铁路广州局集团有限公司","usage":"main","highspeed":"yes","status":"operational","color":"#E54848","dataOrigin":"datum-2026-08-01","sourceKey":"way:880574703"}},{"type":"Feature","geometry":{"type":"LineString","coordinates":[[111.321888,21.6692651],[111.3215111,21.6692613]]},"properties":{"key":"way:880574704@detail:445_86","osmType":"way","osmId":880574704,"sourceRegion":"guangdong","featureType":"infrastructure","railClass":"highspeed","mode":"rail","name":"深湛线","nameEn":"Shenzhen-Zhanjiang Railway","ref":"3071","operator":"中国铁路广州局集团有限公司","usage":"main","highspeed":"yes","bridge":"yes","status":"operational","color":"#E54848","dataOrigin":"datum-2026-08-01","sourceKey":"way:880574704"}},{"type":"Feature","geometry":{"type":"LineString","coordinates":[[111.378103,21.69243],[111.3779193,21.6923677]]},"properties":{"key":"way:880574705@detail:445_86","osmType":"way","osmId":880574705,"sourceRegion":"guangdong","featureType":"infrastructure","railClass":"highspeed","mode":"rail","name":"深湛线","nameEn":"Shenzhen-Zhanjiang Railway","ref":"3071","operator":"中国铁路广州局集团有限公司","usage":"main","highspeed":"yes","bridge":"yes","status":"operational","color":"#E54848","dataOrigin":"datum-2026-08-01","sourceKey":"way:880574705"}},{"type":"Feature","geometry":{"type":"LineString","coordinates":[[111.4308541,21.7120627],[111.4173156,21.7063498],[111.4079654,21.7024622],[111.404618,21.7010766],[111.4021611,21.7000499],[111.3994038,21.6989135],[111.3973439,21.6981957],[111.3899678,21.696025],[111.378103,21.69243]]},"properties":{"key":"way:880574706@detail:445_86","osmType":"way","osmId":880574706,"sourceRegion":"guangdong","featureType":"infrastructure","railClass":"highspeed","mode":"rail","name":"深湛线","nameEn":"Shenzhen-Zhanjiang Railway","ref":"3071","operator":"中国铁路广州局集团有限公司","usage":"main","highspeed":"yes","status":"operational","color":"#E54848","dataOrigin":"datum-2026-08-01","sourceKey":"way:880574706"}},{"type":"Feature","geometry":{"type":"LineString","coordinates":[[111.4311732,21.7121947],[111.4308541,21.7120627]]},"properties":{"key":"way:880574707@detail:445_86","osmType":"way","osmId":880574707,"sourceRegion":"guangdong","featureType":"infrastructure","railClass":"highspeed","mode":"rail","name":"深湛线","nameEn":"Shenzhen-Zhanjiang Railway","ref":"3071","operator":"中国铁路广州局集团有限公司","usage":"main","highspeed":"yes","bridge":"yes","status":"operational","color":"#E54848","dataOrigin":"datum-2026-08-01","sourceKey":"way:880574707"}},{"type":"Feature","geometry":{"type":"LineString","coordinates":[[111.4652064,21.7300482],[111.4647451,21.7298053],[111.4616418,21.727949],[111.4551723,21.7242813],[111.4494645,21.7208228],[111.4431775,21.7173043],[111.4393902,21.7155301],[111.4364076,21.7142942],[111.4339507,21.7133448],[111.4311732,21.7121947]]},"properties":{"key":"way:880574708@detail:445_86","osmType":"way","osmId":880574708,"sourceRegion":"guangdong","featureType":"infrastructure","railClass":"highspeed","mode":"rail","name":"深湛线","nameEn":"Shenzhen-Zhanjiang Railway","ref":"3071","operator":"中国铁路广州局集团有限公司","usage":"main","highspeed":"yes","status":"operational","color":"#E54848","dataOrigin":"datum-2026-08-01","sourceKey":"way:880574708"}},{"type":"Feature","geometry":{"type":"LineString","coordinates":[[111.4654371,21.7301715],[111.4652064,21.7300482]]},"properties":{"key":"way:880574709@detail:445_86","osmType":"way","osmId":880574709,"sourceRegion":"guangdong","featureType":"infrastructure","railClass":"highspeed","mode":"rail","name":"深湛线","nameEn":"Shenzhen-Zhanjiang Railway","ref":"3071","operator":"中国铁路广州局集团有限公司","usage":"main","highspeed":"yes","bridge":"yes","status":"operational","color":"#E54848","dataOrigin":"datum-2026-08-01","sourceKey":"way:880574709"}},{"type":"Feature","geometry":{"type":"LineString","coordinates":[[111.5,21.744098216598946],[111.4973232,21.7432046],[111.4925194,21.7412538],[111.4829922,21.7373871],[111.4748812,21.7340983],[111.4693075,21.731968],[111.4654371,21.7301715]]},"properties":{"key":"way:880574710@detail:445_86","osmType":"way","osmId":880574710,"sourceRegion":"guangdong","featureType":"infrastructure","railClass":"highspeed","mode":"rail","name":"深湛线","nameEn":"Shenzhen-Zhanjiang Railway","ref":"3071","operator":"中国铁路广州局集团有限公司","usage":"main","highspeed":"yes","status":"operational","color":"#E54848","dataOrigin":"datum-2026-08-01","sourceKey":"way:880574710"}},{"type":"Feature","geometry":{"type":"LineString","coordinates":[[111.5,21.744148489109328],[111.4972873,21.7432413],[111.4925006,21.7412949],[111.482973,21.737428],[111.4748621,21.7341393],[111.4692819,21.732011],[111.4669016,21.7309614],[111.4654183,21.7302077]]},"properties":{"key":"way:880576978@detail:445_86","osmType":"way","osmId":880576978,"sourceRegion":"guangdong","featureType":"infrastructure","railClass":"highspeed","mode":"rail","name":"深湛线","nameEn":"Shenzhen-Zhanjiang Railway","ref":"3071","operator":"中国铁路广州局集团有限公司","usage":"main","highspeed":"yes","status":"operational","color":"#E54848","dataOrigin":"datum-2026-08-01","sourceKey":"way:880576978"}},{"type":"Feature","geometry":{"type":"LineString","coordinates":[[111.465181,21.7300881],[111.4646358,21.7298069],[111.4616165,21.727987],[111.4551466,21.7243191],[111.449439,21.7208607],[111.4431542,21.7173434],[111.4393696,21.7155705],[111.436388,21.714335],[111.4339229,21.713403],[111.4311665,21.7122458]]},"properties":{"key":"way:880576979@detail:445_86","osmType":"way","osmId":880576979,"sourceRegion":"guangdong","featureType":"infrastructure","railClass":"highspeed","mode":"rail","name":"深湛线","nameEn":"Shenzhen-Zhanjiang Railway","ref":"3071","operator":"中国铁路广州局集团有限公司","usage":"main","highspeed":"yes","status":"operational","color":"#E54848","dataOrigin":"datum-2026-08-01","sourceKey":"way:880576979"}},{"type":"Feature","geometry":{"type":"LineString","coordinates":[[111.4654183,21.7302077],[111.465181,21.7300881]]},"properties":{"key":"way:880576980@detail:445_86","osmType":"way","osmId":880576980,"sourceRegion":"guangdong","featureType":"infrastructure","railClass":"highspeed","mode":"rail","name":"深湛线","nameEn":"Shenzhen-Zhanjiang Railway","ref":"3071","operator":"中国铁路广州局集团有限公司","usage":"main","highspeed":"yes","bridge":"yes","status":"operational","color":"#E54848","dataOrigin":"datum-2026-08-01","sourceKey":"way:880576980"}},{"type":"Feature","geometry":{"type":"LineString","coordinates":[[111.4308313,21.712105],[111.417296,21.7063906],[111.4079458,21.702503],[111.4045984,21.7011174],[111.4021415,21.7000907],[111.3993856,21.6989549],[111.397328,21.6982379],[111.3899555,21.6960625],[111.3780883,21.6924674]]},"properties":{"key":"way:880576981@detail:445_86","osmType":"way","osmId":880576981,"sourceRegion":"guangdong","featureType":"infrastructure","railClass":"highspeed","mode":"rail","name":"深湛线","nameEn":"Shenzhen-Zhanjiang Railway","ref":"3071","operator":"中国铁路广州局集团有限公司","usage":"main","highspeed":"yes","status":"operational","color":"#E54848","dataOrigin":"datum-2026-08-01","sourceKey":"way:880576981"}},{"type":"Feature","geometry":{"type":"LineString","coordinates":[[111.4311665,21.7122458],[111.4308313,21.712105]]},"properties":{"key":"way:880576982@detail:445_86","osmType":"way","osmId":880576982,"sourceRegion":"guangdong","featureType":"infrastructure","railClass":"highspeed","mode":"rail","name":"深湛线","nameEn":"Shenzhen-Zhanjiang Railway","ref":"3071","operator":"中国铁路广州局集团有限公司","usage":"main","highspeed":"yes","bridge":"yes","status":"operational","color":"#E54848","dataOrigin":"datum-2026-08-01","sourceKey":"way:880576982"}},{"type":"Feature","geometry":{"type":"LineString","coordinates":[[111.3725185,21.6905833],[111.3724542,21.690557],[111.3709709,21.6899188],[111.3697039,21.6893251],[111.3685093,21.6887343],[111.3656572,21.687157],[111.3646744,21.6866026],[111.3635368,21.6859608],[111.3622278,21.6852223],[111.3560833,21.6817452],[111.3552238,21.6812561],[111.3541735,21.6806585],[111.3500523,21.678326]]},"properties":{"key":"way:880576983@detail:445_86","osmType":"way","osmId":880576983,"sourceRegion":"guangdong","featureType":"infrastructure","railClass":"highspeed","mode":"rail","name":"深湛线","nameEn":"Shenzhen-Zhanjiang Railway","ref":"3071","operator":"中国铁路广州局集团有限公司","usage":"main","highspeed":"yes","status":"operational","color":"#E54848","dataOrigin":"datum-2026-08-01","sourceKey":"way:880576983"}},{"type":"Feature","geometry":{"type":"LineString","coordinates":[[111.3780883,21.6924674],[111.3778925,21.6924051]]},"properties":{"key":"way:880576984@detail:445_86","osmType":"way","osmId":880576984,"sourceRegion":"guangdong","featureType":"infrastructure","railClass":"highspeed","mode":"rail","name":"深湛线","nameEn":"Shenzhen-Zhanjiang Railway","ref":"3071","operator":"中国铁路广州局集团有限公司","usage":"main","highspeed":"yes","bridge":"yes","status":"operational","color":"#E54848","dataOrigin":"datum-2026-08-01","sourceKey":"way:880576984"}},{"type":"Feature","geometry":{"type":"LineString","coordinates":[[111.3215071,21.6693062],[111.3185358,21.6694528],[111.316377,21.6698113],[111.314828,21.6701002],[111.3126515,21.6705834],[111.2942724,21.6752442]]},"properties":{"key":"way:880576985@detail:445_86","osmType":"way","osmId":880576985,"sourceRegion":"guangdong","featureType":"infrastructure","railClass":"highspeed","mode":"rail","name":"深湛线","nameEn":"Shenzhen-Zhanjiang Railway","ref":"3071","operator":"中国铁路广州局集团有限公司","usage":"main","highspeed":"yes","status":"operational","color":"#E54848","dataOrigin":"datum-2026-08-01","sourceKey":"way:880576985"}},{"type":"Feature","geometry":{"type":"LineString","coordinates":[[111.3218839,21.6693087],[111.3215071,21.6693062]]},"properties":{"key":"way:880576986@detail:445_86","osmType":"way","osmId":880576986,"sourceRegion":"guangdong","featureType":"infrastructure","railClass":"highspeed","mode":"rail","name":"深湛线","nameEn":"Shenzhen-Zhanjiang Railway","ref":"3071","operator":"中国铁路广州局集团有限公司","usage":"main","highspeed":"yes","bridge":"yes","status":"operational","color":"#E54848","dataOrigin":"datum-2026-08-01","sourceKey":"way:880576986"}},{"type":"Feature","geometry":{"type":"LineString","coordinates":[[111.3360309,21.6713007],[111.334966,21.6709521],[111.333639,21.6705326],[111.3320804,21.6701151],[111.3298566,21.6696967],[111.3283676,21.6694927],[111.3261003,21.6692834],[111.3246164,21.6691839],[111.3233613,21.6692886],[111.3218839,21.6693087]]},"properties":{"key":"way:970008770@detail:445_86","osmType":"way","osmId":970008770,"sourceRegion":"guangdong","featureType":"infrastructure","railClass":"highspeed","mode":"rail","name":"深湛线","nameEn":"Shenzhen-Zhanjiang Railway","ref":"3071","operator":"中国铁路广州局集团有限公司","usage":"main","highspeed":"yes","status":"operational","color":"#E54848","dataOrigin":"datum-2026-08-01","sourceKey":"way:970008770"}},{"type":"Feature","geometry":{"type":"LineString","coordinates":[[111.3360469,21.6712546],[111.3349868,21.6709031],[111.3337058,21.6704503],[111.3320911,21.6700715],[111.3298649,21.6696527],[111.3283735,21.6694483],[111.3261044,21.6692389],[111.3246185,21.6691392],[111.3233739,21.6692365],[111.321888,21.6692651]]},"properties":{"key":"way:970008771@detail:445_86","osmType":"way","osmId":970008771,"sourceRegion":"guangdong","featureType":"infrastructure","railClass":"highspeed","mode":"rail","name":"深湛线","nameEn":"Shenzhen-Zhanjiang Railway","ref":"3071","operator":"中国铁路广州局集团有限公司","usage":"main","highspeed":"yes","status":"operational","color":"#E54848","dataOrigin":"datum-2026-08-01","sourceKey":"way:970008771"}},{"type":"Feature","geometry":{"type":"LineString","coordinates":[[111.3454626,21.6757276],[111.3454116,21.6756999],[111.3429464,21.6743007],[111.3419329,21.6737552],[111.341047,21.6733204],[111.3399024,21.6727846],[111.3388074,21.6723167],[111.3378781,21.6719501],[111.3363238,21.6713965],[111.3360309,21.6713007]]},"properties":{"key":"way:970008772@detail:445_86","osmType":"way","osmId":970008772,"sourceRegion":"guangdong","featureType":"infrastructure","railClass":"highspeed","mode":"rail","name":"深湛线","nameEn":"Shenzhen-Zhanjiang Railway","ref":"3071","operator":"中国铁路广州局集团有限公司","usage":"main","highspeed":"yes","bridge":"yes","status":"operational","color":"#E54848","dataOrigin":"datum-2026-08-01","sourceKey":"way:970008772"}},{"type":"Feature","geometry":{"type":"LineString","coordinates":[[111.3454967,21.6756876],[111.3454231,21.6756474],[111.342821,21.6741776],[111.3419335,21.6737025],[111.3410125,21.6732498],[111.339891,21.6727223],[111.3387883,21.6722618],[111.3376736,21.6718263],[111.3362069,21.6713076],[111.3360469,21.6712546]]},"properties":{"key":"way:970008773@detail:445_86","osmType":"way","osmId":970008773,"sourceRegion":"guangdong","featureType":"infrastructure","railClass":"highspeed","mode":"rail","name":"深湛线","nameEn":"Shenzhen-Zhanjiang Railway","ref":"3071","operator":"中国铁路广州局集团有限公司","usage":"main","highspeed":"yes","bridge":"yes","status":"operational","color":"#E54848","dataOrigin":"datum-2026-08-01","sourceKey":"way:970008773"}},{"type":"Feature","geometry":{"type":"LineString","coordinates":[[111.3495383,21.6780355],[111.3480225,21.6771692],[111.3454626,21.6757276]]},"properties":{"key":"way:970008776@detail:445_86","osmType":"way","osmId":970008776,"sourceRegion":"guangdong","featureType":"infrastructure","railClass":"highspeed","mode":"rail","name":"深湛线","nameEn":"Shenzhen-Zhanjiang Railway","ref":"3071","operator":"中国铁路广州局集团有限公司","usage":"main","highspeed":"yes","status":"operational","color":"#E54848","dataOrigin":"datum-2026-08-01","sourceKey":"way:970008776"}},{"type":"Feature","geometry":{"type":"LineString","coordinates":[[111.3500523,21.678326],[111.3495383,21.6780355]]},"properties":{"key":"way:970008777@detail:445_86","osmType":"way","osmId":970008777,"sourceRegion":"guangdong","featureType":"infrastructure","railClass":"highspeed","mode":"rail","name":"深湛线","nameEn":"Shenzhen-Zhanjiang Railway","ref":"3071","operator":"中国铁路广州局集团有限公司","usage":"main","highspeed":"yes","bridge":"yes","status":"operational","color":"#E54848","dataOrigin":"datum-2026-08-01","sourceKey":"way:970008777"}},{"type":"Feature","geometry":{"type":"LineString","coordinates":[[111.3495538,21.6779832],[111.3480629,21.6771393],[111.3454967,21.6756876]]},"properties":{"key":"way:970008778@detail:445_86","osmType":"way","osmId":970008778,"sourceRegion":"guangdong","featureType":"infrastructure","railClass":"highspeed","mode":"rail","name":"深湛线","nameEn":"Shenzhen-Zhanjiang Railway","ref":"3071","operator":"中国铁路广州局集团有限公司","usage":"main","highspeed":"yes","status":"operational","color":"#E54848","dataOrigin":"datum-2026-08-01","sourceKey":"way:970008778"}},{"type":"Feature","geometry":{"type":"LineString","coordinates":[[111.3500225,21.6782469],[111.3495538,21.6779832]]},"properties":{"key":"way:970008779@detail:445_86","osmType":"way","osmId":970008779,"sourceRegion":"guangdong","featureType":"infrastructure","railClass":"highspeed","mode":"rail","name":"深湛线","nameEn":"Shenzhen-Zhanjiang Railway","ref":"3071","operator":"中国铁路广州局集团有限公司","usage":"main","highspeed":"yes","bridge":"yes","status":"operational","color":"#E54848","dataOrigin":"datum-2026-08-01","sourceKey":"way:970008779"}},{"type":"Feature","geometry":{"type":"LineString","coordinates":[[111.3646744,21.6866026],[111.3652776,21.6868888]]},"properties":{"key":"way:970008780@detail:445_86","osmType":"way","osmId":970008780,"sourceRegion":"guangdong","featureType":"infrastructure","railClass":"minor","mode":"rail","name":"未命名","usage":"main","service":"crossover","highspeed":"yes","status":"operational","color":"#52636F","dataOrigin":"datum-2026-08-01","sourceKey":"way:970008780"}},{"type":"Feature","geometry":{"type":"LineString","coordinates":[[111.3778925,21.6924051],[111.3754328,21.6916434],[111.3744314,21.691306]]},"properties":{"key":"way:970008781@detail:445_86","osmType":"way","osmId":970008781,"sourceRegion":"guangdong","featureType":"infrastructure","railClass":"highspeed","mode":"rail","name":"深湛线","nameEn":"Shenzhen-Zhanjiang Railway","ref":"3071","operator":"中国铁路广州局集团有限公司","usage":"main","highspeed":"yes","status":"operational","color":"#E54848","dataOrigin":"datum-2026-08-01","sourceKey":"way:970008781"}},{"type":"Feature","geometry":{"type":"LineString","coordinates":[[111.3779193,21.6923677],[111.3754973,21.6916138],[111.3744448,21.6912634]]},"properties":{"key":"way:970008782@detail:445_86","osmType":"way","osmId":970008782,"sourceRegion":"guangdong","featureType":"infrastructure","railClass":"highspeed","mode":"rail","name":"深湛线","nameEn":"Shenzhen-Zhanjiang Railway","ref":"3071","operator":"中国铁路广州局集团有限公司","usage":"main","highspeed":"yes","status":"operational","color":"#E54848","dataOrigin":"datum-2026-08-01","sourceKey":"way:970008782"}},{"type":"Feature","geometry":{"type":"LineString","coordinates":[[111.3744448,21.6912634],[111.3741721,21.6911727],[111.3725387,21.6905468]]},"properties":{"key":"way:970008783@detail:445_86","osmType":"way","osmId":970008783,"sourceRegion":"guangdong","featureType":"infrastructure","railClass":"highspeed","mode":"rail","name":"深湛线","nameEn":"Shenzhen-Zhanjiang Railway","ref":"3071","operator":"中国铁路广州局集团有限公司","usage":"main","highspeed":"yes","bridge":"yes","status":"operational","color":"#E54848","dataOrigin":"datum-2026-08-01","sourceKey":"way:970008783"}},{"type":"Feature","geometry":{"type":"LineString","coordinates":[[111.3744314,21.691306],[111.3741703,21.691218],[111.3729145,21.6907451],[111.3725185,21.6905833]]},"properties":{"key":"way:970008784@detail:445_86","osmType":"way","osmId":970008784,"sourceRegion":"guangdong","featureType":"infrastructure","railClass":"highspeed","mode":"rail","name":"深湛线","nameEn":"Shenzhen-Zhanjiang Railway","ref":"3071","operator":"中国铁路广州局集团有限公司","usage":"main","highspeed":"yes","bridge":"yes","status":"operational","color":"#E54848","dataOrigin":"datum-2026-08-01","sourceKey":"way:970008784"}},{"type":"Feature","geometry":{"type":"LineString","coordinates":[[111.3552477,21.6812171],[111.3561253,21.68165],[111.3563551,21.6817755],[111.3565802,21.6819054],[111.3576749,21.6825228],[111.3604164,21.6840708],[111.3621359,21.6850417],[111.3625523,21.685286],[111.3629968,21.6855471],[111.3635709,21.685921]]},"properties":{"key":"way:970008785@detail:445_86","osmType":"way","osmId":970008785,"sourceRegion":"guangdong","featureType":"infrastructure","railClass":"minor","mode":"rail","name":"未命名","service":"siding","highspeed":"yes","status":"operational","color":"#52636F","dataOrigin":"datum-2026-08-01","sourceKey":"way:970008785"}},{"type":"Feature","geometry":{"type":"LineString","coordinates":[[111.3541735,21.6806585],[111.3534996,21.6802243]]},"properties":{"key":"way:970008786@detail:445_86","osmType":"way","osmId":970008786,"sourceRegion":"guangdong","featureType":"infrastructure","railClass":"minor","mode":"rail","name":"未命名","usage":"main","service":"crossover","highspeed":"yes","status":"operational","color":"#52636F","dataOrigin":"datum-2026-08-01","sourceKey":"way:970008786"}},{"type":"Feature","geometry":{"type":"LineString","coordinates":[[111.3552238,21.6812561],[111.3557857,21.6816239],[111.3561547,21.6818459],[111.3566214,21.6821167],[111.3603126,21.6842045],[111.3623009,21.6853291],[111.3627312,21.6855624],[111.3635368,21.6859608]]},"properties":{"key":"way:970008787@detail:445_86","osmType":"way","osmId":970008787,"sourceRegion":"guangdong","featureType":"infrastructure","railClass":"minor","mode":"rail","name":"未命名","service":"siding","highspeed":"yes","status":"operational","color":"#52636F","dataOrigin":"datum-2026-08-01","sourceKey":"way:970008787"}},{"type":"Feature","geometry":{"type":"LineString","coordinates":[[111.2619531,21.650302],[111.25,21.648275049955203]]},"properties":{"key":"way:1052629867@detail:445_86","osmType":"way","osmId":1052629867,"sourceRegion":"guangdong","featureType":"infrastructure","railClass":"highspeed","mode":"rail","name":"广湛高速线","nameEn":"Guangzhou-Zhanjiang Railway","usage":"main","highspeed":"yes","bridge":"yes","status":"operational","color":"#E54848","dataOrigin":"datum-2026-08-01","sourceKey":"way:1052629867"}},{"type":"Feature","geometry":{"type":"LineString","coordinates":[[111.2990989,21.6596477],[111.2908316,21.6570665]]},"properties":{"key":"way:1052629869@detail:445_86","osmType":"way","osmId":1052629869,"sourceRegion":"guangdong","featureType":"infrastructure","railClass":"highspeed","mode":"rail","name":"广湛高速线","nameEn":"Guangzhou-Zhanjiang Railway","usage":"main","highspeed":"yes","status":"operational","color":"#E54848","dataOrigin":"datum-2026-08-01","sourceKey":"way:1052629869"}},{"type":"Feature","geometry":{"type":"LineString","coordinates":[[111.3504797,21.6790292],[111.3470655,21.6771163],[111.3456933,21.6763622],[111.3442294,21.6756172],[111.3428231,21.6749277],[111.3414247,21.674268],[111.3400329,21.6736334],[111.3385596,21.673015],[111.3371037,21.6724525],[111.3354415,21.6718646],[111.3099897,21.6634151]]},"properties":{"key":"way:1052631933@detail:445_86","osmType":"way","osmId":1052631933,"sourceRegion":"guangdong","featureType":"infrastructure","railClass":"highspeed","mode":"rail","name":"广湛高速线","nameEn":"Guangzhou-Zhanjiang Railway","usage":"main","highspeed":"yes","bridge":"yes","status":"operational","color":"#E54848","dataOrigin":"datum-2026-08-01","sourceKey":"way:1052631933"}},{"type":"Feature","geometry":{"type":"LineString","coordinates":[[111.4886101,21.7421803],[111.4792014,21.7376205],[111.4701723,21.733145],[111.4689608,21.7325498],[111.4677575,21.7319376],[111.46649,21.7312641]]},"properties":{"key":"way:1052631934@detail:445_86","osmType":"way","osmId":1052631934,"sourceRegion":"guangdong","featureType":"infrastructure","railClass":"highspeed","mode":"rail","name":"广湛高速线","nameEn":"Guangzhou-Zhanjiang Railway","usage":"main","highspeed":"yes","status":"operational","color":"#E54848","dataOrigin":"datum-2026-08-01","sourceKey":"way:1052631934"}},{"type":"Feature","geometry":{"type":"LineString","coordinates":[[111.4986174,21.746988],[111.4886101,21.7421803]]},"properties":{"key":"way:1052631935@detail:445_86","osmType":"way","osmId":1052631935,"sourceRegion":"guangdong","featureType":"infrastructure","railClass":"highspeed","mode":"rail","name":"广湛高速线","nameEn":"Guangzhou-Zhanjiang Railway","usage":"main","highspeed":"yes","bridge":"yes","status":"operational","color":"#E54848","dataOrigin":"datum-2026-08-01","sourceKey":"way:1052631935"}},{"type":"Feature","geometry":{"type":"LineString","coordinates":[[111.5,21.747658416117186],[111.4986174,21.746988]]},"properties":{"key":"way:1052631937@detail:445_86","osmType":"way","osmId":1052631937,"sourceRegion":"guangdong","featureType":"infrastructure","railClass":"highspeed","mode":"rail","name":"广湛高速线","nameEn":"Guangzhou-Zhanjiang Railway","usage":"main","highspeed":"yes","status":"operational","color":"#E54848","dataOrigin":"datum-2026-08-01","sourceKey":"way:1052631937"}},{"type":"Feature","geometry":{"type":"LineString","coordinates":[[111.2835628,21.6550464],[111.2786505,21.6536431]]},"properties":{"key":"way:1052872899@detail:445_86","osmType":"way","osmId":1052872899,"sourceRegion":"guangdong","featureType":"infrastructure","railClass":"highspeed","mode":"rail","name":"广湛高速线","nameEn":"Guangzhou-Zhanjiang Railway","usage":"main","highspeed":"yes","tunnel":"yes","status":"operational","color":"#E54848","dataOrigin":"datum-2026-08-01","sourceKey":"way:1052872899"}},{"type":"Feature","geometry":{"type":"LineString","coordinates":[[111.3269911,21.5141353],[111.3296449,21.511053],[111.330187,21.5104189],[111.3304333,21.5100686],[111.3309002,21.5092663],[111.3312328,21.5085576],[111.3315761,21.5078489],[111.3318121,21.5069605],[111.3318814,21.5064906],[111.3319539,21.5058753],[111.3320047,21.5053421],[111.3320215,21.504485],[111.331966,21.5036084],[111.3318964,21.5031228],[111.331774,21.5026131],[111.3316137,21.5020404],[111.3312928,21.5011293],[111.3311781,21.5008357],[111.3310101,21.5005096]]},"properties":{"key":"way:1126683861@detail:445_86","osmType":"way","osmId":1126683861,"sourceRegion":"guangdong","featureType":"infrastructure","railClass":"national","mode":"rail","name":"博贺疏港铁路","nameEn":"Bohe Dredging Port Railway","usage":"branch","bridge":"yes","status":"operational","color":"#E54848","dataOrigin":"datum-2026-08-01","sourceKey":"way:1126683861"}},{"type":"Feature","geometry":{"type":"LineString","coordinates":[[111.3310101,21.5005096],[111.33071980541712,21.5]]},"properties":{"key":"way:1126683866@detail:445_86","osmType":"way","osmId":1126683866,"sourceRegion":"guangdong","featureType":"infrastructure","railClass":"national","mode":"rail","name":"博贺疏港铁路","nameEn":"Bohe Dredging Port Railway","usage":"branch","status":"operational","color":"#E54848","dataOrigin":"datum-2026-08-01","sourceKey":"way:1126683866"}},{"type":"Feature","geometry":{"type":"LineString","coordinates":[[111.3240239,21.5175256],[111.3261902,21.5150655],[111.3269911,21.5141353]]},"properties":{"key":"way:1126683872@detail:445_86","osmType":"way","osmId":1126683872,"sourceRegion":"guangdong","featureType":"infrastructure","railClass":"national","mode":"rail","name":"博贺疏港铁路","nameEn":"Bohe Dredging Port Railway","usage":"branch","status":"operational","color":"#E54848","dataOrigin":"datum-2026-08-01","sourceKey":"way:1126683872"}},{"type":"Feature","geometry":{"type":"LineString","coordinates":[[111.3237794,21.5178031],[111.3240239,21.5175256]]},"properties":{"key":"way:1126683873@detail:445_86","osmType":"way","osmId":1126683873,"sourceRegion":"guangdong","featureType":"infrastructure","railClass":"construction","mode":"rail","name":"博贺疏港铁路","nameEn":"Bohe Dredging Port Railway","usage":"branch","bridge":"yes","status":"construction","color":"#8A9298","dataOrigin":"datum-2026-08-01","sourceKey":"way:1126683873"}},{"type":"Feature","geometry":{"type":"LineString","coordinates":[[111.3201619,21.5249687],[111.3203108,21.5238887],[111.3203967,21.5230203],[111.3204927,21.5225511],[111.3205993,21.5222082],[111.3208282,21.5216038],[111.3209056,21.5214391],[111.3209796,21.5212783],[111.3213175,21.5207158],[111.3213944,21.520615],[111.3224459,21.5193175],[111.3237794,21.5178031]]},"properties":{"key":"way:1126683874@detail:445_86","osmType":"way","osmId":1126683874,"sourceRegion":"guangdong","featureType":"infrastructure","railClass":"national","mode":"rail","name":"博贺疏港铁路","nameEn":"Bohe Dredging Port Railway","usage":"branch","status":"operational","color":"#E54848","dataOrigin":"datum-2026-08-01","sourceKey":"way:1126683874"}},{"type":"Feature","geometry":{"type":"LineString","coordinates":[[111.3196562,21.5307768],[111.3197529,21.5292382],[111.3201619,21.5249687]]},"properties":{"key":"way:1126683875@detail:445_86","osmType":"way","osmId":1126683875,"sourceRegion":"guangdong","featureType":"infrastructure","railClass":"national","mode":"rail","name":"博贺疏港铁路","nameEn":"Bohe Dredging Port Railway","usage":"branch","bridge":"yes","status":"operational","color":"#E54848","dataOrigin":"datum-2026-08-01","sourceKey":"way:1126683875"}},{"type":"Feature","geometry":{"type":"LineString","coordinates":[[111.2922946,21.5427452],[111.2972545,21.5429106],[111.30337,21.5431101],[111.3050394,21.5432061],[111.3055704,21.5432032],[111.3059698,21.5431911],[111.3064195,21.5431367],[111.3069668,21.543052],[111.3073855,21.5429364],[111.3079172,21.5427681],[111.3084789,21.5425619],[111.3090942,21.5422621],[111.3130045,21.5399566],[111.3155794,21.5383799],[111.3170755,21.5372849],[111.3174335,21.5369473],[111.3177129,21.5366287],[111.3180577,21.536227],[111.3182253,21.5359998],[111.3183769,21.5357614],[111.3187685,21.535072],[111.3188839,21.5348436],[111.3191484,21.5341869],[111.3193249,21.5335789],[111.319419,21.5331111],[111.3196562,21.5307768]]},"properties":{"key":"way:1126683876@detail:445_86","osmType":"way","osmId":1126683876,"sourceRegion":"guangdong","featureType":"infrastructure","railClass":"national","mode":"rail","name":"博贺疏港铁路","nameEn":"Bohe Dredging Port Railway","usage":"branch","status":"operational","color":"#E54848","dataOrigin":"datum-2026-08-01","sourceKey":"way:1126683876"}},{"type":"Feature","geometry":{"type":"LineString","coordinates":[[111.2921528,21.5427359],[111.2922946,21.5427452]]},"properties":{"key":"way:1126683877@detail:445_86","osmType":"way","osmId":1126683877,"sourceRegion":"guangdong","featureType":"infrastructure","railClass":"national","mode":"rail","name":"博贺疏港铁路","nameEn":"Bohe Dredging Port Railway","usage":"branch","bridge":"yes","status":"operational","color":"#E54848","dataOrigin":"datum-2026-08-01","sourceKey":"way:1126683877"}},{"type":"Feature","geometry":{"type":"LineString","coordinates":[[111.2827732,21.5427425],[111.2835267,21.5426144],[111.2843912,21.5424998],[111.28494,21.5424771],[111.2855653,21.5424715],[111.2877006,21.5426107],[111.2892035,21.5426547],[111.2921528,21.5427359]]},"properties":{"key":"way:1126683878@detail:445_86","osmType":"way","osmId":1126683878,"sourceRegion":"guangdong","featureType":"infrastructure","railClass":"construction","mode":"rail","name":"博贺疏港铁路","nameEn":"Bohe Dredging Port Railway","usage":"branch","status":"construction","color":"#8A9298","dataOrigin":"datum-2026-08-01","sourceKey":"way:1126683878"}},{"type":"Feature","geometry":{"type":"LineString","coordinates":[[111.2779994,21.5446418],[111.2797558,21.5437987],[111.280555,21.5434271],[111.281136,21.5432072],[111.2817657,21.5430093],[111.2820538,21.5429212],[111.2827732,21.5427425]]},"properties":{"key":"way:1126683879@detail:445_86","osmType":"way","osmId":1126683879,"sourceRegion":"guangdong","featureType":"infrastructure","railClass":"national","mode":"rail","name":"博贺疏港铁路","nameEn":"Bohe Dredging Port Railway","usage":"branch","bridge":"yes","status":"operational","color":"#E54848","dataOrigin":"datum-2026-08-01","sourceKey":"way:1126683879"}},{"type":"Feature","geometry":{"type":"LineString","coordinates":[[111.2666237,21.5501853],[111.2681802,21.5493977],[111.2695875,21.5487284],[111.2737477,21.5466827],[111.2779994,21.5446418]]},"properties":{"key":"way:1126683880@detail:445_86","osmType":"way","osmId":1126683880,"sourceRegion":"guangdong","featureType":"infrastructure","railClass":"national","mode":"rail","name":"博贺疏港铁路","nameEn":"Bohe Dredging Port Railway","usage":"branch","status":"operational","color":"#E54848","dataOrigin":"datum-2026-08-01","sourceKey":"way:1126683880"}},{"type":"Feature","geometry":{"type":"LineString","coordinates":[[111.2644439,21.5509991],[111.2652852,21.5507352],[111.2666237,21.5501853]]},"properties":{"key":"way:1126683881@detail:445_86","osmType":"way","osmId":1126683881,"sourceRegion":"guangdong","featureType":"infrastructure","railClass":"national","mode":"rail","name":"博贺疏港铁路","nameEn":"Bohe Dredging Port Railway","usage":"branch","bridge":"yes","status":"operational","color":"#E54848","dataOrigin":"datum-2026-08-01","sourceKey":"way:1126683881"}},{"type":"Feature","geometry":{"type":"LineString","coordinates":[[111.2591841,21.5520352],[111.2623536,21.5515823],[111.2644439,21.5509991]]},"properties":{"key":"way:1126683882@detail:445_86","osmType":"way","osmId":1126683882,"sourceRegion":"guangdong","featureType":"infrastructure","railClass":"national","mode":"rail","name":"博贺疏港铁路","nameEn":"Bohe Dredging Port Railway","usage":"branch","status":"operational","color":"#E54848","dataOrigin":"datum-2026-08-01","sourceKey":"way:1126683882"}},{"type":"Feature","geometry":{"type":"LineString","coordinates":[[111.2533695,21.5528851],[111.2556159,21.5525203],[111.2591841,21.5520352]]},"properties":{"key":"way:1126683883@detail:445_86","osmType":"way","osmId":1126683883,"sourceRegion":"guangdong","featureType":"infrastructure","railClass":"national","mode":"rail","name":"博贺疏港铁路","nameEn":"Bohe Dredging Port Railway","usage":"branch","bridge":"yes","status":"operational","color":"#E54848","dataOrigin":"datum-2026-08-01","sourceKey":"way:1126683883"}},{"type":"Feature","geometry":{"type":"LineString","coordinates":[[111.25,21.55332555395792],[111.2513926,21.5531424],[111.2522445,21.5530301],[111.2524785,21.5530036],[111.2533695,21.5528851]]},"properties":{"key":"way:1126683884@detail:445_86","osmType":"way","osmId":1126683884,"sourceRegion":"guangdong","featureType":"infrastructure","railClass":"national","mode":"rail","name":"博贺疏港铁路","nameEn":"Bohe Dredging Port Railway","usage":"branch","status":"operational","color":"#E54848","dataOrigin":"datum-2026-08-01","sourceKey":"way:1126683884"}},{"type":"Feature","geometry":{"type":"LineString","coordinates":[[111.46649,21.7312641],[111.4641896,21.7299848]]},"properties":{"key":"way:1249480890@detail:445_86","osmType":"way","osmId":1249480890,"sourceRegion":"guangdong","featureType":"infrastructure","railClass":"highspeed","mode":"rail","name":"广湛高速线","nameEn":"Guangzhou-Zhanjiang Railway","usage":"main","highspeed":"yes","bridge":"yes","status":"operational","color":"#E54848","dataOrigin":"datum-2026-08-01","sourceKey":"way:1249480890"}},{"type":"Feature","geometry":{"type":"LineString","coordinates":[[111.4641896,21.7299848],[111.4569646,21.7257833]]},"properties":{"key":"way:1249480891@detail:445_86","osmType":"way","osmId":1249480891,"sourceRegion":"guangdong","featureType":"infrastructure","railClass":"highspeed","mode":"rail","name":"广湛高速线","nameEn":"Guangzhou-Zhanjiang Railway","usage":"main","highspeed":"yes","status":"operational","color":"#E54848","dataOrigin":"datum-2026-08-01","sourceKey":"way:1249480891"}},{"type":"Feature","geometry":{"type":"LineString","coordinates":[[111.4569646,21.7257833],[111.4541645,21.7241731]]},"properties":{"key":"way:1249480892@detail:445_86","osmType":"way","osmId":1249480892,"sourceRegion":"guangdong","featureType":"infrastructure","railClass":"highspeed","mode":"rail","name":"广湛高速线","nameEn":"Guangzhou-Zhanjiang Railway","usage":"main","highspeed":"yes","bridge":"yes","status":"operational","color":"#E54848","dataOrigin":"datum-2026-08-01","sourceKey":"way:1249480892"}},{"type":"Feature","geometry":{"type":"LineString","coordinates":[[111.4541645,21.7241731],[111.4507344,21.7221757]]},"properties":{"key":"way:1249480893@detail:445_86","osmType":"way","osmId":1249480893,"sourceRegion":"guangdong","featureType":"infrastructure","railClass":"highspeed","mode":"rail","name":"广湛高速线","nameEn":"Guangzhou-Zhanjiang Railway","usage":"main","highspeed":"yes","status":"operational","color":"#E54848","dataOrigin":"datum-2026-08-01","sourceKey":"way:1249480893"}},{"type":"Feature","geometry":{"type":"LineString","coordinates":[[111.4483319,21.7207767],[111.4449845,21.7188655]]},"properties":{"key":"way:1249480894@detail:445_86","osmType":"way","osmId":1249480894,"sourceRegion":"guangdong","featureType":"infrastructure","railClass":"highspeed","mode":"rail","name":"广湛高速线","nameEn":"Guangzhou-Zhanjiang Railway","usage":"main","highspeed":"yes","bridge":"yes","status":"operational","color":"#E54848","dataOrigin":"datum-2026-08-01","sourceKey":"way:1249480894"}},{"type":"Feature","geometry":{"type":"LineString","coordinates":[[111.4449845,21.7188655],[111.4435658,21.7181123],[111.4422948,21.7175016],[111.4408096,21.7168545],[111.4393956,21.7162737]]},"properties":{"key":"way:1249480895@detail:445_86","osmType":"way","osmId":1249480895,"sourceRegion":"guangdong","featureType":"infrastructure","railClass":"highspeed","mode":"rail","name":"广湛高速线","nameEn":"Guangzhou-Zhanjiang Railway","usage":"main","highspeed":"yes","status":"operational","color":"#E54848","dataOrigin":"datum-2026-08-01","sourceKey":"way:1249480895"}},{"type":"Feature","geometry":{"type":"LineString","coordinates":[[111.4393956,21.7162737],[111.4347602,21.7145106]]},"properties":{"key":"way:1249480896@detail:445_86","osmType":"way","osmId":1249480896,"sourceRegion":"guangdong","featureType":"infrastructure","railClass":"highspeed","mode":"rail","name":"广湛高速线","nameEn":"Guangzhou-Zhanjiang Railway","usage":"main","highspeed":"yes","bridge":"yes","status":"operational","color":"#E54848","dataOrigin":"datum-2026-08-01","sourceKey":"way:1249480896"}},{"type":"Feature","geometry":{"type":"LineString","coordinates":[[111.4347602,21.7145106],[111.4322521,21.7135987]]},"properties":{"key":"way:1249480897@detail:445_86","osmType":"way","osmId":1249480897,"sourceRegion":"guangdong","featureType":"infrastructure","railClass":"highspeed","mode":"rail","name":"广湛高速线","nameEn":"Guangzhou-Zhanjiang Railway","usage":"main","highspeed":"yes","status":"operational","color":"#E54848","dataOrigin":"datum-2026-08-01","sourceKey":"way:1249480897"}},{"type":"Feature","geometry":{"type":"LineString","coordinates":[[111.4322521,21.7135987],[111.4297696,21.7127661]]},"properties":{"key":"way:1249480898@detail:445_86","osmType":"way","osmId":1249480898,"sourceRegion":"guangdong","featureType":"infrastructure","railClass":"highspeed","mode":"rail","name":"广湛高速线","nameEn":"Guangzhou-Zhanjiang Railway","usage":"main","highspeed":"yes","bridge":"yes","status":"operational","color":"#E54848","dataOrigin":"datum-2026-08-01","sourceKey":"way:1249480898"}},{"type":"Feature","geometry":{"type":"LineString","coordinates":[[111.4297696,21.7127661],[111.4232627,21.7106397],[111.4218442,21.7101668],[111.4202033,21.7096061],[111.4086359,21.7055108]]},"properties":{"key":"way:1249480899@detail:445_86","osmType":"way","osmId":1249480899,"sourceRegion":"guangdong","featureType":"infrastructure","railClass":"highspeed","mode":"rail","name":"广湛高速线","nameEn":"Guangzhou-Zhanjiang Railway","usage":"main","highspeed":"yes","status":"operational","color":"#E54848","dataOrigin":"datum-2026-08-01","sourceKey":"way:1249480899"}},{"type":"Feature","geometry":{"type":"LineString","coordinates":[[111.4037805,21.7038022],[111.3983682,21.70195]]},"properties":{"key":"way:1249480900@detail:445_86","osmType":"way","osmId":1249480900,"sourceRegion":"guangdong","featureType":"infrastructure","railClass":"highspeed","mode":"rail","name":"广湛高速线","nameEn":"Guangzhou-Zhanjiang Railway","usage":"main","highspeed":"yes","status":"operational","color":"#E54848","dataOrigin":"datum-2026-08-01","sourceKey":"way:1249480900"}},{"type":"Feature","geometry":{"type":"LineString","coordinates":[[111.3783093,21.6942037],[111.3722023,21.6911853]]},"properties":{"key":"way:1249480901@detail:445_86","osmType":"way","osmId":1249480901,"sourceRegion":"guangdong","featureType":"infrastructure","railClass":"highspeed","mode":"rail","name":"广湛高速线","nameEn":"Guangzhou-Zhanjiang Railway","usage":"main","highspeed":"yes","bridge":"yes","status":"operational","color":"#E54848","dataOrigin":"datum-2026-08-01","sourceKey":"way:1249480901"}},{"type":"Feature","geometry":{"type":"LineString","coordinates":[[111.3841736,21.6969073],[111.3827221,21.6963008],[111.3813715,21.6956943],[111.3799454,21.6950005],[111.3783093,21.6942037]]},"properties":{"key":"way:1249480902@detail:445_86","osmType":"way","osmId":1249480902,"sourceRegion":"guangdong","featureType":"infrastructure","railClass":"highspeed","mode":"rail","name":"广湛高速线","nameEn":"Guangzhou-Zhanjiang Railway","usage":"main","highspeed":"yes","status":"operational","color":"#E54848","dataOrigin":"datum-2026-08-01","sourceKey":"way:1249480902"}},{"type":"Feature","geometry":{"type":"LineString","coordinates":[[111.3869354,21.6979997],[111.3841736,21.6969073]]},"properties":{"key":"way:1249480903@detail:445_86","osmType":"way","osmId":1249480903,"sourceRegion":"guangdong","featureType":"infrastructure","railClass":"highspeed","mode":"rail","name":"广湛高速线","nameEn":"Guangzhou-Zhanjiang Railway","usage":"main","highspeed":"yes","bridge":"yes","status":"operational","color":"#E54848","dataOrigin":"datum-2026-08-01","sourceKey":"way:1249480903"}},{"type":"Feature","geometry":{"type":"LineString","coordinates":[[111.3891411,21.6988031],[111.3869354,21.6979997]]},"properties":{"key":"way:1249480904@detail:445_86","osmType":"way","osmId":1249480904,"sourceRegion":"guangdong","featureType":"infrastructure","railClass":"highspeed","mode":"rail","name":"广湛高速线","nameEn":"Guangzhou-Zhanjiang Railway","usage":"main","highspeed":"yes","status":"operational","color":"#E54848","dataOrigin":"datum-2026-08-01","sourceKey":"way:1249480904"}},{"type":"Feature","geometry":{"type":"LineString","coordinates":[[111.3920597,21.699791],[111.3891411,21.6988031]]},"properties":{"key":"way:1249480905@detail:445_86","osmType":"way","osmId":1249480905,"sourceRegion":"guangdong","featureType":"infrastructure","railClass":"highspeed","mode":"rail","name":"广湛高速线","nameEn":"Guangzhou-Zhanjiang Railway","usage":"main","highspeed":"yes","bridge":"yes","status":"operational","color":"#E54848","dataOrigin":"datum-2026-08-01","sourceKey":"way:1249480905"}},{"type":"Feature","geometry":{"type":"LineString","coordinates":[[111.3944117,21.70059],[111.3920597,21.699791]]},"properties":{"key":"way:1249480906@detail:445_86","osmType":"way","osmId":1249480906,"sourceRegion":"guangdong","featureType":"infrastructure","railClass":"highspeed","mode":"rail","name":"广湛高速线","nameEn":"Guangzhou-Zhanjiang Railway","usage":"main","highspeed":"yes","status":"operational","color":"#E54848","dataOrigin":"datum-2026-08-01","sourceKey":"way:1249480906"}},{"type":"Feature","geometry":{"type":"LineString","coordinates":[[111.3983682,21.70195],[111.3944117,21.70059]]},"properties":{"key":"way:1249480907@detail:445_86","osmType":"way","osmId":1249480907,"sourceRegion":"guangdong","featureType":"infrastructure","railClass":"highspeed","mode":"rail","name":"广湛高速线","nameEn":"Guangzhou-Zhanjiang Railway","usage":"main","highspeed":"yes","bridge":"yes","status":"operational","color":"#E54848","dataOrigin":"datum-2026-08-01","sourceKey":"way:1249480907"}},{"type":"Feature","geometry":{"type":"LineString","coordinates":[[111.4086359,21.7055108],[111.4037805,21.7038022]]},"properties":{"key":"way:1249480908@detail:445_86","osmType":"way","osmId":1249480908,"sourceRegion":"guangdong","featureType":"infrastructure","railClass":"highspeed","mode":"rail","name":"广湛高速线","nameEn":"Guangzhou-Zhanjiang Railway","usage":"main","highspeed":"yes","bridge":"yes","status":"operational","color":"#E54848","dataOrigin":"datum-2026-08-01","sourceKey":"way:1249480908"}},{"type":"Feature","geometry":{"type":"LineString","coordinates":[[111.307172,21.6624673],[111.2994601,21.6597739],[111.2990989,21.6596477]]},"properties":{"key":"way:1249493152@detail:445_86","osmType":"way","osmId":1249493152,"sourceRegion":"guangdong","featureType":"infrastructure","railClass":"highspeed","mode":"rail","name":"广湛高速线","nameEn":"Guangzhou-Zhanjiang Railway","usage":"main","highspeed":"yes","tunnel":"yes","status":"operational","color":"#E54848","dataOrigin":"datum-2026-08-01","sourceKey":"way:1249493152"}},{"type":"Feature","geometry":{"type":"LineString","coordinates":[[111.3099897,21.6634151],[111.3081542,21.6628058]]},"properties":{"key":"way:1249493153@detail:445_86","osmType":"way","osmId":1249493153,"sourceRegion":"guangdong","featureType":"infrastructure","railClass":"highspeed","mode":"rail","name":"广湛高速线","nameEn":"Guangzhou-Zhanjiang Railway","usage":"main","highspeed":"yes","tunnel":"yes","status":"operational","color":"#E54848","dataOrigin":"datum-2026-08-01","sourceKey":"way:1249493153"}},{"type":"Feature","geometry":{"type":"LineString","coordinates":[[111.3081542,21.6628058],[111.307172,21.6624673]]},"properties":{"key":"way:1249493154@detail:445_86","osmType":"way","osmId":1249493154,"sourceRegion":"guangdong","featureType":"infrastructure","railClass":"highspeed","mode":"rail","name":"广湛高速线","nameEn":"Guangzhou-Zhanjiang Railway","usage":"main","highspeed":"yes","status":"operational","color":"#E54848","dataOrigin":"datum-2026-08-01","sourceKey":"way:1249493154"}},{"type":"Feature","geometry":{"type":"LineString","coordinates":[[111.3722023,21.6911853],[111.3703853,21.6902546],[111.3689457,21.689513],[111.3676474,21.6888124],[111.3504797,21.6790292]]},"properties":{"key":"way:1249493155@detail:445_86","osmType":"way","osmId":1249493155,"sourceRegion":"guangdong","featureType":"infrastructure","railClass":"highspeed","mode":"rail","name":"广湛高速线","nameEn":"Guangzhou-Zhanjiang Railway","usage":"main","highspeed":"yes","status":"operational","color":"#E54848","dataOrigin":"datum-2026-08-01","sourceKey":"way:1249493155"}},{"type":"Feature","geometry":{"type":"LineString","coordinates":[[111.2908316,21.6570665],[111.2835628,21.6550464]]},"properties":{"key":"way:1249493156@detail:445_86","osmType":"way","osmId":1249493156,"sourceRegion":"guangdong","featureType":"infrastructure","railClass":"highspeed","mode":"rail","name":"广湛高速线","nameEn":"Guangzhou-Zhanjiang Railway","usage":"main","highspeed":"yes","bridge":"yes","status":"operational","color":"#E54848","dataOrigin":"datum-2026-08-01","sourceKey":"way:1249493156"}},{"type":"Feature","geometry":{"type":"LineString","coordinates":[[111.2786505,21.6536431],[111.2729161,21.6522712]]},"properties":{"key":"way:1249493157@detail:445_86","osmType":"way","osmId":1249493157,"sourceRegion":"guangdong","featureType":"infrastructure","railClass":"highspeed","mode":"rail","name":"广湛高速线","nameEn":"Guangzhou-Zhanjiang Railway","usage":"main","highspeed":"yes","status":"operational","color":"#E54848","dataOrigin":"datum-2026-08-01","sourceKey":"way:1249493157"}},{"type":"Feature","geometry":{"type":"LineString","coordinates":[[111.2729161,21.6522712],[111.2714664,21.6519686]]},"properties":{"key":"way:1249493158@detail:445_86","osmType":"way","osmId":1249493158,"sourceRegion":"guangdong","featureType":"infrastructure","railClass":"highspeed","mode":"rail","name":"广湛高速线","nameEn":"Guangzhou-Zhanjiang Railway","usage":"main","highspeed":"yes","bridge":"yes","status":"operational","color":"#E54848","dataOrigin":"datum-2026-08-01","sourceKey":"way:1249493158"}},{"type":"Feature","geometry":{"type":"LineString","coordinates":[[111.2714664,21.6519686],[111.2694379,21.6516074]]},"properties":{"key":"way:1249493159@detail:445_86","osmType":"way","osmId":1249493159,"sourceRegion":"guangdong","featureType":"infrastructure","railClass":"highspeed","mode":"rail","name":"广湛高速线","nameEn":"Guangzhou-Zhanjiang Railway","usage":"main","highspeed":"yes","status":"operational","color":"#E54848","dataOrigin":"datum-2026-08-01","sourceKey":"way:1249493159"}},{"type":"Feature","geometry":{"type":"LineString","coordinates":[[111.2694379,21.6516074],[111.2637674,21.6506096]]},"properties":{"key":"way:1249493160@detail:445_86","osmType":"way","osmId":1249493160,"sourceRegion":"guangdong","featureType":"infrastructure","railClass":"highspeed","mode":"rail","name":"广湛高速线","nameEn":"Guangzhou-Zhanjiang Railway","usage":"main","highspeed":"yes","bridge":"yes","status":"operational","color":"#E54848","dataOrigin":"datum-2026-08-01","sourceKey":"way:1249493160"}},{"type":"Feature","geometry":{"type":"LineString","coordinates":[[111.2637674,21.6506096],[111.2619531,21.650302]]},"properties":{"key":"way:1249493161@detail:445_86","osmType":"way","osmId":1249493161,"sourceRegion":"guangdong","featureType":"infrastructure","railClass":"highspeed","mode":"rail","name":"广湛高速线","nameEn":"Guangzhou-Zhanjiang Railway","usage":"main","highspeed":"yes","status":"operational","color":"#E54848","dataOrigin":"datum-2026-08-01","sourceKey":"way:1249493161"}},{"type":"Feature","geometry":{"type":"LineString","coordinates":[[111.4504349,21.7220013],[111.4483319,21.7207767]]},"properties":{"key":"way:1425041141@detail:445_86","osmType":"way","osmId":1425041141,"sourceRegion":"guangdong","featureType":"infrastructure","railClass":"highspeed","mode":"rail","name":"广湛高速线","nameEn":"Guangzhou-Zhanjiang Railway","usage":"main","highspeed":"yes","status":"operational","color":"#E54848","dataOrigin":"datum-2026-08-01","sourceKey":"way:1425041141"}},{"type":"Feature","geometry":{"type":"LineString","coordinates":[[111.4507344,21.7221757],[111.4504349,21.7220013]]},"properties":{"key":"way:1425041142@detail:445_86","osmType":"way","osmId":1425041142,"sourceRegion":"guangdong","featureType":"infrastructure","railClass":"highspeed","mode":"rail","name":"广湛高速线","nameEn":"Guangzhou-Zhanjiang Railway","usage":"main","highspeed":"yes","bridge":"yes","status":"operational","color":"#E54848","dataOrigin":"datum-2026-08-01","sourceKey":"way:1425041142"}},{"type":"Feature","geometry":{"type":"LineString","coordinates":[[111.5,21.74771393112978],[111.498593,21.7470317]]},"properties":{"key":"way:1462282292@detail:445_86","osmType":"way","osmId":1462282292,"sourceRegion":"guangdong","featureType":"infrastructure","railClass":"highspeed","mode":"rail","name":"广湛高速线","nameEn":"Guangzhou-Zhanjiang Railway","usage":"main","highspeed":"yes","status":"operational","color":"#E54848","dataOrigin":"datum-2026-08-01","sourceKey":"way:1462282292"}},{"type":"Feature","geometry":{"type":"LineString","coordinates":[[111.4541365,21.7242149],[111.4507062,21.7222174]]},"properties":{"key":"way:1462282293@detail:445_86","osmType":"way","osmId":1462282293,"sourceRegion":"guangdong","featureType":"infrastructure","railClass":"highspeed","mode":"rail","name":"广湛高速线","nameEn":"Guangzhou-Zhanjiang Railway","usage":"main","highspeed":"yes","status":"operational","color":"#E54848","dataOrigin":"datum-2026-08-01","sourceKey":"way:1462282293"}},{"type":"Feature","geometry":{"type":"LineString","coordinates":[[111.4664632,21.7313066],[111.4641619,21.7300268]]},"properties":{"key":"way:1462282295@detail:445_86","osmType":"way","osmId":1462282295,"sourceRegion":"guangdong","featureType":"infrastructure","railClass":"highspeed","mode":"rail","name":"广湛高速线","nameEn":"Guangzhou-Zhanjiang Railway","usage":"main","highspeed":"yes","bridge":"yes","status":"operational","color":"#E54848","dataOrigin":"datum-2026-08-01","sourceKey":"way:1462282295"}},{"type":"Feature","geometry":{"type":"LineString","coordinates":[[111.4504067,21.722043],[111.4483039,21.7208185]]},"properties":{"key":"way:1462282298@detail:445_86","osmType":"way","osmId":1462282298,"sourceRegion":"guangdong","featureType":"infrastructure","railClass":"highspeed","mode":"rail","name":"广湛高速线","nameEn":"Guangzhou-Zhanjiang Railway","usage":"main","highspeed":"yes","status":"operational","color":"#E54848","dataOrigin":"datum-2026-08-01","sourceKey":"way:1462282298"}},{"type":"Feature","geometry":{"type":"LineString","coordinates":[[111.4641619,21.7300268],[111.4569366,21.7258251]]},"properties":{"key":"way:1462282300@detail:445_86","osmType":"way","osmId":1462282300,"sourceRegion":"guangdong","featureType":"infrastructure","railClass":"highspeed","mode":"rail","name":"广湛高速线","nameEn":"Guangzhou-Zhanjiang Railway","usage":"main","highspeed":"yes","status":"operational","color":"#E54848","dataOrigin":"datum-2026-08-01","sourceKey":"way:1462282300"}},{"type":"Feature","geometry":{"type":"LineString","coordinates":[[111.4885857,21.742224],[111.4791767,21.737664],[111.4701474,21.7331885],[111.4689357,21.7325932],[111.4677316,21.7319806],[111.4664632,21.7313066]]},"properties":{"key":"way:1462282301@detail:445_86","osmType":"way","osmId":1462282301,"sourceRegion":"guangdong","featureType":"infrastructure","railClass":"highspeed","mode":"rail","name":"广湛高速线","nameEn":"Guangzhou-Zhanjiang Railway","usage":"main","highspeed":"yes","status":"operational","color":"#E54848","dataOrigin":"datum-2026-08-01","sourceKey":"way:1462282301"}},{"type":"Feature","geometry":{"type":"LineString","coordinates":[[111.4507062,21.7222174],[111.4504067,21.722043]]},"properties":{"key":"way:1462282303@detail:445_86","osmType":"way","osmId":1462282303,"sourceRegion":"guangdong","featureType":"infrastructure","railClass":"highspeed","mode":"rail","name":"广湛高速线","nameEn":"Guangzhou-Zhanjiang Railway","usage":"main","highspeed":"yes","bridge":"yes","status":"operational","color":"#E54848","dataOrigin":"datum-2026-08-01","sourceKey":"way:1462282303"}},{"type":"Feature","geometry":{"type":"LineString","coordinates":[[111.498593,21.7470317],[111.4885857,21.742224]]},"properties":{"key":"way:1462282305@detail:445_86","osmType":"way","osmId":1462282305,"sourceRegion":"guangdong","featureType":"infrastructure","railClass":"highspeed","mode":"rail","name":"广湛高速线","nameEn":"Guangzhou-Zhanjiang Railway","usage":"main","highspeed":"yes","bridge":"yes","status":"operational","color":"#E54848","dataOrigin":"datum-2026-08-01","sourceKey":"way:1462282305"}},{"type":"Feature","geometry":{"type":"LineString","coordinates":[[111.4569366,21.7258251],[111.4541365,21.7242149]]},"properties":{"key":"way:1462282308@detail:445_86","osmType":"way","osmId":1462282308,"sourceRegion":"guangdong","featureType":"infrastructure","railClass":"highspeed","mode":"rail","name":"广湛高速线","nameEn":"Guangzhou-Zhanjiang Railway","usage":"main","highspeed":"yes","bridge":"yes","status":"operational","color":"#E54848","dataOrigin":"datum-2026-08-01","sourceKey":"way:1462282308"}},{"type":"Feature","geometry":{"type":"LineString","coordinates":[[111.4393748,21.716319],[111.4347405,21.7145563]]},"properties":{"key":"way:1462282311@detail:445_86","osmType":"way","osmId":1462282311,"sourceRegion":"guangdong","featureType":"infrastructure","railClass":"highspeed","mode":"rail","name":"广湛高速线","nameEn":"Guangzhou-Zhanjiang Railway","usage":"main","highspeed":"yes","bridge":"yes","status":"operational","color":"#E54848","dataOrigin":"datum-2026-08-01","sourceKey":"way:1462282311"}},{"type":"Feature","geometry":{"type":"LineString","coordinates":[[111.4449575,21.7189079],[111.4435405,21.7181556],[111.4422714,21.7175458],[111.4407876,21.7168993],[111.4393748,21.716319]]},"properties":{"key":"way:1462282312@detail:445_86","osmType":"way","osmId":1462282312,"sourceRegion":"guangdong","featureType":"infrastructure","railClass":"highspeed","mode":"rail","name":"广湛高速线","nameEn":"Guangzhou-Zhanjiang Railway","usage":"main","highspeed":"yes","status":"operational","color":"#E54848","dataOrigin":"datum-2026-08-01","sourceKey":"way:1462282312"}},{"type":"Feature","geometry":{"type":"LineString","coordinates":[[111.4347405,21.7145563],[111.4322334,21.7136448]]},"properties":{"key":"way:1462282313@detail:445_86","osmType":"way","osmId":1462282313,"sourceRegion":"guangdong","featureType":"infrastructure","railClass":"highspeed","mode":"rail","name":"广湛高速线","nameEn":"Guangzhou-Zhanjiang Railway","usage":"main","highspeed":"yes","status":"operational","color":"#E54848","dataOrigin":"datum-2026-08-01","sourceKey":"way:1462282313"}},{"type":"Feature","geometry":{"type":"LineString","coordinates":[[111.4322334,21.7136448],[111.4297518,21.7128125]]},"properties":{"key":"way:1462282314@detail:445_86","osmType":"way","osmId":1462282314,"sourceRegion":"guangdong","featureType":"infrastructure","railClass":"highspeed","mode":"rail","name":"广湛高速线","nameEn":"Guangzhou-Zhanjiang Railway","usage":"main","highspeed":"yes","bridge":"yes","status":"operational","color":"#E54848","dataOrigin":"datum-2026-08-01","sourceKey":"way:1462282314"}},{"type":"Feature","geometry":{"type":"LineString","coordinates":[[111.4483039,21.7208185],[111.4449575,21.7189079]]},"properties":{"key":"way:1462282315@detail:445_86","osmType":"way","osmId":1462282315,"sourceRegion":"guangdong","featureType":"infrastructure","railClass":"highspeed","mode":"rail","name":"广湛高速线","nameEn":"Guangzhou-Zhanjiang Railway","usage":"main","highspeed":"yes","bridge":"yes","status":"operational","color":"#E54848","dataOrigin":"datum-2026-08-01","sourceKey":"way:1462282315"}},{"type":"Feature","geometry":{"type":"LineString","coordinates":[[111.3841523,21.6969524],[111.3826997,21.6963454],[111.3813477,21.6957383],[111.3799208,21.6950441],[111.3782846,21.6942473]]},"properties":{"key":"way:1462282316@detail:445_86","osmType":"way","osmId":1462282316,"sourceRegion":"guangdong","featureType":"infrastructure","railClass":"highspeed","mode":"rail","name":"广湛高速线","nameEn":"Guangzhou-Zhanjiang Railway","usage":"main","highspeed":"yes","status":"operational","color":"#E54848","dataOrigin":"datum-2026-08-01","sourceKey":"way:1462282316"}},{"type":"Feature","geometry":{"type":"LineString","coordinates":[[111.2729037,21.6523191],[111.2714556,21.6520168]]},"properties":{"key":"way:1462282317@detail:445_86","osmType":"way","osmId":1462282317,"sourceRegion":"guangdong","featureType":"infrastructure","railClass":"highspeed","mode":"rail","name":"广湛高速线","nameEn":"Guangzhou-Zhanjiang Railway","usage":"main","highspeed":"yes","bridge":"yes","status":"operational","color":"#E54848","dataOrigin":"datum-2026-08-01","sourceKey":"way:1462282317"}},{"type":"Feature","geometry":{"type":"LineString","coordinates":[[111.3943934,21.7006362],[111.3920415,21.6998373]]},"properties":{"key":"way:1462282318@detail:445_86","osmType":"way","osmId":1462282318,"sourceRegion":"guangdong","featureType":"infrastructure","railClass":"highspeed","mode":"rail","name":"广湛高速线","nameEn":"Guangzhou-Zhanjiang Railway","usage":"main","highspeed":"yes","status":"operational","color":"#E54848","dataOrigin":"datum-2026-08-01","sourceKey":"way:1462282318"}},{"type":"Feature","geometry":{"type":"LineString","coordinates":[[111.2619436,21.6503505],[111.25,21.648325127622094]]},"properties":{"key":"way:1462282319@detail:445_86","osmType":"way","osmId":1462282319,"sourceRegion":"guangdong","featureType":"infrastructure","railClass":"highspeed","mode":"rail","name":"广湛高速线","nameEn":"Guangzhou-Zhanjiang Railway","usage":"main","highspeed":"yes","bridge":"yes","status":"operational","color":"#E54848","dataOrigin":"datum-2026-08-01","sourceKey":"way:1462282319"}},{"type":"Feature","geometry":{"type":"LineString","coordinates":[[111.2835474,21.6550935],[111.2786361,21.6536905]]},"properties":{"key":"way:1462282320@detail:445_86","osmType":"way","osmId":1462282320,"sourceRegion":"guangdong","featureType":"infrastructure","railClass":"highspeed","mode":"rail","name":"广湛高速线","nameEn":"Guangzhou-Zhanjiang Railway","usage":"main","highspeed":"yes","tunnel":"yes","status":"operational","color":"#E54848","dataOrigin":"datum-2026-08-01","sourceKey":"way:1462282320"}},{"type":"Feature","geometry":{"type":"LineString","coordinates":[[111.4297518,21.7128125],[111.423245,21.7106861],[111.4218261,21.7102131],[111.4201847,21.7096522],[111.4086171,21.7055568]]},"properties":{"key":"way:1462282321@detail:445_86","osmType":"way","osmId":1462282321,"sourceRegion":"guangdong","featureType":"infrastructure","railClass":"highspeed","mode":"rail","name":"广湛高速线","nameEn":"Guangzhou-Zhanjiang Railway","usage":"main","highspeed":"yes","status":"operational","color":"#E54848","dataOrigin":"datum-2026-08-01","sourceKey":"way:1462282321"}},{"type":"Feature","geometry":{"type":"LineString","coordinates":[[111.3721771,21.6912286],[111.3703597,21.6902977],[111.3689195,21.6895558],[111.3676202,21.6888547],[111.3504522,21.6790713]]},"properties":{"key":"way:1462282323@detail:445_86","osmType":"way","osmId":1462282323,"sourceRegion":"guangdong","featureType":"infrastructure","railClass":"highspeed","mode":"rail","name":"广湛高速线","nameEn":"Guangzhou-Zhanjiang Railway","usage":"main","highspeed":"yes","status":"operational","color":"#E54848","dataOrigin":"datum-2026-08-01","sourceKey":"way:1462282323"}},{"type":"Feature","geometry":{"type":"LineString","coordinates":[[111.3869153,21.6980453],[111.3841523,21.6969524]]},"properties":{"key":"way:1462282324@detail:445_86","osmType":"way","osmId":1462282324,"sourceRegion":"guangdong","featureType":"infrastructure","railClass":"highspeed","mode":"rail","name":"广湛高速线","nameEn":"Guangzhou-Zhanjiang Railway","usage":"main","highspeed":"yes","bridge":"yes","status":"operational","color":"#E54848","dataOrigin":"datum-2026-08-01","sourceKey":"way:1462282324"}},{"type":"Feature","geometry":{"type":"LineString","coordinates":[[111.2714556,21.6520168],[111.269428,21.6516558]]},"properties":{"key":"way:1462282325@detail:445_86","osmType":"way","osmId":1462282325,"sourceRegion":"guangdong","featureType":"infrastructure","railClass":"highspeed","mode":"rail","name":"广湛高速线","nameEn":"Guangzhou-Zhanjiang Railway","usage":"main","highspeed":"yes","status":"operational","color":"#E54848","dataOrigin":"datum-2026-08-01","sourceKey":"way:1462282325"}},{"type":"Feature","geometry":{"type":"LineString","coordinates":[[111.3504522,21.6790713],[111.3470383,21.6771586],[111.3456671,21.676405],[111.3442043,21.6756606],[111.3427987,21.6749714],[111.341401,21.6743121],[111.3400103,21.673678],[111.3385385,21.6730602],[111.3370841,21.6724983],[111.3354232,21.6719108],[111.3099719,21.6634615]]},"properties":{"key":"way:1462282326@detail:445_86","osmType":"way","osmId":1462282326,"sourceRegion":"guangdong","featureType":"infrastructure","railClass":"highspeed","mode":"rail","name":"广湛高速线","nameEn":"Guangzhou-Zhanjiang Railway","usage":"main","highspeed":"yes","bridge":"yes","status":"operational","color":"#E54848","dataOrigin":"datum-2026-08-01","sourceKey":"way:1462282326"}},{"type":"Feature","geometry":{"type":"LineString","coordinates":[[111.3983498,21.7019962],[111.3943934,21.7006362]]},"properties":{"key":"way:1462282327@detail:445_86","osmType":"way","osmId":1462282327,"sourceRegion":"guangdong","featureType":"infrastructure","railClass":"highspeed","mode":"rail","name":"广湛高速线","nameEn":"Guangzhou-Zhanjiang Railway","usage":"main","highspeed":"yes","bridge":"yes","status":"operational","color":"#E54848","dataOrigin":"datum-2026-08-01","sourceKey":"way:1462282327"}},{"type":"Feature","geometry":{"type":"LineString","coordinates":[[111.3071535,21.6625134],[111.2994414,21.65982],[111.2990811,21.6596941]]},"properties":{"key":"way:1462282330@detail:445_86","osmType":"way","osmId":1462282330,"sourceRegion":"guangdong","featureType":"infrastructure","railClass":"highspeed","mode":"rail","name":"广湛高速线","nameEn":"Guangzhou-Zhanjiang Railway","usage":"main","highspeed":"yes","tunnel":"yes","status":"operational","color":"#E54848","dataOrigin":"datum-2026-08-01","sourceKey":"way:1462282330"}},{"type":"Feature","geometry":{"type":"LineString","coordinates":[[111.403762,21.7038483],[111.3983498,21.7019962]]},"properties":{"key":"way:1462282332@detail:445_86","osmType":"way","osmId":1462282332,"sourceRegion":"guangdong","featureType":"infrastructure","railClass":"highspeed","mode":"rail","name":"广湛高速线","nameEn":"Guangzhou-Zhanjiang Railway","usage":"main","highspeed":"yes","status":"operational","color":"#E54848","dataOrigin":"datum-2026-08-01","sourceKey":"way:1462282332"}},{"type":"Feature","geometry":{"type":"LineString","coordinates":[[111.2908156,21.6571135],[111.2835474,21.6550935]]},"properties":{"key":"way:1462282333@detail:445_86","osmType":"way","osmId":1462282333,"sourceRegion":"guangdong","featureType":"infrastructure","railClass":"highspeed","mode":"rail","name":"广湛高速线","nameEn":"Guangzhou-Zhanjiang Railway","usage":"main","highspeed":"yes","bridge":"yes","status":"operational","color":"#E54848","dataOrigin":"datum-2026-08-01","sourceKey":"way:1462282333"}},{"type":"Feature","geometry":{"type":"LineString","coordinates":[[111.3891224,21.6988492],[111.3869153,21.6980453]]},"properties":{"key":"way:1462282334@detail:445_86","osmType":"way","osmId":1462282334,"sourceRegion":"guangdong","featureType":"infrastructure","railClass":"highspeed","mode":"rail","name":"广湛高速线","nameEn":"Guangzhou-Zhanjiang Railway","usage":"main","highspeed":"yes","status":"operational","color":"#E54848","dataOrigin":"datum-2026-08-01","sourceKey":"way:1462282334"}},{"type":"Feature","geometry":{"type":"LineString","coordinates":[[111.269428,21.6516558],[111.2637577,21.650658]]},"properties":{"key":"way:1462282335@detail:445_86","osmType":"way","osmId":1462282335,"sourceRegion":"guangdong","featureType":"infrastructure","railClass":"highspeed","mode":"rail","name":"广湛高速线","nameEn":"Guangzhou-Zhanjiang Railway","usage":"main","highspeed":"yes","bridge":"yes","status":"operational","color":"#E54848","dataOrigin":"datum-2026-08-01","sourceKey":"way:1462282335"}},{"type":"Feature","geometry":{"type":"LineString","coordinates":[[111.3099719,21.6634615],[111.3081361,21.6628521]]},"properties":{"key":"way:1462282336@detail:445_86","osmType":"way","osmId":1462282336,"sourceRegion":"guangdong","featureType":"infrastructure","railClass":"highspeed","mode":"rail","name":"广湛高速线","nameEn":"Guangzhou-Zhanjiang Railway","usage":"main","highspeed":"yes","tunnel":"yes","status":"operational","color":"#E54848","dataOrigin":"datum-2026-08-01","sourceKey":"way:1462282336"}},{"type":"Feature","geometry":{"type":"LineString","coordinates":[[111.4086171,21.7055568],[111.403762,21.7038483]]},"properties":{"key":"way:1462282337@detail:445_86","osmType":"way","osmId":1462282337,"sourceRegion":"guangdong","featureType":"infrastructure","railClass":"highspeed","mode":"rail","name":"广湛高速线","nameEn":"Guangzhou-Zhanjiang Railway","usage":"main","highspeed":"yes","bridge":"yes","status":"operational","color":"#E54848","dataOrigin":"datum-2026-08-01","sourceKey":"way:1462282337"}},{"type":"Feature","geometry":{"type":"LineString","coordinates":[[111.2990811,21.6596941],[111.2908156,21.6571135]]},"properties":{"key":"way:1462282338@detail:445_86","osmType":"way","osmId":1462282338,"sourceRegion":"guangdong","featureType":"infrastructure","railClass":"highspeed","mode":"rail","name":"广湛高速线","nameEn":"Guangzhou-Zhanjiang Railway","usage":"main","highspeed":"yes","status":"operational","color":"#E54848","dataOrigin":"datum-2026-08-01","sourceKey":"way:1462282338"}},{"type":"Feature","geometry":{"type":"LineString","coordinates":[[111.3782846,21.6942473],[111.3721771,21.6912286]]},"properties":{"key":"way:1462282339@detail:445_86","osmType":"way","osmId":1462282339,"sourceRegion":"guangdong","featureType":"infrastructure","railClass":"highspeed","mode":"rail","name":"广湛高速线","nameEn":"Guangzhou-Zhanjiang Railway","usage":"main","highspeed":"yes","bridge":"yes","status":"operational","color":"#E54848","dataOrigin":"datum-2026-08-01","sourceKey":"way:1462282339"}},{"type":"Feature","geometry":{"type":"LineString","coordinates":[[111.2786361,21.6536905],[111.2729037,21.6523191]]},"properties":{"key":"way:1462282340@detail:445_86","osmType":"way","osmId":1462282340,"sourceRegion":"guangdong","featureType":"infrastructure","railClass":"highspeed","mode":"rail","name":"广湛高速线","nameEn":"Guangzhou-Zhanjiang Railway","usage":"main","highspeed":"yes","status":"operational","color":"#E54848","dataOrigin":"datum-2026-08-01","sourceKey":"way:1462282340"}},{"type":"Feature","geometry":{"type":"LineString","coordinates":[[111.3920415,21.6998373],[111.3891224,21.6988492]]},"properties":{"key":"way:1462282341@detail:445_86","osmType":"way","osmId":1462282341,"sourceRegion":"guangdong","featureType":"infrastructure","railClass":"highspeed","mode":"rail","name":"广湛高速线","nameEn":"Guangzhou-Zhanjiang Railway","usage":"main","highspeed":"yes","bridge":"yes","status":"operational","color":"#E54848","dataOrigin":"datum-2026-08-01","sourceKey":"way:1462282341"}},{"type":"Feature","geometry":{"type":"LineString","coordinates":[[111.2637577,21.650658],[111.2619436,21.6503505]]},"properties":{"key":"way:1462282343@detail:445_86","osmType":"way","osmId":1462282343,"sourceRegion":"guangdong","featureType":"infrastructure","railClass":"highspeed","mode":"rail","name":"广湛高速线","nameEn":"Guangzhou-Zhanjiang Railway","usage":"main","highspeed":"yes","status":"operational","color":"#E54848","dataOrigin":"datum-2026-08-01","sourceKey":"way:1462282343"}},{"type":"Feature","geometry":{"type":"LineString","coordinates":[[111.3081361,21.6628521],[111.3071535,21.6625134]]},"properties":{"key":"way:1462282344@detail:445_86","osmType":"way","osmId":1462282344,"sourceRegion":"guangdong","featureType":"infrastructure","railClass":"highspeed","mode":"rail","name":"广湛高速线","nameEn":"Guangzhou-Zhanjiang Railway","usage":"main","highspeed":"yes","status":"operational","color":"#E54848","dataOrigin":"datum-2026-08-01","sourceKey":"way:1462282344"}},{"type":"Feature","geometry":{"type":"LineString","coordinates":[[111.2534607,21.6870698],[111.2501298,21.6879779]]},"properties":{"key":"way:1526470268@detail:445_86","osmType":"way","osmId":1526470268,"sourceRegion":"guangdong","featureType":"infrastructure","railClass":"highspeed","mode":"rail","name":"深湛线","nameEn":"Shenzhen-Zhanjiang Railway","ref":"3071","operator":"中国铁路广州局集团有限公司","usage":"main","highspeed":"yes","bridge":"yes","status":"operational","color":"#E54848","dataOrigin":"datum-2026-08-01","sourceKey":"way:1526470268"}},{"type":"Feature","geometry":{"type":"LineString","coordinates":[[111.2534462,21.6869873],[111.2501487,21.6878949]]},"properties":{"key":"way:1526470269@detail:445_86","osmType":"way","osmId":1526470269,"sourceRegion":"guangdong","featureType":"infrastructure","railClass":"highspeed","mode":"rail","name":"深湛线","nameEn":"Shenzhen-Zhanjiang Railway","ref":"3071","operator":"中国铁路广州局集团有限公司","usage":"main","highspeed":"yes","bridge":"yes","status":"operational","color":"#E54848","dataOrigin":"datum-2026-08-01","sourceKey":"way:1526470269"}},{"type":"Feature","geometry":{"type":"LineString","coordinates":[[111.2501298,21.6879779],[111.25,21.688013288265182]]},"properties":{"key":"way:1526470270@detail:445_86","osmType":"way","osmId":1526470270,"sourceRegion":"guangdong","featureType":"infrastructure","railClass":"highspeed","mode":"rail","name":"深湛线","nameEn":"Shenzhen-Zhanjiang Railway","ref":"3071","operator":"中国铁路广州局集团有限公司","usage":"main","highspeed":"yes","status":"operational","color":"#E54848","dataOrigin":"datum-2026-08-01","sourceKey":"way:1526470270"}},{"type":"Feature","geometry":{"type":"LineString","coordinates":[[111.2501487,21.6878949],[111.25,21.687935828344987]]},"properties":{"key":"way:1526470271@detail:445_86","osmType":"way","osmId":1526470271,"sourceRegion":"guangdong","featureType":"infrastructure","railClass":"highspeed","mode":"rail","name":"深湛线","nameEn":"Shenzhen-Zhanjiang Railway","ref":"3071","operator":"中国铁路广州局集团有限公司","usage":"main","highspeed":"yes","status":"operational","color":"#E54848","dataOrigin":"datum-2026-08-01","sourceKey":"way:1526470271"}},{"type":"Feature","geometry":{"type":"LineString","coordinates":[[111.2834305,21.6778533],[111.2814724,21.6783493]]},"properties":{"key":"way:1526470290@detail:445_86","osmType":"way","osmId":1526470290,"sourceRegion":"guangdong","featureType":"infrastructure","railClass":"highspeed","mode":"rail","name":"深湛线","nameEn":"Shenzhen-Zhanjiang Railway","ref":"3071","operator":"中国铁路广州局集团有限公司","usage":"main","highspeed":"yes","bridge":"yes","status":"operational","color":"#E54848","dataOrigin":"datum-2026-08-01","sourceKey":"way:1526470290"}},{"type":"Feature","geometry":{"type":"LineString","coordinates":[[111.2834432,21.6779163],[111.2814832,21.678444]]},"properties":{"key":"way:1526470291@detail:445_86","osmType":"way","osmId":1526470291,"sourceRegion":"guangdong","featureType":"infrastructure","railClass":"highspeed","mode":"rail","name":"深湛线","nameEn":"Shenzhen-Zhanjiang Railway","ref":"3071","operator":"中国铁路广州局集团有限公司","usage":"main","highspeed":"yes","bridge":"yes","status":"operational","color":"#E54848","dataOrigin":"datum-2026-08-01","sourceKey":"way:1526470291"}},{"type":"Feature","geometry":{"type":"LineString","coordinates":[[111.2933736,21.6754282],[111.2921899,21.6757002],[111.2834305,21.6778533]]},"properties":{"key":"way:1526470292@detail:445_86","osmType":"way","osmId":1526470292,"sourceRegion":"guangdong","featureType":"infrastructure","railClass":"highspeed","mode":"rail","name":"深湛线","nameEn":"Shenzhen-Zhanjiang Railway","ref":"3071","operator":"中国铁路广州局集团有限公司","usage":"main","highspeed":"yes","status":"operational","color":"#E54848","dataOrigin":"datum-2026-08-01","sourceKey":"way:1526470292"}},{"type":"Feature","geometry":{"type":"LineString","coordinates":[[111.2933915,21.6754676],[111.2834432,21.6779163]]},"properties":{"key":"way:1526470293@detail:445_86","osmType":"way","osmId":1526470293,"sourceRegion":"guangdong","featureType":"infrastructure","railClass":"highspeed","mode":"rail","name":"深湛线","nameEn":"Shenzhen-Zhanjiang Railway","ref":"3071","operator":"中国铁路广州局集团有限公司","usage":"main","highspeed":"yes","status":"operational","color":"#E54848","dataOrigin":"datum-2026-08-01","sourceKey":"way:1526470293"}}]}