{"type":"FeatureCollection","features":[{"type":"Feature","geometry":{"type":"Point","coordinates":[111.3791585,21.942752]},"properties":{"key":"node:9193526294","osmType":"node","osmId":9193526294,"sourceRegion":"guangdong","featureType":"station","railClass":"minor","mode":"station","name":"马文寨","nameEn":"Mawenzhai","status":"operational","color":"#52636F","dataOrigin":"datum-2026-08-01","sourceKey":"node:9193526294","stationGroup":"马文寨","hasOperationalRail":true,"hasConstructionRail":false}},{"type":"Feature","geometry":{"type":"Point","coordinates":[111.3051563,21.8906059]},"properties":{"key":"node:9193526295","osmType":"node","osmId":9193526295,"sourceRegion":"guangdong","featureType":"station","railClass":"minor","mode":"station","name":"热水洞","nameEn":"Reshuidong","status":"operational","color":"#52636F","dataOrigin":"datum-2026-08-01","sourceKey":"node:9193526295","stationGroup":"热水洞","hasOperationalRail":true,"hasConstructionRail":false}},{"type":"Feature","geometry":{"type":"Point","coordinates":[111.4280096,21.9567855]},"properties":{"key":"node:9193526296","osmType":"node","osmId":9193526296,"sourceRegion":"guangdong","featureType":"station","railClass":"minor","mode":"station","name":"八甲","nameEn":"Bajia","status":"operational","color":"#52636F","dataOrigin":"datum-2026-08-01","sourceKey":"node:9193526296","stationGroup":"八甲","hasOperationalRail":true,"hasConstructionRail":false}},{"type":"Feature","geometry":{"type":"LineString","coordinates":[[111.4157168,21.9523996],[111.4168976,21.9525611],[111.4174658,21.9526414],[111.4182033,21.9527537],[111.418891,21.952948],[111.41994,21.953268],[111.420704,21.953555],[111.429068,21.957159],[111.4364777,21.9601909]]},"properties":{"key":"way:48996504@detail:445_87","osmType":"way","osmId":48996504,"sourceRegion":"guangdong","featureType":"infrastructure","railClass":"national","mode":"rail","name":"广茂线","nameEn":"Guangmao Line","ref":"0708","operator":"中国铁路广州局集团有限公司","usage":"main","status":"operational","color":"#E54848","dataOrigin":"datum-2026-08-01","sourceKey":"way:48996504"}},{"type":"Feature","geometry":{"type":"LineString","coordinates":[[111.4378219,21.9607891],[111.439426,21.961669],[111.440024,21.962078],[111.440576,21.962529],[111.441083,21.963031],[111.441538,21.963578],[111.441809,21.963973],[111.4421868,21.9646612],[111.442269,21.964811],[111.443163,21.967023],[111.443694,21.968083],[111.444518,21.969248],[111.445011,21.969781],[111.44574,21.970459],[111.446316,21.970909],[111.447146,21.97146],[111.454044,21.974741],[111.454943,21.975248],[111.455593,21.975681],[111.456776,21.976626],[111.457631,21.977529],[111.460851,21.981951],[111.461331,21.982518],[111.461881,21.983043],[111.462274,21.983345],[111.463133,21.983838],[111.465658,21.984799],[111.466529,21.985234],[111.467128,21.985635],[111.467668,21.986088],[111.46813,21.986635],[111.468653,21.987431],[111.468938,21.988075],[111.469163,21.988976],[111.469231,21.989668],[111.46917,21.990585],[111.468391,21.997575],[111.468303,21.998726],[111.468333,21.999423],[111.46843737771346,22.0]]},"properties":{"key":"way:424154310@detail:445_87","osmType":"way","osmId":424154310,"sourceRegion":"guangdong","featureType":"infrastructure","railClass":"national","mode":"rail","name":"广茂线","nameEn":"Guangmao Line","ref":"0708","operator":"中国铁路广州局集团有限公司","usage":"main","status":"operational","color":"#E54848","dataOrigin":"datum-2026-08-01","sourceKey":"way:424154310"}},{"type":"Feature","geometry":{"type":"LineString","coordinates":[[111.3589101,21.9311205],[111.36017,21.933076],[111.360633,21.93362],[111.361161,21.934118],[111.3617666,21.9344874],[111.3621049,21.934669]]},"properties":{"key":"way:424154312@detail:445_87","osmType":"way","osmId":424154312,"sourceRegion":"guangdong","featureType":"infrastructure","railClass":"national","mode":"rail","name":"广茂线","nameEn":"Guangmao Line","ref":"0708","operator":"中国铁路广州局集团有限公司","usage":"main","status":"operational","color":"#E54848","dataOrigin":"datum-2026-08-01","sourceKey":"way:424154312"}},{"type":"Feature","geometry":{"type":"LineString","coordinates":[[111.4364777,21.9601909],[111.4378219,21.9607891]]},"properties":{"key":"way:424154313@detail:445_87","osmType":"way","osmId":424154313,"sourceRegion":"guangdong","featureType":"infrastructure","railClass":"national","mode":"rail","name":"广茂线","nameEn":"Guangmao Line","ref":"0708","operator":"中国铁路广州局集团有限公司","usage":"main","bridge":"yes","status":"operational","color":"#E54848","dataOrigin":"datum-2026-08-01","sourceKey":"way:424154313"}},{"type":"Feature","geometry":{"type":"LineString","coordinates":[[111.3587039,21.9307648],[111.3589101,21.9311205]]},"properties":{"key":"way:424154314@detail:445_87","osmType":"way","osmId":424154314,"sourceRegion":"guangdong","featureType":"infrastructure","railClass":"national","mode":"rail","name":"广茂线","nameEn":"Guangmao Line","ref":"0708","operator":"中国铁路广州局集团有限公司","usage":"main","bridge":"yes","status":"operational","color":"#E54848","dataOrigin":"datum-2026-08-01","sourceKey":"way:424154314"}},{"type":"Feature","geometry":{"type":"LineString","coordinates":[[111.2906298,21.8846541],[111.2908853,21.8845341],[111.2914167,21.8843003],[111.2917975,21.8842027],[111.292295,21.8841073],[111.29296,21.884024],[111.2933994,21.8840083],[111.293714,21.8840078],[111.2943513,21.8840795],[111.294923,21.884224],[111.29569,21.884463],[111.296411,21.884803],[111.296915,21.885111],[111.301499,21.88829],[111.3120463,21.8953808],[111.315466,21.897736],[111.318364,21.899783],[111.319483,21.900511],[111.320201,21.901136],[111.320844,21.90181],[111.324036,21.905359],[111.324618,21.905901],[111.3249191,21.9061139],[111.325411,21.906509],[111.326808,21.907346],[111.329303,21.9087],[111.330465,21.909173],[111.330865,21.909398],[111.331836,21.909823],[111.33264,21.910135],[111.33379,21.910686],[111.334519,21.911119],[111.33739,21.913021],[111.339204,21.914238],[111.339916,21.914764],[111.340721,21.915511],[111.344376,21.919399],[111.34464,21.919761],[111.344973,21.920338],[111.345653,21.922011],[111.346183,21.92302],[111.347056,21.924083],[111.347253,21.924223],[111.348508,21.92489],[111.3494163,21.9251219],[111.3501867,21.9252951],[111.3507056,21.9253406],[111.352753,21.925536],[111.353471,21.925654],[111.354151,21.925834],[111.354591,21.926005],[111.35501,21.926199],[111.355595,21.926571],[111.356445,21.927343],[111.357148,21.928249],[111.35768,21.929028],[111.3587039,21.9307648]]},"properties":{"key":"way:424227189@detail:445_87","osmType":"way","osmId":424227189,"sourceRegion":"guangdong","featureType":"infrastructure","railClass":"national","mode":"rail","name":"广茂线","nameEn":"Guangmao Line","ref":"0708","operator":"中国铁路广州局集团有限公司","usage":"main","status":"operational","color":"#E54848","dataOrigin":"datum-2026-08-01","sourceKey":"way:424227189"}},{"type":"Feature","geometry":{"type":"LineString","coordinates":[[111.379989,21.943221],[111.38505,21.944693],[111.385776,21.944859],[111.386523,21.944961],[111.38728,21.944974],[111.388028,21.944904],[111.388766,21.944735],[111.391931,21.943744],[111.392666,21.943564],[111.393173,21.943501],[111.394185,21.943471],[111.394953,21.943531],[111.395701,21.943691],[111.396434,21.943921]]},"properties":{"key":"way:824563677@detail:445_87","osmType":"way","osmId":824563677,"sourceRegion":"guangdong","featureType":"infrastructure","railClass":"national","mode":"rail","name":"广茂线","nameEn":"Guangmao Line","ref":"0708","operator":"中国铁路广州局集团有限公司","usage":"main","status":"operational","color":"#E54848","dataOrigin":"datum-2026-08-01","sourceKey":"way:824563677"}},{"type":"Feature","geometry":{"type":"LineString","coordinates":[[111.25,21.860766406421593],[111.2518727,21.8617353],[111.254171,21.863446],[111.254748,21.863776],[111.255764,21.864216],[111.260701,21.866078],[111.261483,21.866448],[111.262034,21.866763],[111.26272,21.867261],[111.263628,21.868126],[111.264244,21.868968],[111.264646,21.869688],[111.264968,21.870458],[111.265945,21.873141],[111.266376,21.874064],[111.266701,21.874585],[111.267319,21.875418],[111.268258,21.876493],[111.268873,21.877299],[111.269181,21.877808],[111.2693721,21.8782347],[111.2694822,21.8785415],[111.2696749,21.8795272],[111.2696758,21.8801953]]},"properties":{"key":"way:1163669905@detail:445_87","osmType":"way","osmId":1163669905,"sourceRegion":"guangdong","featureType":"infrastructure","railClass":"national","mode":"rail","name":"广茂线","nameEn":"Guangmao Line","ref":"0708","operator":"中国铁路广州局集团有限公司","usage":"main","status":"operational","color":"#E54848","dataOrigin":"datum-2026-08-01","sourceKey":"way:1163669905"}},{"type":"Feature","geometry":{"type":"LineString","coordinates":[[111.2900073,21.88501],[111.2906298,21.8846541]]},"properties":{"key":"way:1163669906@detail:445_87","osmType":"way","osmId":1163669906,"sourceRegion":"guangdong","featureType":"infrastructure","railClass":"national","mode":"rail","name":"广茂线","nameEn":"Guangmao Line","ref":"0708","operator":"中国铁路广州局集团有限公司","usage":"main","bridge":"yes","status":"operational","color":"#E54848","dataOrigin":"datum-2026-08-01","sourceKey":"way:1163669906"}},{"type":"Feature","geometry":{"type":"LineString","coordinates":[[111.2696454,21.8808545],[111.269614,21.8811042],[111.2695823,21.8813236],[111.269099,21.883458],[111.268993,21.884621],[111.269038,21.885208],[111.269159,21.8858],[111.2695,21.886728],[111.269901,21.887413],[111.270541,21.888178],[111.272861,21.890363],[111.273658,21.891008],[111.274566,21.8915],[111.275338,21.89179],[111.278563,21.892533],[111.279373,21.892636],[111.279984,21.892658],[111.280596,21.892606],[111.281391,21.892445],[111.281983,21.89225],[111.282718,21.891916],[111.283065,21.89171],[111.283693,21.891223],[111.284638,21.890198],[111.287461,21.886706],[111.287898,21.88631],[111.288373,21.885966],[111.2900073,21.88501]]},"properties":{"key":"way:1165346449@detail:445_87","osmType":"way","osmId":1165346449,"sourceRegion":"guangdong","featureType":"infrastructure","railClass":"national","mode":"rail","name":"广茂线","nameEn":"Guangmao Line","ref":"0708","operator":"中国铁路广州局集团有限公司","usage":"main","status":"operational","color":"#E54848","dataOrigin":"datum-2026-08-01","sourceKey":"way:1165346449"}},{"type":"Feature","geometry":{"type":"LineString","coordinates":[[111.2696758,21.8801953],[111.2696671,21.8805123],[111.2696553,21.8807392],[111.2696454,21.8808545]]},"properties":{"key":"way:1165346450@detail:445_87","osmType":"way","osmId":1165346450,"sourceRegion":"guangdong","featureType":"infrastructure","railClass":"national","mode":"rail","name":"广茂线","nameEn":"Guangmao Line","ref":"0708","operator":"中国铁路广州局集团有限公司","usage":"main","bridge":"yes","status":"operational","color":"#E54848","dataOrigin":"datum-2026-08-01","sourceKey":"way:1165346450"}},{"type":"Feature","geometry":{"type":"LineString","coordinates":[[111.396434,21.943921],[111.4006887,21.945751],[111.4015374,21.9461733],[111.402023,21.94651],[111.4025908,21.9469816],[111.4047195,21.9488841],[111.405678,21.9497177],[111.4068871,21.950541],[111.4077908,21.9510041],[111.4086501,21.9513293],[111.4094607,21.951553],[111.4103043,21.9517133],[111.4113132,21.9518505],[111.4155653,21.9523788]]},"properties":{"key":"way:1382898024@detail:445_87","osmType":"way","osmId":1382898024,"sourceRegion":"guangdong","featureType":"infrastructure","railClass":"national","mode":"rail","name":"广茂线","nameEn":"Guangmao Line","ref":"0708","operator":"中国铁路广州局集团有限公司","usage":"main","status":"operational","color":"#E54848","dataOrigin":"datum-2026-08-01","sourceKey":"way:1382898024"}},{"type":"Feature","geometry":{"type":"LineString","coordinates":[[111.4155653,21.9523788],[111.4157168,21.9523996]]},"properties":{"key":"way:1382898025@detail:445_87","osmType":"way","osmId":1382898025,"sourceRegion":"guangdong","featureType":"infrastructure","railClass":"national","mode":"rail","name":"广茂线","nameEn":"Guangmao Line","ref":"0708","operator":"中国铁路广州局集团有限公司","usage":"main","bridge":"yes","status":"operational","color":"#E54848","dataOrigin":"datum-2026-08-01","sourceKey":"way:1382898025"}},{"type":"Feature","geometry":{"type":"LineString","coordinates":[[111.3717672,21.9381876],[111.3723784,21.9384809],[111.3727382,21.9387115],[111.3735666,21.9391733],[111.3745212,21.9398726],[111.377498,21.942016],[111.378364,21.942541],[111.379043,21.942864],[111.379989,21.943221]]},"properties":{"key":"way:1535478751@detail:445_87","osmType":"way","osmId":1535478751,"sourceRegion":"guangdong","featureType":"infrastructure","railClass":"national","mode":"rail","name":"广茂线","nameEn":"Guangmao Line","ref":"0708","operator":"中国铁路广州局集团有限公司","usage":"main","status":"operational","color":"#E54848","dataOrigin":"datum-2026-08-01","sourceKey":"way:1535478751"}},{"type":"Feature","geometry":{"type":"LineString","coordinates":[[111.3654991,21.9358934],[111.3681726,21.9368149],[111.369802,21.9374013],[111.3717672,21.9381876]]},"properties":{"key":"way:1535478752@detail:445_87","osmType":"way","osmId":1535478752,"sourceRegion":"guangdong","featureType":"infrastructure","railClass":"national","mode":"rail","name":"广茂线","nameEn":"Guangmao Line","ref":"0708","operator":"中国铁路广州局集团有限公司","usage":"main","tunnel":"yes","status":"operational","color":"#E54848","dataOrigin":"datum-2026-08-01","sourceKey":"way:1535478752"}},{"type":"Feature","geometry":{"type":"LineString","coordinates":[[111.3623823,21.9348087],[111.362876,21.935073],[111.3654991,21.9358934]]},"properties":{"key":"way:1535478753@detail:445_87","osmType":"way","osmId":1535478753,"sourceRegion":"guangdong","featureType":"infrastructure","railClass":"national","mode":"rail","name":"广茂线","nameEn":"Guangmao Line","ref":"0708","operator":"中国铁路广州局集团有限公司","usage":"main","status":"operational","color":"#E54848","dataOrigin":"datum-2026-08-01","sourceKey":"way:1535478753"}},{"type":"Feature","geometry":{"type":"LineString","coordinates":[[111.3621049,21.934669],[111.3623823,21.9348087]]},"properties":{"key":"way:1535478754@detail:445_87","osmType":"way","osmId":1535478754,"sourceRegion":"guangdong","featureType":"infrastructure","railClass":"national","mode":"rail","name":"广茂线","nameEn":"Guangmao Line","ref":"0708","operator":"中国铁路广州局集团有限公司","usage":"main","bridge":"yes","status":"operational","color":"#E54848","dataOrigin":"datum-2026-08-01","sourceKey":"way:1535478754"}}]}