{"type":"FeatureCollection","features":[{"type":"Feature","geometry":{"type":"LineString","coordinates":[[111.5409871,23.1629793],[111.5414947,23.1625909],[111.5426387,23.1616057],[111.5435872,23.1608335],[111.5444995,23.1599548],[111.5460561,23.1584836],[111.5476418,23.1567528],[111.5485396,23.1558675],[111.5491767,23.1551552]]},"properties":{"key":"way:151201073@detail:446_92","osmType":"way","osmId":151201073,"sourceRegion":"guangdong","featureType":"infrastructure","railClass":"highspeed","mode":"rail","name":"南广线","nameEn":"Nanguang Line","ref":"3029","usage":"main","highspeed":"yes","bridge":"yes","status":"operational","color":"#E54848","dataOrigin":"datum-2026-08-01","sourceKey":"way:151201073"}},{"type":"Feature","geometry":{"type":"LineString","coordinates":[[111.6039169,23.1276672],[111.6068587,23.1278172],[111.6094902,23.1280448],[111.6116166,23.1283464]]},"properties":{"key":"way:239600363@detail:446_92","osmType":"way","osmId":239600363,"sourceRegion":"guangdong","featureType":"infrastructure","railClass":"highspeed","mode":"rail","name":"南广线","nameEn":"Nanguang Line","ref":"3029","usage":"main","highspeed":"yes","status":"operational","color":"#E54848","dataOrigin":"datum-2026-08-01","sourceKey":"way:239600363"}},{"type":"Feature","geometry":{"type":"LineString","coordinates":[[111.5516488,23.1524832],[111.5526113,23.151489],[111.5532168,23.1508679],[111.555174,23.1491569]]},"properties":{"key":"way:264457250@detail:446_92","osmType":"way","osmId":264457250,"sourceRegion":"guangdong","featureType":"infrastructure","railClass":"highspeed","mode":"rail","name":"南广线","nameEn":"Nanguang Line","ref":"3029","usage":"main","highspeed":"yes","status":"operational","color":"#E54848","dataOrigin":"datum-2026-08-01","sourceKey":"way:264457250"}},{"type":"Feature","geometry":{"type":"LineString","coordinates":[[111.555174,23.1491569],[111.5598964,23.1447798],[111.5658187,23.1401233],[111.5723418,23.1356245],[111.5794658,23.1323883],[111.5849245,23.1301956]]},"properties":{"key":"way:264457252@detail:446_92","osmType":"way","osmId":264457252,"sourceRegion":"guangdong","featureType":"infrastructure","railClass":"highspeed","mode":"rail","name":"南广线","nameEn":"Nanguang Line","ref":"3029","usage":"main","highspeed":"yes","tunnel":"yes","status":"operational","color":"#E54848","dataOrigin":"datum-2026-08-01","sourceKey":"way:264457252"}},{"type":"Feature","geometry":{"type":"LineString","coordinates":[[111.7359352,23.1303361],[111.7392289,23.12869],[111.7400121,23.1282987]]},"properties":{"key":"way:516917751@detail:446_92","osmType":"way","osmId":516917751,"sourceRegion":"guangdong","featureType":"infrastructure","railClass":"highspeed","mode":"rail","name":"南广线","nameEn":"Nanguang Line","ref":"3029","usage":"main","highspeed":"yes","status":"operational","color":"#E54848","dataOrigin":"datum-2026-08-01","sourceKey":"way:516917751"}},{"type":"Feature","geometry":{"type":"LineString","coordinates":[[111.7400121,23.1282987],[111.7435772,23.1265672],[111.7475661,23.1249148],[111.75,23.1241264310096]]},"properties":{"key":"way:516917759@detail:446_92","osmType":"way","osmId":516917759,"sourceRegion":"guangdong","featureType":"infrastructure","railClass":"highspeed","mode":"rail","name":"南广线","nameEn":"Nanguang Line","ref":"3029","usage":"main","highspeed":"yes","tunnel":"yes","status":"operational","color":"#E54848","dataOrigin":"datum-2026-08-01","sourceKey":"way:516917759"}},{"type":"Feature","geometry":{"type":"LineString","coordinates":[[111.7168808,23.1356047],[111.7230202,23.1347246],[111.7265509,23.1337887],[111.729384,23.1327891],[111.7359352,23.1303361]]},"properties":{"key":"way:516917760@detail:446_92","osmType":"way","osmId":516917760,"sourceRegion":"guangdong","featureType":"infrastructure","railClass":"highspeed","mode":"rail","name":"南广线","nameEn":"Nanguang Line","ref":"3029","usage":"main","highspeed":"yes","tunnel":"yes","status":"operational","color":"#E54848","dataOrigin":"datum-2026-08-01","sourceKey":"way:516917760"}},{"type":"Feature","geometry":{"type":"LineString","coordinates":[[111.7151327,23.1357515],[111.7168808,23.1356047]]},"properties":{"key":"way:516917761@detail:446_92","osmType":"way","osmId":516917761,"sourceRegion":"guangdong","featureType":"infrastructure","railClass":"highspeed","mode":"rail","name":"南广线","nameEn":"Nanguang Line","ref":"3029","usage":"main","highspeed":"yes","status":"operational","color":"#E54848","dataOrigin":"datum-2026-08-01","sourceKey":"way:516917761"}},{"type":"Feature","geometry":{"type":"LineString","coordinates":[[111.6741639,23.1364729],[111.6871609,23.1368907],[111.7015579,23.136456],[111.7135548,23.1358365]]},"properties":{"key":"way:516917762@detail:446_92","osmType":"way","osmId":516917762,"sourceRegion":"guangdong","featureType":"infrastructure","railClass":"highspeed","mode":"rail","name":"南广线","nameEn":"Nanguang Line","ref":"3029","usage":"main","highspeed":"yes","tunnel":"yes","status":"operational","color":"#E54848","dataOrigin":"datum-2026-08-01","sourceKey":"way:516917762"}},{"type":"Feature","geometry":{"type":"LineString","coordinates":[[111.6699099,23.1361572],[111.671133,23.1363052],[111.6722913,23.1363908]]},"properties":{"key":"way:516917763@detail:446_92","osmType":"way","osmId":516917763,"sourceRegion":"guangdong","featureType":"infrastructure","railClass":"highspeed","mode":"rail","name":"南广线","nameEn":"Nanguang Line","ref":"3029","usage":"main","highspeed":"yes","status":"operational","color":"#E54848","dataOrigin":"datum-2026-08-01","sourceKey":"way:516917763"}},{"type":"Feature","geometry":{"type":"LineString","coordinates":[[111.6431791,23.1325955],[111.6679251,23.1359204]]},"properties":{"key":"way:516917764@detail:446_92","osmType":"way","osmId":516917764,"sourceRegion":"guangdong","featureType":"infrastructure","railClass":"highspeed","mode":"rail","name":"南广线","nameEn":"Nanguang Line","ref":"3029","usage":"main","highspeed":"yes","tunnel":"yes","status":"operational","color":"#E54848","dataOrigin":"datum-2026-08-01","sourceKey":"way:516917764"}},{"type":"Feature","geometry":{"type":"LineString","coordinates":[[111.6417789,23.1324031],[111.6431791,23.1325955]]},"properties":{"key":"way:516917765@detail:446_92","osmType":"way","osmId":516917765,"sourceRegion":"guangdong","featureType":"infrastructure","railClass":"highspeed","mode":"rail","name":"南广线","nameEn":"Nanguang Line","ref":"3029","usage":"main","highspeed":"yes","status":"operational","color":"#E54848","dataOrigin":"datum-2026-08-01","sourceKey":"way:516917765"}},{"type":"Feature","geometry":{"type":"LineString","coordinates":[[111.6116166,23.1283464],[111.6417789,23.1324031]]},"properties":{"key":"way:516917766@detail:446_92","osmType":"way","osmId":516917766,"sourceRegion":"guangdong","featureType":"infrastructure","railClass":"highspeed","mode":"rail","name":"南广线","nameEn":"Nanguang Line","ref":"3029","usage":"main","highspeed":"yes","tunnel":"yes","status":"operational","color":"#E54848","dataOrigin":"datum-2026-08-01","sourceKey":"way:516917766"}},{"type":"Feature","geometry":{"type":"LineString","coordinates":[[111.7135548,23.1358365],[111.7140382,23.1358105]]},"properties":{"key":"way:549412262@detail:446_92","osmType":"way","osmId":549412262,"sourceRegion":"guangdong","featureType":"infrastructure","railClass":"highspeed","mode":"rail","name":"南广线","nameEn":"Nanguang Line","ref":"3029","usage":"main","highspeed":"yes","status":"operational","color":"#E54848","dataOrigin":"datum-2026-08-01","sourceKey":"way:549412262"}},{"type":"Feature","geometry":{"type":"LineString","coordinates":[[111.7140382,23.1358105],[111.7151327,23.1357515]]},"properties":{"key":"way:549412263@detail:446_92","osmType":"way","osmId":549412263,"sourceRegion":"guangdong","featureType":"infrastructure","railClass":"highspeed","mode":"rail","name":"南广线","nameEn":"Nanguang Line","ref":"3029","usage":"main","highspeed":"yes","bridge":"yes","status":"operational","color":"#E54848","dataOrigin":"datum-2026-08-01","sourceKey":"way:549412263"}},{"type":"Feature","geometry":{"type":"LineString","coordinates":[[111.6722913,23.1363908],[111.6741639,23.1364729]]},"properties":{"key":"way:549412264@detail:446_92","osmType":"way","osmId":549412264,"sourceRegion":"guangdong","featureType":"infrastructure","railClass":"highspeed","mode":"rail","name":"南广线","nameEn":"Nanguang Line","ref":"3029","usage":"main","highspeed":"yes","bridge":"yes","status":"operational","color":"#E54848","dataOrigin":"datum-2026-08-01","sourceKey":"way:549412264"}},{"type":"Feature","geometry":{"type":"LineString","coordinates":[[111.6679251,23.1359204],[111.668187,23.1359517]]},"properties":{"key":"way:549412265@detail:446_92","osmType":"way","osmId":549412265,"sourceRegion":"guangdong","featureType":"infrastructure","railClass":"highspeed","mode":"rail","name":"南广线","nameEn":"Nanguang Line","ref":"3029","usage":"main","highspeed":"yes","status":"operational","color":"#E54848","dataOrigin":"datum-2026-08-01","sourceKey":"way:549412265"}},{"type":"Feature","geometry":{"type":"LineString","coordinates":[[111.668187,23.1359517],[111.6699099,23.1361572]]},"properties":{"key":"way:549412266@detail:446_92","osmType":"way","osmId":549412266,"sourceRegion":"guangdong","featureType":"infrastructure","railClass":"highspeed","mode":"rail","name":"南广线","nameEn":"Nanguang Line","ref":"3029","usage":"main","highspeed":"yes","bridge":"yes","status":"operational","color":"#E54848","dataOrigin":"datum-2026-08-01","sourceKey":"way:549412266"}},{"type":"Feature","geometry":{"type":"LineString","coordinates":[[111.5969337,23.1278299],[111.5999713,23.1276699],[111.6017282,23.1276574],[111.6039169,23.1276672]]},"properties":{"key":"way:549412267@detail:446_92","osmType":"way","osmId":549412267,"sourceRegion":"guangdong","featureType":"infrastructure","railClass":"highspeed","mode":"rail","name":"南广线","nameEn":"Nanguang Line","ref":"3029","usage":"main","highspeed":"yes","bridge":"yes","status":"operational","color":"#E54848","dataOrigin":"datum-2026-08-01","sourceKey":"way:549412267"}},{"type":"Feature","geometry":{"type":"LineString","coordinates":[[111.5964925,23.1278547],[111.5969337,23.1278299]]},"properties":{"key":"way:549412268@detail:446_92","osmType":"way","osmId":549412268,"sourceRegion":"guangdong","featureType":"infrastructure","railClass":"highspeed","mode":"rail","name":"南广线","nameEn":"Nanguang Line","ref":"3029","usage":"main","highspeed":"yes","status":"operational","color":"#E54848","dataOrigin":"datum-2026-08-01","sourceKey":"way:549412268"}},{"type":"Feature","geometry":{"type":"LineString","coordinates":[[111.5890602,23.1290402],[111.5917067,23.1285085],[111.5940785,23.1281458],[111.5964925,23.1278547]]},"properties":{"key":"way:549412269@detail:446_92","osmType":"way","osmId":549412269,"sourceRegion":"guangdong","featureType":"infrastructure","railClass":"highspeed","mode":"rail","name":"南广线","nameEn":"Nanguang Line","ref":"3029","usage":"main","highspeed":"yes","tunnel":"yes","status":"operational","color":"#E54848","dataOrigin":"datum-2026-08-01","sourceKey":"way:549412269"}},{"type":"Feature","geometry":{"type":"LineString","coordinates":[[111.5851145,23.1301384],[111.5870344,23.1295598]]},"properties":{"key":"way:549412270@detail:446_92","osmType":"way","osmId":549412270,"sourceRegion":"guangdong","featureType":"infrastructure","railClass":"highspeed","mode":"rail","name":"南广线","nameEn":"Nanguang Line","ref":"3029","usage":"main","highspeed":"yes","bridge":"yes","status":"operational","color":"#E54848","dataOrigin":"datum-2026-08-01","sourceKey":"way:549412270"}},{"type":"Feature","geometry":{"type":"LineString","coordinates":[[111.5849245,23.1301956],[111.5851145,23.1301384]]},"properties":{"key":"way:549412273@detail:446_92","osmType":"way","osmId":549412273,"sourceRegion":"guangdong","featureType":"infrastructure","railClass":"highspeed","mode":"rail","name":"南广线","nameEn":"Nanguang Line","ref":"3029","usage":"main","highspeed":"yes","status":"operational","color":"#E54848","dataOrigin":"datum-2026-08-01","sourceKey":"way:549412273"}},{"type":"Feature","geometry":{"type":"LineString","coordinates":[[111.5871725,23.1295182],[111.5884348,23.1291986]]},"properties":{"key":"way:549412275@detail:446_92","osmType":"way","osmId":549412275,"sourceRegion":"guangdong","featureType":"infrastructure","railClass":"highspeed","mode":"rail","name":"南广线","nameEn":"Nanguang Line","ref":"3029","usage":"main","highspeed":"yes","tunnel":"yes","status":"operational","color":"#E54848","dataOrigin":"datum-2026-08-01","sourceKey":"way:549412275"}},{"type":"Feature","geometry":{"type":"LineString","coordinates":[[111.5884348,23.1291986],[111.5890602,23.1290402]]},"properties":{"key":"way:549412279@detail:446_92","osmType":"way","osmId":549412279,"sourceRegion":"guangdong","featureType":"infrastructure","railClass":"highspeed","mode":"rail","name":"南广线","nameEn":"Nanguang Line","ref":"3029","usage":"main","highspeed":"yes","status":"operational","color":"#E54848","dataOrigin":"datum-2026-08-01","sourceKey":"way:549412279"}},{"type":"Feature","geometry":{"type":"LineString","coordinates":[[111.5870344,23.1295598],[111.5871725,23.1295182]]},"properties":{"key":"way:549412281@detail:446_92","osmType":"way","osmId":549412281,"sourceRegion":"guangdong","featureType":"infrastructure","railClass":"highspeed","mode":"rail","name":"南广线","nameEn":"Nanguang Line","ref":"3029","usage":"main","highspeed":"yes","status":"operational","color":"#E54848","dataOrigin":"datum-2026-08-01","sourceKey":"way:549412281"}},{"type":"Feature","geometry":{"type":"LineString","coordinates":[[111.5491767,23.1551552],[111.5503001,23.15393]]},"properties":{"key":"way:549412284@detail:446_92","osmType":"way","osmId":549412284,"sourceRegion":"guangdong","featureType":"infrastructure","railClass":"highspeed","mode":"rail","name":"南广线","nameEn":"Nanguang Line","ref":"3029","usage":"main","highspeed":"yes","status":"operational","color":"#E54848","dataOrigin":"datum-2026-08-01","sourceKey":"way:549412284"}},{"type":"Feature","geometry":{"type":"LineString","coordinates":[[111.5503001,23.15393],[111.5516488,23.1524832]]},"properties":{"key":"way:549412287@detail:446_92","osmType":"way","osmId":549412287,"sourceRegion":"guangdong","featureType":"infrastructure","railClass":"highspeed","mode":"rail","name":"南广线","nameEn":"Nanguang Line","ref":"3029","usage":"main","highspeed":"yes","bridge":"yes","status":"operational","color":"#E54848","dataOrigin":"datum-2026-08-01","sourceKey":"way:549412287"}},{"type":"Feature","geometry":{"type":"LineString","coordinates":[[111.5407211,23.1631828],[111.5409871,23.1629793]]},"properties":{"key":"way:549412288@detail:446_92","osmType":"way","osmId":549412288,"sourceRegion":"guangdong","featureType":"infrastructure","railClass":"highspeed","mode":"rail","name":"南广线","nameEn":"Nanguang Line","ref":"3029","usage":"main","highspeed":"yes","status":"operational","color":"#E54848","dataOrigin":"datum-2026-08-01","sourceKey":"way:549412288"}},{"type":"Feature","geometry":{"type":"LineString","coordinates":[[111.5400707,23.1636816],[111.5407211,23.1631828]]},"properties":{"key":"way:549412289@detail:446_92","osmType":"way","osmId":549412289,"sourceRegion":"guangdong","featureType":"infrastructure","railClass":"highspeed","mode":"rail","name":"南广线","nameEn":"Nanguang Line","ref":"3029","usage":"main","highspeed":"yes","tunnel":"yes","status":"operational","color":"#E54848","dataOrigin":"datum-2026-08-01","sourceKey":"way:549412289"}},{"type":"Feature","geometry":{"type":"LineString","coordinates":[[111.5376896,23.1653942],[111.5400707,23.1636816]]},"properties":{"key":"way:549412290@detail:446_92","osmType":"way","osmId":549412290,"sourceRegion":"guangdong","featureType":"infrastructure","railClass":"highspeed","mode":"rail","name":"南广线","nameEn":"Nanguang Line","ref":"3029","usage":"main","highspeed":"yes","bridge":"yes","status":"operational","color":"#E54848","dataOrigin":"datum-2026-08-01","sourceKey":"way:549412290"}},{"type":"Feature","geometry":{"type":"LineString","coordinates":[[111.5371085,23.1658041],[111.5376896,23.1653942]]},"properties":{"key":"way:549412291@detail:446_92","osmType":"way","osmId":549412291,"sourceRegion":"guangdong","featureType":"infrastructure","railClass":"highspeed","mode":"rail","name":"南广线","nameEn":"Nanguang Line","ref":"3029","usage":"main","highspeed":"yes","status":"operational","color":"#E54848","dataOrigin":"datum-2026-08-01","sourceKey":"way:549412291"}},{"type":"Feature","geometry":{"type":"LineString","coordinates":[[111.5360298,23.166565],[111.5371085,23.1658041]]},"properties":{"key":"way:549412292@detail:446_92","osmType":"way","osmId":549412292,"sourceRegion":"guangdong","featureType":"infrastructure","railClass":"highspeed","mode":"rail","name":"南广线","nameEn":"Nanguang Line","ref":"3029","usage":"main","highspeed":"yes","bridge":"yes","status":"operational","color":"#E54848","dataOrigin":"datum-2026-08-01","sourceKey":"way:549412292"}},{"type":"Feature","geometry":{"type":"LineString","coordinates":[[111.5352055,23.1671185],[111.5360298,23.166565]]},"properties":{"key":"way:549412293@detail:446_92","osmType":"way","osmId":549412293,"sourceRegion":"guangdong","featureType":"infrastructure","railClass":"highspeed","mode":"rail","name":"南广线","nameEn":"Nanguang Line","ref":"3029","usage":"main","highspeed":"yes","status":"operational","color":"#E54848","dataOrigin":"datum-2026-08-01","sourceKey":"way:549412293"}},{"type":"Feature","geometry":{"type":"LineString","coordinates":[[111.5336626,23.1682672],[111.5352055,23.1671185]]},"properties":{"key":"way:549412294@detail:446_92","osmType":"way","osmId":549412294,"sourceRegion":"guangdong","featureType":"infrastructure","railClass":"highspeed","mode":"rail","name":"南广线","nameEn":"Nanguang Line","ref":"3029","usage":"main","highspeed":"yes","tunnel":"yes","status":"operational","color":"#E54848","dataOrigin":"datum-2026-08-01","sourceKey":"way:549412294"}},{"type":"Feature","geometry":{"type":"LineString","coordinates":[[111.5322775,23.1692985],[111.5336626,23.1682672]]},"properties":{"key":"way:549412295@detail:446_92","osmType":"way","osmId":549412295,"sourceRegion":"guangdong","featureType":"infrastructure","railClass":"highspeed","mode":"rail","name":"南广线","nameEn":"Nanguang Line","ref":"3029","usage":"main","highspeed":"yes","status":"operational","color":"#E54848","dataOrigin":"datum-2026-08-01","sourceKey":"way:549412295"}},{"type":"Feature","geometry":{"type":"LineString","coordinates":[[111.528064,23.1729719],[111.5295875,23.1715713],[111.5309608,23.1703383],[111.5322775,23.1692985]]},"properties":{"key":"way:549412296@detail:446_92","osmType":"way","osmId":549412296,"sourceRegion":"guangdong","featureType":"infrastructure","railClass":"highspeed","mode":"rail","name":"南广线","nameEn":"Nanguang Line","ref":"3029","usage":"main","highspeed":"yes","tunnel":"yes","status":"operational","color":"#E54848","dataOrigin":"datum-2026-08-01","sourceKey":"way:549412296"}},{"type":"Feature","geometry":{"type":"LineString","coordinates":[[111.5248253,23.1763015],[111.5268875,23.1741011],[111.528064,23.1729719]]},"properties":{"key":"way:549412297@detail:446_92","osmType":"way","osmId":549412297,"sourceRegion":"guangdong","featureType":"infrastructure","railClass":"highspeed","mode":"rail","name":"南广线","nameEn":"Nanguang Line","ref":"3029","usage":"main","highspeed":"yes","status":"operational","color":"#E54848","dataOrigin":"datum-2026-08-01","sourceKey":"way:549412297"}},{"type":"Feature","geometry":{"type":"LineString","coordinates":[[111.5239325,23.1773033],[111.5248253,23.1763015]]},"properties":{"key":"way:549412298@detail:446_92","osmType":"way","osmId":549412298,"sourceRegion":"guangdong","featureType":"infrastructure","railClass":"highspeed","mode":"rail","name":"南广线","nameEn":"Nanguang Line","ref":"3029","usage":"main","highspeed":"yes","bridge":"yes","status":"operational","color":"#E54848","dataOrigin":"datum-2026-08-01","sourceKey":"way:549412298"}},{"type":"Feature","geometry":{"type":"LineString","coordinates":[[111.5237353,23.1775257],[111.5239325,23.1773033]]},"properties":{"key":"way:549412299@detail:446_92","osmType":"way","osmId":549412299,"sourceRegion":"guangdong","featureType":"infrastructure","railClass":"highspeed","mode":"rail","name":"南广线","nameEn":"Nanguang Line","ref":"3029","usage":"main","highspeed":"yes","status":"operational","color":"#E54848","dataOrigin":"datum-2026-08-01","sourceKey":"way:549412299"}},{"type":"Feature","geometry":{"type":"LineString","coordinates":[[111.5227758,23.1786094],[111.5237353,23.1775257]]},"properties":{"key":"way:549412300@detail:446_92","osmType":"way","osmId":549412300,"sourceRegion":"guangdong","featureType":"infrastructure","railClass":"highspeed","mode":"rail","name":"南广线","nameEn":"Nanguang Line","ref":"3029","usage":"main","highspeed":"yes","tunnel":"yes","status":"operational","color":"#E54848","dataOrigin":"datum-2026-08-01","sourceKey":"way:549412300"}},{"type":"Feature","geometry":{"type":"LineString","coordinates":[[111.520391,23.1812617],[111.5210537,23.1805211],[111.5227758,23.1786094]]},"properties":{"key":"way:549412301@detail:446_92","osmType":"way","osmId":549412301,"sourceRegion":"guangdong","featureType":"infrastructure","railClass":"highspeed","mode":"rail","name":"南广线","nameEn":"Nanguang Line","ref":"3029","usage":"main","highspeed":"yes","status":"operational","color":"#E54848","dataOrigin":"datum-2026-08-01","sourceKey":"way:549412301"}},{"type":"Feature","geometry":{"type":"LineString","coordinates":[[111.5196091,23.182146],[111.520391,23.1812617]]},"properties":{"key":"way:549412302@detail:446_92","osmType":"way","osmId":549412302,"sourceRegion":"guangdong","featureType":"infrastructure","railClass":"highspeed","mode":"rail","name":"南广线","nameEn":"Nanguang Line","ref":"3029","usage":"main","highspeed":"yes","tunnel":"yes","status":"operational","color":"#E54848","dataOrigin":"datum-2026-08-01","sourceKey":"way:549412302"}},{"type":"Feature","geometry":{"type":"LineString","coordinates":[[111.5193014,23.1824606],[111.5196091,23.182146]]},"properties":{"key":"way:549412303@detail:446_92","osmType":"way","osmId":549412303,"sourceRegion":"guangdong","featureType":"infrastructure","railClass":"highspeed","mode":"rail","name":"南广线","nameEn":"Nanguang Line","ref":"3029","usage":"main","highspeed":"yes","status":"operational","color":"#E54848","dataOrigin":"datum-2026-08-01","sourceKey":"way:549412303"}},{"type":"Feature","geometry":{"type":"LineString","coordinates":[[111.5149282,23.1867119],[111.5153214,23.1863463]]},"properties":{"key":"way:549412304@detail:446_92","osmType":"way","osmId":549412304,"sourceRegion":"guangdong","featureType":"infrastructure","railClass":"highspeed","mode":"rail","name":"南广线","nameEn":"Nanguang Line","ref":"3029","usage":"main","highspeed":"yes","status":"operational","color":"#E54848","dataOrigin":"datum-2026-08-01","sourceKey":"way:549412304"}},{"type":"Feature","geometry":{"type":"LineString","coordinates":[[111.5153214,23.1863463],[111.5155931,23.1860937],[111.5173081,23.1844989],[111.5193014,23.1824606]]},"properties":{"key":"way:549412305@detail:446_92","osmType":"way","osmId":549412305,"sourceRegion":"guangdong","featureType":"infrastructure","railClass":"highspeed","mode":"rail","name":"南广线","nameEn":"Nanguang Line","ref":"3029","usage":"main","highspeed":"yes","bridge":"yes","status":"operational","color":"#E54848","dataOrigin":"datum-2026-08-01","sourceKey":"way:549412305"}},{"type":"Feature","geometry":{"type":"LineString","coordinates":[[111.5065721,23.194418],[111.5068886,23.1941102]]},"properties":{"key":"way:549412306@detail:446_92","osmType":"way","osmId":549412306,"sourceRegion":"guangdong","featureType":"infrastructure","railClass":"highspeed","mode":"rail","name":"南广线","nameEn":"Nanguang Line","ref":"3029","usage":"main","highspeed":"yes","status":"operational","color":"#E54848","dataOrigin":"datum-2026-08-01","sourceKey":"way:549412306"}},{"type":"Feature","geometry":{"type":"LineString","coordinates":[[111.5041421,23.1966368],[111.5065721,23.194418]]},"properties":{"key":"way:549412308@detail:446_92","osmType":"way","osmId":549412308,"sourceRegion":"guangdong","featureType":"infrastructure","railClass":"highspeed","mode":"rail","name":"南广线","nameEn":"Nanguang Line","ref":"3029","usage":"main","highspeed":"yes","tunnel":"yes","status":"operational","color":"#E54848","dataOrigin":"datum-2026-08-01","sourceKey":"way:549412308"}},{"type":"Feature","geometry":{"type":"LineString","coordinates":[[111.5027472,23.1980143],[111.5041421,23.1966368]]},"properties":{"key":"way:549412311@detail:446_92","osmType":"way","osmId":549412311,"sourceRegion":"guangdong","featureType":"infrastructure","railClass":"highspeed","mode":"rail","name":"南广线","nameEn":"Nanguang Line","ref":"3029","usage":"main","highspeed":"yes","status":"operational","color":"#E54848","dataOrigin":"datum-2026-08-01","sourceKey":"way:549412311"}},{"type":"Feature","geometry":{"type":"LineString","coordinates":[[111.500699,23.2000817],[111.5027472,23.1980143]]},"properties":{"key":"way:549412313@detail:446_92","osmType":"way","osmId":549412313,"sourceRegion":"guangdong","featureType":"infrastructure","railClass":"highspeed","mode":"rail","name":"南广线","nameEn":"Nanguang Line","ref":"3029","usage":"main","highspeed":"yes","bridge":"yes","status":"operational","color":"#E54848","dataOrigin":"datum-2026-08-01","sourceKey":"way:549412313"}},{"type":"Feature","geometry":{"type":"LineString","coordinates":[[111.5004621,23.2003299],[111.500699,23.2000817]]},"properties":{"key":"way:549412314@detail:446_92","osmType":"way","osmId":549412314,"sourceRegion":"guangdong","featureType":"infrastructure","railClass":"highspeed","mode":"rail","name":"南广线","nameEn":"Nanguang Line","ref":"3029","usage":"main","highspeed":"yes","status":"operational","color":"#E54848","dataOrigin":"datum-2026-08-01","sourceKey":"way:549412314"}},{"type":"Feature","geometry":{"type":"LineString","coordinates":[[111.5,23.200848674681247],[111.5004621,23.2003299]]},"properties":{"key":"way:549412315@detail:446_92","osmType":"way","osmId":549412315,"sourceRegion":"guangdong","featureType":"infrastructure","railClass":"highspeed","mode":"rail","name":"南广线","nameEn":"Nanguang Line","ref":"3029","usage":"main","highspeed":"yes","status":"operational","color":"#E54848","dataOrigin":"datum-2026-08-01","sourceKey":"way:549412315"}},{"type":"Feature","geometry":{"type":"LineString","coordinates":[[111.5068886,23.1941102],[111.5108078,23.1905037],[111.5149282,23.1867119]]},"properties":{"key":"way:549412335@detail:446_92","osmType":"way","osmId":549412335,"sourceRegion":"guangdong","featureType":"infrastructure","railClass":"highspeed","mode":"rail","name":"南广线","nameEn":"Nanguang Line","ref":"3029","usage":"main","highspeed":"yes","tunnel":"yes","status":"operational","color":"#E54848","dataOrigin":"datum-2026-08-01","sourceKey":"way:549412335"}},{"type":"Feature","geometry":{"type":"LineString","coordinates":[[111.5004098,23.2002891],[111.5,23.20074917045972]]},"properties":{"key":"way:631439706@detail:446_92","osmType":"way","osmId":631439706,"sourceRegion":"guangdong","featureType":"infrastructure","railClass":"highspeed","mode":"rail","name":"南广线","nameEn":"Nanguang Line","ref":"3029","usage":"main","highspeed":"yes","status":"operational","color":"#E54848","dataOrigin":"datum-2026-08-01","sourceKey":"way:631439706"}},{"type":"Feature","geometry":{"type":"LineString","coordinates":[[111.5006479,23.2000397],[111.5004098,23.2002891]]},"properties":{"key":"way:631439710@detail:446_92","osmType":"way","osmId":631439710,"sourceRegion":"guangdong","featureType":"infrastructure","railClass":"highspeed","mode":"rail","name":"南广线","nameEn":"Nanguang Line","ref":"3029","usage":"main","highspeed":"yes","status":"operational","color":"#E54848","dataOrigin":"datum-2026-08-01","sourceKey":"way:631439710"}},{"type":"Feature","geometry":{"type":"LineString","coordinates":[[111.5026967,23.1979716],[111.5006479,23.2000397]]},"properties":{"key":"way:631439713@detail:446_92","osmType":"way","osmId":631439713,"sourceRegion":"guangdong","featureType":"infrastructure","railClass":"highspeed","mode":"rail","name":"南广线","nameEn":"Nanguang Line","ref":"3029","usage":"main","highspeed":"yes","bridge":"yes","status":"operational","color":"#E54848","dataOrigin":"datum-2026-08-01","sourceKey":"way:631439713"}},{"type":"Feature","geometry":{"type":"LineString","coordinates":[[111.5040928,23.1965929],[111.5026967,23.1979716]]},"properties":{"key":"way:631439718@detail:446_92","osmType":"way","osmId":631439718,"sourceRegion":"guangdong","featureType":"infrastructure","railClass":"highspeed","mode":"rail","name":"南广线","nameEn":"Nanguang Line","ref":"3029","usage":"main","highspeed":"yes","status":"operational","color":"#E54848","dataOrigin":"datum-2026-08-01","sourceKey":"way:631439718"}},{"type":"Feature","geometry":{"type":"LineString","coordinates":[[111.506523,23.194374],[111.5040928,23.1965929]]},"properties":{"key":"way:631439721@detail:446_92","osmType":"way","osmId":631439721,"sourceRegion":"guangdong","featureType":"infrastructure","railClass":"highspeed","mode":"rail","name":"南广线","nameEn":"Nanguang Line","ref":"3029","usage":"main","highspeed":"yes","tunnel":"yes","status":"operational","color":"#E54848","dataOrigin":"datum-2026-08-01","sourceKey":"way:631439721"}},{"type":"Feature","geometry":{"type":"LineString","coordinates":[[111.5068394,23.1940663],[111.506523,23.194374]]},"properties":{"key":"way:631439725@detail:446_92","osmType":"way","osmId":631439725,"sourceRegion":"guangdong","featureType":"infrastructure","railClass":"highspeed","mode":"rail","name":"南广线","nameEn":"Nanguang Line","ref":"3029","usage":"main","highspeed":"yes","status":"operational","color":"#E54848","dataOrigin":"datum-2026-08-01","sourceKey":"way:631439725"}},{"type":"Feature","geometry":{"type":"LineString","coordinates":[[111.5148796,23.1866675],[111.5107593,23.1904592],[111.5068394,23.1940663]]},"properties":{"key":"way:631439727@detail:446_92","osmType":"way","osmId":631439727,"sourceRegion":"guangdong","featureType":"infrastructure","railClass":"highspeed","mode":"rail","name":"南广线","nameEn":"Nanguang Line","ref":"3029","usage":"main","highspeed":"yes","tunnel":"yes","status":"operational","color":"#E54848","dataOrigin":"datum-2026-08-01","sourceKey":"way:631439727"}},{"type":"Feature","geometry":{"type":"LineString","coordinates":[[111.5152726,23.186302],[111.5148796,23.1866675]]},"properties":{"key":"way:631439730@detail:446_92","osmType":"way","osmId":631439730,"sourceRegion":"guangdong","featureType":"infrastructure","railClass":"highspeed","mode":"rail","name":"南广线","nameEn":"Nanguang Line","ref":"3029","usage":"main","highspeed":"yes","status":"operational","color":"#E54848","dataOrigin":"datum-2026-08-01","sourceKey":"way:631439730"}},{"type":"Feature","geometry":{"type":"LineString","coordinates":[[111.5192504,23.1824185],[111.5172582,23.1844556],[111.5152726,23.186302]]},"properties":{"key":"way:631439734@detail:446_92","osmType":"way","osmId":631439734,"sourceRegion":"guangdong","featureType":"infrastructure","railClass":"highspeed","mode":"rail","name":"南广线","nameEn":"Nanguang Line","ref":"3029","usage":"main","highspeed":"yes","bridge":"yes","status":"operational","color":"#E54848","dataOrigin":"datum-2026-08-01","sourceKey":"way:631439734"}},{"type":"Feature","geometry":{"type":"LineString","coordinates":[[111.519557,23.182105],[111.5192504,23.1824185]]},"properties":{"key":"way:631439739@detail:446_92","osmType":"way","osmId":631439739,"sourceRegion":"guangdong","featureType":"infrastructure","railClass":"highspeed","mode":"rail","name":"南广线","nameEn":"Nanguang Line","ref":"3029","usage":"main","highspeed":"yes","status":"operational","color":"#E54848","dataOrigin":"datum-2026-08-01","sourceKey":"way:631439739"}},{"type":"Feature","geometry":{"type":"LineString","coordinates":[[111.5203379,23.1812218],[111.519557,23.182105]]},"properties":{"key":"way:631439743@detail:446_92","osmType":"way","osmId":631439743,"sourceRegion":"guangdong","featureType":"infrastructure","railClass":"highspeed","mode":"rail","name":"南广线","nameEn":"Nanguang Line","ref":"3029","usage":"main","highspeed":"yes","tunnel":"yes","status":"operational","color":"#E54848","dataOrigin":"datum-2026-08-01","sourceKey":"way:631439743"}},{"type":"Feature","geometry":{"type":"LineString","coordinates":[[111.5227228,23.1785694],[111.5210008,23.180481],[111.5203379,23.1812218]]},"properties":{"key":"way:631439748@detail:446_92","osmType":"way","osmId":631439748,"sourceRegion":"guangdong","featureType":"infrastructure","railClass":"highspeed","mode":"rail","name":"南广线","nameEn":"Nanguang Line","ref":"3029","usage":"main","highspeed":"yes","status":"operational","color":"#E54848","dataOrigin":"datum-2026-08-01","sourceKey":"way:631439748"}},{"type":"Feature","geometry":{"type":"LineString","coordinates":[[111.5236821,23.1774859],[111.5227228,23.1785694]]},"properties":{"key":"way:631439752@detail:446_92","osmType":"way","osmId":631439752,"sourceRegion":"guangdong","featureType":"infrastructure","railClass":"highspeed","mode":"rail","name":"南广线","nameEn":"Nanguang Line","ref":"3029","usage":"main","highspeed":"yes","tunnel":"yes","status":"operational","color":"#E54848","dataOrigin":"datum-2026-08-01","sourceKey":"way:631439752"}},{"type":"Feature","geometry":{"type":"LineString","coordinates":[[111.5238794,23.1772634],[111.5236821,23.1774859]]},"properties":{"key":"way:631439756@detail:446_92","osmType":"way","osmId":631439756,"sourceRegion":"guangdong","featureType":"infrastructure","railClass":"highspeed","mode":"rail","name":"南广线","nameEn":"Nanguang Line","ref":"3029","usage":"main","highspeed":"yes","status":"operational","color":"#E54848","dataOrigin":"datum-2026-08-01","sourceKey":"way:631439756"}},{"type":"Feature","geometry":{"type":"LineString","coordinates":[[111.5247728,23.1762609],[111.5238794,23.1772634]]},"properties":{"key":"way:631439760@detail:446_92","osmType":"way","osmId":631439760,"sourceRegion":"guangdong","featureType":"infrastructure","railClass":"highspeed","mode":"rail","name":"南广线","nameEn":"Nanguang Line","ref":"3029","usage":"main","highspeed":"yes","bridge":"yes","status":"operational","color":"#E54848","dataOrigin":"datum-2026-08-01","sourceKey":"way:631439760"}},{"type":"Feature","geometry":{"type":"LineString","coordinates":[[111.528015,23.1729278],[111.5268367,23.1740587],[111.5247728,23.1762609]]},"properties":{"key":"way:631439765@detail:446_92","osmType":"way","osmId":631439765,"sourceRegion":"guangdong","featureType":"infrastructure","railClass":"highspeed","mode":"rail","name":"南广线","nameEn":"Nanguang Line","ref":"3029","usage":"main","highspeed":"yes","status":"operational","color":"#E54848","dataOrigin":"datum-2026-08-01","sourceKey":"way:631439765"}},{"type":"Feature","geometry":{"type":"LineString","coordinates":[[111.5322336,23.1692501],[111.5309145,23.1702918],[111.5295393,23.1715265],[111.528015,23.1729278]]},"properties":{"key":"way:631439769@detail:446_92","osmType":"way","osmId":631439769,"sourceRegion":"guangdong","featureType":"infrastructure","railClass":"highspeed","mode":"rail","name":"南广线","nameEn":"Nanguang Line","ref":"3029","usage":"main","highspeed":"yes","tunnel":"yes","status":"operational","color":"#E54848","dataOrigin":"datum-2026-08-01","sourceKey":"way:631439769"}},{"type":"Feature","geometry":{"type":"LineString","coordinates":[[111.5336194,23.1682182],[111.5322336,23.1692501]]},"properties":{"key":"way:631439774@detail:446_92","osmType":"way","osmId":631439774,"sourceRegion":"guangdong","featureType":"infrastructure","railClass":"highspeed","mode":"rail","name":"南广线","nameEn":"Nanguang Line","ref":"3029","usage":"main","highspeed":"yes","status":"operational","color":"#E54848","dataOrigin":"datum-2026-08-01","sourceKey":"way:631439774"}},{"type":"Feature","geometry":{"type":"LineString","coordinates":[[111.5351637,23.1670685],[111.5336194,23.1682182]]},"properties":{"key":"way:631439778@detail:446_92","osmType":"way","osmId":631439778,"sourceRegion":"guangdong","featureType":"infrastructure","railClass":"highspeed","mode":"rail","name":"南广线","nameEn":"Nanguang Line","ref":"3029","usage":"main","highspeed":"yes","tunnel":"yes","status":"operational","color":"#E54848","dataOrigin":"datum-2026-08-01","sourceKey":"way:631439778"}},{"type":"Feature","geometry":{"type":"LineString","coordinates":[[111.5359887,23.1665145],[111.5351637,23.1670685]]},"properties":{"key":"way:631439783@detail:446_92","osmType":"way","osmId":631439783,"sourceRegion":"guangdong","featureType":"infrastructure","railClass":"highspeed","mode":"rail","name":"南广线","nameEn":"Nanguang Line","ref":"3029","usage":"main","highspeed":"yes","status":"operational","color":"#E54848","dataOrigin":"datum-2026-08-01","sourceKey":"way:631439783"}},{"type":"Feature","geometry":{"type":"LineString","coordinates":[[111.5370668,23.1657541],[111.5359887,23.1665145]]},"properties":{"key":"way:631439787@detail:446_92","osmType":"way","osmId":631439787,"sourceRegion":"guangdong","featureType":"infrastructure","railClass":"highspeed","mode":"rail","name":"南广线","nameEn":"Nanguang Line","ref":"3029","usage":"main","highspeed":"yes","bridge":"yes","status":"operational","color":"#E54848","dataOrigin":"datum-2026-08-01","sourceKey":"way:631439787"}},{"type":"Feature","geometry":{"type":"LineString","coordinates":[[111.5376476,23.1653444],[111.5370668,23.1657541]]},"properties":{"key":"way:631439792@detail:446_92","osmType":"way","osmId":631439792,"sourceRegion":"guangdong","featureType":"infrastructure","railClass":"highspeed","mode":"rail","name":"南广线","nameEn":"Nanguang Line","ref":"3029","usage":"main","highspeed":"yes","status":"operational","color":"#E54848","dataOrigin":"datum-2026-08-01","sourceKey":"way:631439792"}},{"type":"Feature","geometry":{"type":"LineString","coordinates":[[111.5400276,23.1636325],[111.5376476,23.1653444]]},"properties":{"key":"way:631439796@detail:446_92","osmType":"way","osmId":631439796,"sourceRegion":"guangdong","featureType":"infrastructure","railClass":"highspeed","mode":"rail","name":"南广线","nameEn":"Nanguang Line","ref":"3029","usage":"main","highspeed":"yes","bridge":"yes","status":"operational","color":"#E54848","dataOrigin":"datum-2026-08-01","sourceKey":"way:631439796"}},{"type":"Feature","geometry":{"type":"LineString","coordinates":[[111.5406772,23.1631344],[111.5400276,23.1636325]]},"properties":{"key":"way:631439801@detail:446_92","osmType":"way","osmId":631439801,"sourceRegion":"guangdong","featureType":"infrastructure","railClass":"highspeed","mode":"rail","name":"南广线","nameEn":"Nanguang Line","ref":"3029","usage":"main","highspeed":"yes","tunnel":"yes","status":"operational","color":"#E54848","dataOrigin":"datum-2026-08-01","sourceKey":"way:631439801"}},{"type":"Feature","geometry":{"type":"LineString","coordinates":[[111.5409432,23.1629308],[111.5406772,23.1631344]]},"properties":{"key":"way:631439804@detail:446_92","osmType":"way","osmId":631439804,"sourceRegion":"guangdong","featureType":"infrastructure","railClass":"highspeed","mode":"rail","name":"南广线","nameEn":"Nanguang Line","ref":"3029","usage":"main","highspeed":"yes","status":"operational","color":"#E54848","dataOrigin":"datum-2026-08-01","sourceKey":"way:631439804"}},{"type":"Feature","geometry":{"type":"LineString","coordinates":[[111.549124,23.1551149],[111.548488,23.1558259],[111.5475905,23.156711],[111.5460052,23.1584413],[111.5444501,23.159911],[111.5435396,23.160788],[111.5425925,23.1615591],[111.5414493,23.1625436],[111.5409432,23.1629308]]},"properties":{"key":"way:631439808@detail:446_92","osmType":"way","osmId":631439808,"sourceRegion":"guangdong","featureType":"infrastructure","railClass":"highspeed","mode":"rail","name":"南广线","nameEn":"Nanguang Line","ref":"3029","usage":"main","highspeed":"yes","bridge":"yes","status":"operational","color":"#E54848","dataOrigin":"datum-2026-08-01","sourceKey":"way:631439808"}},{"type":"Feature","geometry":{"type":"LineString","coordinates":[[111.5502478,23.1538892],[111.549124,23.1551149]]},"properties":{"key":"way:631439813@detail:446_92","osmType":"way","osmId":631439813,"sourceRegion":"guangdong","featureType":"infrastructure","railClass":"highspeed","mode":"rail","name":"南广线","nameEn":"Nanguang Line","ref":"3029","usage":"main","highspeed":"yes","status":"operational","color":"#E54848","dataOrigin":"datum-2026-08-01","sourceKey":"way:631439813"}},{"type":"Feature","geometry":{"type":"LineString","coordinates":[[111.5515971,23.1524417],[111.5502478,23.1538892]]},"properties":{"key":"way:631439818@detail:446_92","osmType":"way","osmId":631439818,"sourceRegion":"guangdong","featureType":"infrastructure","railClass":"highspeed","mode":"rail","name":"南广线","nameEn":"Nanguang Line","ref":"3029","usage":"main","highspeed":"yes","bridge":"yes","status":"operational","color":"#E54848","dataOrigin":"datum-2026-08-01","sourceKey":"way:631439818"}},{"type":"Feature","geometry":{"type":"LineString","coordinates":[[111.555126,23.1491118],[111.5531676,23.1508239],[111.5525602,23.151447],[111.5515971,23.1524417]]},"properties":{"key":"way:631439822@detail:446_92","osmType":"way","osmId":631439822,"sourceRegion":"guangdong","featureType":"infrastructure","railClass":"highspeed","mode":"rail","name":"南广线","nameEn":"Nanguang Line","ref":"3029","usage":"main","highspeed":"yes","status":"operational","color":"#E54848","dataOrigin":"datum-2026-08-01","sourceKey":"way:631439822"}},{"type":"Feature","geometry":{"type":"LineString","coordinates":[[111.5849001,23.1301366],[111.5794369,23.1323311],[111.5723057,23.1355705],[111.5657758,23.1400741],[111.5598497,23.1447336],[111.555126,23.1491118]]},"properties":{"key":"way:631439826@detail:446_92","osmType":"way","osmId":631439826,"sourceRegion":"guangdong","featureType":"infrastructure","railClass":"highspeed","mode":"rail","name":"南广线","nameEn":"Nanguang Line","ref":"3029","usage":"main","highspeed":"yes","tunnel":"yes","status":"operational","color":"#E54848","dataOrigin":"datum-2026-08-01","sourceKey":"way:631439826"}},{"type":"Feature","geometry":{"type":"LineString","coordinates":[[111.5850931,23.1300785],[111.5849001,23.1301366]]},"properties":{"key":"way:631439831@detail:446_92","osmType":"way","osmId":631439831,"sourceRegion":"guangdong","featureType":"infrastructure","railClass":"highspeed","mode":"rail","name":"南广线","nameEn":"Nanguang Line","ref":"3029","usage":"main","highspeed":"yes","status":"operational","color":"#E54848","dataOrigin":"datum-2026-08-01","sourceKey":"way:631439831"}},{"type":"Feature","geometry":{"type":"LineString","coordinates":[[111.5870131,23.1294999],[111.5850931,23.1300785]]},"properties":{"key":"way:631439834@detail:446_92","osmType":"way","osmId":631439834,"sourceRegion":"guangdong","featureType":"infrastructure","railClass":"highspeed","mode":"rail","name":"南广线","nameEn":"Nanguang Line","ref":"3029","usage":"main","highspeed":"yes","bridge":"yes","status":"operational","color":"#E54848","dataOrigin":"datum-2026-08-01","sourceKey":"way:631439834"}},{"type":"Feature","geometry":{"type":"LineString","coordinates":[[111.5871527,23.1294578],[111.5870131,23.1294999]]},"properties":{"key":"way:631439838@detail:446_92","osmType":"way","osmId":631439838,"sourceRegion":"guangdong","featureType":"infrastructure","railClass":"highspeed","mode":"rail","name":"南广线","nameEn":"Nanguang Line","ref":"3029","usage":"main","highspeed":"yes","status":"operational","color":"#E54848","dataOrigin":"datum-2026-08-01","sourceKey":"way:631439838"}},{"type":"Feature","geometry":{"type":"LineString","coordinates":[[111.5884166,23.1291378],[111.5871527,23.1294578]]},"properties":{"key":"way:631439841@detail:446_92","osmType":"way","osmId":631439841,"sourceRegion":"guangdong","featureType":"infrastructure","railClass":"highspeed","mode":"rail","name":"南广线","nameEn":"Nanguang Line","ref":"3029","usage":"main","highspeed":"yes","tunnel":"yes","status":"operational","color":"#E54848","dataOrigin":"datum-2026-08-01","sourceKey":"way:631439841"}},{"type":"Feature","geometry":{"type":"LineString","coordinates":[[111.5890438,23.1289789],[111.5884166,23.1291378]]},"properties":{"key":"way:631439845@detail:446_92","osmType":"way","osmId":631439845,"sourceRegion":"guangdong","featureType":"infrastructure","railClass":"highspeed","mode":"rail","name":"南广线","nameEn":"Nanguang Line","ref":"3029","usage":"main","highspeed":"yes","status":"operational","color":"#E54848","dataOrigin":"datum-2026-08-01","sourceKey":"way:631439845"}},{"type":"Feature","geometry":{"type":"LineString","coordinates":[[111.5964859,23.1277919],[111.5940684,23.1280834],[111.5916937,23.1284465],[111.5890438,23.1289789]]},"properties":{"key":"way:631439848@detail:446_92","osmType":"way","osmId":631439848,"sourceRegion":"guangdong","featureType":"infrastructure","railClass":"highspeed","mode":"rail","name":"南广线","nameEn":"Nanguang Line","ref":"3029","usage":"main","highspeed":"yes","tunnel":"yes","status":"operational","color":"#E54848","dataOrigin":"datum-2026-08-01","sourceKey":"way:631439848"}},{"type":"Feature","geometry":{"type":"LineString","coordinates":[[111.5969296,23.1277669],[111.5964859,23.1277919]]},"properties":{"key":"way:631439852@detail:446_92","osmType":"way","osmId":631439852,"sourceRegion":"guangdong","featureType":"infrastructure","railClass":"highspeed","mode":"rail","name":"南广线","nameEn":"Nanguang Line","ref":"3029","usage":"main","highspeed":"yes","status":"operational","color":"#E54848","dataOrigin":"datum-2026-08-01","sourceKey":"way:631439852"}},{"type":"Feature","geometry":{"type":"LineString","coordinates":[[111.603919,23.1276041],[111.6017281,23.1275943],[111.5999691,23.1276068],[111.5969296,23.1277669]]},"properties":{"key":"way:631439856@detail:446_92","osmType":"way","osmId":631439856,"sourceRegion":"guangdong","featureType":"infrastructure","railClass":"highspeed","mode":"rail","name":"南广线","nameEn":"Nanguang Line","ref":"3029","usage":"main","highspeed":"yes","bridge":"yes","status":"operational","color":"#E54848","dataOrigin":"datum-2026-08-01","sourceKey":"way:631439856"}},{"type":"Feature","geometry":{"type":"LineString","coordinates":[[111.6116268,23.128284],[111.6094986,23.1279822],[111.6068638,23.1277543],[111.603919,23.1276041]]},"properties":{"key":"way:631439859@detail:446_92","osmType":"way","osmId":631439859,"sourceRegion":"guangdong","featureType":"infrastructure","railClass":"highspeed","mode":"rail","name":"南广线","nameEn":"Nanguang Line","ref":"3029","usage":"main","highspeed":"yes","status":"operational","color":"#E54848","dataOrigin":"datum-2026-08-01","sourceKey":"way:631439859"}},{"type":"Feature","geometry":{"type":"LineString","coordinates":[[111.6417889,23.1323407],[111.6116268,23.128284]]},"properties":{"key":"way:631439863@detail:446_92","osmType":"way","osmId":631439863,"sourceRegion":"guangdong","featureType":"infrastructure","railClass":"highspeed","mode":"rail","name":"南广线","nameEn":"Nanguang Line","ref":"3029","usage":"main","highspeed":"yes","tunnel":"yes","status":"operational","color":"#E54848","dataOrigin":"datum-2026-08-01","sourceKey":"way:631439863"}},{"type":"Feature","geometry":{"type":"LineString","coordinates":[[111.6431891,23.1325331],[111.6417889,23.1323407]]},"properties":{"key":"way:631439867@detail:446_92","osmType":"way","osmId":631439867,"sourceRegion":"guangdong","featureType":"infrastructure","railClass":"highspeed","mode":"rail","name":"南广线","nameEn":"Nanguang Line","ref":"3029","usage":"main","highspeed":"yes","status":"operational","color":"#E54848","dataOrigin":"datum-2026-08-01","sourceKey":"way:631439867"}},{"type":"Feature","geometry":{"type":"LineString","coordinates":[[111.6679345,23.1358579],[111.6431891,23.1325331]]},"properties":{"key":"way:631439870@detail:446_92","osmType":"way","osmId":631439870,"sourceRegion":"guangdong","featureType":"infrastructure","railClass":"highspeed","mode":"rail","name":"南广线","nameEn":"Nanguang Line","ref":"3029","usage":"main","highspeed":"yes","tunnel":"yes","status":"operational","color":"#E54848","dataOrigin":"datum-2026-08-01","sourceKey":"way:631439870"}},{"type":"Feature","geometry":{"type":"LineString","coordinates":[[111.6681958,23.1358892],[111.6679345,23.1358579]]},"properties":{"key":"way:631439875@detail:446_92","osmType":"way","osmId":631439875,"sourceRegion":"guangdong","featureType":"infrastructure","railClass":"highspeed","mode":"rail","name":"南广线","nameEn":"Nanguang Line","ref":"3029","usage":"main","highspeed":"yes","status":"operational","color":"#E54848","dataOrigin":"datum-2026-08-01","sourceKey":"way:631439875"}},{"type":"Feature","geometry":{"type":"LineString","coordinates":[[111.6699188,23.1360947],[111.6681958,23.1358892]]},"properties":{"key":"way:631439879@detail:446_92","osmType":"way","osmId":631439879,"sourceRegion":"guangdong","featureType":"infrastructure","railClass":"highspeed","mode":"rail","name":"南广线","nameEn":"Nanguang Line","ref":"3029","usage":"main","highspeed":"yes","bridge":"yes","status":"operational","color":"#E54848","dataOrigin":"datum-2026-08-01","sourceKey":"way:631439879"}},{"type":"Feature","geometry":{"type":"LineString","coordinates":[[111.6722957,23.1363279],[111.6711402,23.1362425],[111.6699188,23.1360947]]},"properties":{"key":"way:631439883@detail:446_92","osmType":"way","osmId":631439883,"sourceRegion":"guangdong","featureType":"infrastructure","railClass":"highspeed","mode":"rail","name":"南广线","nameEn":"Nanguang Line","ref":"3029","usage":"main","highspeed":"yes","status":"operational","color":"#E54848","dataOrigin":"datum-2026-08-01","sourceKey":"way:631439883"}},{"type":"Feature","geometry":{"type":"LineString","coordinates":[[111.6741667,23.1364099],[111.6722957,23.1363279]]},"properties":{"key":"way:631439887@detail:446_92","osmType":"way","osmId":631439887,"sourceRegion":"guangdong","featureType":"infrastructure","railClass":"highspeed","mode":"rail","name":"南广线","nameEn":"Nanguang Line","ref":"3029","usage":"main","highspeed":"yes","bridge":"yes","status":"operational","color":"#E54848","dataOrigin":"datum-2026-08-01","sourceKey":"way:631439887"}},{"type":"Feature","geometry":{"type":"LineString","coordinates":[[111.7135509,23.1357735],[111.7015549,23.136393],[111.687161,23.1368276],[111.6741667,23.1364099]]},"properties":{"key":"way:631439892@detail:446_92","osmType":"way","osmId":631439892,"sourceRegion":"guangdong","featureType":"infrastructure","railClass":"highspeed","mode":"rail","name":"南广线","nameEn":"Nanguang Line","ref":"3029","usage":"main","highspeed":"yes","tunnel":"yes","status":"operational","color":"#E54848","dataOrigin":"datum-2026-08-01","sourceKey":"way:631439892"}},{"type":"Feature","geometry":{"type":"LineString","coordinates":[[111.7140342,23.1357475],[111.7135509,23.1357735]]},"properties":{"key":"way:631439897@detail:446_92","osmType":"way","osmId":631439897,"sourceRegion":"guangdong","featureType":"infrastructure","railClass":"highspeed","mode":"rail","name":"南广线","nameEn":"Nanguang Line","ref":"3029","usage":"main","highspeed":"yes","status":"operational","color":"#E54848","dataOrigin":"datum-2026-08-01","sourceKey":"way:631439897"}},{"type":"Feature","geometry":{"type":"LineString","coordinates":[[111.7151276,23.1356886],[111.7140342,23.1357475]]},"properties":{"key":"way:631439901@detail:446_92","osmType":"way","osmId":631439901,"sourceRegion":"guangdong","featureType":"infrastructure","railClass":"highspeed","mode":"rail","name":"南广线","nameEn":"Nanguang Line","ref":"3029","usage":"main","highspeed":"yes","bridge":"yes","status":"operational","color":"#E54848","dataOrigin":"datum-2026-08-01","sourceKey":"way:631439901"}},{"type":"Feature","geometry":{"type":"LineString","coordinates":[[111.7168724,23.1355421],[111.7151276,23.1356886]]},"properties":{"key":"way:631439906@detail:446_92","osmType":"way","osmId":631439906,"sourceRegion":"guangdong","featureType":"infrastructure","railClass":"highspeed","mode":"rail","name":"南广线","nameEn":"Nanguang Line","ref":"3029","usage":"main","highspeed":"yes","status":"operational","color":"#E54848","dataOrigin":"datum-2026-08-01","sourceKey":"way:631439906"}},{"type":"Feature","geometry":{"type":"LineString","coordinates":[[111.7359058,23.130279],[111.7293588,23.1327304],[111.7265291,23.1337289],[111.7230054,23.1346629],[111.7168724,23.1355421]]},"properties":{"key":"way:631439910@detail:446_92","osmType":"way","osmId":631439910,"sourceRegion":"guangdong","featureType":"infrastructure","railClass":"highspeed","mode":"rail","name":"南广线","nameEn":"Nanguang Line","ref":"3029","usage":"main","highspeed":"yes","tunnel":"yes","status":"operational","color":"#E54848","dataOrigin":"datum-2026-08-01","sourceKey":"way:631439910"}},{"type":"Feature","geometry":{"type":"LineString","coordinates":[[111.7399797,23.1282431],[111.739202,23.1286317],[111.7359058,23.130279]]},"properties":{"key":"way:631439915@detail:446_92","osmType":"way","osmId":631439915,"sourceRegion":"guangdong","featureType":"infrastructure","railClass":"highspeed","mode":"rail","name":"南广线","nameEn":"Nanguang Line","ref":"3029","usage":"main","highspeed":"yes","status":"operational","color":"#E54848","dataOrigin":"datum-2026-08-01","sourceKey":"way:631439915"}},{"type":"Feature","geometry":{"type":"LineString","coordinates":[[111.75,23.12405958931397],[111.7475406,23.1248562],[111.7435471,23.1265105],[111.7399797,23.1282431]]},"properties":{"key":"way:631439919@detail:446_92","osmType":"way","osmId":631439919,"sourceRegion":"guangdong","featureType":"infrastructure","railClass":"highspeed","mode":"rail","name":"南广线","nameEn":"Nanguang Line","ref":"3029","usage":"main","highspeed":"yes","tunnel":"yes","status":"operational","color":"#E54848","dataOrigin":"datum-2026-08-01","sourceKey":"way:631439919"}}]}