{"type":"FeatureCollection","features":[{"type":"Feature","geometry":{"type":"Point","coordinates":[111.7319387,22.746274]},"properties":{"key":"node:5711018315","osmType":"node","osmId":5711018315,"sourceRegion":"guangdong","featureType":"station","railClass":"minor","mode":"station","name":"苹塘","status":"operational","color":"#52636F","dataOrigin":"datum-2026-08-01","sourceKey":"node:5711018315","stationGroup":"苹塘","hasOperationalRail":true,"hasConstructionRail":false}},{"type":"Feature","geometry":{"type":"LineString","coordinates":[[111.7459374,22.7498668],[111.7457769,22.7496768],[111.7455074,22.7493949],[111.7452445,22.7491221],[111.7446256,22.7486196],[111.7442179,22.7484507],[111.743769,22.7482802],[111.7430565,22.7481613],[111.7426032,22.7481415],[111.7421365,22.7481786],[111.7392656,22.7486934],[111.7384726,22.7486635],[111.7375982,22.7485447],[111.7368901,22.748327],[111.7346741,22.7475296],[111.734401,22.747444],[111.728416,22.7452105],[111.7279923,22.7450627],[111.7260004,22.7442933],[111.7217679,22.7427843],[111.7206466,22.7424448],[111.7196596,22.7422964],[111.7187262,22.7422271],[111.7179752,22.7422302],[111.714322,22.7426377],[111.7137232,22.7426709],[111.7127503,22.7426607],[111.7078789,22.7422533],[111.7066671,22.742255],[111.705578,22.7423508],[111.7052317,22.7423897],[111.7045202,22.7424696],[111.7035341,22.7427119],[111.7026007,22.7429643],[111.7017851,22.7432434],[111.7012194,22.743479],[111.7005479,22.7437807],[111.6941357,22.7467323],[111.6929394,22.7471694],[111.6920812,22.7474595],[111.6881916,22.7485782],[111.6847746,22.7495463]]},"properties":{"key":"way:523762216@detail:446_90","osmType":"way","osmId":523762216,"sourceRegion":"guangdong","featureType":"infrastructure","railClass":"national","mode":"rail","name":"罗定铁路","usage":"branch","status":"operational","color":"#E54848","dataOrigin":"datum-2026-08-01","sourceKey":"way:523762216"}},{"type":"Feature","geometry":{"type":"LineString","coordinates":[[111.6847746,22.7495463],[111.6844279,22.7496504]]},"properties":{"key":"way:558588067@detail:446_90","osmType":"way","osmId":558588067,"sourceRegion":"guangdong","featureType":"infrastructure","railClass":"national","mode":"rail","name":"罗定铁路","usage":"branch","bridge":"yes","status":"operational","color":"#E54848","dataOrigin":"datum-2026-08-01","sourceKey":"way:558588067"}},{"type":"Feature","geometry":{"type":"LineString","coordinates":[[111.6844279,22.7496504],[111.68326337821546,22.75]]},"properties":{"key":"way:558588068@detail:446_90","osmType":"way","osmId":558588068,"sourceRegion":"guangdong","featureType":"infrastructure","railClass":"national","mode":"rail","name":"罗定铁路","usage":"branch","status":"operational","color":"#E54848","dataOrigin":"datum-2026-08-01","sourceKey":"way:558588068"}},{"type":"Feature","geometry":{"type":"LineString","coordinates":[[111.7279637,22.7449679],[111.7286932,22.7452573]]},"properties":{"key":"way:600682557@detail:446_90","osmType":"way","osmId":600682557,"sourceRegion":"guangdong","featureType":"infrastructure","railClass":"minor","mode":"rail","name":"未命名","usage":"branch","service":"siding","status":"operational","color":"#52636F","dataOrigin":"datum-2026-08-01","sourceKey":"way:600682557"}},{"type":"Feature","geometry":{"type":"LineString","coordinates":[[111.734401,22.747444],[111.7341081,22.7473993],[111.728645,22.7453884],[111.7279923,22.7450627]]},"properties":{"key":"way:600682558@detail:446_90","osmType":"way","osmId":600682558,"sourceRegion":"guangdong","featureType":"infrastructure","railClass":"minor","mode":"rail","name":"未命名","usage":"branch","service":"siding","status":"operational","color":"#52636F","dataOrigin":"datum-2026-08-01","sourceKey":"way:600682558"}},{"type":"Feature","geometry":{"type":"LineString","coordinates":[[111.728416,22.7452105],[111.7286932,22.7452573],[111.7344385,22.7473871],[111.7346741,22.7475296]]},"properties":{"key":"way:600682559@detail:446_90","osmType":"way","osmId":600682559,"sourceRegion":"guangdong","featureType":"infrastructure","railClass":"minor","mode":"rail","name":"未命名","usage":"branch","service":"siding","status":"operational","color":"#52636F","dataOrigin":"datum-2026-08-01","sourceKey":"way:600682559"}},{"type":"Feature","geometry":{"type":"LineString","coordinates":[[111.74604570020848,22.75],[111.7459374,22.7498668]]},"properties":{"key":"way:1462479086@detail:446_90","osmType":"way","osmId":1462479086,"sourceRegion":"guangdong","featureType":"infrastructure","railClass":"national","mode":"rail","name":"罗定铁路","usage":"branch","bridge":"yes","status":"operational","color":"#E54848","dataOrigin":"datum-2026-08-01","sourceKey":"way:1462479086"}}]}