{"type":"FeatureCollection","features":[{"type":"Feature","geometry":{"type":"Point","coordinates":[111.5044525,22.0281087]},"properties":{"key":"node:9193526297","osmType":"node","osmId":9193526297,"sourceRegion":"guangdong","featureType":"station","railClass":"minor","mode":"station","name":"三甲","nameEn":"Sanjia","status":"operational","color":"#52636F","dataOrigin":"datum-2026-08-01","sourceKey":"node:9193526297","stationGroup":"三甲","hasOperationalRail":true,"hasConstructionRail":false}},{"type":"Feature","geometry":{"type":"Point","coordinates":[111.6057412,22.0550879]},"properties":{"key":"node:9193526298","osmType":"node","osmId":9193526298,"sourceRegion":"guangdong","featureType":"station","railClass":"minor","mode":"station","name":"潭水","nameEn":"Tanshui","status":"operational","color":"#52636F","dataOrigin":"datum-2026-08-01","sourceKey":"node:9193526298","stationGroup":"潭水","hasOperationalRail":true,"hasConstructionRail":false}},{"type":"Feature","geometry":{"type":"Point","coordinates":[111.6613165,22.1313103]},"properties":{"key":"node:9193526299","osmType":"node","osmId":9193526299,"sourceRegion":"guangdong","featureType":"station","railClass":"minor","mode":"station","name":"石菉","nameEn":"Shilu","status":"operational","color":"#52636F","dataOrigin":"datum-2026-08-01","sourceKey":"node:9193526299","stationGroup":"石菉","hasOperationalRail":true,"hasConstructionRail":false}},{"type":"Feature","geometry":{"type":"LineString","coordinates":[[111.6652223,22.1436069],[111.669293,22.147101],[111.670529,22.148054],[111.671335,22.148518],[111.681245,22.153576],[111.682318,22.154213],[111.683291,22.154985],[111.68397,22.155754],[111.684651,22.156793],[111.6851873,22.1578372],[111.687128,22.161888],[111.687559,22.162688],[111.688076,22.16346],[111.688536,22.163998],[111.689216,22.164675],[111.697563,22.172571],[111.698326,22.173213],[111.699176,22.173786],[111.7001131,22.1742822],[111.7005537,22.1744337],[111.701323,22.174644],[111.720446,22.178298],[111.727293,22.179554],[111.729321,22.179726],[111.730851,22.179728],[111.732104,22.179656],[111.733098,22.17954],[111.734298,22.179336],[111.739948,22.178108],[111.740835,22.178011],[111.741688,22.177989],[111.742296,22.178029],[111.74328,22.178201],[111.744015,22.1784],[111.74487,22.178721],[111.745595,22.179108],[111.74599,22.179368],[111.74647,22.179713],[111.746958,22.18016],[111.747513,22.180731],[111.74802,22.181363],[111.7497467,22.1837656],[111.75,22.184115257803523]]},"properties":{"key":"way:48996503@detail:446_88","osmType":"way","osmId":48996503,"sourceRegion":"guangdong","featureType":"infrastructure","railClass":"national","mode":"rail","name":"广茂线","nameEn":"Guangmao Line","ref":"0708","operator":"中国铁路广州局集团有限公司","usage":"main","status":"operational","color":"#E54848","dataOrigin":"datum-2026-08-01","sourceKey":"way:48996503"}},{"type":"Feature","geometry":{"type":"LineString","coordinates":[[111.75,22.07921852035511],[111.7494214,22.0812904],[111.7493812,22.0814303],[111.7486274,22.0840542],[111.748268,22.0854162],[111.7481554,22.0865794],[111.7481446,22.0878867],[111.7481607,22.0897954],[111.7482787,22.0906007],[111.7484397,22.0912816],[111.7486221,22.0917936],[111.7489278,22.0924547],[111.7497808,22.0940105],[111.75,22.09440599551141]]},"properties":{"key":"way:194838750@detail:446_88","osmType":"way","osmId":194838750,"sourceRegion":"guangdong","featureType":"infrastructure","railClass":"national","mode":"rail","name":"阳阳铁路","usage":"branch","status":"operational","color":"#E54848","dataOrigin":"datum-2026-08-01","sourceKey":"way:194838750"}},{"type":"Feature","geometry":{"type":"LineString","coordinates":[[111.7421901,22.165868],[111.7409027,22.1670231],[111.7392504,22.1685482],[111.7380622,22.1696387],[111.736941,22.1706645]]},"properties":{"key":"way:569157219@detail:446_88","osmType":"way","osmId":569157219,"sourceRegion":"guangdong","featureType":"infrastructure","railClass":"national","mode":"rail","name":"阳阳铁路","usage":"branch","bridge":"yes","status":"operational","color":"#E54848","dataOrigin":"datum-2026-08-01","sourceKey":"way:569157219"}},{"type":"Feature","geometry":{"type":"LineString","coordinates":[[111.7355217,22.180043],[111.7359057,22.1803464],[111.7365816,22.1807811],[111.7373702,22.1811188],[111.7379549,22.1812977],[111.7389312,22.1814765],[111.7398378,22.1814517],[111.7414257,22.1813225],[111.7434427,22.1811834],[111.7441133,22.1811586],[111.7451915,22.1812828],[111.7458782,22.1814616],[111.7467043,22.1817596],[111.7477611,22.1822613],[111.7486247,22.1828028],[111.7492288,22.1833343],[111.7498703,22.1840575],[111.75,22.184232062817433]]},"properties":{"key":"way:569157220@detail:446_88","osmType":"way","osmId":569157220,"sourceRegion":"guangdong","featureType":"infrastructure","railClass":"national","mode":"rail","name":"阳阳铁路","usage":"branch","status":"operational","color":"#E54848","dataOrigin":"datum-2026-08-01","sourceKey":"way:569157220"}},{"type":"Feature","geometry":{"type":"LineString","coordinates":[[111.6899461,22.0855405],[111.6920596,22.085446],[111.6937709,22.0854659]]},"properties":{"key":"way:569157327@detail:446_88","osmType":"way","osmId":569157327,"sourceRegion":"guangdong","featureType":"infrastructure","railClass":"national","mode":"rail","name":"未命名","bridge":"yes","status":"operational","color":"#E54848","dataOrigin":"datum-2026-08-01","sourceKey":"way:569157327"}},{"type":"Feature","geometry":{"type":"LineString","coordinates":[[111.6480017,22.0754295],[111.6479963,22.0780294],[111.6479379,22.0800764],[111.6479239,22.0805675],[111.6478783,22.0821653],[111.6474652,22.0835223],[111.6472346,22.0842779],[111.6472292,22.0867931],[111.6472238,22.0896264],[111.6474545,22.0916793],[111.6477495,22.0940055],[111.6480017,22.0963516],[111.6486078,22.0983844],[111.6496217,22.1009591],[111.6497246,22.1011753],[111.6503775,22.1025471],[111.650737,22.1032652],[111.6509825,22.1036843],[111.6515797,22.1043636],[111.6523898,22.1049551],[111.6536558,22.1055217],[111.6548336,22.1060079],[111.65681,22.1068238],[111.6597551,22.1081011],[111.6614932,22.1087621],[111.6619277,22.1089013],[111.6628933,22.1090305],[111.663698,22.1089112],[111.6647226,22.1085534],[111.6651839,22.1081707],[111.6657579,22.10746],[111.6659564,22.1070077],[111.6669005,22.1035982],[111.6678929,22.0998706],[111.66866,22.0970971],[111.669057,22.0960832],[111.6696954,22.0951139],[111.6707146,22.0941546],[111.6718304,22.0935234],[111.6734773,22.0929865],[111.6770822,22.091898],[111.6814113,22.0905907],[111.6820818,22.0903074],[111.683144,22.0896314],[111.6855526,22.0877823],[111.687398,22.0863806],[111.6887122,22.0858238],[111.689195,22.0856797],[111.6899461,22.0855405]]},"properties":{"key":"way:569157328@detail:446_88","osmType":"way","osmId":569157328,"sourceRegion":"guangdong","featureType":"infrastructure","railClass":"national","mode":"rail","name":"未命名","status":"operational","color":"#E54848","dataOrigin":"datum-2026-08-01","sourceKey":"way:569157328"}},{"type":"Feature","geometry":{"type":"LineString","coordinates":[[111.7457092,22.0856349],[111.7465138,22.0852373]]},"properties":{"key":"way:569157329@detail:446_88","osmType":"way","osmId":569157329,"sourceRegion":"guangdong","featureType":"infrastructure","railClass":"national","mode":"rail","name":"未命名","bridge":"yes","status":"operational","color":"#E54848","dataOrigin":"datum-2026-08-01","sourceKey":"way:569157329"}},{"type":"Feature","geometry":{"type":"LineString","coordinates":[[111.6937709,22.0854659],[111.6952139,22.0853814],[111.6964799,22.0851031],[111.699602,22.0840691],[111.7040116,22.0827171],[111.7065167,22.0819814],[111.7078525,22.081698],[111.7085606,22.0816732],[111.7094457,22.0817378],[111.7102987,22.0819316],[111.7109531,22.0821752],[111.7114949,22.0824337],[111.7119724,22.0827369],[111.7128628,22.0834279],[111.7133993,22.0840592],[111.7141879,22.0853218],[111.7160118,22.0880358],[111.7167842,22.0892139],[111.7176747,22.0903223],[111.7185223,22.0911077],[111.7195684,22.0917638],[111.7211348,22.092569],[111.7225671,22.0931804],[111.7231196,22.0933245],[111.7236668,22.093414],[111.72445,22.0934538],[111.7280066,22.0932301],[111.7285055,22.0931953],[111.7299807,22.0931406],[111.7307854,22.0931208],[111.7319065,22.092902],[111.7327702,22.0925591],[111.7343634,22.0918831],[111.7350501,22.0915153],[111.7356831,22.0910182],[111.7361337,22.0904814],[111.7371798,22.0889902],[111.7376679,22.0885229],[111.7382044,22.08817],[111.7383071,22.0880679],[111.7387891,22.0878917],[111.7429948,22.0865496],[111.7457092,22.0856349]]},"properties":{"key":"way:569157330@detail:446_88","osmType":"way","osmId":569157330,"sourceRegion":"guangdong","featureType":"infrastructure","railClass":"national","mode":"rail","name":"未命名","status":"operational","color":"#E54848","dataOrigin":"datum-2026-08-01","sourceKey":"way:569157330"}},{"type":"Feature","geometry":{"type":"LineString","coordinates":[[111.7465138,22.0852373],[111.7470288,22.084944],[111.7476672,22.0844022],[111.7484289,22.0834527],[111.7493812,22.0814303]]},"properties":{"key":"way:569157331@detail:446_88","osmType":"way","osmId":569157331,"sourceRegion":"guangdong","featureType":"infrastructure","railClass":"national","mode":"rail","name":"未命名","status":"operational","color":"#E54848","dataOrigin":"datum-2026-08-01","sourceKey":"way:569157331"}},{"type":"Feature","geometry":{"type":"LineString","coordinates":[[111.75,22.15801022593866],[111.7495394,22.1585699],[111.7490727,22.1591586]]},"properties":{"key":"way:837730400@detail:446_88","osmType":"way","osmId":837730400,"sourceRegion":"guangdong","featureType":"infrastructure","railClass":"national","mode":"rail","name":"阳阳铁路","usage":"branch","bridge":"yes","status":"operational","color":"#E54848","dataOrigin":"datum-2026-08-01","sourceKey":"way:837730400"}},{"type":"Feature","geometry":{"type":"LineString","coordinates":[[111.7490727,22.1591586],[111.7487226,22.1595921],[111.7482197,22.1601821],[111.7477624,22.1606416],[111.7475063,22.1608739],[111.7468169,22.1614974],[111.7456073,22.1626016],[111.7440677,22.1640175],[111.7421901,22.165868]]},"properties":{"key":"way:837730401@detail:446_88","osmType":"way","osmId":837730401,"sourceRegion":"guangdong","featureType":"infrastructure","railClass":"national","mode":"rail","name":"阳阳铁路","usage":"branch","status":"operational","color":"#E54848","dataOrigin":"datum-2026-08-01","sourceKey":"way:837730401"}},{"type":"Feature","geometry":{"type":"LineString","coordinates":[[111.736941,22.1706645],[111.7358279,22.171668],[111.7349535,22.17251],[111.7347148,22.1728155],[111.7344278,22.1732005],[111.7342159,22.1735284],[111.7339852,22.1740227],[111.733835,22.1744201],[111.7337117,22.174902],[111.7336312,22.1753739],[111.7336017,22.1756968],[111.7335829,22.1760818],[111.7336044,22.176581],[111.7337278,22.1771349],[111.7338699,22.1776391],[111.7339665,22.1779347],[111.7341452,22.1783471]]},"properties":{"key":"way:1000616058@detail:446_88","osmType":"way","osmId":1000616058,"sourceRegion":"guangdong","featureType":"infrastructure","railClass":"national","mode":"rail","name":"阳阳铁路","usage":"branch","status":"operational","color":"#E54848","dataOrigin":"datum-2026-08-01","sourceKey":"way:1000616058"}},{"type":"Feature","geometry":{"type":"LineString","coordinates":[[111.7341452,22.1783471],[111.7341851,22.1784233],[111.7343106,22.1786625],[111.7345538,22.1790236],[111.7347899,22.179338],[111.7349498,22.1795273],[111.7351313,22.1797066]]},"properties":{"key":"way:1000616059@detail:446_88","osmType":"way","osmId":1000616059,"sourceRegion":"guangdong","featureType":"infrastructure","railClass":"national","mode":"rail","name":"阳阳铁路","usage":"branch","bridge":"yes","status":"operational","color":"#E54848","dataOrigin":"datum-2026-08-01","sourceKey":"way:1000616059"}},{"type":"Feature","geometry":{"type":"LineString","coordinates":[[111.5254302,22.045974],[111.5291128,22.0455742]]},"properties":{"key":"way:1061443234@detail:446_88","osmType":"way","osmId":1061443234,"sourceRegion":"guangdong","featureType":"infrastructure","railClass":"national","mode":"rail","name":"广茂线","nameEn":"Guangmao Line","ref":"0708","operator":"中国铁路广州局集团有限公司","usage":"main","tunnel":"yes","status":"operational","color":"#E54848","dataOrigin":"datum-2026-08-01","sourceKey":"way:1061443234"}},{"type":"Feature","geometry":{"type":"LineString","coordinates":[[111.5179892,22.0433772],[111.5183276,22.0436802],[111.5187836,22.0440133],[111.5193522,22.0443962],[111.5208274,22.0449978],[111.5218413,22.0454304],[111.5228337,22.0458083],[111.5234023,22.0459426],[111.524089,22.0460221],[111.5246683,22.046047],[111.5254302,22.045974]]},"properties":{"key":"way:1061443235@detail:446_88","osmType":"way","osmId":1061443235,"sourceRegion":"guangdong","featureType":"infrastructure","railClass":"national","mode":"rail","name":"广茂线","nameEn":"Guangmao Line","ref":"0708","operator":"中国铁路广州局集团有限公司","usage":"main","status":"operational","color":"#E54848","dataOrigin":"datum-2026-08-01","sourceKey":"way:1061443235"}},{"type":"Feature","geometry":{"type":"LineString","coordinates":[[111.5173569,22.0425965],[111.517835,22.043233],[111.5179892,22.0433772]]},"properties":{"key":"way:1061443236@detail:446_88","osmType":"way","osmId":1061443236,"sourceRegion":"guangdong","featureType":"infrastructure","railClass":"national","mode":"rail","name":"广茂线","nameEn":"Guangmao Line","ref":"0708","operator":"中国铁路广州局集团有限公司","usage":"main","bridge":"viaduct","status":"operational","color":"#E54848","dataOrigin":"datum-2026-08-01","sourceKey":"way:1061443236"}},{"type":"Feature","geometry":{"type":"LineString","coordinates":[[111.5291128,22.0455742],[111.5297967,22.0455448],[111.5305799,22.0456044],[111.5312344,22.0456989],[111.53198,22.0459127],[111.533746,22.046463],[111.538875,22.047966],[111.539898,22.048204],[111.542001,22.048508],[111.5443128,22.048722],[111.547401,22.049173],[111.5528406,22.0497538],[111.5542939,22.0498435],[111.5550871,22.0498651],[111.5563027,22.049819],[111.5638376,22.049207],[111.5646237,22.0491623],[111.5655322,22.049144],[111.5676299,22.0492287],[111.5688915,22.0492982],[111.5725813,22.0495292],[111.5742309,22.0496129],[111.577123,22.049816],[111.578511,22.049824],[111.580138,22.0496652],[111.5808802,22.0495776],[111.581965,22.0494189],[111.5831272,22.049154],[111.5834792,22.0490505],[111.5848796,22.0486482],[111.5868787,22.0480946],[111.5874097,22.0480026],[111.5879679,22.0479034],[111.590989,22.047674],[111.5925084,22.047582],[111.5940125,22.0474642],[111.5948933,22.0474068],[111.5952869,22.0474051],[111.5956679,22.0474106],[111.5963293,22.0474498],[111.5967486,22.0475092],[111.5972215,22.047601],[111.597763,22.04776],[111.59878,22.048113],[111.599486,22.048465],[111.599933,22.048743],[111.600564,22.049214],[111.600954,22.049563],[111.6016489,22.0503717],[111.6021116,22.0509254],[111.6024529,22.0513407],[111.6027763,22.0517276],[111.6030934,22.0521069],[111.603474,22.0525828],[111.6055589,22.0551271],[111.6064735,22.0562526],[111.6068939,22.0567846],[111.6080853,22.05822],[111.6083752,22.0585661],[111.6084877,22.0587004],[111.6085696,22.0587959],[111.6106094,22.0612442],[111.6153764,22.0667288],[111.620971,22.073938],[111.622633,22.075613],[111.625865,22.078648],[111.6270216,22.0799459],[111.627131,22.079964],[111.627953,22.080945],[111.628556,22.081768],[111.6339254,22.0897954],[111.63666,22.094044],[111.63712,22.094918],[111.637595,22.09601]]},"properties":{"key":"way:1061443237@detail:446_88","osmType":"way","osmId":1061443237,"sourceRegion":"guangdong","featureType":"infrastructure","railClass":"national","mode":"rail","name":"广茂线","nameEn":"Guangmao Line","ref":"0708","operator":"中国铁路广州局集团有限公司","usage":"main","status":"operational","color":"#E54848","dataOrigin":"datum-2026-08-01","sourceKey":"way:1061443237"}},{"type":"Feature","geometry":{"type":"LineString","coordinates":[[111.6085696,22.0587959],[111.6083436,22.0584738],[111.6081847,22.0582784],[111.6077369,22.0577087],[111.6068628,22.0566772],[111.6063374,22.0560059],[111.6054303,22.0549048],[111.6045283,22.0538192],[111.6034258,22.0524419],[111.6032555,22.0522394],[111.6030523,22.0519973],[111.6028593,22.0517673],[111.6026546,22.0515308],[111.6024529,22.0513407]]},"properties":{"key":"way:1180642539@detail:446_88","osmType":"way","osmId":1180642539,"sourceRegion":"guangdong","featureType":"infrastructure","railClass":"national","mode":"rail","name":"未命名","status":"operational","color":"#E54848","dataOrigin":"datum-2026-08-01","sourceKey":"way:1180642539"}},{"type":"Feature","geometry":{"type":"LineString","coordinates":[[111.6027763,22.0517276],[111.6029405,22.0519816],[111.6031755,22.0522799],[111.603801,22.0530486],[111.6056656,22.0553239],[111.6069048,22.0568787],[111.6079258,22.0580978],[111.6081067,22.0583184],[111.6082783,22.0584885],[111.6083752,22.0585661]]},"properties":{"key":"way:1180642540@detail:446_88","osmType":"way","osmId":1180642540,"sourceRegion":"guangdong","featureType":"infrastructure","railClass":"national","mode":"rail","name":"未命名","status":"operational","color":"#E54848","dataOrigin":"datum-2026-08-01","sourceKey":"way:1180642540"}},{"type":"Feature","geometry":{"type":"LineString","coordinates":[[111.637595,22.09601],[111.640328,22.103081],[111.640726,22.10391],[111.641209,22.104659],[111.64195,22.105523],[111.643036,22.106414],[111.644246,22.107148],[111.646953,22.108668],[111.647896,22.109366],[111.648733,22.110181],[111.649459,22.111081],[111.65007,22.112046],[111.6519636,22.1158343],[111.653408,22.118724],[111.653816,22.119488],[111.654251,22.120166],[111.654901,22.120956],[111.6551819,22.1212909],[111.655556,22.121611],[111.656821,22.122711],[111.658913,22.124408],[111.65966,22.125119],[111.660046,22.125631],[111.660474,22.126331],[111.6605061,22.1264368],[111.660733,22.127008],[111.660896,22.127594],[111.661226,22.129493],[111.661658,22.134034],[111.661698,22.134483],[111.661943,22.136128],[111.662076,22.137968],[111.662316,22.139671],[111.662593,22.140558],[111.66287,22.141113],[111.663301,22.141775],[111.66365,22.142173],[111.664841,22.143266],[111.6649699,22.1433804]]},"properties":{"key":"way:1180836850@detail:446_88","osmType":"way","osmId":1180836850,"sourceRegion":"guangdong","featureType":"infrastructure","railClass":"national","mode":"rail","name":"广茂线","nameEn":"Guangmao Line","ref":"0708","operator":"中国铁路广州局集团有限公司","usage":"main","status":"operational","color":"#E54848","dataOrigin":"datum-2026-08-01","sourceKey":"way:1180836850"}},{"type":"Feature","geometry":{"type":"LineString","coordinates":[[111.6649699,22.1433804],[111.6652223,22.1436069]]},"properties":{"key":"way:1180836851@detail:446_88","osmType":"way","osmId":1180836851,"sourceRegion":"guangdong","featureType":"infrastructure","railClass":"national","mode":"rail","name":"广茂线","nameEn":"Guangmao Line","ref":"0708","operator":"中国铁路广州局集团有限公司","usage":"main","bridge":"yes","status":"operational","color":"#E54848","dataOrigin":"datum-2026-08-01","sourceKey":"way:1180836851"}},{"type":"Feature","geometry":{"type":"LineString","coordinates":[[111.5,22.023709575875483],[111.500021,22.023726],[111.501068,22.024664],[111.514671,22.038071],[111.515468,22.038956],[111.515868,22.039576],[111.516208,22.04022],[111.51689,22.04178],[111.517234,22.042433],[111.5173569,22.0425965]]},"properties":{"key":"way:1191232138@detail:446_88","osmType":"way","osmId":1191232138,"sourceRegion":"guangdong","featureType":"infrastructure","railClass":"national","mode":"rail","name":"广茂线","nameEn":"Guangmao Line","ref":"0708","operator":"中国铁路广州局集团有限公司","usage":"main","status":"operational","color":"#E54848","dataOrigin":"datum-2026-08-01","sourceKey":"way:1191232138"}},{"type":"Feature","geometry":{"type":"LineString","coordinates":[[111.6404225,22.0870223],[111.6404247,22.0868061],[111.6404164,22.0855832],[111.6404161,22.085538],[111.6404119,22.0846257],[111.6404094,22.0843643],[111.640407,22.0841082],[111.6404055,22.0839553],[111.640407,22.0839157],[111.6404204,22.0835601],[111.6404564,22.083395],[111.6405419,22.0832475],[111.6406768,22.0830397],[111.640821,22.0828981],[111.6409717,22.0827841],[111.6411436,22.0827035],[111.6413621,22.0826465],[111.6416697,22.0826307],[111.6458559,22.0825895],[111.6462707,22.0825295],[111.6467471,22.0823824],[111.6470067,22.0822869],[111.6471441,22.0822112],[111.6472449,22.0821557],[111.647453,22.0819867],[111.6476054,22.0817823],[111.647717,22.0815875],[111.64779,22.0813707],[111.6478329,22.0811898],[111.6479239,22.0805675]]},"properties":{"key":"way:1286531882@detail:446_88","osmType":"way","osmId":1286531882,"sourceRegion":"guangdong","featureType":"infrastructure","railClass":"minor","mode":"rail","name":"未命名","usage":"industrial","service":"yard","status":"operational","color":"#52636F","dataOrigin":"datum-2026-08-01","sourceKey":"way:1286531882"}},{"type":"Feature","geometry":{"type":"LineString","coordinates":[[111.6404164,22.0855832],[111.6404437,22.085361],[111.6404586,22.0849875],[111.6404628,22.0846847],[111.6404094,22.0843643]]},"properties":{"key":"way:1286531883@detail:446_88","osmType":"way","osmId":1286531883,"sourceRegion":"guangdong","featureType":"infrastructure","railClass":"minor","mode":"rail","name":"未命名","service":"spur","status":"operational","color":"#52636F","dataOrigin":"datum-2026-08-01","sourceKey":"way:1286531883"}},{"type":"Feature","geometry":{"type":"LineString","coordinates":[[111.6403695,22.0870263],[111.6403709,22.086807],[111.6403737,22.0860432],[111.6403652,22.0851841],[111.6403695,22.08461],[111.6403655,22.0843576],[111.6403614,22.0841008],[111.640361,22.0840713],[111.6403618,22.0839205],[111.6403631,22.0836702],[111.6403758,22.0835031],[111.6404076,22.0833773],[111.6404755,22.0832101],[111.6405418,22.0831236],[111.6407132,22.0829152],[111.6408808,22.0827776],[111.6410442,22.0826852],[111.64118,22.0826282],[111.6414388,22.0825928],[111.6458563,22.0825417]]},"properties":{"key":"way:1286531884@detail:446_88","osmType":"way","osmId":1286531884,"sourceRegion":"guangdong","featureType":"infrastructure","railClass":"minor","mode":"rail","name":"未命名","usage":"industrial","service":"yard","status":"operational","color":"#52636F","dataOrigin":"datum-2026-08-01","sourceKey":"way:1286531884"}},{"type":"Feature","geometry":{"type":"LineString","coordinates":[[111.6403614,22.0841008],[111.640407,22.0839157]]},"properties":{"key":"way:1286531885@detail:446_88","osmType":"way","osmId":1286531885,"sourceRegion":"guangdong","featureType":"infrastructure","railClass":"minor","mode":"rail","name":"未命名","service":"crossover","status":"operational","color":"#52636F","dataOrigin":"datum-2026-08-01","sourceKey":"way:1286531885"}},{"type":"Feature","geometry":{"type":"LineString","coordinates":[[111.6403618,22.0839205],[111.640407,22.0841082]]},"properties":{"key":"way:1286531886@detail:446_88","osmType":"way","osmId":1286531886,"sourceRegion":"guangdong","featureType":"infrastructure","railClass":"minor","mode":"rail","name":"未命名","service":"crossover","status":"operational","color":"#52636F","dataOrigin":"datum-2026-08-01","sourceKey":"way:1286531886"}},{"type":"Feature","geometry":{"type":"LineString","coordinates":[[111.6403631,22.0836702],[111.6403625,22.0833513],[111.6403818,22.0831784],[111.6404735,22.0826927],[111.6405153,22.0825631],[111.640541,22.0825184],[111.6406648,22.0823127],[111.6407532,22.0822055],[111.6408417,22.0821056],[111.6409945,22.0819939],[111.6411713,22.0818821],[111.6414298,22.0817703],[111.6416292,22.0817271],[111.6466672,22.081593],[111.646902,22.0815703],[111.6470474,22.0815384],[111.6471348,22.0815058],[111.6472249,22.0814721],[111.6473999,22.0813534],[111.6475428,22.0812323],[111.6476833,22.0810587],[111.647777,22.0808783],[111.6478189,22.0807367],[111.6478736,22.080488],[111.6479379,22.0800764]]},"properties":{"key":"way:1286531887@detail:446_88","osmType":"way","osmId":1286531887,"sourceRegion":"guangdong","featureType":"infrastructure","railClass":"minor","mode":"rail","name":"未命名","usage":"industrial","service":"yard","status":"operational","color":"#52636F","dataOrigin":"datum-2026-08-01","sourceKey":"way:1286531887"}},{"type":"Feature","geometry":{"type":"LineString","coordinates":[[111.6403625,22.0833513],[111.6403095,22.0836558],[111.640315,22.0846959],[111.640318,22.0852424]]},"properties":{"key":"way:1286531888@detail:446_88","osmType":"way","osmId":1286531888,"sourceRegion":"guangdong","featureType":"infrastructure","railClass":"minor","mode":"rail","name":"未命名","service":"spur","status":"operational","color":"#52636F","dataOrigin":"datum-2026-08-01","sourceKey":"way:1286531888"}},{"type":"Feature","geometry":{"type":"LineString","coordinates":[[111.640315,22.0846959],[111.6403655,22.0843576]]},"properties":{"key":"way:1286531889@detail:446_88","osmType":"way","osmId":1286531889,"sourceRegion":"guangdong","featureType":"infrastructure","railClass":"minor","mode":"rail","name":"未命名","service":"spur","status":"operational","color":"#52636F","dataOrigin":"datum-2026-08-01","sourceKey":"way:1286531889"}},{"type":"Feature","geometry":{"type":"LineString","coordinates":[[111.6403095,22.0836558],[111.6402653,22.0839499],[111.6402289,22.0841926],[111.6402289,22.0862078],[111.6402296,22.0864009],[111.6402764,22.0866246]]},"properties":{"key":"way:1286531890@detail:446_88","osmType":"way","osmId":1286531890,"sourceRegion":"guangdong","featureType":"infrastructure","railClass":"minor","mode":"rail","name":"未命名","service":"siding","status":"operational","color":"#52636F","dataOrigin":"datum-2026-08-01","sourceKey":"way:1286531890"}},{"type":"Feature","geometry":{"type":"LineString","coordinates":[[111.6402833,22.0872929],[111.6402796,22.0868085],[111.6402764,22.0866246],[111.6402692,22.0862078],[111.6402653,22.0839499]]},"properties":{"key":"way:1286531891@detail:446_88","osmType":"way","osmId":1286531891,"sourceRegion":"guangdong","featureType":"infrastructure","railClass":"minor","mode":"rail","name":"未命名","service":"siding","status":"operational","color":"#52636F","dataOrigin":"datum-2026-08-01","sourceKey":"way:1286531891"}},{"type":"Feature","geometry":{"type":"LineString","coordinates":[[111.7351313,22.1797066],[111.7355217,22.180043]]},"properties":{"key":"way:1477817914@detail:446_88","osmType":"way","osmId":1477817914,"sourceRegion":"guangdong","featureType":"infrastructure","railClass":"national","mode":"rail","name":"阳阳铁路","usage":"branch","bridge":"yes","status":"operational","color":"#E54848","dataOrigin":"datum-2026-08-01","sourceKey":"way:1477817914"}}]}