{"type":"FeatureCollection","features":[{"type":"Feature","geometry":{"type":"Point","coordinates":[111.6387338,21.7988151]},"properties":{"key":"node:9192805737","osmType":"node","osmId":9192805737,"sourceRegion":"guangdong","featureType":"station","railClass":"minor","mode":"station","name":"阳西","status":"operational","color":"#52636F","dataOrigin":"datum-2026-08-01","sourceKey":"node:9192805737","stationGroup":"阳西","hasOperationalRail":true,"hasConstructionRail":false}},{"type":"Feature","geometry":{"type":"LineString","coordinates":[[111.5829785,21.7959972],[111.5812898,21.7952276],[111.5797019,21.7944007],[111.5776849,21.793285],[111.5759146,21.7921593],[111.5739941,21.7907546],[111.5725565,21.7896189],[111.5709042,21.7880449],[111.5691233,21.7862715],[111.5661943,21.7827946],[111.5609908,21.7766175],[111.5557337,21.7704801],[111.5529656,21.767491],[111.5494036,21.764442],[111.5463781,21.7620905],[111.5431165,21.7599183],[111.5402627,21.7583239],[111.5362501,21.7562912],[111.5321839,21.7546071],[111.5189632,21.7503247],[111.51796293354745,21.75]]},"properties":{"key":"way:880574712@detail:446_87","osmType":"way","osmId":880574712,"sourceRegion":"guangdong","featureType":"infrastructure","railClass":"highspeed","mode":"rail","name":"深湛线","nameEn":"Shenzhen-Zhanjiang Railway","ref":"3071","operator":"中国铁路广州局集团有限公司","usage":"main","highspeed":"yes","status":"operational","color":"#E54848","dataOrigin":"datum-2026-08-01","sourceKey":"way:880574712"}},{"type":"Feature","geometry":{"type":"LineString","coordinates":[[111.6823474,21.7969261],[111.6793486,21.7971826]]},"properties":{"key":"way:880574713@detail:446_87","osmType":"way","osmId":880574713,"sourceRegion":"guangdong","featureType":"infrastructure","railClass":"highspeed","mode":"rail","name":"深湛线","nameEn":"Shenzhen-Zhanjiang Railway","ref":"3071","operator":"中国铁路广州局集团有限公司","usage":"main","highspeed":"yes","bridge":"yes","status":"operational","color":"#E54848","dataOrigin":"datum-2026-08-01","sourceKey":"way:880574713"}},{"type":"Feature","geometry":{"type":"LineString","coordinates":[[111.5829697,21.7960429],[111.5812674,21.7952671],[111.5796778,21.7944394],[111.577659,21.7933226],[111.5758861,21.7921953],[111.5739636,21.7907892],[111.5725236,21.7896516],[111.5708694,21.7880757],[111.5690867,21.7863005],[111.5661564,21.7828221],[111.560953,21.7766452],[111.5556966,21.7705086],[111.552931,21.7675221],[111.5493719,21.7644756],[111.5463486,21.7621258],[111.5430901,21.7599556],[111.5402388,21.7583627],[111.5362288,21.7563313],[111.532166,21.7546486],[111.51781753655168,21.75]]},"properties":{"key":"way:880576975@detail:446_87","osmType":"way","osmId":880576975,"sourceRegion":"guangdong","featureType":"infrastructure","railClass":"highspeed","mode":"rail","name":"深湛线","nameEn":"Shenzhen-Zhanjiang Railway","ref":"3071","operator":"中国铁路广州局集团有限公司","usage":"main","highspeed":"yes","status":"operational","color":"#E54848","dataOrigin":"datum-2026-08-01","sourceKey":"way:880576975"}},{"type":"Feature","geometry":{"type":"LineString","coordinates":[[111.6823474,21.7969684],[111.679346,21.7972274]]},"properties":{"key":"way:880576976@detail:446_87","osmType":"way","osmId":880576976,"sourceRegion":"guangdong","featureType":"infrastructure","railClass":"highspeed","mode":"rail","name":"深湛线","nameEn":"Shenzhen-Zhanjiang Railway","ref":"3071","operator":"中国铁路广州局集团有限公司","usage":"main","highspeed":"yes","bridge":"yes","status":"operational","color":"#E54848","dataOrigin":"datum-2026-08-01","sourceKey":"way:880576976"}},{"type":"Feature","geometry":{"type":"LineString","coordinates":[[111.6921696,21.7960445],[111.6823474,21.7969261]]},"properties":{"key":"way:880840873@detail:446_87","osmType":"way","osmId":880840873,"sourceRegion":"guangdong","featureType":"infrastructure","railClass":"highspeed","mode":"rail","name":"深湛线","nameEn":"Shenzhen-Zhanjiang Railway","ref":"3071","operator":"中国铁路广州局集团有限公司","usage":"main","highspeed":"yes","bridge":"yes","status":"operational","color":"#E54848","dataOrigin":"datum-2026-08-01","sourceKey":"way:880840873"}},{"type":"Feature","geometry":{"type":"LineString","coordinates":[[111.6922322,21.7961064],[111.6823474,21.7969684]]},"properties":{"key":"way:880840874@detail:446_87","osmType":"way","osmId":880840874,"sourceRegion":"guangdong","featureType":"infrastructure","railClass":"highspeed","mode":"rail","name":"深湛线","nameEn":"Shenzhen-Zhanjiang Railway","ref":"3071","operator":"中国铁路广州局集团有限公司","usage":"main","highspeed":"yes","bridge":"yes","status":"operational","color":"#E54848","dataOrigin":"datum-2026-08-01","sourceKey":"way:880840874"}},{"type":"Feature","geometry":{"type":"LineString","coordinates":[[111.6793486,21.7971826],[111.6747674,21.7975711],[111.6726217,21.7976632]]},"properties":{"key":"way:880840875@detail:446_87","osmType":"way","osmId":880840875,"sourceRegion":"guangdong","featureType":"infrastructure","railClass":"highspeed","mode":"rail","name":"深湛线","nameEn":"Shenzhen-Zhanjiang Railway","ref":"3071","operator":"中国铁路广州局集团有限公司","usage":"main","highspeed":"yes","bridge":"yes","status":"operational","color":"#E54848","dataOrigin":"datum-2026-08-01","sourceKey":"way:880840875"}},{"type":"Feature","geometry":{"type":"LineString","coordinates":[[111.679346,21.7972274],[111.6747603,21.7976131],[111.6726243,21.7977031]]},"properties":{"key":"way:880840881@detail:446_87","osmType":"way","osmId":880840881,"sourceRegion":"guangdong","featureType":"infrastructure","railClass":"highspeed","mode":"rail","name":"深湛线","nameEn":"Shenzhen-Zhanjiang Railway","ref":"3071","operator":"中国铁路广州局集团有限公司","usage":"main","highspeed":"yes","bridge":"yes","status":"operational","color":"#E54848","dataOrigin":"datum-2026-08-01","sourceKey":"way:880840881"}},{"type":"Feature","geometry":{"type":"LineString","coordinates":[[111.696903,21.7958774],[111.6922322,21.7961064]]},"properties":{"key":"way:995265598@detail:446_87","osmType":"way","osmId":995265598,"sourceRegion":"guangdong","featureType":"infrastructure","railClass":"highspeed","mode":"rail","name":"深湛线","nameEn":"Shenzhen-Zhanjiang Railway","ref":"3071","operator":"中国铁路广州局集团有限公司","usage":"main","highspeed":"yes","tunnel":"yes","status":"operational","color":"#E54848","dataOrigin":"datum-2026-08-01","sourceKey":"way:995265598"}},{"type":"Feature","geometry":{"type":"LineString","coordinates":[[111.6969171,21.7958154],[111.6921696,21.7960445]]},"properties":{"key":"way:995265599@detail:446_87","osmType":"way","osmId":995265599,"sourceRegion":"guangdong","featureType":"infrastructure","railClass":"highspeed","mode":"rail","name":"深湛线","nameEn":"Shenzhen-Zhanjiang Railway","ref":"3071","operator":"中国铁路广州局集团有限公司","usage":"main","highspeed":"yes","tunnel":"yes","status":"operational","color":"#E54848","dataOrigin":"datum-2026-08-01","sourceKey":"way:995265599"}},{"type":"Feature","geometry":{"type":"LineString","coordinates":[[111.75,21.79433416025281],[111.7472434,21.7942115],[111.7444753,21.7942314],[111.7408705,21.7945502],[111.7364716,21.7950483],[111.7322016,21.7955464],[111.729176,21.7956659],[111.7235943,21.7957133]]},"properties":{"key":"way:995265639@detail:446_87","osmType":"way","osmId":995265639,"sourceRegion":"guangdong","featureType":"infrastructure","railClass":"highspeed","mode":"rail","name":"深湛线","nameEn":"Shenzhen-Zhanjiang Railway","ref":"3071","operator":"中国铁路广州局集团有限公司","usage":"main","highspeed":"yes","status":"operational","color":"#E54848","dataOrigin":"datum-2026-08-01","sourceKey":"way:995265639"}},{"type":"Feature","geometry":{"type":"LineString","coordinates":[[111.75,21.794378834395065],[111.7472424,21.7942562],[111.7444778,21.794276],[111.7408757,21.7945946],[111.7364775,21.7950926],[111.7322056,21.7955909],[111.7291768,21.7957106],[111.7235836,21.7958052]]},"properties":{"key":"way:995265640@detail:446_87","osmType":"way","osmId":995265640,"sourceRegion":"guangdong","featureType":"infrastructure","railClass":"highspeed","mode":"rail","name":"深湛线","nameEn":"Shenzhen-Zhanjiang Railway","ref":"3071","operator":"中国铁路广州局集团有限公司","usage":"main","highspeed":"yes","status":"operational","color":"#E54848","dataOrigin":"datum-2026-08-01","sourceKey":"way:995265640"}},{"type":"Feature","geometry":{"type":"LineString","coordinates":[[111.7205471,21.7957114],[111.7113662,21.7957058],[111.7008519,21.7957257],[111.6969171,21.7958154]]},"properties":{"key":"way:995265641@detail:446_87","osmType":"way","osmId":995265641,"sourceRegion":"guangdong","featureType":"infrastructure","railClass":"highspeed","mode":"rail","name":"深湛线","nameEn":"Shenzhen-Zhanjiang Railway","ref":"3071","operator":"中国铁路广州局集团有限公司","usage":"main","highspeed":"yes","bridge":"yes","status":"operational","color":"#E54848","dataOrigin":"datum-2026-08-01","sourceKey":"way:995265641"}},{"type":"Feature","geometry":{"type":"LineString","coordinates":[[111.7205471,21.7957916],[111.7113664,21.7957504],[111.7008523,21.7957703],[111.696903,21.7958774]]},"properties":{"key":"way:995265642@detail:446_87","osmType":"way","osmId":995265642,"sourceRegion":"guangdong","featureType":"infrastructure","railClass":"highspeed","mode":"rail","name":"深湛线","nameEn":"Shenzhen-Zhanjiang Railway","ref":"3071","operator":"中国铁路广州局集团有限公司","usage":"main","highspeed":"yes","bridge":"yes","status":"operational","color":"#E54848","dataOrigin":"datum-2026-08-01","sourceKey":"way:995265642"}},{"type":"Feature","geometry":{"type":"LineString","coordinates":[[111.5091228,21.7521962],[111.50477707957562,21.75]]},"properties":{"key":"way:1052631936@detail:446_87","osmType":"way","osmId":1052631936,"sourceRegion":"guangdong","featureType":"infrastructure","railClass":"highspeed","mode":"rail","name":"广湛高速线","nameEn":"Guangzhou-Zhanjiang Railway","usage":"main","highspeed":"yes","bridge":"yes","status":"operational","color":"#E54848","dataOrigin":"datum-2026-08-01","sourceKey":"way:1052631936"}},{"type":"Feature","geometry":{"type":"LineString","coordinates":[[111.5320492,21.7654008],[111.5133071,21.754478],[111.5118589,21.7536627],[111.5105512,21.7529399],[111.5091228,21.7521962]]},"properties":{"key":"way:1052631938@detail:446_87","osmType":"way","osmId":1052631938,"sourceRegion":"guangdong","featureType":"infrastructure","railClass":"highspeed","mode":"rail","name":"广湛高速线","nameEn":"Guangzhou-Zhanjiang Railway","usage":"main","highspeed":"yes","status":"operational","color":"#E54848","dataOrigin":"datum-2026-08-01","sourceKey":"way:1052631938"}},{"type":"Feature","geometry":{"type":"LineString","coordinates":[[111.5404305,21.770265],[111.5361253,21.7677786]]},"properties":{"key":"way:1052631939@detail:446_87","osmType":"way","osmId":1052631939,"sourceRegion":"guangdong","featureType":"infrastructure","railClass":"highspeed","mode":"rail","name":"广湛高速线","nameEn":"Guangzhou-Zhanjiang Railway","usage":"main","highspeed":"yes","status":"operational","color":"#E54848","dataOrigin":"datum-2026-08-01","sourceKey":"way:1052631939"}},{"type":"Feature","geometry":{"type":"LineString","coordinates":[[111.5361253,21.7677786],[111.5320492,21.7654008]]},"properties":{"key":"way:1052631940@detail:446_87","osmType":"way","osmId":1052631940,"sourceRegion":"guangdong","featureType":"infrastructure","railClass":"highspeed","mode":"rail","name":"广湛高速线","nameEn":"Guangzhou-Zhanjiang Railway","usage":"main","highspeed":"yes","bridge":"yes","status":"operational","color":"#E54848","dataOrigin":"datum-2026-08-01","sourceKey":"way:1052631940"}},{"type":"Feature","geometry":{"type":"LineString","coordinates":[[111.5638169,21.7865335],[111.5595933,21.7834461]]},"properties":{"key":"way:1052631941@detail:446_87","osmType":"way","osmId":1052631941,"sourceRegion":"guangdong","featureType":"infrastructure","railClass":"highspeed","mode":"rail","name":"广湛高速线","nameEn":"Guangzhou-Zhanjiang Railway","usage":"main","highspeed":"yes","bridge":"yes","status":"operational","color":"#E54848","dataOrigin":"datum-2026-08-01","sourceKey":"way:1052631941"}},{"type":"Feature","geometry":{"type":"LineString","coordinates":[[111.5700652,21.7905532],[111.5668633,21.7885917]]},"properties":{"key":"way:1052631942@detail:446_87","osmType":"way","osmId":1052631942,"sourceRegion":"guangdong","featureType":"infrastructure","railClass":"highspeed","mode":"rail","name":"广湛高速线","nameEn":"Guangzhou-Zhanjiang Railway","usage":"main","highspeed":"yes","status":"operational","color":"#E54848","dataOrigin":"datum-2026-08-01","sourceKey":"way:1052631942"}},{"type":"Feature","geometry":{"type":"LineString","coordinates":[[111.5883266,21.7983123],[111.5863388,21.7977161],[111.584752,21.7971995],[111.5830061,21.7966023],[111.5814042,21.7960209],[111.579752,21.7953405],[111.5779877,21.7945859],[111.5763721,21.7938396],[111.5746425,21.7930172],[111.5731177,21.7922171],[111.5715914,21.7914008],[111.5700652,21.7905532]]},"properties":{"key":"way:1052631943@detail:446_87","osmType":"way","osmId":1052631943,"sourceRegion":"guangdong","featureType":"infrastructure","railClass":"highspeed","mode":"rail","name":"广湛高速线","nameEn":"Guangzhou-Zhanjiang Railway","usage":"main","highspeed":"yes","bridge":"yes","status":"operational","color":"#E54848","dataOrigin":"datum-2026-08-01","sourceKey":"way:1052631943"}},{"type":"Feature","geometry":{"type":"LineString","coordinates":[[111.5657579,21.7878647],[111.5638169,21.7865335]]},"properties":{"key":"way:1052631944@detail:446_87","osmType":"way","osmId":1052631944,"sourceRegion":"guangdong","featureType":"infrastructure","railClass":"highspeed","mode":"rail","name":"广湛高速线","nameEn":"Guangzhou-Zhanjiang Railway","usage":"main","highspeed":"yes","status":"operational","color":"#E54848","dataOrigin":"datum-2026-08-01","sourceKey":"way:1052631944"}},{"type":"Feature","geometry":{"type":"LineString","coordinates":[[111.5668633,21.7885917],[111.5657579,21.7878647]]},"properties":{"key":"way:1052631945@detail:446_87","osmType":"way","osmId":1052631945,"sourceRegion":"guangdong","featureType":"infrastructure","railClass":"highspeed","mode":"rail","name":"广湛高速线","nameEn":"Guangzhou-Zhanjiang Railway","usage":"main","highspeed":"yes","bridge":"yes","status":"operational","color":"#E54848","dataOrigin":"datum-2026-08-01","sourceKey":"way:1052631945"}},{"type":"Feature","geometry":{"type":"LineString","coordinates":[[111.6179944,21.8012468],[111.6156626,21.8013515],[111.6130546,21.8014352],[111.610666,21.8014757],[111.6086922,21.8014367],[111.6066583,21.801356],[111.6044749,21.8012106],[111.6021025,21.8010083],[111.6000211,21.8007582],[111.5980214,21.8004516],[111.5956074,21.800033]]},"properties":{"key":"way:1052631946@detail:446_87","osmType":"way","osmId":1052631946,"sourceRegion":"guangdong","featureType":"infrastructure","railClass":"highspeed","mode":"rail","name":"广湛高速线","nameEn":"Guangzhou-Zhanjiang Railway","usage":"main","highspeed":"yes","bridge":"yes","status":"operational","color":"#E54848","dataOrigin":"datum-2026-08-01","sourceKey":"way:1052631946"}},{"type":"Feature","geometry":{"type":"LineString","coordinates":[[111.6688271,21.7999347],[111.6662851,21.7996467],[111.6638671,21.7994308],[111.6618022,21.7992791],[111.6596811,21.7991573],[111.6575505,21.7990942],[111.6554022,21.7990771],[111.6534444,21.7991245],[111.651012,21.7992316],[111.6179944,21.8012468]]},"properties":{"key":"way:1052631948@detail:446_87","osmType":"way","osmId":1052631948,"sourceRegion":"guangdong","featureType":"infrastructure","railClass":"highspeed","mode":"rail","name":"广湛高速线","nameEn":"Guangzhou-Zhanjiang Railway","usage":"main","highspeed":"yes","status":"operational","color":"#E54848","dataOrigin":"datum-2026-08-01","sourceKey":"way:1052631948"}},{"type":"Feature","geometry":{"type":"LineString","coordinates":[[111.7215413,21.8209701],[111.7199994,21.8197394],[111.7187011,21.8187524],[111.7174101,21.8178799],[111.7158943,21.8169028],[111.7135216,21.8154358],[111.7121671,21.8146445],[111.7105618,21.8137839],[111.7086731,21.8127802],[111.7066966,21.8118107],[111.7049233,21.8109439],[111.7020722,21.8097209],[111.6981612,21.8080623],[111.6942563,21.806489],[111.6916018,21.8054762],[111.6889052,21.8045066],[111.6862963,21.8036595],[111.683956,21.8029481],[111.6820594,21.8024487],[111.6798309,21.8019074],[111.6774164,21.8013667],[111.6752493,21.8009186],[111.673006,21.8005201],[111.6706991,21.8001707],[111.6688271,21.7999347]]},"properties":{"key":"way:1052634134@detail:446_87","osmType":"way","osmId":1052634134,"sourceRegion":"guangdong","featureType":"infrastructure","railClass":"highspeed","mode":"rail","name":"广湛高速线","nameEn":"Guangzhou-Zhanjiang Railway","usage":"main","highspeed":"yes","bridge":"yes","status":"operational","color":"#E54848","dataOrigin":"datum-2026-08-01","sourceKey":"way:1052634134"}},{"type":"Feature","geometry":{"type":"LineString","coordinates":[[111.75,21.845139196251527],[111.7417981,21.8381327]]},"properties":{"key":"way:1052634135@detail:446_87","osmType":"way","osmId":1052634135,"sourceRegion":"guangdong","featureType":"infrastructure","railClass":"highspeed","mode":"rail","name":"广湛高速线","nameEn":"Guangzhou-Zhanjiang Railway","usage":"main","highspeed":"yes","status":"operational","color":"#E54848","dataOrigin":"datum-2026-08-01","sourceKey":"way:1052634135"}},{"type":"Feature","geometry":{"type":"LineString","coordinates":[[111.6726243,21.7977031],[111.6694619,21.7978224],[111.6529393,21.7984799],[111.6461808,21.7988445],[111.6431546,21.7990078],[111.6349172,21.7993465],[111.6336811,21.7994155],[111.6327803,21.7994419],[111.6275334,21.7995956],[111.6223842,21.7998645],[111.6196591,21.8000339],[111.6153331,21.8002631],[111.6105767,21.8001435],[111.6100382,21.8001147]]},"properties":{"key":"way:1115868219@detail:446_87","osmType":"way","osmId":1115868219,"sourceRegion":"guangdong","featureType":"infrastructure","railClass":"highspeed","mode":"rail","name":"深湛线","nameEn":"Shenzhen-Zhanjiang Railway","ref":"3071","operator":"中国铁路广州局集团有限公司","usage":"main","highspeed":"yes","status":"operational","color":"#E54848","dataOrigin":"datum-2026-08-01","sourceKey":"way:1115868219"}},{"type":"Feature","geometry":{"type":"LineString","coordinates":[[111.6726217,21.7976632],[111.6694593,21.7977778],[111.6529369,21.7984353],[111.6447138,21.7988789],[111.6431522,21.7989632],[111.6347585,21.7993128],[111.6336474,21.7993591],[111.627531,21.799551],[111.6223812,21.7998199],[111.6196561,21.7999893],[111.6153324,21.8002184],[111.6105795,21.8000989],[111.6100235,21.8000692]]},"properties":{"key":"way:1115868220@detail:446_87","osmType":"way","osmId":1115868220,"sourceRegion":"guangdong","featureType":"infrastructure","railClass":"highspeed","mode":"rail","name":"深湛线","nameEn":"Shenzhen-Zhanjiang Railway","ref":"3071","operator":"中国铁路广州局集团有限公司","usage":"main","highspeed":"yes","status":"operational","color":"#E54848","dataOrigin":"datum-2026-08-01","sourceKey":"way:1115868220"}},{"type":"Feature","geometry":{"type":"LineString","coordinates":[[111.6100382,21.8001147],[111.6058223,21.7998894],[111.600861,21.7995457],[111.5978885,21.7992318]]},"properties":{"key":"way:1115868221@detail:446_87","osmType":"way","osmId":1115868221,"sourceRegion":"guangdong","featureType":"infrastructure","railClass":"highspeed","mode":"rail","name":"深湛线","nameEn":"Shenzhen-Zhanjiang Railway","ref":"3071","operator":"中国铁路广州局集团有限公司","usage":"main","highspeed":"yes","bridge":"yes","status":"operational","color":"#E54848","dataOrigin":"datum-2026-08-01","sourceKey":"way:1115868221"}},{"type":"Feature","geometry":{"type":"LineString","coordinates":[[111.6100235,21.8000692],[111.6058213,21.7998449],[111.6008377,21.7994613],[111.597896,21.799179]]},"properties":{"key":"way:1115868222@detail:446_87","osmType":"way","osmId":1115868222,"sourceRegion":"guangdong","featureType":"infrastructure","railClass":"highspeed","mode":"rail","name":"深湛线","nameEn":"Shenzhen-Zhanjiang Railway","ref":"3071","operator":"中国铁路广州局集团有限公司","usage":"main","highspeed":"yes","bridge":"yes","status":"operational","color":"#E54848","dataOrigin":"datum-2026-08-01","sourceKey":"way:1115868222"}},{"type":"Feature","geometry":{"type":"LineString","coordinates":[[111.5978885,21.7992318],[111.5969928,21.7991372],[111.5942223,21.7988482],[111.5919242,21.798519],[111.5894648,21.7980404],[111.5862104,21.7972327],[111.5836096,21.7963346],[111.5832176,21.7961559]]},"properties":{"key":"way:1115868223@detail:446_87","osmType":"way","osmId":1115868223,"sourceRegion":"guangdong","featureType":"infrastructure","railClass":"highspeed","mode":"rail","name":"深湛线","nameEn":"Shenzhen-Zhanjiang Railway","ref":"3071","operator":"中国铁路广州局集团有限公司","usage":"main","highspeed":"yes","status":"operational","color":"#E54848","dataOrigin":"datum-2026-08-01","sourceKey":"way:1115868223"}},{"type":"Feature","geometry":{"type":"LineString","coordinates":[[111.5832176,21.7961559],[111.5829697,21.7960429]]},"properties":{"key":"way:1115868224@detail:446_87","osmType":"way","osmId":1115868224,"sourceRegion":"guangdong","featureType":"infrastructure","railClass":"highspeed","mode":"rail","name":"深湛线","nameEn":"Shenzhen-Zhanjiang Railway","ref":"3071","operator":"中国铁路广州局集团有限公司","usage":"main","highspeed":"yes","bridge":"yes","status":"operational","color":"#E54848","dataOrigin":"datum-2026-08-01","sourceKey":"way:1115868224"}},{"type":"Feature","geometry":{"type":"LineString","coordinates":[[111.597896,21.799179],[111.5969968,21.7990927],[111.5942287,21.7988039],[111.5919328,21.7984751],[111.5894759,21.797997],[111.586225,21.7971901],[111.5836286,21.7962935],[111.5832235,21.7961089]]},"properties":{"key":"way:1115868225@detail:446_87","osmType":"way","osmId":1115868225,"sourceRegion":"guangdong","featureType":"infrastructure","railClass":"highspeed","mode":"rail","name":"深湛线","nameEn":"Shenzhen-Zhanjiang Railway","ref":"3071","operator":"中国铁路广州局集团有限公司","usage":"main","highspeed":"yes","status":"operational","color":"#E54848","dataOrigin":"datum-2026-08-01","sourceKey":"way:1115868225"}},{"type":"Feature","geometry":{"type":"LineString","coordinates":[[111.5832235,21.7961089],[111.5829785,21.7959972]]},"properties":{"key":"way:1115868226@detail:446_87","osmType":"way","osmId":1115868226,"sourceRegion":"guangdong","featureType":"infrastructure","railClass":"highspeed","mode":"rail","name":"深湛线","nameEn":"Shenzhen-Zhanjiang Railway","ref":"3071","operator":"中国铁路广州局集团有限公司","usage":"main","highspeed":"yes","bridge":"yes","status":"operational","color":"#E54848","dataOrigin":"datum-2026-08-01","sourceKey":"way:1115868226"}},{"type":"Feature","geometry":{"type":"LineString","coordinates":[[111.7262469,21.8248934],[111.7239139,21.822908]]},"properties":{"key":"way:1249472593@detail:446_87","osmType":"way","osmId":1249472593,"sourceRegion":"guangdong","featureType":"infrastructure","railClass":"highspeed","mode":"rail","name":"广湛高速线","nameEn":"Guangzhou-Zhanjiang Railway","usage":"main","highspeed":"yes","bridge":"yes","status":"operational","color":"#E54848","dataOrigin":"datum-2026-08-01","sourceKey":"way:1249472593"}},{"type":"Feature","geometry":{"type":"LineString","coordinates":[[111.7417981,21.8381327],[111.7405108,21.8370706]]},"properties":{"key":"way:1249472594@detail:446_87","osmType":"way","osmId":1249472594,"sourceRegion":"guangdong","featureType":"infrastructure","railClass":"highspeed","mode":"rail","name":"广湛高速线","nameEn":"Guangzhou-Zhanjiang Railway","usage":"main","highspeed":"yes","bridge":"yes","status":"operational","color":"#E54848","dataOrigin":"datum-2026-08-01","sourceKey":"way:1249472594"}},{"type":"Feature","geometry":{"type":"LineString","coordinates":[[111.7405108,21.8370706],[111.7318107,21.829587]]},"properties":{"key":"way:1249472595@detail:446_87","osmType":"way","osmId":1249472595,"sourceRegion":"guangdong","featureType":"infrastructure","railClass":"highspeed","mode":"rail","name":"广湛高速线","nameEn":"Guangzhou-Zhanjiang Railway","usage":"main","highspeed":"yes","status":"operational","color":"#E54848","dataOrigin":"datum-2026-08-01","sourceKey":"way:1249472595"}},{"type":"Feature","geometry":{"type":"LineString","coordinates":[[111.7318107,21.829587],[111.7308168,21.8287454]]},"properties":{"key":"way:1249472596@detail:446_87","osmType":"way","osmId":1249472596,"sourceRegion":"guangdong","featureType":"infrastructure","railClass":"highspeed","mode":"rail","name":"广湛高速线","nameEn":"Guangzhou-Zhanjiang Railway","usage":"main","highspeed":"yes","bridge":"yes","status":"operational","color":"#E54848","dataOrigin":"datum-2026-08-01","sourceKey":"way:1249472596"}},{"type":"Feature","geometry":{"type":"LineString","coordinates":[[111.7297962,21.8278778],[111.728011,21.8263489]]},"properties":{"key":"way:1249472597@detail:446_87","osmType":"way","osmId":1249472597,"sourceRegion":"guangdong","featureType":"infrastructure","railClass":"highspeed","mode":"rail","name":"广湛高速线","nameEn":"Guangzhou-Zhanjiang Railway","usage":"main","highspeed":"yes","bridge":"yes","status":"operational","color":"#E54848","dataOrigin":"datum-2026-08-01","sourceKey":"way:1249472597"}},{"type":"Feature","geometry":{"type":"LineString","coordinates":[[111.7308168,21.8287454],[111.7297962,21.8278778]]},"properties":{"key":"way:1249472598@detail:446_87","osmType":"way","osmId":1249472598,"sourceRegion":"guangdong","featureType":"infrastructure","railClass":"highspeed","mode":"rail","name":"广湛高速线","nameEn":"Guangzhou-Zhanjiang Railway","usage":"main","highspeed":"yes","status":"operational","color":"#E54848","dataOrigin":"datum-2026-08-01","sourceKey":"way:1249472598"}},{"type":"Feature","geometry":{"type":"LineString","coordinates":[[111.728011,21.8263489],[111.7262469,21.8248934]]},"properties":{"key":"way:1249472599@detail:446_87","osmType":"way","osmId":1249472599,"sourceRegion":"guangdong","featureType":"infrastructure","railClass":"highspeed","mode":"rail","name":"广湛高速线","nameEn":"Guangzhou-Zhanjiang Railway","usage":"main","highspeed":"yes","status":"operational","color":"#E54848","dataOrigin":"datum-2026-08-01","sourceKey":"way:1249472599"}},{"type":"Feature","geometry":{"type":"LineString","coordinates":[[111.7239139,21.822908],[111.7215413,21.8209701]]},"properties":{"key":"way:1249472600@detail:446_87","osmType":"way","osmId":1249472600,"sourceRegion":"guangdong","featureType":"infrastructure","railClass":"highspeed","mode":"rail","name":"广湛高速线","nameEn":"Guangzhou-Zhanjiang Railway","usage":"main","highspeed":"yes","status":"operational","color":"#E54848","dataOrigin":"datum-2026-08-01","sourceKey":"way:1249472600"}},{"type":"Feature","geometry":{"type":"LineString","coordinates":[[111.5921547,21.7992928],[111.5883266,21.7983123]]},"properties":{"key":"way:1249480879@detail:446_87","osmType":"way","osmId":1249480879,"sourceRegion":"guangdong","featureType":"infrastructure","railClass":"highspeed","mode":"rail","name":"广湛高速线","nameEn":"Guangzhou-Zhanjiang Railway","usage":"main","highspeed":"yes","status":"operational","color":"#E54848","dataOrigin":"datum-2026-08-01","sourceKey":"way:1249480879"}},{"type":"Feature","geometry":{"type":"LineString","coordinates":[[111.5956074,21.800033],[111.5932869,21.7995576]]},"properties":{"key":"way:1249480880@detail:446_87","osmType":"way","osmId":1249480880,"sourceRegion":"guangdong","featureType":"infrastructure","railClass":"highspeed","mode":"rail","name":"广湛高速线","nameEn":"Guangzhou-Zhanjiang Railway","usage":"main","highspeed":"yes","status":"operational","color":"#E54848","dataOrigin":"datum-2026-08-01","sourceKey":"way:1249480880"}},{"type":"Feature","geometry":{"type":"LineString","coordinates":[[111.5932869,21.7995576],[111.5921547,21.7992928]]},"properties":{"key":"way:1249480881@detail:446_87","osmType":"way","osmId":1249480881,"sourceRegion":"guangdong","featureType":"infrastructure","railClass":"highspeed","mode":"rail","name":"广湛高速线","nameEn":"Guangzhou-Zhanjiang Railway","usage":"main","highspeed":"yes","bridge":"yes","status":"operational","color":"#E54848","dataOrigin":"datum-2026-08-01","sourceKey":"way:1249480881"}},{"type":"Feature","geometry":{"type":"LineString","coordinates":[[111.5595933,21.7834461],[111.5533343,21.7787833]]},"properties":{"key":"way:1249480882@detail:446_87","osmType":"way","osmId":1249480882,"sourceRegion":"guangdong","featureType":"infrastructure","railClass":"highspeed","mode":"rail","name":"广湛高速线","nameEn":"Guangzhou-Zhanjiang Railway","usage":"main","highspeed":"yes","status":"operational","color":"#E54848","dataOrigin":"datum-2026-08-01","sourceKey":"way:1249480882"}},{"type":"Feature","geometry":{"type":"LineString","coordinates":[[111.5533343,21.7787833],[111.5520185,21.7778326]]},"properties":{"key":"way:1249480883@detail:446_87","osmType":"way","osmId":1249480883,"sourceRegion":"guangdong","featureType":"infrastructure","railClass":"highspeed","mode":"rail","name":"广湛高速线","nameEn":"Guangzhou-Zhanjiang Railway","usage":"main","highspeed":"yes","bridge":"yes","status":"operational","color":"#E54848","dataOrigin":"datum-2026-08-01","sourceKey":"way:1249480883"}},{"type":"Feature","geometry":{"type":"LineString","coordinates":[[111.5520185,21.7778326],[111.5505728,21.7767487]]},"properties":{"key":"way:1249480884@detail:446_87","osmType":"way","osmId":1249480884,"sourceRegion":"guangdong","featureType":"infrastructure","railClass":"highspeed","mode":"rail","name":"广湛高速线","nameEn":"Guangzhou-Zhanjiang Railway","usage":"main","highspeed":"yes","status":"operational","color":"#E54848","dataOrigin":"datum-2026-08-01","sourceKey":"way:1249480884"}},{"type":"Feature","geometry":{"type":"LineString","coordinates":[[111.5505728,21.7767487],[111.5495044,21.7759781]]},"properties":{"key":"way:1249480885@detail:446_87","osmType":"way","osmId":1249480885,"sourceRegion":"guangdong","featureType":"infrastructure","railClass":"highspeed","mode":"rail","name":"广湛高速线","nameEn":"Guangzhou-Zhanjiang Railway","usage":"main","highspeed":"yes","bridge":"yes","status":"operational","color":"#E54848","dataOrigin":"datum-2026-08-01","sourceKey":"way:1249480885"}},{"type":"Feature","geometry":{"type":"LineString","coordinates":[[111.5495044,21.7759781],[111.5482605,21.7750607],[111.5469803,21.7741996],[111.5456307,21.7733396],[111.5443484,21.7725707]]},"properties":{"key":"way:1249480886@detail:446_87","osmType":"way","osmId":1249480886,"sourceRegion":"guangdong","featureType":"infrastructure","railClass":"highspeed","mode":"rail","name":"广湛高速线","nameEn":"Guangzhou-Zhanjiang Railway","usage":"main","highspeed":"yes","status":"operational","color":"#E54848","dataOrigin":"datum-2026-08-01","sourceKey":"way:1249480886"}},{"type":"Feature","geometry":{"type":"LineString","coordinates":[[111.5443484,21.7725707],[111.5432157,21.7719067]]},"properties":{"key":"way:1249480887@detail:446_87","osmType":"way","osmId":1249480887,"sourceRegion":"guangdong","featureType":"infrastructure","railClass":"highspeed","mode":"rail","name":"广湛高速线","nameEn":"Guangzhou-Zhanjiang Railway","usage":"main","highspeed":"yes","bridge":"yes","status":"operational","color":"#E54848","dataOrigin":"datum-2026-08-01","sourceKey":"way:1249480887"}},{"type":"Feature","geometry":{"type":"LineString","coordinates":[[111.5432157,21.7719067],[111.5412813,21.7707624]]},"properties":{"key":"way:1249480888@detail:446_87","osmType":"way","osmId":1249480888,"sourceRegion":"guangdong","featureType":"infrastructure","railClass":"highspeed","mode":"rail","name":"广湛高速线","nameEn":"Guangzhou-Zhanjiang Railway","usage":"main","highspeed":"yes","status":"operational","color":"#E54848","dataOrigin":"datum-2026-08-01","sourceKey":"way:1249480888"}},{"type":"Feature","geometry":{"type":"LineString","coordinates":[[111.5412813,21.7707624],[111.5404305,21.770265]]},"properties":{"key":"way:1249480889@detail:446_87","osmType":"way","osmId":1249480889,"sourceRegion":"guangdong","featureType":"infrastructure","railClass":"highspeed","mode":"rail","name":"广湛高速线","nameEn":"Guangzhou-Zhanjiang Railway","usage":"main","highspeed":"yes","bridge":"yes","status":"operational","color":"#E54848","dataOrigin":"datum-2026-08-01","sourceKey":"way:1249480889"}},{"type":"Feature","geometry":{"type":"LineString","coordinates":[[111.6461808,21.7988445],[111.6456131,21.7989237]]},"properties":{"key":"way:1281417152@detail:446_87","osmType":"way","osmId":1281417152,"sourceRegion":"guangdong","featureType":"infrastructure","railClass":"minor","mode":"rail","name":"未命名","service":"spur","status":"operational","color":"#52636F","dataOrigin":"datum-2026-08-01","sourceKey":"way:1281417152"}},{"type":"Feature","geometry":{"type":"LineString","coordinates":[[111.646903,21.7988394],[111.6456131,21.7989237],[111.6441538,21.7989899],[111.6347829,21.7994149],[111.6334555,21.7994751],[111.632816,21.7994933],[111.6322969,21.7995084],[111.6262116,21.799735]]},"properties":{"key":"way:1281417153@detail:446_87","osmType":"way","osmId":1281417153,"sourceRegion":"guangdong","featureType":"infrastructure","railClass":"minor","mode":"rail","name":"未命名","service":"yard","status":"operational","color":"#52636F","dataOrigin":"datum-2026-08-01","sourceKey":"way:1281417153"}},{"type":"Feature","geometry":{"type":"LineString","coordinates":[[111.6281261,21.7998254],[111.6287741,21.7998431],[111.6300987,21.7997753],[111.6304196,21.7997487]]},"properties":{"key":"way:1281417154@detail:446_87","osmType":"way","osmId":1281417154,"sourceRegion":"guangdong","featureType":"infrastructure","railClass":"minor","mode":"rail","name":"未命名","service":"yard","status":"operational","color":"#52636F","dataOrigin":"datum-2026-08-01","sourceKey":"way:1281417154"}},{"type":"Feature","geometry":{"type":"LineString","coordinates":[[111.6322969,21.7995084],[111.6312772,21.7996662],[111.6311211,21.7996967],[111.6307817,21.7997576],[111.6304196,21.7997487],[111.630086,21.7997104],[111.628574,21.7998107],[111.6281261,21.7998254],[111.6280528,21.7998203]]},"properties":{"key":"way:1281417155@detail:446_87","osmType":"way","osmId":1281417155,"sourceRegion":"guangdong","featureType":"infrastructure","railClass":"minor","mode":"rail","name":"未命名","service":"yard","status":"operational","color":"#52636F","dataOrigin":"datum-2026-08-01","sourceKey":"way:1281417155"}},{"type":"Feature","geometry":{"type":"LineString","coordinates":[[111.6294094,21.7999168],[111.6297716,21.7999051],[111.6304132,21.799793]]},"properties":{"key":"way:1281417156@detail:446_87","osmType":"way","osmId":1281417156,"sourceRegion":"guangdong","featureType":"infrastructure","railClass":"minor","mode":"rail","name":"未命名","service":"yard","status":"operational","color":"#52636F","dataOrigin":"datum-2026-08-01","sourceKey":"way:1281417156"}},{"type":"Feature","geometry":{"type":"LineString","coordinates":[[111.6293808,21.799849],[111.6297684,21.7998372],[111.6298066,21.7998336],[111.6300797,21.7998077],[111.6304132,21.799793],[111.6307817,21.7997576]]},"properties":{"key":"way:1281417157@detail:446_87","osmType":"way","osmId":1281417157,"sourceRegion":"guangdong","featureType":"infrastructure","railClass":"minor","mode":"rail","name":"未命名","service":"yard","status":"operational","color":"#52636F","dataOrigin":"datum-2026-08-01","sourceKey":"way:1281417157"}},{"type":"Feature","geometry":{"type":"LineString","coordinates":[[111.632816,21.7994933],[111.6333705,21.79956]]},"properties":{"key":"way:1281417158@detail:446_87","osmType":"way","osmId":1281417158,"sourceRegion":"guangdong","featureType":"infrastructure","railClass":"minor","mode":"rail","name":"未命名","service":"spur","status":"operational","color":"#52636F","dataOrigin":"datum-2026-08-01","sourceKey":"way:1281417158"}},{"type":"Feature","geometry":{"type":"LineString","coordinates":[[111.6347585,21.7993128],[111.6358195,21.7992267],[111.6366295,21.7991677],[111.6428713,21.7989052],[111.6441609,21.7988757],[111.6447138,21.7988789]]},"properties":{"key":"way:1281417159@detail:446_87","osmType":"way","osmId":1281417159,"sourceRegion":"guangdong","featureType":"infrastructure","railClass":"minor","mode":"rail","name":"未命名","service":"yard","status":"operational","color":"#52636F","dataOrigin":"datum-2026-08-01","sourceKey":"way:1281417159"}},{"type":"Feature","geometry":{"type":"LineString","coordinates":[[111.6441538,21.7989899],[111.6428561,21.7991895],[111.6423378,21.7992238],[111.63652,21.7994609],[111.6358181,21.7994609],[111.6347829,21.7994149]]},"properties":{"key":"way:1281417160@detail:446_87","osmType":"way","osmId":1281417160,"sourceRegion":"guangdong","featureType":"infrastructure","railClass":"minor","mode":"rail","name":"未命名","service":"yard","status":"operational","color":"#52636F","dataOrigin":"datum-2026-08-01","sourceKey":"way:1281417160"}},{"type":"Feature","geometry":{"type":"LineString","coordinates":[[111.6334555,21.7994751],[111.6327803,21.7994419]]},"properties":{"key":"way:1281417161@detail:446_87","osmType":"way","osmId":1281417161,"sourceRegion":"guangdong","featureType":"infrastructure","railClass":"minor","mode":"rail","name":"未命名","service":"spur","status":"operational","color":"#52636F","dataOrigin":"datum-2026-08-01","sourceKey":"way:1281417161"}},{"type":"Feature","geometry":{"type":"LineString","coordinates":[[111.75,21.84520608311949],[111.7417619,21.8381687]]},"properties":{"key":"way:1462282260@detail:446_87","osmType":"way","osmId":1462282260,"sourceRegion":"guangdong","featureType":"infrastructure","railClass":"highspeed","mode":"rail","name":"广湛高速线","nameEn":"Guangzhou-Zhanjiang Railway","usage":"main","highspeed":"yes","status":"operational","color":"#E54848","dataOrigin":"datum-2026-08-01","sourceKey":"way:1462282260"}},{"type":"Feature","geometry":{"type":"LineString","coordinates":[[111.7317749,21.8296233],[111.730781,21.8287817]]},"properties":{"key":"way:1462282261@detail:446_87","osmType":"way","osmId":1462282261,"sourceRegion":"guangdong","featureType":"infrastructure","railClass":"highspeed","mode":"rail","name":"广湛高速线","nameEn":"Guangzhou-Zhanjiang Railway","usage":"main","highspeed":"yes","bridge":"yes","status":"operational","color":"#E54848","dataOrigin":"datum-2026-08-01","sourceKey":"way:1462282261"}},{"type":"Feature","geometry":{"type":"LineString","coordinates":[[111.7238787,21.8229448],[111.7215071,21.8210077]]},"properties":{"key":"way:1462282263@detail:446_87","osmType":"way","osmId":1462282263,"sourceRegion":"guangdong","featureType":"infrastructure","railClass":"highspeed","mode":"rail","name":"广湛高速线","nameEn":"Guangzhou-Zhanjiang Railway","usage":"main","highspeed":"yes","status":"operational","color":"#E54848","dataOrigin":"datum-2026-08-01","sourceKey":"way:1462282263"}},{"type":"Feature","geometry":{"type":"LineString","coordinates":[[111.7262108,21.8249295],[111.7238787,21.8229448]]},"properties":{"key":"way:1462282264@detail:446_87","osmType":"way","osmId":1462282264,"sourceRegion":"guangdong","featureType":"infrastructure","railClass":"highspeed","mode":"rail","name":"广湛高速线","nameEn":"Guangzhou-Zhanjiang Railway","usage":"main","highspeed":"yes","bridge":"yes","status":"operational","color":"#E54848","dataOrigin":"datum-2026-08-01","sourceKey":"way:1462282264"}},{"type":"Feature","geometry":{"type":"LineString","coordinates":[[111.7297603,21.827914],[111.727975,21.826385]]},"properties":{"key":"way:1462282266@detail:446_87","osmType":"way","osmId":1462282266,"sourceRegion":"guangdong","featureType":"infrastructure","railClass":"highspeed","mode":"rail","name":"广湛高速线","nameEn":"Guangzhou-Zhanjiang Railway","usage":"main","highspeed":"yes","bridge":"yes","status":"operational","color":"#E54848","dataOrigin":"datum-2026-08-01","sourceKey":"way:1462282266"}},{"type":"Feature","geometry":{"type":"LineString","coordinates":[[111.7417619,21.8381687],[111.7404746,21.8371066]]},"properties":{"key":"way:1462282268@detail:446_87","osmType":"way","osmId":1462282268,"sourceRegion":"guangdong","featureType":"infrastructure","railClass":"highspeed","mode":"rail","name":"广湛高速线","nameEn":"Guangzhou-Zhanjiang Railway","usage":"main","highspeed":"yes","bridge":"yes","status":"operational","color":"#E54848","dataOrigin":"datum-2026-08-01","sourceKey":"way:1462282268"}},{"type":"Feature","geometry":{"type":"LineString","coordinates":[[111.730781,21.8287817],[111.7297603,21.827914]]},"properties":{"key":"way:1462282271@detail:446_87","osmType":"way","osmId":1462282271,"sourceRegion":"guangdong","featureType":"infrastructure","railClass":"highspeed","mode":"rail","name":"广湛高速线","nameEn":"Guangzhou-Zhanjiang Railway","usage":"main","highspeed":"yes","status":"operational","color":"#E54848","dataOrigin":"datum-2026-08-01","sourceKey":"way:1462282271"}},{"type":"Feature","geometry":{"type":"LineString","coordinates":[[111.7404746,21.8371066],[111.7317749,21.8296233]]},"properties":{"key":"way:1462282273@detail:446_87","osmType":"way","osmId":1462282273,"sourceRegion":"guangdong","featureType":"infrastructure","railClass":"highspeed","mode":"rail","name":"广湛高速线","nameEn":"Guangzhou-Zhanjiang Railway","usage":"main","highspeed":"yes","status":"operational","color":"#E54848","dataOrigin":"datum-2026-08-01","sourceKey":"way:1462282273"}},{"type":"Feature","geometry":{"type":"LineString","coordinates":[[111.727975,21.826385],[111.7262108,21.8249295]]},"properties":{"key":"way:1462282275@detail:446_87","osmType":"way","osmId":1462282275,"sourceRegion":"guangdong","featureType":"infrastructure","railClass":"highspeed","mode":"rail","name":"广湛高速线","nameEn":"Guangzhou-Zhanjiang Railway","usage":"main","highspeed":"yes","status":"operational","color":"#E54848","dataOrigin":"datum-2026-08-01","sourceKey":"way:1462282275"}},{"type":"Feature","geometry":{"type":"LineString","coordinates":[[111.7215071,21.8210077],[111.7199656,21.8197773],[111.7186687,21.8187914],[111.7173794,21.81792],[111.7158645,21.8169435],[111.7134925,21.8154769],[111.7121389,21.8146862],[111.7105349,21.8138263],[111.7086478,21.8128234],[111.7066728,21.8118546],[111.7049005,21.8109883],[111.7020501,21.8097656],[111.6981396,21.8081073],[111.6942357,21.8065343],[111.6915822,21.8055219],[111.6888869,21.8045528],[111.6862793,21.8037061],[111.6839405,21.8029952],[111.6820455,21.8024962],[111.679818,21.8019551],[111.6774044,21.8014146],[111.6752386,21.8009668],[111.6729968,21.8005686],[111.6706913,21.8002194],[111.6688203,21.7999835]]},"properties":{"key":"way:1462282276@detail:446_87","osmType":"way","osmId":1462282276,"sourceRegion":"guangdong","featureType":"infrastructure","railClass":"highspeed","mode":"rail","name":"广湛高速线","nameEn":"Guangzhou-Zhanjiang Railway","usage":"main","highspeed":"yes","bridge":"yes","status":"operational","color":"#E54848","dataOrigin":"datum-2026-08-01","sourceKey":"way:1462282276"}},{"type":"Feature","geometry":{"type":"LineString","coordinates":[[111.5657268,21.7879046],[111.5637848,21.7865726]]},"properties":{"key":"way:1462282280@detail:446_87","osmType":"way","osmId":1462282280,"sourceRegion":"guangdong","featureType":"infrastructure","railClass":"highspeed","mode":"rail","name":"广湛高速线","nameEn":"Guangzhou-Zhanjiang Railway","usage":"main","highspeed":"yes","status":"operational","color":"#E54848","dataOrigin":"datum-2026-08-01","sourceKey":"way:1462282280"}},{"type":"Feature","geometry":{"type":"LineString","coordinates":[[111.5595603,21.7834846],[111.5533014,21.7788219]]},"properties":{"key":"way:1462282281@detail:446_87","osmType":"way","osmId":1462282281,"sourceRegion":"guangdong","featureType":"infrastructure","railClass":"highspeed","mode":"rail","name":"广湛高速线","nameEn":"Guangzhou-Zhanjiang Railway","usage":"main","highspeed":"yes","status":"operational","color":"#E54848","dataOrigin":"datum-2026-08-01","sourceKey":"way:1462282281"}},{"type":"Feature","geometry":{"type":"LineString","coordinates":[[111.5637848,21.7865726],[111.5595603,21.7834846]]},"properties":{"key":"way:1462282282@detail:446_87","osmType":"way","osmId":1462282282,"sourceRegion":"guangdong","featureType":"infrastructure","railClass":"highspeed","mode":"rail","name":"广湛高速线","nameEn":"Guangzhou-Zhanjiang Railway","usage":"main","highspeed":"yes","bridge":"yes","status":"operational","color":"#E54848","dataOrigin":"datum-2026-08-01","sourceKey":"way:1462282282"}},{"type":"Feature","geometry":{"type":"LineString","coordinates":[[111.5668334,21.7886323],[111.5657268,21.7879046]]},"properties":{"key":"way:1462282283@detail:446_87","osmType":"way","osmId":1462282283,"sourceRegion":"guangdong","featureType":"infrastructure","railClass":"highspeed","mode":"rail","name":"广湛高速线","nameEn":"Guangzhou-Zhanjiang Railway","usage":"main","highspeed":"yes","bridge":"yes","status":"operational","color":"#E54848","dataOrigin":"datum-2026-08-01","sourceKey":"way:1462282283"}},{"type":"Feature","geometry":{"type":"LineString","coordinates":[[111.570037,21.7905949],[111.5668334,21.7886323]]},"properties":{"key":"way:1462282284@detail:446_87","osmType":"way","osmId":1462282284,"sourceRegion":"guangdong","featureType":"infrastructure","railClass":"highspeed","mode":"rail","name":"广湛高速线","nameEn":"Guangzhou-Zhanjiang Railway","usage":"main","highspeed":"yes","status":"operational","color":"#E54848","dataOrigin":"datum-2026-08-01","sourceKey":"way:1462282284"}},{"type":"Feature","geometry":{"type":"LineString","coordinates":[[111.5921412,21.7993404],[111.5883114,21.7983595]]},"properties":{"key":"way:1462282285@detail:446_87","osmType":"way","osmId":1462282285,"sourceRegion":"guangdong","featureType":"infrastructure","railClass":"highspeed","mode":"rail","name":"广湛高速线","nameEn":"Guangzhou-Zhanjiang Railway","usage":"main","highspeed":"yes","status":"operational","color":"#E54848","dataOrigin":"datum-2026-08-01","sourceKey":"way:1462282285"}},{"type":"Feature","geometry":{"type":"LineString","coordinates":[[111.6179974,21.8012959],[111.6156648,21.8014007],[111.613056,21.8014844],[111.6106659,21.8015249],[111.6086905,21.8014859],[111.6066553,21.8014051],[111.6044706,21.8012597],[111.6020967,21.8010572],[111.6000134,21.8008069],[111.5980122,21.8005001],[111.5955968,21.8000812]]},"properties":{"key":"way:1462282286@detail:446_87","osmType":"way","osmId":1462282286,"sourceRegion":"guangdong","featureType":"infrastructure","railClass":"highspeed","mode":"rail","name":"广湛高速线","nameEn":"Guangzhou-Zhanjiang Railway","usage":"main","highspeed":"yes","bridge":"yes","status":"operational","color":"#E54848","dataOrigin":"datum-2026-08-01","sourceKey":"way:1462282286"}},{"type":"Feature","geometry":{"type":"LineString","coordinates":[[111.5955968,21.8000812],[111.5932747,21.7996055]]},"properties":{"key":"way:1462282287@detail:446_87","osmType":"way","osmId":1462282287,"sourceRegion":"guangdong","featureType":"infrastructure","railClass":"highspeed","mode":"rail","name":"广湛高速线","nameEn":"Guangzhou-Zhanjiang Railway","usage":"main","highspeed":"yes","status":"operational","color":"#E54848","dataOrigin":"datum-2026-08-01","sourceKey":"way:1462282287"}},{"type":"Feature","geometry":{"type":"LineString","coordinates":[[111.5932747,21.7996055],[111.5921412,21.7993404]]},"properties":{"key":"way:1462282288@detail:446_87","osmType":"way","osmId":1462282288,"sourceRegion":"guangdong","featureType":"infrastructure","railClass":"highspeed","mode":"rail","name":"广湛高速线","nameEn":"Guangzhou-Zhanjiang Railway","usage":"main","highspeed":"yes","bridge":"yes","status":"operational","color":"#E54848","dataOrigin":"datum-2026-08-01","sourceKey":"way:1462282288"}},{"type":"Feature","geometry":{"type":"LineString","coordinates":[[111.6688203,21.7999835],[111.6662794,21.7996956],[111.6638625,21.7994798],[111.6617985,21.7993282],[111.6596786,21.7992065],[111.6575494,21.7991434],[111.6554027,21.7991263],[111.6534463,21.7991737],[111.651015,21.7992807],[111.6179974,21.8012959]]},"properties":{"key":"way:1462282289@detail:446_87","osmType":"way","osmId":1462282289,"sourceRegion":"guangdong","featureType":"infrastructure","railClass":"highspeed","mode":"rail","name":"广湛高速线","nameEn":"Guangzhou-Zhanjiang Railway","usage":"main","highspeed":"yes","status":"operational","color":"#E54848","dataOrigin":"datum-2026-08-01","sourceKey":"way:1462282289"}},{"type":"Feature","geometry":{"type":"LineString","coordinates":[[111.5883114,21.7983595],[111.5863219,21.7977627],[111.5847341,21.7972458],[111.5829873,21.7966483],[111.5813838,21.7960663],[111.5797302,21.7953853],[111.5779648,21.7946303],[111.5763482,21.7938835],[111.5746174,21.7930605],[111.5730914,21.7922598],[111.5715646,21.7914432],[111.570037,21.7905949]]},"properties":{"key":"way:1462282290@detail:446_87","osmType":"way","osmId":1462282290,"sourceRegion":"guangdong","featureType":"infrastructure","railClass":"highspeed","mode":"rail","name":"广湛高速线","nameEn":"Guangzhou-Zhanjiang Railway","usage":"main","highspeed":"yes","bridge":"yes","status":"operational","color":"#E54848","dataOrigin":"datum-2026-08-01","sourceKey":"way:1462282290"}},{"type":"Feature","geometry":{"type":"LineString","coordinates":[[111.5412529,21.770804],[111.5404024,21.7703067]]},"properties":{"key":"way:1462282291@detail:446_87","osmType":"way","osmId":1462282291,"sourceRegion":"guangdong","featureType":"infrastructure","railClass":"highspeed","mode":"rail","name":"广湛高速线","nameEn":"Guangzhou-Zhanjiang Railway","usage":"main","highspeed":"yes","bridge":"yes","status":"operational","color":"#E54848","dataOrigin":"datum-2026-08-01","sourceKey":"way:1462282291"}},{"type":"Feature","geometry":{"type":"LineString","coordinates":[[111.5494717,21.7760168],[111.5482285,21.7750999],[111.5469498,21.7742398],[111.5456013,21.7733806],[111.5443199,21.7726122]]},"properties":{"key":"way:1462282294@detail:446_87","osmType":"way","osmId":1462282294,"sourceRegion":"guangdong","featureType":"infrastructure","railClass":"highspeed","mode":"rail","name":"广湛高速线","nameEn":"Guangzhou-Zhanjiang Railway","usage":"main","highspeed":"yes","status":"operational","color":"#E54848","dataOrigin":"datum-2026-08-01","sourceKey":"way:1462282294"}},{"type":"Feature","geometry":{"type":"LineString","coordinates":[[111.5533014,21.7788219],[111.5519856,21.7778712]]},"properties":{"key":"way:1462282296@detail:446_87","osmType":"way","osmId":1462282296,"sourceRegion":"guangdong","featureType":"infrastructure","railClass":"highspeed","mode":"rail","name":"广湛高速线","nameEn":"Guangzhou-Zhanjiang Railway","usage":"main","highspeed":"yes","bridge":"yes","status":"operational","color":"#E54848","dataOrigin":"datum-2026-08-01","sourceKey":"way:1462282296"}},{"type":"Feature","geometry":{"type":"LineString","coordinates":[[111.532021,21.7654425],[111.5132793,21.7545199],[111.5118316,21.7537049],[111.5105247,21.7529825],[111.5090972,21.7522393]]},"properties":{"key":"way:1462282297@detail:446_87","osmType":"way","osmId":1462282297,"sourceRegion":"guangdong","featureType":"infrastructure","railClass":"highspeed","mode":"rail","name":"广湛高速线","nameEn":"Guangzhou-Zhanjiang Railway","usage":"main","highspeed":"yes","status":"operational","color":"#E54848","dataOrigin":"datum-2026-08-01","sourceKey":"way:1462282297"}},{"type":"Feature","geometry":{"type":"LineString","coordinates":[[111.5443199,21.7726122],[111.5431873,21.7719483]]},"properties":{"key":"way:1462282299@detail:446_87","osmType":"way","osmId":1462282299,"sourceRegion":"guangdong","featureType":"infrastructure","railClass":"highspeed","mode":"rail","name":"广湛高速线","nameEn":"Guangzhou-Zhanjiang Railway","usage":"main","highspeed":"yes","bridge":"yes","status":"operational","color":"#E54848","dataOrigin":"datum-2026-08-01","sourceKey":"way:1462282299"}},{"type":"Feature","geometry":{"type":"LineString","coordinates":[[111.5404024,21.7703067],[111.5360972,21.7678203]]},"properties":{"key":"way:1462282302@detail:446_87","osmType":"way","osmId":1462282302,"sourceRegion":"guangdong","featureType":"infrastructure","railClass":"highspeed","mode":"rail","name":"广湛高速线","nameEn":"Guangzhou-Zhanjiang Railway","usage":"main","highspeed":"yes","status":"operational","color":"#E54848","dataOrigin":"datum-2026-08-01","sourceKey":"way:1462282302"}},{"type":"Feature","geometry":{"type":"LineString","coordinates":[[111.5519856,21.7778712],[111.5505399,21.7767873]]},"properties":{"key":"way:1462282304@detail:446_87","osmType":"way","osmId":1462282304,"sourceRegion":"guangdong","featureType":"infrastructure","railClass":"highspeed","mode":"rail","name":"广湛高速线","nameEn":"Guangzhou-Zhanjiang Railway","usage":"main","highspeed":"yes","status":"operational","color":"#E54848","dataOrigin":"datum-2026-08-01","sourceKey":"way:1462282304"}},{"type":"Feature","geometry":{"type":"LineString","coordinates":[[111.5431873,21.7719483],[111.5412529,21.770804]]},"properties":{"key":"way:1462282306@detail:446_87","osmType":"way","osmId":1462282306,"sourceRegion":"guangdong","featureType":"infrastructure","railClass":"highspeed","mode":"rail","name":"广湛高速线","nameEn":"Guangzhou-Zhanjiang Railway","usage":"main","highspeed":"yes","status":"operational","color":"#E54848","dataOrigin":"datum-2026-08-01","sourceKey":"way:1462282306"}},{"type":"Feature","geometry":{"type":"LineString","coordinates":[[111.5090972,21.7522393],[111.50466628018738,21.75]]},"properties":{"key":"way:1462282307@detail:446_87","osmType":"way","osmId":1462282307,"sourceRegion":"guangdong","featureType":"infrastructure","railClass":"highspeed","mode":"rail","name":"广湛高速线","nameEn":"Guangzhou-Zhanjiang Railway","usage":"main","highspeed":"yes","bridge":"yes","status":"operational","color":"#E54848","dataOrigin":"datum-2026-08-01","sourceKey":"way:1462282307"}},{"type":"Feature","geometry":{"type":"LineString","coordinates":[[111.5505399,21.7767873],[111.5494717,21.7760168]]},"properties":{"key":"way:1462282309@detail:446_87","osmType":"way","osmId":1462282309,"sourceRegion":"guangdong","featureType":"infrastructure","railClass":"highspeed","mode":"rail","name":"广湛高速线","nameEn":"Guangzhou-Zhanjiang Railway","usage":"main","highspeed":"yes","bridge":"yes","status":"operational","color":"#E54848","dataOrigin":"datum-2026-08-01","sourceKey":"way:1462282309"}},{"type":"Feature","geometry":{"type":"LineString","coordinates":[[111.5360972,21.7678203],[111.532021,21.7654425]]},"properties":{"key":"way:1462282310@detail:446_87","osmType":"way","osmId":1462282310,"sourceRegion":"guangdong","featureType":"infrastructure","railClass":"highspeed","mode":"rail","name":"广湛高速线","nameEn":"Guangzhou-Zhanjiang Railway","usage":"main","highspeed":"yes","bridge":"yes","status":"operational","color":"#E54848","dataOrigin":"datum-2026-08-01","sourceKey":"way:1462282310"}},{"type":"Feature","geometry":{"type":"LineString","coordinates":[[111.7235836,21.7958052],[111.7219062,21.795802]]},"properties":{"key":"way:1534787919@detail:446_87","osmType":"way","osmId":1534787919,"sourceRegion":"guangdong","featureType":"infrastructure","railClass":"highspeed","mode":"rail","name":"深湛线","nameEn":"Shenzhen-Zhanjiang Railway","ref":"3071","operator":"中国铁路广州局集团有限公司","usage":"main","highspeed":"yes","status":"operational","color":"#E54848","dataOrigin":"datum-2026-08-01","sourceKey":"way:1534787919"}},{"type":"Feature","geometry":{"type":"LineString","coordinates":[[111.7235943,21.7957133],[111.7219063,21.795723]]},"properties":{"key":"way:1534787920@detail:446_87","osmType":"way","osmId":1534787920,"sourceRegion":"guangdong","featureType":"infrastructure","railClass":"highspeed","mode":"rail","name":"深湛线","nameEn":"Shenzhen-Zhanjiang Railway","ref":"3071","operator":"中国铁路广州局集团有限公司","usage":"main","highspeed":"yes","status":"operational","color":"#E54848","dataOrigin":"datum-2026-08-01","sourceKey":"way:1534787920"}},{"type":"Feature","geometry":{"type":"LineString","coordinates":[[111.7215966,21.7957963],[111.7205471,21.7957916]]},"properties":{"key":"way:1534787921@detail:446_87","osmType":"way","osmId":1534787921,"sourceRegion":"guangdong","featureType":"infrastructure","railClass":"highspeed","mode":"rail","name":"深湛线","nameEn":"Shenzhen-Zhanjiang Railway","ref":"3071","operator":"中国铁路广州局集团有限公司","usage":"main","highspeed":"yes","status":"operational","color":"#E54848","dataOrigin":"datum-2026-08-01","sourceKey":"way:1534787921"}},{"type":"Feature","geometry":{"type":"LineString","coordinates":[[111.7215723,21.795712],[111.7205471,21.7957114]]},"properties":{"key":"way:1534787922@detail:446_87","osmType":"way","osmId":1534787922,"sourceRegion":"guangdong","featureType":"infrastructure","railClass":"highspeed","mode":"rail","name":"深湛线","nameEn":"Shenzhen-Zhanjiang Railway","ref":"3071","operator":"中国铁路广州局集团有限公司","usage":"main","highspeed":"yes","status":"operational","color":"#E54848","dataOrigin":"datum-2026-08-01","sourceKey":"way:1534787922"}},{"type":"Feature","geometry":{"type":"LineString","coordinates":[[111.7219062,21.795802],[111.7215966,21.7957963]]},"properties":{"key":"way:1534787923@detail:446_87","osmType":"way","osmId":1534787923,"sourceRegion":"guangdong","featureType":"infrastructure","railClass":"highspeed","mode":"rail","name":"深湛线","nameEn":"Shenzhen-Zhanjiang Railway","ref":"3071","operator":"中国铁路广州局集团有限公司","usage":"main","highspeed":"yes","bridge":"yes","status":"operational","color":"#E54848","dataOrigin":"datum-2026-08-01","sourceKey":"way:1534787923"}},{"type":"Feature","geometry":{"type":"LineString","coordinates":[[111.7219063,21.795723],[111.7215723,21.795712]]},"properties":{"key":"way:1534787924@detail:446_87","osmType":"way","osmId":1534787924,"sourceRegion":"guangdong","featureType":"infrastructure","railClass":"highspeed","mode":"rail","name":"深湛线","nameEn":"Shenzhen-Zhanjiang Railway","ref":"3071","operator":"中国铁路广州局集团有限公司","usage":"main","highspeed":"yes","bridge":"yes","status":"operational","color":"#E54848","dataOrigin":"datum-2026-08-01","sourceKey":"way:1534787924"}}]}