{"type":"FeatureCollection","features":[{"type":"Feature","geometry":{"type":"Point","coordinates":[111.6156329,22.781136]},"properties":{"key":"node:5711018314","osmType":"node","osmId":5711018314,"sourceRegion":"guangdong","featureType":"station","railClass":"minor","mode":"station","name":"罗定","status":"operational","color":"#52636F","dataOrigin":"datum-2026-08-01","sourceKey":"node:5711018314","stationGroup":"罗定","hasOperationalRail":true,"hasConstructionRail":false}},{"type":"Feature","geometry":{"type":"Point","coordinates":[111.5434857,22.7923663]},"properties":{"key":"node:12644750363","osmType":"node","osmId":12644750363,"sourceRegion":"guangdong","featureType":"station","railClass":"construction","mode":"station","name":"罗定北","status":"construction","color":"#8A9298","dataOrigin":"datum-2026-08-01","sourceKey":"node:12644750363","stationGroup":"罗定北","hasOperationalRail":false,"hasConstructionRail":true}},{"type":"Feature","geometry":{"type":"LineString","coordinates":[[111.68326337821546,22.75],[111.6828973,22.7501099],[111.6782785,22.7514575],[111.6727613,22.7530543],[111.6687455,22.7542155],[111.6637925,22.7556714],[111.6598855,22.7567898],[111.6562051,22.7578587],[111.6557469,22.7580095],[111.6550156,22.7582254],[111.6498356,22.7600762],[111.6469176,22.7610932],[111.6443412,22.7620168],[111.6415375,22.7630143],[111.6382515,22.7641817],[111.6355134,22.7652088],[111.633851,22.766043],[111.6328526,22.766574],[111.6285167,22.7706183]]},"properties":{"key":"way:558588068@detail:446_91","osmType":"way","osmId":558588068,"sourceRegion":"guangdong","featureType":"infrastructure","railClass":"national","mode":"rail","name":"罗定铁路","usage":"branch","status":"operational","color":"#E54848","dataOrigin":"datum-2026-08-01","sourceKey":"way:558588068"}},{"type":"Feature","geometry":{"type":"LineString","coordinates":[[111.6285167,22.7706183],[111.6277645,22.7713349]]},"properties":{"key":"way:558588069@detail:446_91","osmType":"way","osmId":558588069,"sourceRegion":"guangdong","featureType":"infrastructure","railClass":"national","mode":"rail","name":"罗定铁路","usage":"branch","bridge":"yes","status":"operational","color":"#E54848","dataOrigin":"datum-2026-08-01","sourceKey":"way:558588069"}},{"type":"Feature","geometry":{"type":"LineString","coordinates":[[111.6092223,22.7862514],[111.6088253,22.7866471],[111.6085349,22.7871078],[111.6082418,22.7877183],[111.6080958,22.7881605],[111.607903,22.7891906],[111.6078873,22.789461],[111.6078927,22.7897315],[111.607911,22.7900559],[111.6080139,22.7904658],[111.6081444,22.7908622],[111.6083146,22.7911744],[111.6085173,22.7915098],[111.608801,22.791854],[111.6090858,22.792129],[111.6094301,22.7924271],[111.6104964,22.793019],[111.6106685,22.7931185],[111.6111811,22.7933783],[111.6117508,22.7938262],[111.6120814,22.7941133],[111.6123608,22.7944121],[111.6146514,22.7968858],[111.6149624,22.797247],[111.6150263,22.7973212],[111.6151849,22.7975732],[111.61531,22.7978255],[111.6154206,22.7980258],[111.6155155,22.7982543],[111.6157397,22.7989741],[111.6164865,22.8014641],[111.6168225,22.8025143],[111.6172233,22.8038777],[111.6180431,22.8067247]]},"properties":{"key":"way:558588070@detail:446_91","osmType":"way","osmId":558588070,"sourceRegion":"guangdong","featureType":"infrastructure","railClass":"minor","mode":"rail","name":"罗定铁路","usage":"industrial","status":"operational","color":"#E54848","dataOrigin":"datum-2026-08-01","sourceKey":"way:558588070"}},{"type":"Feature","geometry":{"type":"LineString","coordinates":[[111.6266278,22.7731158],[111.6263455,22.7732361],[111.6252564,22.7739534],[111.6249064,22.7742154]]},"properties":{"key":"way:600682560@detail:446_91","osmType":"way","osmId":600682560,"sourceRegion":"guangdong","featureType":"infrastructure","railClass":"minor","mode":"rail","name":"未命名","usage":"branch","service":"siding","status":"operational","color":"#52636F","dataOrigin":"datum-2026-08-01","sourceKey":"way:600682560"}},{"type":"Feature","geometry":{"type":"LineString","coordinates":[[111.6243902,22.7745171],[111.6246852,22.7742772],[111.6248192,22.7741261],[111.6250581,22.7738568],[111.6252431,22.7737035],[111.6261873,22.7730926]]},"properties":{"key":"way:600682561@detail:446_91","osmType":"way","osmId":600682561,"sourceRegion":"guangdong","featureType":"infrastructure","railClass":"minor","mode":"rail","name":"未命名","usage":"branch","service":"siding","status":"operational","color":"#52636F","dataOrigin":"datum-2026-08-01","sourceKey":"way:600682561"}},{"type":"Feature","geometry":{"type":"LineString","coordinates":[[111.62781,22.7723607],[111.6266278,22.7731158],[111.6249064,22.7742154],[111.6243902,22.7745171],[111.622687,22.7756102],[111.6224536,22.7757735],[111.6221279,22.7760324],[111.6211098,22.7768418],[111.6210547,22.7768849],[111.6207815,22.7770987]]},"properties":{"key":"way:600682562@detail:446_91","osmType":"way","osmId":600682562,"sourceRegion":"guangdong","featureType":"infrastructure","railClass":"minor","mode":"rail","name":"未命名","usage":"branch","service":"siding","status":"operational","color":"#52636F","dataOrigin":"datum-2026-08-01","sourceKey":"way:600682562"}},{"type":"Feature","geometry":{"type":"LineString","coordinates":[[111.6157755,22.7821955],[111.6137105,22.7838228],[111.6134772,22.7839964],[111.6130856,22.7842041],[111.6125964,22.7843316]]},"properties":{"key":"way:688579708@detail:446_91","osmType":"way","osmId":688579708,"sourceRegion":"guangdong","featureType":"infrastructure","railClass":"minor","mode":"rail","name":"未命名","service":"spur","status":"operational","color":"#52636F","dataOrigin":"datum-2026-08-01","sourceKey":"way:688579708"}},{"type":"Feature","geometry":{"type":"LineString","coordinates":[[111.6165491,22.782383],[111.6148464,22.7837295],[111.6146359,22.7838876],[111.6142175,22.7841052],[111.6136435,22.7842486]]},"properties":{"key":"way:688579709@detail:446_91","osmType":"way","osmId":688579709,"sourceRegion":"guangdong","featureType":"infrastructure","railClass":"minor","mode":"rail","name":"未命名","service":"spur","status":"operational","color":"#52636F","dataOrigin":"datum-2026-08-01","sourceKey":"way:688579709"}},{"type":"Feature","geometry":{"type":"LineString","coordinates":[[111.6170098,22.782485],[111.6152421,22.7838826],[111.6150501,22.7839721],[111.6147754,22.7841002],[111.6143302,22.7842041],[111.613842,22.7842437],[111.6136435,22.7842486],[111.6125964,22.7843316],[111.612118,22.7843708],[111.6118862,22.7844021],[111.611679,22.784476],[111.6113964,22.7845995],[111.6108433,22.7850053],[111.6107235,22.7851036],[111.6094448,22.7861532]]},"properties":{"key":"way:688579710@detail:446_91","osmType":"way","osmId":688579710,"sourceRegion":"guangdong","featureType":"infrastructure","railClass":"minor","mode":"rail","name":"未命名","service":"spur","status":"operational","color":"#52636F","dataOrigin":"datum-2026-08-01","sourceKey":"way:688579710"}},{"type":"Feature","geometry":{"type":"LineString","coordinates":[[111.6277645,22.7713349],[111.6264234,22.7725765],[111.6246707,22.773959],[111.6245568,22.7740488],[111.6220919,22.775993],[111.6211098,22.7767676],[111.621026,22.7768347],[111.6206027,22.7771737],[111.6186782,22.7787006],[111.6180828,22.7791892],[111.6179249,22.7793165],[111.6173268,22.7797929],[111.6170051,22.7800298],[111.615797,22.7809938],[111.6156329,22.781136],[111.6154464,22.7812975],[111.6128791,22.7833363],[111.6128212,22.7833823],[111.6124231,22.7836895],[111.6112991,22.784557],[111.6112498,22.7845972],[111.6092223,22.7862514]]},"properties":{"key":"way:757305591@detail:446_91","osmType":"way","osmId":757305591,"sourceRegion":"guangdong","featureType":"infrastructure","railClass":"national","mode":"rail","name":"罗定铁路","usage":"branch","status":"operational","color":"#E54848","dataOrigin":"datum-2026-08-01","sourceKey":"way:757305591"}},{"type":"Feature","geometry":{"type":"LineString","coordinates":[[111.6128791,22.7833363],[111.6132019,22.783015],[111.6158761,22.7808742],[111.6166909,22.780202],[111.6173268,22.7797929]]},"properties":{"key":"way:1286515970@detail:446_91","osmType":"way","osmId":1286515970,"sourceRegion":"guangdong","featureType":"infrastructure","railClass":"minor","mode":"rail","name":"未命名","service":"yard","status":"operational","color":"#52636F","dataOrigin":"datum-2026-08-01","sourceKey":"way:1286515970"}},{"type":"Feature","geometry":{"type":"LineString","coordinates":[[111.6173268,22.7797929],[111.6170537,22.7800537],[111.6167998,22.7802962],[111.6167519,22.7803406],[111.6163278,22.7807338],[111.6142078,22.7824008],[111.6133758,22.7830597],[111.6128132,22.7834317],[111.6124231,22.7836895]]},"properties":{"key":"way:1286515971@detail:446_91","osmType":"way","osmId":1286515971,"sourceRegion":"guangdong","featureType":"infrastructure","railClass":"minor","mode":"rail","name":"未命名","service":"yard","status":"operational","color":"#52636F","dataOrigin":"datum-2026-08-01","sourceKey":"way:1286515971"}},{"type":"Feature","geometry":{"type":"LineString","coordinates":[[111.6167519,22.7803406],[111.6164878,22.7806379],[111.6154318,22.781496],[111.6139651,22.7826639],[111.6133891,22.7831188],[111.6128132,22.7834317]]},"properties":{"key":"way:1286515972@detail:446_91","osmType":"way","osmId":1286515972,"sourceRegion":"guangdong","featureType":"infrastructure","railClass":"minor","mode":"rail","name":"未命名","service":"yard","status":"operational","color":"#52636F","dataOrigin":"datum-2026-08-01","sourceKey":"way:1286515972"}},{"type":"Feature","geometry":{"type":"LineString","coordinates":[[111.6107235,22.7851036],[111.6112498,22.7845972]]},"properties":{"key":"way:1286515973@detail:446_91","osmType":"way","osmId":1286515973,"sourceRegion":"guangdong","featureType":"infrastructure","railClass":"national","mode":"rail","name":"未命名","status":"operational","color":"#E54848","dataOrigin":"datum-2026-08-01","sourceKey":"way:1286515973"}},{"type":"Feature","geometry":{"type":"LineString","coordinates":[[111.6170537,22.7800537],[111.6179319,22.7793614],[111.618301,22.7790648],[111.618707,22.7787384],[111.6198413,22.7778421],[111.6201072,22.7776379],[111.6207815,22.7770987]]},"properties":{"key":"way:1286515976@detail:446_91","osmType":"way","osmId":1286515976,"sourceRegion":"guangdong","featureType":"infrastructure","railClass":"minor","mode":"rail","name":"未命名","service":"spur","status":"operational","color":"#52636F","dataOrigin":"datum-2026-08-01","sourceKey":"way:1286515976"}},{"type":"Feature","geometry":{"type":"LineString","coordinates":[[111.6179249,22.7793165],[111.618301,22.7790648]]},"properties":{"key":"way:1286515977@detail:446_91","osmType":"way","osmId":1286515977,"sourceRegion":"guangdong","featureType":"infrastructure","railClass":"minor","mode":"rail","name":"未命名","service":"crossover","status":"operational","color":"#52636F","dataOrigin":"datum-2026-08-01","sourceKey":"way:1286515977"}},{"type":"Feature","geometry":{"type":"LineString","coordinates":[[111.5497993,22.7927506],[111.552092,22.7930188]]},"properties":{"key":"way:1365463404@detail:446_91","osmType":"way","osmId":1365463404,"sourceRegion":"guangdong","featureType":"infrastructure","railClass":"construction","mode":"construction","name":"南珠高速线","nameEn":"Nanning-Zhuhai Highspeed Railway","usage":"main","highspeed":"yes","status":"construction","color":"#397F9D","dataOrigin":"datum-2026-08-01","sourceKey":"way:1365463404"}},{"type":"Feature","geometry":{"type":"LineString","coordinates":[[111.5006325,22.7880852],[111.5037595,22.7880416],[111.5060015,22.78804],[111.5080844,22.7881289],[111.5100925,22.7882904],[111.5120255,22.788508],[111.5147231,22.7888053],[111.5196813,22.7892978],[111.5242021,22.7897977]]},"properties":{"key":"way:1376693141@detail:446_91","osmType":"way","osmId":1376693141,"sourceRegion":"guangdong","featureType":"infrastructure","railClass":"construction","mode":"construction","name":"南珠高速线","nameEn":"Nanning-Zhuhai Highspeed Railway","usage":"main","highspeed":"yes","status":"construction","color":"#397F9D","dataOrigin":"datum-2026-08-01","sourceKey":"way:1376693141"}},{"type":"Feature","geometry":{"type":"LineString","coordinates":[[111.5242021,22.7897977],[111.5275041,22.7902261]]},"properties":{"key":"way:1376693154@detail:446_91","osmType":"way","osmId":1376693154,"sourceRegion":"guangdong","featureType":"infrastructure","railClass":"construction","mode":"construction","name":"南珠高速线","nameEn":"Nanning-Zhuhai Highspeed Railway","usage":"main","highspeed":"yes","status":"construction","color":"#397F9D","dataOrigin":"datum-2026-08-01","sourceKey":"way:1376693154"}},{"type":"Feature","geometry":{"type":"LineString","coordinates":[[111.5275041,22.7902261],[111.5439433,22.7922042]]},"properties":{"key":"way:1410004968@detail:446_91","osmType":"way","osmId":1410004968,"sourceRegion":"guangdong","featureType":"infrastructure","railClass":"construction","mode":"construction","name":"南珠高速线","nameEn":"Nanning-Zhuhai Highspeed Railway","usage":"main","highspeed":"yes","status":"construction","color":"#397F9D","dataOrigin":"datum-2026-08-01","sourceKey":"way:1410004968"}},{"type":"Feature","geometry":{"type":"LineString","coordinates":[[111.5439433,22.7922042],[111.5458997,22.7923608]]},"properties":{"key":"way:1410004969@detail:446_91","osmType":"way","osmId":1410004969,"sourceRegion":"guangdong","featureType":"infrastructure","railClass":"construction","mode":"construction","name":"南珠高速线","nameEn":"Nanning-Zhuhai Highspeed Railway","usage":"main","highspeed":"yes","status":"construction","color":"#397F9D","dataOrigin":"datum-2026-08-01","sourceKey":"way:1410004969"}},{"type":"Feature","geometry":{"type":"LineString","coordinates":[[111.5458997,22.7923608],[111.5475077,22.792507]]},"properties":{"key":"way:1410004970@detail:446_91","osmType":"way","osmId":1410004970,"sourceRegion":"guangdong","featureType":"infrastructure","railClass":"construction","mode":"construction","name":"南珠高速线","nameEn":"Nanning-Zhuhai Highspeed Railway","usage":"main","highspeed":"yes","status":"construction","color":"#397F9D","dataOrigin":"datum-2026-08-01","sourceKey":"way:1410004970"}},{"type":"Feature","geometry":{"type":"LineString","coordinates":[[111.5475077,22.792507],[111.5479674,22.7925489],[111.5490335,22.7926651],[111.5495436,22.7927207],[111.5497993,22.7927506]]},"properties":{"key":"way:1410004971@detail:446_91","osmType":"way","osmId":1410004971,"sourceRegion":"guangdong","featureType":"infrastructure","railClass":"construction","mode":"construction","name":"南珠高速线","nameEn":"Nanning-Zhuhai Highspeed Railway","usage":"main","highspeed":"yes","status":"construction","color":"#397F9D","dataOrigin":"datum-2026-08-01","sourceKey":"way:1410004971"}},{"type":"Feature","geometry":{"type":"LineString","coordinates":[[111.580193,22.7943127],[111.591124,22.7942005]]},"properties":{"key":"way:1410004972@detail:446_91","osmType":"way","osmId":1410004972,"sourceRegion":"guangdong","featureType":"infrastructure","railClass":"construction","mode":"construction","name":"南珠高速线","nameEn":"Nanning-Zhuhai Highspeed Railway","usage":"main","highspeed":"yes","status":"construction","color":"#397F9D","dataOrigin":"datum-2026-08-01","sourceKey":"way:1410004972"}},{"type":"Feature","geometry":{"type":"LineString","coordinates":[[111.552092,22.7930188],[111.5543445,22.7932827]]},"properties":{"key":"way:1410004973@detail:446_91","osmType":"way","osmId":1410004973,"sourceRegion":"guangdong","featureType":"infrastructure","railClass":"construction","mode":"construction","name":"南珠高速线","nameEn":"Nanning-Zhuhai Highspeed Railway","usage":"main","highspeed":"yes","status":"construction","color":"#397F9D","dataOrigin":"datum-2026-08-01","sourceKey":"way:1410004973"}},{"type":"Feature","geometry":{"type":"LineString","coordinates":[[111.5543445,22.7932827],[111.5551526,22.7933764]]},"properties":{"key":"way:1410004974@detail:446_91","osmType":"way","osmId":1410004974,"sourceRegion":"guangdong","featureType":"infrastructure","railClass":"construction","mode":"construction","name":"南珠高速线","nameEn":"Nanning-Zhuhai Highspeed Railway","usage":"main","highspeed":"yes","status":"construction","color":"#397F9D","dataOrigin":"datum-2026-08-01","sourceKey":"way:1410004974"}},{"type":"Feature","geometry":{"type":"LineString","coordinates":[[111.5551526,22.7933764],[111.5593977,22.7938694]]},"properties":{"key":"way:1410004975@detail:446_91","osmType":"way","osmId":1410004975,"sourceRegion":"guangdong","featureType":"infrastructure","railClass":"construction","mode":"construction","name":"南珠高速线","nameEn":"Nanning-Zhuhai Highspeed Railway","usage":"main","highspeed":"yes","status":"construction","color":"#397F9D","dataOrigin":"datum-2026-08-01","sourceKey":"way:1410004975"}},{"type":"Feature","geometry":{"type":"LineString","coordinates":[[111.5593977,22.7938694],[111.5607713,22.7940033]]},"properties":{"key":"way:1410004976@detail:446_91","osmType":"way","osmId":1410004976,"sourceRegion":"guangdong","featureType":"infrastructure","railClass":"construction","mode":"construction","name":"南珠高速线","nameEn":"Nanning-Zhuhai Highspeed Railway","usage":"main","highspeed":"yes","status":"construction","color":"#397F9D","dataOrigin":"datum-2026-08-01","sourceKey":"way:1410004976"}},{"type":"Feature","geometry":{"type":"LineString","coordinates":[[111.5607713,22.7940033],[111.5616251,22.7940819],[111.5625084,22.7941306]]},"properties":{"key":"way:1410004977@detail:446_91","osmType":"way","osmId":1410004977,"sourceRegion":"guangdong","featureType":"infrastructure","railClass":"construction","mode":"construction","name":"南珠高速线","nameEn":"Nanning-Zhuhai Highspeed Railway","usage":"main","highspeed":"yes","status":"construction","color":"#397F9D","dataOrigin":"datum-2026-08-01","sourceKey":"way:1410004977"}},{"type":"Feature","geometry":{"type":"LineString","coordinates":[[111.5625084,22.7941306],[111.5640106,22.7942188]]},"properties":{"key":"way:1410004978@detail:446_91","osmType":"way","osmId":1410004978,"sourceRegion":"guangdong","featureType":"infrastructure","railClass":"construction","mode":"construction","name":"南珠高速线","nameEn":"Nanning-Zhuhai Highspeed Railway","usage":"main","highspeed":"yes","status":"construction","color":"#397F9D","dataOrigin":"datum-2026-08-01","sourceKey":"way:1410004978"}},{"type":"Feature","geometry":{"type":"LineString","coordinates":[[111.5640106,22.7942188],[111.56571,22.794307],[111.5682896,22.7943658],[111.5688559,22.7943649],[111.575579,22.7943534]]},"properties":{"key":"way:1410004990@detail:446_91","osmType":"way","osmId":1410004990,"sourceRegion":"guangdong","featureType":"infrastructure","railClass":"construction","mode":"construction","name":"南珠高速线","nameEn":"Nanning-Zhuhai Highspeed Railway","usage":"main","highspeed":"yes","status":"construction","color":"#397F9D","dataOrigin":"datum-2026-08-01","sourceKey":"way:1410004990"}},{"type":"Feature","geometry":{"type":"LineString","coordinates":[[111.5761755,22.7943524],[111.5763593,22.7943521],[111.5772784,22.7943426]]},"properties":{"key":"way:1410004991@detail:446_91","osmType":"way","osmId":1410004991,"sourceRegion":"guangdong","featureType":"infrastructure","railClass":"construction","mode":"construction","name":"南珠高速线","nameEn":"Nanning-Zhuhai Highspeed Railway","usage":"main","highspeed":"yes","status":"construction","color":"#397F9D","dataOrigin":"datum-2026-08-01","sourceKey":"way:1410004991"}},{"type":"Feature","geometry":{"type":"LineString","coordinates":[[111.575579,22.7943534],[111.5761755,22.7943524]]},"properties":{"key":"way:1410004992@detail:446_91","osmType":"way","osmId":1410004992,"sourceRegion":"guangdong","featureType":"infrastructure","railClass":"construction","mode":"construction","name":"南珠高速线","nameEn":"Nanning-Zhuhai Highspeed Railway","usage":"main","highspeed":"yes","status":"construction","color":"#397F9D","dataOrigin":"datum-2026-08-01","sourceKey":"way:1410004992"}},{"type":"Feature","geometry":{"type":"LineString","coordinates":[[111.5772784,22.7943426],[111.580193,22.7943127]]},"properties":{"key":"way:1410004993@detail:446_91","osmType":"way","osmId":1410004993,"sourceRegion":"guangdong","featureType":"infrastructure","railClass":"construction","mode":"construction","name":"南珠高速线","nameEn":"Nanning-Zhuhai Highspeed Railway","usage":"main","highspeed":"yes","status":"construction","color":"#397F9D","dataOrigin":"datum-2026-08-01","sourceKey":"way:1410004993"}},{"type":"Feature","geometry":{"type":"LineString","coordinates":[[111.659696,22.7965113],[111.662354,22.7965397],[111.6660828,22.796494],[111.6746674,22.7959212],[111.6759309,22.7958369],[111.6813503,22.795494],[111.6965632,22.7943523],[111.7002367,22.7940991],[111.7033908,22.793887],[111.708081,22.7935615],[111.7098843,22.7934985],[111.7130012,22.7934697],[111.7145523,22.7934765],[111.7167594,22.7935388],[111.7292121,22.7941544],[111.7301876,22.794205]]},"properties":{"key":"way:1410005008@detail:446_91","osmType":"way","osmId":1410005008,"sourceRegion":"guangdong","featureType":"infrastructure","railClass":"construction","mode":"construction","name":"南珠高速线","nameEn":"Nanning-Zhuhai Highspeed Railway","usage":"main","highspeed":"yes","status":"construction","color":"#397F9D","dataOrigin":"datum-2026-08-01","sourceKey":"way:1410005008"}},{"type":"Feature","geometry":{"type":"LineString","coordinates":[[111.6410625,22.7953044],[111.6423522,22.7953956],[111.6476839,22.7957924]]},"properties":{"key":"way:1410005009@detail:446_91","osmType":"way","osmId":1410005009,"sourceRegion":"guangdong","featureType":"infrastructure","railClass":"construction","mode":"construction","name":"南珠高速线","nameEn":"Nanning-Zhuhai Highspeed Railway","usage":"main","highspeed":"yes","status":"construction","color":"#397F9D","dataOrigin":"datum-2026-08-01","sourceKey":"way:1410005009"}},{"type":"Feature","geometry":{"type":"LineString","coordinates":[[111.6359557,22.794927],[111.6390345,22.7951611],[111.6410625,22.7953044]]},"properties":{"key":"way:1410005014@detail:446_91","osmType":"way","osmId":1410005014,"sourceRegion":"guangdong","featureType":"infrastructure","railClass":"construction","mode":"construction","name":"南珠高速线","nameEn":"Nanning-Zhuhai Highspeed Railway","usage":"main","highspeed":"yes","status":"construction","color":"#397F9D","dataOrigin":"datum-2026-08-01","sourceKey":"way:1410005014"}},{"type":"Feature","geometry":{"type":"LineString","coordinates":[[111.6476839,22.7957924],[111.6519757,22.7961118],[111.6543205,22.7962859],[111.6547702,22.7963191],[111.6567976,22.7964171]]},"properties":{"key":"way:1410005019@detail:446_91","osmType":"way","osmId":1410005019,"sourceRegion":"guangdong","featureType":"infrastructure","railClass":"construction","mode":"construction","name":"南珠高速线","nameEn":"Nanning-Zhuhai Highspeed Railway","usage":"main","highspeed":"yes","status":"construction","color":"#397F9D","dataOrigin":"datum-2026-08-01","sourceKey":"way:1410005019"}},{"type":"Feature","geometry":{"type":"LineString","coordinates":[[111.6567976,22.7964171],[111.6584765,22.7964983],[111.659696,22.7965113]]},"properties":{"key":"way:1410005020@detail:446_91","osmType":"way","osmId":1410005020,"sourceRegion":"guangdong","featureType":"infrastructure","railClass":"construction","mode":"construction","name":"南珠高速线","nameEn":"Nanning-Zhuhai Highspeed Railway","usage":"main","highspeed":"yes","status":"construction","color":"#397F9D","dataOrigin":"datum-2026-08-01","sourceKey":"way:1410005020"}},{"type":"Feature","geometry":{"type":"LineString","coordinates":[[111.7358971,22.7945043],[111.7367804,22.7945568],[111.7389781,22.7947074],[111.7402719,22.7947632],[111.743462,22.7947435],[111.7481076,22.7946605],[111.75,22.794635264393623]]},"properties":{"key":"way:1410005022@detail:446_91","osmType":"way","osmId":1410005022,"sourceRegion":"guangdong","featureType":"infrastructure","railClass":"construction","mode":"construction","name":"南珠高速线","nameEn":"Nanning-Zhuhai Highspeed Railway","usage":"main","highspeed":"yes","status":"construction","color":"#397F9D","dataOrigin":"datum-2026-08-01","sourceKey":"way:1410005022"}},{"type":"Feature","geometry":{"type":"LineString","coordinates":[[111.7301876,22.794205],[111.7309908,22.7942449]]},"properties":{"key":"way:1410005023@detail:446_91","osmType":"way","osmId":1410005023,"sourceRegion":"guangdong","featureType":"infrastructure","railClass":"construction","mode":"construction","name":"南珠高速线","nameEn":"Nanning-Zhuhai Highspeed Railway","usage":"main","highspeed":"yes","status":"construction","color":"#397F9D","dataOrigin":"datum-2026-08-01","sourceKey":"way:1410005023"}},{"type":"Feature","geometry":{"type":"LineString","coordinates":[[111.7309908,22.7942449],[111.7342855,22.7944083],[111.7358971,22.7945043]]},"properties":{"key":"way:1410005024@detail:446_91","osmType":"way","osmId":1410005024,"sourceRegion":"guangdong","featureType":"infrastructure","railClass":"construction","mode":"construction","name":"南珠高速线","nameEn":"Nanning-Zhuhai Highspeed Railway","usage":"main","highspeed":"yes","status":"construction","color":"#397F9D","dataOrigin":"datum-2026-08-01","sourceKey":"way:1410005024"}},{"type":"Feature","geometry":{"type":"LineString","coordinates":[[111.591124,22.7942005],[111.6044426,22.7941447],[111.6217804,22.7943623],[111.6359557,22.794927]]},"properties":{"key":"way:1444364341@detail:446_91","osmType":"way","osmId":1444364341,"sourceRegion":"guangdong","featureType":"infrastructure","railClass":"construction","mode":"construction","name":"南珠高速线","nameEn":"Nanning-Zhuhai Highspeed Railway","usage":"main","highspeed":"yes","status":"construction","color":"#397F9D","dataOrigin":"datum-2026-08-01","sourceKey":"way:1444364341"}},{"type":"Feature","geometry":{"type":"LineString","coordinates":[[111.5,22.788098971906532],[111.5006325,22.7880852]]},"properties":{"key":"way:1458146910@detail:446_91","osmType":"way","osmId":1458146910,"sourceRegion":"guangdong","featureType":"infrastructure","railClass":"construction","mode":"construction","name":"南珠高速线","nameEn":"Nanning-Zhuhai Highspeed Railway","usage":"main","highspeed":"yes","status":"construction","color":"#397F9D","dataOrigin":"datum-2026-08-01","sourceKey":"way:1458146910"}},{"type":"Feature","geometry":{"type":"LineString","coordinates":[[111.75,22.754662924866093],[111.7497739,22.7544215],[111.7491121,22.7536856],[111.7461001,22.7500595],[111.7460544,22.7500107]]},"properties":{"key":"way:1462479085@detail:446_91","osmType":"way","osmId":1462479085,"sourceRegion":"guangdong","featureType":"infrastructure","railClass":"national","mode":"rail","name":"罗定铁路","usage":"branch","status":"operational","color":"#E54848","dataOrigin":"datum-2026-08-01","sourceKey":"way:1462479085"}},{"type":"Feature","geometry":{"type":"LineString","coordinates":[[111.7460544,22.7500107],[111.74604570020848,22.75]]},"properties":{"key":"way:1462479086@detail:446_91","osmType":"way","osmId":1462479086,"sourceRegion":"guangdong","featureType":"infrastructure","railClass":"national","mode":"rail","name":"罗定铁路","usage":"branch","bridge":"yes","status":"operational","color":"#E54848","dataOrigin":"datum-2026-08-01","sourceKey":"way:1462479086"}},{"type":"Feature","geometry":{"type":"LineString","coordinates":[[111.5593865,22.7939587],[111.5607613,22.7940927]]},"properties":{"key":"way:1509798789@detail:446_91","osmType":"way","osmId":1509798789,"sourceRegion":"guangdong","featureType":"infrastructure","railClass":"construction","mode":"construction","name":"南珠高速线","nameEn":"Nanning-Zhuhai Highspeed Railway","usage":"main","highspeed":"yes","status":"construction","color":"#397F9D","dataOrigin":"datum-2026-08-01","sourceKey":"way:1509798789"}},{"type":"Feature","geometry":{"type":"LineString","coordinates":[[111.5761757,22.7944423],[111.5763599,22.794442],[111.5772795,22.7944325]]},"properties":{"key":"way:1509798790@detail:446_91","osmType":"way","osmId":1509798790,"sourceRegion":"guangdong","featureType":"infrastructure","railClass":"construction","mode":"construction","name":"南珠高速线","nameEn":"Nanning-Zhuhai Highspeed Railway","usage":"main","highspeed":"yes","status":"construction","color":"#397F9D","dataOrigin":"datum-2026-08-01","sourceKey":"way:1509798790"}},{"type":"Feature","geometry":{"type":"LineString","coordinates":[[111.5,22.788188830064563],[111.5006344,22.788175]]},"properties":{"key":"way:1509798791@detail:446_91","osmType":"way","osmId":1509798791,"sourceRegion":"guangdong","featureType":"infrastructure","railClass":"construction","mode":"construction","name":"南珠高速线","nameEn":"Nanning-Zhuhai Highspeed Railway","usage":"main","highspeed":"yes","status":"construction","color":"#397F9D","dataOrigin":"datum-2026-08-01","sourceKey":"way:1509798791"}},{"type":"Feature","geometry":{"type":"LineString","coordinates":[[111.7358908,22.794594],[111.7367737,22.7946464],[111.7389722,22.7947971],[111.7402699,22.7948531],[111.7434633,22.7948334],[111.7481092,22.7947503],[111.75,22.794725104472278]]},"properties":{"key":"way:1509798792@detail:446_91","osmType":"way","osmId":1509798792,"sourceRegion":"guangdong","featureType":"infrastructure","railClass":"construction","mode":"construction","name":"南珠高速线","nameEn":"Nanning-Zhuhai Highspeed Railway","usage":"main","highspeed":"yes","status":"construction","color":"#397F9D","dataOrigin":"datum-2026-08-01","sourceKey":"way:1509798792"}},{"type":"Feature","geometry":{"type":"LineString","coordinates":[[111.5520797,22.7931079],[111.5543323,22.7933719]]},"properties":{"key":"way:1509798794@detail:446_91","osmType":"way","osmId":1509798794,"sourceRegion":"guangdong","featureType":"infrastructure","railClass":"construction","mode":"construction","name":"南珠高速线","nameEn":"Nanning-Zhuhai Highspeed Railway","usage":"main","highspeed":"yes","status":"construction","color":"#397F9D","dataOrigin":"datum-2026-08-01","sourceKey":"way:1509798794"}},{"type":"Feature","geometry":{"type":"LineString","coordinates":[[111.5241895,22.7898868],[111.527491,22.7903151]]},"properties":{"key":"way:1509798796@detail:446_91","osmType":"way","osmId":1509798796,"sourceRegion":"guangdong","featureType":"infrastructure","railClass":"construction","mode":"construction","name":"南珠高速线","nameEn":"Nanning-Zhuhai Highspeed Railway","usage":"main","highspeed":"yes","status":"construction","color":"#397F9D","dataOrigin":"datum-2026-08-01","sourceKey":"way:1509798796"}},{"type":"Feature","geometry":{"type":"LineString","coordinates":[[111.549787,22.7928397],[111.5520797,22.7931079]]},"properties":{"key":"way:1509798797@detail:446_91","osmType":"way","osmId":1509798797,"sourceRegion":"guangdong","featureType":"infrastructure","railClass":"construction","mode":"construction","name":"南珠高速线","nameEn":"Nanning-Zhuhai Highspeed Railway","usage":"main","highspeed":"yes","status":"construction","color":"#397F9D","dataOrigin":"datum-2026-08-01","sourceKey":"way:1509798797"}},{"type":"Feature","geometry":{"type":"LineString","coordinates":[[111.5439328,22.7922936],[111.5458907,22.7924503]]},"properties":{"key":"way:1509798798@detail:446_91","osmType":"way","osmId":1509798798,"sourceRegion":"guangdong","featureType":"infrastructure","railClass":"construction","mode":"construction","name":"南珠高速线","nameEn":"Nanning-Zhuhai Highspeed Railway","usage":"main","highspeed":"yes","status":"construction","color":"#397F9D","dataOrigin":"datum-2026-08-01","sourceKey":"way:1509798798"}},{"type":"Feature","geometry":{"type":"LineString","coordinates":[[111.5772795,22.7944325],[111.5801941,22.7944026]]},"properties":{"key":"way:1509798799@detail:446_91","osmType":"way","osmId":1509798799,"sourceRegion":"guangdong","featureType":"infrastructure","railClass":"construction","mode":"construction","name":"南珠高速线","nameEn":"Nanning-Zhuhai Highspeed Railway","usage":"main","highspeed":"yes","status":"construction","color":"#397F9D","dataOrigin":"datum-2026-08-01","sourceKey":"way:1509798799"}},{"type":"Feature","geometry":{"type":"LineString","coordinates":[[111.7309856,22.7943346],[111.7342797,22.794498],[111.7358908,22.794594]]},"properties":{"key":"way:1509798800@detail:446_91","osmType":"way","osmId":1509798800,"sourceRegion":"guangdong","featureType":"infrastructure","railClass":"construction","mode":"construction","name":"南珠高速线","nameEn":"Nanning-Zhuhai Highspeed Railway","usage":"main","highspeed":"yes","status":"construction","color":"#397F9D","dataOrigin":"datum-2026-08-01","sourceKey":"way:1509798800"}},{"type":"Feature","geometry":{"type":"LineString","coordinates":[[111.5640048,22.7943085],[111.5657061,22.7943968],[111.5682885,22.7944557],[111.5688561,22.7944548],[111.5755792,22.7944433]]},"properties":{"key":"way:1509798801@detail:446_91","osmType":"way","osmId":1509798801,"sourceRegion":"guangdong","featureType":"infrastructure","railClass":"construction","mode":"construction","name":"南珠高速线","nameEn":"Nanning-Zhuhai Highspeed Railway","usage":"main","highspeed":"yes","status":"construction","color":"#397F9D","dataOrigin":"datum-2026-08-01","sourceKey":"way:1509798801"}},{"type":"Feature","geometry":{"type":"LineString","coordinates":[[111.6359496,22.7950167],[111.6390268,22.7952507],[111.6410551,22.795394]]},"properties":{"key":"way:1509798803@detail:446_91","osmType":"way","osmId":1509798803,"sourceRegion":"guangdong","featureType":"infrastructure","railClass":"construction","mode":"construction","name":"南珠高速线","nameEn":"Nanning-Zhuhai Highspeed Railway","usage":"main","highspeed":"yes","status":"construction","color":"#397F9D","dataOrigin":"datum-2026-08-01","sourceKey":"way:1509798803"}},{"type":"Feature","geometry":{"type":"LineString","coordinates":[[111.5801941,22.7944026],[111.5911248,22.7942904]]},"properties":{"key":"way:1509798804@detail:446_91","osmType":"way","osmId":1509798804,"sourceRegion":"guangdong","featureType":"infrastructure","railClass":"construction","mode":"construction","name":"南珠高速线","nameEn":"Nanning-Zhuhai Highspeed Railway","usage":"main","highspeed":"yes","status":"construction","color":"#397F9D","dataOrigin":"datum-2026-08-01","sourceKey":"way:1509798804"}},{"type":"Feature","geometry":{"type":"LineString","coordinates":[[111.527491,22.7903151],[111.5439328,22.7922936]]},"properties":{"key":"way:1509798805@detail:446_91","osmType":"way","osmId":1509798805,"sourceRegion":"guangdong","featureType":"infrastructure","railClass":"construction","mode":"construction","name":"南珠高速线","nameEn":"Nanning-Zhuhai Highspeed Railway","usage":"main","highspeed":"yes","status":"construction","color":"#397F9D","dataOrigin":"datum-2026-08-01","sourceKey":"way:1509798805"}},{"type":"Feature","geometry":{"type":"LineString","coordinates":[[111.5755792,22.7944433],[111.5761757,22.7944423]]},"properties":{"key":"way:1509798807@detail:446_91","osmType":"way","osmId":1509798807,"sourceRegion":"guangdong","featureType":"infrastructure","railClass":"construction","mode":"construction","name":"南珠高速线","nameEn":"Nanning-Zhuhai Highspeed Railway","usage":"main","highspeed":"yes","status":"construction","color":"#397F9D","dataOrigin":"datum-2026-08-01","sourceKey":"way:1509798807"}},{"type":"Feature","geometry":{"type":"LineString","coordinates":[[111.6567925,22.7965068],[111.6584734,22.7965881],[111.6596949,22.7966012]]},"properties":{"key":"way:1509798808@detail:446_91","osmType":"way","osmId":1509798808,"sourceRegion":"guangdong","featureType":"infrastructure","railClass":"construction","mode":"construction","name":"南珠高速线","nameEn":"Nanning-Zhuhai Highspeed Railway","usage":"main","highspeed":"yes","status":"construction","color":"#397F9D","dataOrigin":"datum-2026-08-01","sourceKey":"way:1509798808"}},{"type":"Feature","geometry":{"type":"LineString","coordinates":[[111.5625024,22.7942203],[111.5640048,22.7943085]]},"properties":{"key":"way:1509798809@detail:446_91","osmType":"way","osmId":1509798809,"sourceRegion":"guangdong","featureType":"infrastructure","railClass":"construction","mode":"construction","name":"南珠高速线","nameEn":"Nanning-Zhuhai Highspeed Railway","usage":"main","highspeed":"yes","status":"construction","color":"#397F9D","dataOrigin":"datum-2026-08-01","sourceKey":"way:1509798809"}},{"type":"Feature","geometry":{"type":"LineString","coordinates":[[111.6410551,22.795394],[111.6423446,22.7954852],[111.6476761,22.795882]]},"properties":{"key":"way:1509798810@detail:446_91","osmType":"way","osmId":1509798810,"sourceRegion":"guangdong","featureType":"infrastructure","railClass":"construction","mode":"construction","name":"南珠高速线","nameEn":"Nanning-Zhuhai Highspeed Railway","usage":"main","highspeed":"yes","status":"construction","color":"#397F9D","dataOrigin":"datum-2026-08-01","sourceKey":"way:1509798810"}},{"type":"Feature","geometry":{"type":"LineString","coordinates":[[111.5551404,22.7934656],[111.5593865,22.7939587]]},"properties":{"key":"way:1509798811@detail:446_91","osmType":"way","osmId":1509798811,"sourceRegion":"guangdong","featureType":"infrastructure","railClass":"construction","mode":"construction","name":"南珠高速线","nameEn":"Nanning-Zhuhai Highspeed Railway","usage":"main","highspeed":"yes","status":"construction","color":"#397F9D","dataOrigin":"datum-2026-08-01","sourceKey":"way:1509798811"}},{"type":"Feature","geometry":{"type":"LineString","coordinates":[[111.5911248,22.7942904],[111.6044422,22.7942346],[111.6217776,22.7944521],[111.6359496,22.7950167]]},"properties":{"key":"way:1509798812@detail:446_91","osmType":"way","osmId":1509798812,"sourceRegion":"guangdong","featureType":"infrastructure","railClass":"construction","mode":"construction","name":"南珠高速线","nameEn":"Nanning-Zhuhai Highspeed Railway","usage":"main","highspeed":"yes","status":"construction","color":"#397F9D","dataOrigin":"datum-2026-08-01","sourceKey":"way:1509798812"}},{"type":"Feature","geometry":{"type":"LineString","coordinates":[[111.5474981,22.7925964],[111.5479569,22.7926382],[111.5490221,22.7927543],[111.5495317,22.7928099],[111.549787,22.7928397]]},"properties":{"key":"way:1509798813@detail:446_91","osmType":"way","osmId":1509798813,"sourceRegion":"guangdong","featureType":"infrastructure","railClass":"construction","mode":"construction","name":"南珠高速线","nameEn":"Nanning-Zhuhai Highspeed Railway","usage":"main","highspeed":"yes","status":"construction","color":"#397F9D","dataOrigin":"datum-2026-08-01","sourceKey":"way:1509798813"}},{"type":"Feature","geometry":{"type":"LineString","coordinates":[[111.5607613,22.7940927],[111.5616173,22.7941715],[111.5625024,22.7942203]]},"properties":{"key":"way:1509798814@detail:446_91","osmType":"way","osmId":1509798814,"sourceRegion":"guangdong","featureType":"infrastructure","railClass":"construction","mode":"construction","name":"南珠高速线","nameEn":"Nanning-Zhuhai Highspeed Railway","usage":"main","highspeed":"yes","status":"construction","color":"#397F9D","dataOrigin":"datum-2026-08-01","sourceKey":"way:1509798814"}},{"type":"Feature","geometry":{"type":"LineString","coordinates":[[111.6596949,22.7966012],[111.6623541,22.7966296],[111.666087,22.7965838],[111.6746744,22.7960108],[111.6759378,22.7959265],[111.6813576,22.7955836],[111.6965708,22.7944419],[111.7002439,22.7941887],[111.703398,22.7939766],[111.7080865,22.7936512],[111.7098866,22.7935883],[111.7130015,22.7935596],[111.7145506,22.7935664],[111.7167553,22.7936286],[111.7292068,22.7942441],[111.7301822,22.7942947]]},"properties":{"key":"way:1509798815@detail:446_91","osmType":"way","osmId":1509798815,"sourceRegion":"guangdong","featureType":"infrastructure","railClass":"construction","mode":"construction","name":"南珠高速线","nameEn":"Nanning-Zhuhai Highspeed Railway","usage":"main","highspeed":"yes","status":"construction","color":"#397F9D","dataOrigin":"datum-2026-08-01","sourceKey":"way:1509798815"}},{"type":"Feature","geometry":{"type":"LineString","coordinates":[[111.7301822,22.7942947],[111.7309856,22.7943346]]},"properties":{"key":"way:1509798816@detail:446_91","osmType":"way","osmId":1509798816,"sourceRegion":"guangdong","featureType":"infrastructure","railClass":"construction","mode":"construction","name":"南珠高速线","nameEn":"Nanning-Zhuhai Highspeed Railway","usage":"main","highspeed":"yes","status":"construction","color":"#397F9D","dataOrigin":"datum-2026-08-01","sourceKey":"way:1509798816"}},{"type":"Feature","geometry":{"type":"LineString","coordinates":[[111.5543323,22.7933719],[111.5551404,22.7934656]]},"properties":{"key":"way:1509798817@detail:446_91","osmType":"way","osmId":1509798817,"sourceRegion":"guangdong","featureType":"infrastructure","railClass":"construction","mode":"construction","name":"南珠高速线","nameEn":"Nanning-Zhuhai Highspeed Railway","usage":"main","highspeed":"yes","status":"construction","color":"#397F9D","dataOrigin":"datum-2026-08-01","sourceKey":"way:1509798817"}},{"type":"Feature","geometry":{"type":"LineString","coordinates":[[111.5006344,22.788175],[111.5037603,22.7881315],[111.5059993,22.7881299],[111.5080779,22.7882186],[111.5100824,22.7883798],[111.5120138,22.7885972],[111.5147121,22.7888946],[111.5196703,22.7893871],[111.5241895,22.7898868]]},"properties":{"key":"way:1509798818@detail:446_91","osmType":"way","osmId":1509798818,"sourceRegion":"guangdong","featureType":"infrastructure","railClass":"construction","mode":"construction","name":"南珠高速线","nameEn":"Nanning-Zhuhai Highspeed Railway","usage":"main","highspeed":"yes","status":"construction","color":"#397F9D","dataOrigin":"datum-2026-08-01","sourceKey":"way:1509798818"}},{"type":"Feature","geometry":{"type":"LineString","coordinates":[[111.6476761,22.795882],[111.6519679,22.7962014],[111.6543127,22.7963755],[111.6547638,22.7964088],[111.6567925,22.7965068]]},"properties":{"key":"way:1509798819@detail:446_91","osmType":"way","osmId":1509798819,"sourceRegion":"guangdong","featureType":"infrastructure","railClass":"construction","mode":"construction","name":"南珠高速线","nameEn":"Nanning-Zhuhai Highspeed Railway","usage":"main","highspeed":"yes","status":"construction","color":"#397F9D","dataOrigin":"datum-2026-08-01","sourceKey":"way:1509798819"}},{"type":"Feature","geometry":{"type":"LineString","coordinates":[[111.5458907,22.7924503],[111.5474981,22.7925964]]},"properties":{"key":"way:1509798820@detail:446_91","osmType":"way","osmId":1509798820,"sourceRegion":"guangdong","featureType":"infrastructure","railClass":"construction","mode":"construction","name":"南珠高速线","nameEn":"Nanning-Zhuhai Highspeed Railway","usage":"main","highspeed":"yes","status":"construction","color":"#397F9D","dataOrigin":"datum-2026-08-01","sourceKey":"way:1509798820"}}]}