{"type":"FeatureCollection","features":[{"type":"Feature","geometry":{"type":"LineString","coordinates":[[111.5065768,21.7462938],[111.5,21.744098216598946]]},"properties":{"key":"way:880574710@detail:446_86","osmType":"way","osmId":880574710,"sourceRegion":"guangdong","featureType":"infrastructure","railClass":"highspeed","mode":"rail","name":"深湛线","nameEn":"Shenzhen-Zhanjiang Railway","ref":"3071","operator":"中国铁路广州局集团有限公司","usage":"main","highspeed":"yes","status":"operational","color":"#E54848","dataOrigin":"datum-2026-08-01","sourceKey":"way:880574710"}},{"type":"Feature","geometry":{"type":"LineString","coordinates":[[111.5069255,21.7464171],[111.5065768,21.7462938]]},"properties":{"key":"way:880574711@detail:446_86","osmType":"way","osmId":880574711,"sourceRegion":"guangdong","featureType":"infrastructure","railClass":"highspeed","mode":"rail","name":"深湛线","nameEn":"Shenzhen-Zhanjiang Railway","ref":"3071","operator":"中国铁路广州局集团有限公司","usage":"main","highspeed":"yes","bridge":"yes","status":"operational","color":"#E54848","dataOrigin":"datum-2026-08-01","sourceKey":"way:880574711"}},{"type":"Feature","geometry":{"type":"LineString","coordinates":[[111.51796293354745,21.75],[111.5069255,21.7464171]]},"properties":{"key":"way:880574712@detail:446_86","osmType":"way","osmId":880574712,"sourceRegion":"guangdong","featureType":"infrastructure","railClass":"highspeed","mode":"rail","name":"深湛线","nameEn":"Shenzhen-Zhanjiang Railway","ref":"3071","operator":"中国铁路广州局集团有限公司","usage":"main","highspeed":"yes","status":"operational","color":"#E54848","dataOrigin":"datum-2026-08-01","sourceKey":"way:880574712"}},{"type":"Feature","geometry":{"type":"LineString","coordinates":[[111.51781753655168,21.75],[111.5074539,21.7466424],[111.5069067,21.7464582]]},"properties":{"key":"way:880576975@detail:446_86","osmType":"way","osmId":880576975,"sourceRegion":"guangdong","featureType":"infrastructure","railClass":"highspeed","mode":"rail","name":"深湛线","nameEn":"Shenzhen-Zhanjiang Railway","ref":"3071","operator":"中国铁路广州局集团有限公司","usage":"main","highspeed":"yes","status":"operational","color":"#E54848","dataOrigin":"datum-2026-08-01","sourceKey":"way:880576975"}},{"type":"Feature","geometry":{"type":"LineString","coordinates":[[111.5069067,21.7464582],[111.5065567,21.7463412]]},"properties":{"key":"way:880576977@detail:446_86","osmType":"way","osmId":880576977,"sourceRegion":"guangdong","featureType":"infrastructure","railClass":"highspeed","mode":"rail","name":"深湛线","nameEn":"Shenzhen-Zhanjiang Railway","ref":"3071","operator":"中国铁路广州局集团有限公司","usage":"main","highspeed":"yes","bridge":"yes","status":"operational","color":"#E54848","dataOrigin":"datum-2026-08-01","sourceKey":"way:880576977"}},{"type":"Feature","geometry":{"type":"LineString","coordinates":[[111.5065567,21.7463412],[111.5,21.744148489109328]]},"properties":{"key":"way:880576978@detail:446_86","osmType":"way","osmId":880576978,"sourceRegion":"guangdong","featureType":"infrastructure","railClass":"highspeed","mode":"rail","name":"深湛线","nameEn":"Shenzhen-Zhanjiang Railway","ref":"3071","operator":"中国铁路广州局集团有限公司","usage":"main","highspeed":"yes","status":"operational","color":"#E54848","dataOrigin":"datum-2026-08-01","sourceKey":"way:880576978"}},{"type":"Feature","geometry":{"type":"LineString","coordinates":[[111.50477707957562,21.75],[111.5035463,21.749378]]},"properties":{"key":"way:1052631936@detail:446_86","osmType":"way","osmId":1052631936,"sourceRegion":"guangdong","featureType":"infrastructure","railClass":"highspeed","mode":"rail","name":"广湛高速线","nameEn":"Guangzhou-Zhanjiang Railway","usage":"main","highspeed":"yes","bridge":"yes","status":"operational","color":"#E54848","dataOrigin":"datum-2026-08-01","sourceKey":"way:1052631936"}},{"type":"Feature","geometry":{"type":"LineString","coordinates":[[111.5035463,21.749378],[111.5,21.747658416117186]]},"properties":{"key":"way:1052631937@detail:446_86","osmType":"way","osmId":1052631937,"sourceRegion":"guangdong","featureType":"infrastructure","railClass":"highspeed","mode":"rail","name":"广湛高速线","nameEn":"Guangzhou-Zhanjiang Railway","usage":"main","highspeed":"yes","status":"operational","color":"#E54848","dataOrigin":"datum-2026-08-01","sourceKey":"way:1052631937"}},{"type":"Feature","geometry":{"type":"LineString","coordinates":[[111.5035214,21.7494214],[111.5,21.74771393112978]]},"properties":{"key":"way:1462282292@detail:446_86","osmType":"way","osmId":1462282292,"sourceRegion":"guangdong","featureType":"infrastructure","railClass":"highspeed","mode":"rail","name":"广湛高速线","nameEn":"Guangzhou-Zhanjiang Railway","usage":"main","highspeed":"yes","status":"operational","color":"#E54848","dataOrigin":"datum-2026-08-01","sourceKey":"way:1462282292"}},{"type":"Feature","geometry":{"type":"LineString","coordinates":[[111.50466628018738,21.75],[111.5035214,21.7494214]]},"properties":{"key":"way:1462282307@detail:446_86","osmType":"way","osmId":1462282307,"sourceRegion":"guangdong","featureType":"infrastructure","railClass":"highspeed","mode":"rail","name":"广湛高速线","nameEn":"Guangzhou-Zhanjiang Railway","usage":"main","highspeed":"yes","bridge":"yes","status":"operational","color":"#E54848","dataOrigin":"datum-2026-08-01","sourceKey":"way:1462282307"}}]}