{"type":"FeatureCollection","features":[{"type":"Feature","geometry":{"type":"Point","coordinates":[111.9859931,21.8131032]},"properties":{"key":"node:5485730495","osmType":"node","osmId":5485730495,"sourceRegion":"guangdong","featureType":"station","railClass":"minor","mode":"station","name":"阳江","nameEn":"Yangjiang","status":"operational","color":"#52636F","dataOrigin":"datum-2026-08-01","sourceKey":"node:5485730495","stationGroup":"阳江","hasOperationalRail":true,"hasConstructionRail":false}},{"type":"Feature","geometry":{"type":"Point","coordinates":[111.8772515,21.863512]},"properties":{"key":"node:9192805744","osmType":"node","osmId":9192805744,"sourceRegion":"guangdong","featureType":"station","railClass":"minor","mode":"station","name":"阳江","status":"operational","color":"#52636F","dataOrigin":"datum-2026-08-01","sourceKey":"node:9192805744","stationGroup":"阳江","hasOperationalRail":true,"hasConstructionRail":false}},{"type":"Feature","geometry":{"type":"Point","coordinates":[111.7983753,21.9406509]},"properties":{"key":"node:9192805745","osmType":"node","osmId":9192805745,"sourceRegion":"guangdong","featureType":"station","railClass":"minor","mode":"station","name":"双捷","status":"operational","color":"#52636F","dataOrigin":"datum-2026-08-01","sourceKey":"node:9192805745","stationGroup":"双捷","hasOperationalRail":true,"hasConstructionRail":false}},{"type":"Feature","geometry":{"type":"Point","coordinates":[111.8336501,21.9213054]},"properties":{"key":"node:11613300847","osmType":"node","osmId":11613300847,"sourceRegion":"guangdong","featureType":"station","railClass":"minor","mode":"station","name":"阳江北","status":"operational","color":"#52636F","dataOrigin":"datum-2026-08-01","sourceKey":"node:11613300847","stationGroup":"阳江北","hasOperationalRail":true,"hasConstructionRail":false}},{"type":"Feature","geometry":{"type":"LineString","coordinates":[[111.8682504,21.8242488],[111.8688897,21.8250362],[111.869212,21.8254206],[111.8701592,21.8265665],[111.8705724,21.8271006],[111.8710071,21.8276442],[111.8713677,21.8282689],[111.871417,21.8283369],[111.8716994,21.8289676],[111.8719159,21.8294225],[111.8720579,21.8298659],[111.8721649,21.8303773],[111.8722125,21.8308001],[111.8722741,21.8314427],[111.8723106,21.8320466],[111.8723417,21.8326916],[111.8723456,21.8329297],[111.8723425,21.8337309],[111.8723854,21.8345299],[111.8724475,21.8360232],[111.8724903,21.8372861],[111.8725089,21.8376582],[111.872543,21.8382527],[111.8725835,21.8390295],[111.8726615,21.8397038],[111.8727667,21.8402379],[111.8728564,21.8406705],[111.8731027,21.8414456],[111.8734517,21.8422886],[111.8735987,21.8426074],[111.8741747,21.8439722],[111.8746308,21.8450208],[111.8748686,21.8455743]]},"properties":{"key":"way:95976371@detail:447_87","osmType":"way","osmId":95976371,"sourceRegion":"guangdong","featureType":"infrastructure","railClass":"national","mode":"rail","name":"阳阳铁路","usage":"branch","status":"operational","color":"#E54848","dataOrigin":"datum-2026-08-01","sourceKey":"way:95976371"}},{"type":"Feature","geometry":{"type":"LineString","coordinates":[[111.8374571,21.8946349],[111.8371048,21.894816],[111.8353598,21.8957133],[111.8316038,21.8976459],[111.8296535,21.8987044],[111.8280082,21.900413],[111.827648,21.9007871],[111.8264524,21.9022074],[111.8082674,21.9233457],[111.8058001,21.9262122],[111.8053166,21.926877],[111.8035822,21.9299088],[111.8006383,21.9358115],[111.7982041,21.9405667],[111.7956889,21.9454801],[111.7951552,21.946505],[111.7942266,21.9481391],[111.7932763,21.949473],[111.7924824,21.9504386],[111.7924324,21.9505063],[111.789999,21.9533862]]},"properties":{"key":"way:95976374@detail:447_87","osmType":"way","osmId":95976374,"sourceRegion":"guangdong","featureType":"infrastructure","railClass":"national","mode":"rail","name":"阳阳铁路","usage":"branch","status":"operational","color":"#E54848","dataOrigin":"datum-2026-08-01","sourceKey":"way:95976374"}},{"type":"Feature","geometry":{"type":"LineString","coordinates":[[111.8678138,21.8237226],[111.8682504,21.8242488]]},"properties":{"key":"way:95976375@detail:447_87","osmType":"way","osmId":95976375,"sourceRegion":"guangdong","featureType":"infrastructure","railClass":"national","mode":"rail","name":"阳阳铁路","usage":"branch","bridge":"yes","status":"operational","color":"#E54848","dataOrigin":"datum-2026-08-01","sourceKey":"way:95976375"}},{"type":"Feature","geometry":{"type":"LineString","coordinates":[[111.8772338,21.8510467],[111.8774092,21.8514481]]},"properties":{"key":"way:95976377@detail:447_87","osmType":"way","osmId":95976377,"sourceRegion":"guangdong","featureType":"infrastructure","railClass":"national","mode":"rail","name":"阳阳铁路","usage":"branch","bridge":"yes","status":"operational","color":"#E54848","dataOrigin":"datum-2026-08-01","sourceKey":"way:95976377"}},{"type":"Feature","geometry":{"type":"LineString","coordinates":[[111.8629817,21.8054205],[111.8634778,21.8076361],[111.8636624,21.8084281],[111.8637784,21.8089633],[111.8638846,21.809408],[111.8642382,21.8108269],[111.8644533,21.8118864],[111.8648992,21.8141766],[111.865084,21.8148138],[111.8654115,21.8161916],[111.8658393,21.8181037],[111.8662885,21.8202337],[111.8663642,21.8205842],[111.866565,21.8214227],[111.8667841,21.8220082],[111.8671863,21.8228008],[111.8674868,21.8233031],[111.8678138,21.8237226]]},"properties":{"key":"way:95976378@detail:447_87","osmType":"way","osmId":95976378,"sourceRegion":"guangdong","featureType":"infrastructure","railClass":"national","mode":"rail","name":"阳阳铁路","usage":"branch","status":"operational","color":"#E54848","dataOrigin":"datum-2026-08-01","sourceKey":"way:95976378"}},{"type":"Feature","geometry":{"type":"LineString","coordinates":[[111.8751609,21.8462447],[111.8754525,21.8468681],[111.8761658,21.8485442],[111.8770545,21.8506101],[111.8772338,21.8510467]]},"properties":{"key":"way:95976380@detail:447_87","osmType":"way","osmId":95976380,"sourceRegion":"guangdong","featureType":"infrastructure","railClass":"national","mode":"rail","name":"阳阳铁路","usage":"branch","status":"operational","color":"#E54848","dataOrigin":"datum-2026-08-01","sourceKey":"way:95976380"}},{"type":"Feature","geometry":{"type":"LineString","coordinates":[[111.8774092,21.8514481],[111.8776275,21.851951],[111.8778107,21.8524655]]},"properties":{"key":"way:95976383@detail:447_87","osmType":"way","osmId":95976383,"sourceRegion":"guangdong","featureType":"infrastructure","railClass":"national","mode":"rail","name":"阳阳铁路","usage":"branch","status":"operational","color":"#E54848","dataOrigin":"datum-2026-08-01","sourceKey":"way:95976383"}},{"type":"Feature","geometry":{"type":"LineString","coordinates":[[111.8748686,21.8455743],[111.8751609,21.8462447]]},"properties":{"key":"way:95976384@detail:447_87","osmType":"way","osmId":95976384,"sourceRegion":"guangdong","featureType":"infrastructure","railClass":"national","mode":"rail","name":"阳阳铁路","usage":"branch","bridge":"yes","status":"operational","color":"#E54848","dataOrigin":"datum-2026-08-01","sourceKey":"way:95976384"}},{"type":"Feature","geometry":{"type":"LineString","coordinates":[[111.8778107,21.8524655],[111.8779432,21.8529995]]},"properties":{"key":"way:95976386@detail:447_87","osmType":"way","osmId":95976386,"sourceRegion":"guangdong","featureType":"infrastructure","railClass":"national","mode":"rail","name":"阳阳铁路","usage":"branch","bridge":"yes","status":"operational","color":"#E54848","dataOrigin":"datum-2026-08-01","sourceKey":"way:95976386"}},{"type":"Feature","geometry":{"type":"LineString","coordinates":[[111.7810676,21.9872033],[111.7820292,21.9898515]]},"properties":{"key":"way:194838754@detail:447_87","osmType":"way","osmId":194838754,"sourceRegion":"guangdong","featureType":"infrastructure","railClass":"national","mode":"rail","name":"阳阳铁路","usage":"branch","bridge":"yes","status":"operational","color":"#E54848","dataOrigin":"datum-2026-08-01","sourceKey":"way:194838754"}},{"type":"Feature","geometry":{"type":"LineString","coordinates":[[111.7887637,21.954846],[111.7866652,21.9572375],[111.7863195,21.9577009],[111.7858904,21.9582996],[111.7855709,21.9588518],[111.7852847,21.9594425],[111.785113,21.9598863],[111.7850362,21.960073],[111.7848008,21.9609086],[111.784697,21.9614256],[111.7846214,21.9619036],[111.7845785,21.9632074],[111.7845799,21.963424],[111.7847157,21.9660154],[111.7847154,21.968663],[111.7846102,21.9693623],[111.7844675,21.9700207],[111.78427,21.9706364],[111.7808702,21.9790644],[111.7803033,21.9805696],[111.7800031,21.9822809],[111.780092,21.983621],[111.7802671,21.9847859],[111.7807035,21.9861956],[111.7810676,21.9872033]]},"properties":{"key":"way:327493123@detail:447_87","osmType":"way","osmId":327493123,"sourceRegion":"guangdong","featureType":"infrastructure","railClass":"national","mode":"rail","name":"阳阳铁路","usage":"branch","status":"operational","color":"#E54848","dataOrigin":"datum-2026-08-01","sourceKey":"way:327493123"}},{"type":"Feature","geometry":{"type":"LineString","coordinates":[[111.789999,21.9533862],[111.7887637,21.954846]]},"properties":{"key":"way:327493124@detail:447_87","osmType":"way","osmId":327493124,"sourceRegion":"guangdong","featureType":"infrastructure","railClass":"national","mode":"rail","name":"阳阳铁路","usage":"branch","bridge":"yes","status":"operational","color":"#E54848","dataOrigin":"datum-2026-08-01","sourceKey":"way:327493124"}},{"type":"Feature","geometry":{"type":"LineString","coordinates":[[112.0,21.81768588496643],[111.9989634,21.8173214],[111.9976464,21.816825],[111.9970071,21.8165967],[111.9959246,21.8162103],[111.9942204,21.8155989],[111.9920413,21.8148076],[111.9899173,21.8140362],[111.9832966,21.8116653],[111.98064,21.8107034],[111.9777873,21.8096704],[111.9767728,21.8093069],[111.9746738,21.8085549],[111.9733236,21.8080647],[111.9719091,21.8075756],[111.9709289,21.8072212],[111.9697005,21.8066833],[111.9684988,21.8060906],[111.9632471,21.8033563],[111.9596797,21.8014885],[111.9573516,21.8003031],[111.9555062,21.7994862],[111.9540578,21.7989583],[111.9529796,21.7985698],[111.9518906,21.798241],[111.9508606,21.7979571],[111.9495732,21.7976682],[111.9478297,21.7973295],[111.9462097,21.7971253],[111.9423366,21.796682],[111.9358993,21.7959448],[111.9332975,21.7956161],[111.9310337,21.7954169],[111.9290274,21.7953272],[111.9267207,21.7953073],[111.9249666,21.7954019],[111.9233519,21.7955414],[111.922338,21.7956161],[111.921072,21.7957556],[111.9190979,21.7960046],[111.913138,21.7967418],[111.9112605,21.796936]]},"properties":{"key":"way:570573123@detail:447_87","osmType":"way","osmId":570573123,"sourceRegion":"guangdong","featureType":"infrastructure","railClass":"highspeed","mode":"rail","name":"深湛线","nameEn":"Shenzhen-Zhanjiang Railway","ref":"3071","operator":"中国铁路广州局集团有限公司","usage":"main","highspeed":"yes","bridge":"yes","status":"operational","color":"#E54848","dataOrigin":"datum-2026-08-01","sourceKey":"way:570573123"}},{"type":"Feature","geometry":{"type":"LineString","coordinates":[[112.0,21.817734841547672],[111.9989462,21.8173631],[111.9972344,21.8167287],[111.9960427,21.8162926],[111.9951399,21.8159786],[111.9924967,21.8150171],[111.9911027,21.81451],[111.9832815,21.8116997],[111.9796442,21.8103892],[111.978334,21.8099171],[111.9777337,21.8097009],[111.9746996,21.8086082],[111.9734182,21.8081536],[111.9719243,21.8076455],[111.9709092,21.8072619],[111.969679,21.8067232],[111.9684758,21.8061298],[111.9632235,21.8033952],[111.9596563,21.8015275],[111.9573297,21.8003429],[111.955487,21.7995272],[111.9540403,21.7989999],[111.9529635,21.7986119],[111.9518763,21.7982836],[111.9508481,21.7980002],[111.9495626,21.7977118],[111.9478215,21.7973735],[111.9462035,21.7971696],[111.9423307,21.7967263],[111.9358931,21.7959891],[111.933292,21.7956605],[111.9310303,21.7954614],[111.929026,21.7953718],[111.9267219,21.795352],[111.9249702,21.7954464],[111.923356,21.7955859],[111.9223427,21.7956605],[111.9210781,21.7957999],[111.9191043,21.7960488],[111.9131438,21.7967861],[111.9112663,21.7969803]]},"properties":{"key":"way:627789208@detail:447_87","osmType":"way","osmId":627789208,"sourceRegion":"guangdong","featureType":"infrastructure","railClass":"highspeed","mode":"rail","name":"深湛线","nameEn":"Shenzhen-Zhanjiang Railway","ref":"3071","operator":"中国铁路广州局集团有限公司","usage":"main","highspeed":"yes","bridge":"yes","status":"operational","color":"#E54848","dataOrigin":"datum-2026-08-01","sourceKey":"way:627789208"}},{"type":"Feature","geometry":{"type":"LineString","coordinates":[[111.8591492,21.8003594],[111.8483958,21.8005718],[111.8389979,21.8007312],[111.8352019,21.8008905],[111.8323937,21.8011493],[111.8296937,21.8015671],[111.8264352,21.8023434],[111.82092,21.8039175],[111.8179124,21.8045557],[111.8146896,21.8049946],[111.8115093,21.8051542],[111.8077493,21.8049946],[111.8047423,21.8045758],[111.7981975,21.8035397],[111.7911166,21.8024839],[111.7865609,21.8018736]]},"properties":{"key":"way:627789209@detail:447_87","osmType":"way","osmId":627789209,"sourceRegion":"guangdong","featureType":"infrastructure","railClass":"highspeed","mode":"rail","name":"深湛线","nameEn":"Shenzhen-Zhanjiang Railway","ref":"3071","operator":"中国铁路广州局集团有限公司","usage":"main","highspeed":"yes","status":"operational","color":"#E54848","dataOrigin":"datum-2026-08-01","sourceKey":"way:627789209"}},{"type":"Feature","geometry":{"type":"LineString","coordinates":[[111.8591545,21.8003132],[111.8483948,21.8005272],[111.8389964,21.8006866],[111.8351984,21.800846],[111.8323874,21.801105],[111.8296838,21.8015234],[111.8264222,21.8023004],[111.8209076,21.8038743],[111.8179035,21.8045118],[111.8146848,21.8049501],[111.8115091,21.8051095],[111.807754,21.8049501],[111.8047499,21.8045317],[111.7982054,21.8034957],[111.7911243,21.8024398],[111.7865673,21.8017923]]},"properties":{"key":"way:880574714@detail:447_87","osmType":"way","osmId":880574714,"sourceRegion":"guangdong","featureType":"infrastructure","railClass":"highspeed","mode":"rail","name":"深湛线","nameEn":"Shenzhen-Zhanjiang Railway","ref":"3071","operator":"中国铁路广州局集团有限公司","usage":"main","highspeed":"yes","status":"operational","color":"#E54848","dataOrigin":"datum-2026-08-01","sourceKey":"way:880574714"}},{"type":"Feature","geometry":{"type":"LineString","coordinates":[[111.8753483,21.7999459],[111.8707269,21.8000839],[111.8681936,21.8001337],[111.8678033,21.8001412]]},"properties":{"key":"way:880574715@detail:447_87","osmType":"way","osmId":880574715,"sourceRegion":"guangdong","featureType":"infrastructure","railClass":"highspeed","mode":"rail","name":"深湛线","nameEn":"Shenzhen-Zhanjiang Railway","ref":"3071","operator":"中国铁路广州局集团有限公司","usage":"main","highspeed":"yes","bridge":"yes","status":"operational","color":"#E54848","dataOrigin":"datum-2026-08-01","sourceKey":"way:880574715"}},{"type":"Feature","geometry":{"type":"LineString","coordinates":[[111.8942169,21.7989687],[111.8892476,21.7995485],[111.886619,21.7997117],[111.8841219,21.7997701],[111.8807573,21.7998375]]},"properties":{"key":"way:880574716@detail:447_87","osmType":"way","osmId":880574716,"sourceRegion":"guangdong","featureType":"infrastructure","railClass":"highspeed","mode":"rail","name":"深湛线","nameEn":"Shenzhen-Zhanjiang Railway","ref":"3071","operator":"中国铁路广州局集团有限公司","usage":"main","highspeed":"yes","bridge":"yes","status":"operational","color":"#E54848","dataOrigin":"datum-2026-08-01","sourceKey":"way:880574716"}},{"type":"Feature","geometry":{"type":"LineString","coordinates":[[111.8753493,21.7999906],[111.8707334,21.8001285],[111.8681923,21.8001798],[111.8678033,21.8001885]]},"properties":{"key":"way:880576973@detail:447_87","osmType":"way","osmId":880576973,"sourceRegion":"guangdong","featureType":"infrastructure","railClass":"highspeed","mode":"rail","name":"深湛线","nameEn":"Shenzhen-Zhanjiang Railway","ref":"3071","operator":"中国铁路广州局集团有限公司","usage":"main","highspeed":"yes","bridge":"yes","status":"operational","color":"#E54848","dataOrigin":"datum-2026-08-01","sourceKey":"way:880576973"}},{"type":"Feature","geometry":{"type":"LineString","coordinates":[[111.8942226,21.799013],[111.8892521,21.799593],[111.8866271,21.799756],[111.884124,21.7998147],[111.8807531,21.7998823]]},"properties":{"key":"way:880576974@detail:447_87","osmType":"way","osmId":880576974,"sourceRegion":"guangdong","featureType":"infrastructure","railClass":"highspeed","mode":"rail","name":"深湛线","nameEn":"Shenzhen-Zhanjiang Railway","ref":"3071","operator":"中国铁路广州局集团有限公司","usage":"main","highspeed":"yes","bridge":"yes","status":"operational","color":"#E54848","dataOrigin":"datum-2026-08-01","sourceKey":"way:880576974"}},{"type":"Feature","geometry":{"type":"LineString","coordinates":[[111.8678033,21.8001412],[111.8591545,21.8003132]]},"properties":{"key":"way:881541930@detail:447_87","osmType":"way","osmId":881541930,"sourceRegion":"guangdong","featureType":"infrastructure","railClass":"highspeed","mode":"rail","name":"深湛线","nameEn":"Shenzhen-Zhanjiang Railway","ref":"3071","operator":"中国铁路广州局集团有限公司","usage":"main","highspeed":"yes","bridge":"yes","status":"operational","color":"#E54848","dataOrigin":"datum-2026-08-01","sourceKey":"way:881541930"}},{"type":"Feature","geometry":{"type":"LineString","coordinates":[[111.8678033,21.8001885],[111.8591492,21.8003594]]},"properties":{"key":"way:881541931@detail:447_87","osmType":"way","osmId":881541931,"sourceRegion":"guangdong","featureType":"infrastructure","railClass":"highspeed","mode":"rail","name":"深湛线","nameEn":"Shenzhen-Zhanjiang Railway","ref":"3071","operator":"中国铁路广州局集团有限公司","usage":"main","highspeed":"yes","bridge":"yes","status":"operational","color":"#E54848","dataOrigin":"datum-2026-08-01","sourceKey":"way:881541931"}},{"type":"Feature","geometry":{"type":"LineString","coordinates":[[111.8807573,21.7998375],[111.8753483,21.7999459]]},"properties":{"key":"way:881541932@detail:447_87","osmType":"way","osmId":881541932,"sourceRegion":"guangdong","featureType":"infrastructure","railClass":"highspeed","mode":"rail","name":"深湛线","nameEn":"Shenzhen-Zhanjiang Railway","ref":"3071","operator":"中国铁路广州局集团有限公司","usage":"main","highspeed":"yes","status":"operational","color":"#E54848","dataOrigin":"datum-2026-08-01","sourceKey":"way:881541932"}},{"type":"Feature","geometry":{"type":"LineString","coordinates":[[111.8807531,21.7998823],[111.8753493,21.7999906]]},"properties":{"key":"way:881541933@detail:447_87","osmType":"way","osmId":881541933,"sourceRegion":"guangdong","featureType":"infrastructure","railClass":"highspeed","mode":"rail","name":"深湛线","nameEn":"Shenzhen-Zhanjiang Railway","ref":"3071","operator":"中国铁路广州局集团有限公司","usage":"main","highspeed":"yes","status":"operational","color":"#E54848","dataOrigin":"datum-2026-08-01","sourceKey":"way:881541933"}},{"type":"Feature","geometry":{"type":"LineString","coordinates":[[111.9112605,21.796936],[111.9058585,21.7975985],[111.8942169,21.7989687]]},"properties":{"key":"way:881541934@detail:447_87","osmType":"way","osmId":881541934,"sourceRegion":"guangdong","featureType":"infrastructure","railClass":"highspeed","mode":"rail","name":"深湛线","nameEn":"Shenzhen-Zhanjiang Railway","ref":"3071","operator":"中国铁路广州局集团有限公司","usage":"main","highspeed":"yes","status":"operational","color":"#E54848","dataOrigin":"datum-2026-08-01","sourceKey":"way:881541934"}},{"type":"Feature","geometry":{"type":"LineString","coordinates":[[111.9112663,21.7969803],[111.9058645,21.7976428],[111.8942226,21.799013]]},"properties":{"key":"way:881541935@detail:447_87","osmType":"way","osmId":881541935,"sourceRegion":"guangdong","featureType":"infrastructure","railClass":"highspeed","mode":"rail","name":"深湛线","nameEn":"Shenzhen-Zhanjiang Railway","ref":"3071","operator":"中国铁路广州局集团有限公司","usage":"main","highspeed":"yes","status":"operational","color":"#E54848","dataOrigin":"datum-2026-08-01","sourceKey":"way:881541935"}},{"type":"Feature","geometry":{"type":"LineString","coordinates":[[111.878027,21.8537129],[111.878035,21.8538523],[111.8780389,21.8541875],[111.8780038,21.8547176],[111.877812,21.856667],[111.8776048,21.8582166],[111.877582,21.8586471],[111.8775435,21.8590187],[111.8775031,21.8594083],[111.8774612,21.8598126],[111.8772357,21.8617901],[111.8771638,21.8624344],[111.8771068,21.8630669],[111.8769809,21.8643041],[111.8767952,21.8660675],[111.8767622,21.866389],[111.8767352,21.8666096],[111.8767008,21.86689],[111.8766581,21.8673493],[111.8766168,21.8677935],[111.8765171,21.8687605],[111.8763185,21.8697381],[111.8762125,21.8704615],[111.8760722,21.871001],[111.875935,21.8714875],[111.8757728,21.871818],[111.8754701,21.8723094],[111.8751707,21.872774],[111.8748464,21.8732231],[111.8744401,21.8736176],[111.8739194,21.8740417],[111.8735452,21.8743224],[111.872956,21.8746143],[111.8725172,21.8748777],[111.8720796,21.8750768],[111.8717329,21.8752185],[111.8709888,21.87557],[111.8694452,21.8762809],[111.8675654,21.8770974],[111.8658997,21.877884],[111.8651331,21.8782294],[111.8642912,21.8786067],[111.8626505,21.879492],[111.8619823,21.8798851],[111.8608491,21.8807054],[111.854851,21.8851772],[111.8520246,21.8872157],[111.8518247,21.8873398],[111.844532,21.8910595],[111.8405737,21.8930323],[111.8374571,21.8946349]]},"properties":{"key":"way:951671527@detail:447_87","osmType":"way","osmId":951671527,"sourceRegion":"guangdong","featureType":"infrastructure","railClass":"national","mode":"rail","name":"阳阳铁路","usage":"branch","status":"operational","color":"#E54848","dataOrigin":"datum-2026-08-01","sourceKey":"way:951671527"}},{"type":"Feature","geometry":{"type":"LineString","coordinates":[[111.9942204,21.8155989],[111.9951399,21.8159786]]},"properties":{"key":"way:970016255@detail:447_87","osmType":"way","osmId":970016255,"sourceRegion":"guangdong","featureType":"infrastructure","railClass":"minor","mode":"rail","name":"未命名","usage":"main","service":"crossover","highspeed":"yes","bridge":"yes","status":"operational","color":"#52636F","dataOrigin":"datum-2026-08-01","sourceKey":"way:970016255"}},{"type":"Feature","geometry":{"type":"LineString","coordinates":[[111.9960427,21.8162926],[111.9970071,21.8165967]]},"properties":{"key":"way:970016256@detail:447_87","osmType":"way","osmId":970016256,"sourceRegion":"guangdong","featureType":"infrastructure","railClass":"minor","mode":"rail","name":"未命名","usage":"main","service":"crossover","highspeed":"yes","bridge":"yes","status":"operational","color":"#52636F","dataOrigin":"datum-2026-08-01","sourceKey":"way:970016256"}},{"type":"Feature","geometry":{"type":"LineString","coordinates":[[111.98064,21.8107034],[111.9815052,21.8109624],[111.9818662,21.8110705],[111.9824598,21.8112441],[111.9831532,21.8114272],[111.9834385,21.8115117],[111.9883436,21.8132522],[111.9889809,21.8134874],[111.9892206,21.8135889],[111.9897785,21.8138347],[111.9908984,21.8143302],[111.991034,21.8143902],[111.9920413,21.8148076]]},"properties":{"key":"way:970016257@detail:447_87","osmType":"way","osmId":970016257,"sourceRegion":"guangdong","featureType":"infrastructure","railClass":"minor","mode":"rail","name":"未命名","usage":"main","service":"yard","highspeed":"yes","bridge":"yes","status":"operational","color":"#52636F","dataOrigin":"datum-2026-08-01","sourceKey":"way:970016257"}},{"type":"Feature","geometry":{"type":"LineString","coordinates":[[111.9908984,21.8143302],[111.9815052,21.8109624]]},"properties":{"key":"way:970016258@detail:447_87","osmType":"way","osmId":970016258,"sourceRegion":"guangdong","featureType":"infrastructure","railClass":"minor","mode":"rail","name":"未命名","usage":"main","service":"yard","highspeed":"yes","bridge":"yes","status":"operational","color":"#52636F","dataOrigin":"datum-2026-08-01","sourceKey":"way:970016258"}},{"type":"Feature","geometry":{"type":"LineString","coordinates":[[111.9796442,21.8103892],[111.9806705,21.8108289],[111.9812946,21.8110964],[111.9815789,21.8112325],[111.9822186,21.8115387],[111.9825342,21.811681],[111.9829859,21.8118727],[111.983306,21.8119953],[111.9888079,21.8139593],[111.9893368,21.8141476],[111.9897708,21.8142772],[111.9902945,21.8144139],[111.9911337,21.8146438],[111.9917264,21.8148061],[111.9924967,21.8150171]]},"properties":{"key":"way:970016259@detail:447_87","osmType":"way","osmId":970016259,"sourceRegion":"guangdong","featureType":"infrastructure","railClass":"minor","mode":"rail","name":"未命名","usage":"main","service":"yard","highspeed":"yes","bridge":"yes","status":"operational","color":"#52636F","dataOrigin":"datum-2026-08-01","sourceKey":"way:970016259"}},{"type":"Feature","geometry":{"type":"LineString","coordinates":[[111.9917264,21.8148061],[111.9905675,21.8143872],[111.9833853,21.8118101],[111.9806705,21.8108289]]},"properties":{"key":"way:970016260@detail:447_87","osmType":"way","osmId":970016260,"sourceRegion":"guangdong","featureType":"infrastructure","railClass":"minor","mode":"rail","name":"未命名","usage":"main","service":"yard","highspeed":"yes","bridge":"yes","status":"operational","color":"#52636F","dataOrigin":"datum-2026-08-01","sourceKey":"way:970016260"}},{"type":"Feature","geometry":{"type":"LineString","coordinates":[[111.9777337,21.8097009],[111.9767728,21.8093069]]},"properties":{"key":"way:970016261@detail:447_87","osmType":"way","osmId":970016261,"sourceRegion":"guangdong","featureType":"infrastructure","railClass":"minor","mode":"rail","name":"未命名","usage":"main","service":"crossover","highspeed":"yes","bridge":"yes","status":"operational","color":"#52636F","dataOrigin":"datum-2026-08-01","sourceKey":"way:970016261"}},{"type":"Feature","geometry":{"type":"LineString","coordinates":[[111.9815789,21.8112325],[111.9826727,21.8116734],[111.9831149,21.8118572],[111.9833516,21.8119445],[111.9891449,21.8140216],[111.9904726,21.8144326],[111.9911337,21.8146438]]},"properties":{"key":"way:970016262@detail:447_87","osmType":"way","osmId":970016262,"sourceRegion":"guangdong","featureType":"infrastructure","railClass":"minor","mode":"rail","name":"未命名","usage":"main","service":"yard","highspeed":"yes","bridge":"yes","status":"operational","color":"#52636F","dataOrigin":"datum-2026-08-01","sourceKey":"way:970016262"}},{"type":"Feature","geometry":{"type":"LineString","coordinates":[[111.7820292,21.9898515],[111.7822293,21.9906092],[111.782296,21.9914596],[111.7822015,21.9924235],[111.7818847,21.9934801],[111.7813426,21.9943621],[111.7811596,21.9946097],[111.7810457,21.9947519],[111.7807128,21.9951398],[111.7803615,21.9954483],[111.7788052,21.9965519],[111.7768986,21.9979177],[111.775509,21.9993298],[111.77501048375011,22.0]]},"properties":{"key":"way:976244572@detail:447_87","osmType":"way","osmId":976244572,"sourceRegion":"guangdong","featureType":"infrastructure","railClass":"national","mode":"rail","name":"阳阳铁路","usage":"branch","status":"operational","color":"#E54848","dataOrigin":"datum-2026-08-01","sourceKey":"way:976244572"}},{"type":"Feature","geometry":{"type":"LineString","coordinates":[[111.7550854,21.7951142],[111.7544908,21.795006]]},"properties":{"key":"way:995265624@detail:447_87","osmType":"way","osmId":995265624,"sourceRegion":"guangdong","featureType":"infrastructure","railClass":"highspeed","mode":"rail","name":"深湛线","nameEn":"Shenzhen-Zhanjiang Railway","ref":"3071","operator":"中国铁路广州局集团有限公司","usage":"main","highspeed":"yes","bridge":"yes","status":"operational","color":"#E54848","dataOrigin":"datum-2026-08-01","sourceKey":"way:995265624"}},{"type":"Feature","geometry":{"type":"LineString","coordinates":[[111.7633207,21.7968931],[111.758337,21.7957058],[111.7550854,21.7951142]]},"properties":{"key":"way:995265625@detail:447_87","osmType":"way","osmId":995265625,"sourceRegion":"guangdong","featureType":"infrastructure","railClass":"highspeed","mode":"rail","name":"深湛线","nameEn":"Shenzhen-Zhanjiang Railway","ref":"3071","operator":"中国铁路广州局集团有限公司","usage":"main","highspeed":"yes","status":"operational","color":"#E54848","dataOrigin":"datum-2026-08-01","sourceKey":"way:995265625"}},{"type":"Feature","geometry":{"type":"LineString","coordinates":[[111.7550693,21.7951841],[111.7544816,21.7950822]]},"properties":{"key":"way:995265626@detail:447_87","osmType":"way","osmId":995265626,"sourceRegion":"guangdong","featureType":"infrastructure","railClass":"highspeed","mode":"rail","name":"深湛线","nameEn":"Shenzhen-Zhanjiang Railway","ref":"3071","operator":"中国铁路广州局集团有限公司","usage":"main","highspeed":"yes","bridge":"yes","status":"operational","color":"#E54848","dataOrigin":"datum-2026-08-01","sourceKey":"way:995265626"}},{"type":"Feature","geometry":{"type":"LineString","coordinates":[[111.7633267,21.7969969],[111.758326,21.7957493],[111.7550693,21.7951841]]},"properties":{"key":"way:995265627@detail:447_87","osmType":"way","osmId":995265627,"sourceRegion":"guangdong","featureType":"infrastructure","railClass":"highspeed","mode":"rail","name":"深湛线","nameEn":"Shenzhen-Zhanjiang Railway","ref":"3071","operator":"中国铁路广州局集团有限公司","usage":"main","highspeed":"yes","status":"operational","color":"#E54848","dataOrigin":"datum-2026-08-01","sourceKey":"way:995265627"}},{"type":"Feature","geometry":{"type":"LineString","coordinates":[[111.7638248,21.7970132],[111.7633207,21.7968931]]},"properties":{"key":"way:995265629@detail:447_87","osmType":"way","osmId":995265629,"sourceRegion":"guangdong","featureType":"infrastructure","railClass":"highspeed","mode":"rail","name":"深湛线","nameEn":"Shenzhen-Zhanjiang Railway","ref":"3071","operator":"中国铁路广州局集团有限公司","usage":"main","highspeed":"yes","bridge":"yes","status":"operational","color":"#E54848","dataOrigin":"datum-2026-08-01","sourceKey":"way:995265629"}},{"type":"Feature","geometry":{"type":"LineString","coordinates":[[111.7638114,21.7971178],[111.7633267,21.7969969]]},"properties":{"key":"way:995265630@detail:447_87","osmType":"way","osmId":995265630,"sourceRegion":"guangdong","featureType":"infrastructure","railClass":"highspeed","mode":"rail","name":"深湛线","nameEn":"Shenzhen-Zhanjiang Railway","ref":"3071","operator":"中国铁路广州局集团有限公司","usage":"main","highspeed":"yes","bridge":"yes","status":"operational","color":"#E54848","dataOrigin":"datum-2026-08-01","sourceKey":"way:995265630"}},{"type":"Feature","geometry":{"type":"LineString","coordinates":[[111.7732809,21.7992098],[111.7679176,21.7978811],[111.7638114,21.7971178]]},"properties":{"key":"way:995265631@detail:447_87","osmType":"way","osmId":995265631,"sourceRegion":"guangdong","featureType":"infrastructure","railClass":"highspeed","mode":"rail","name":"深湛线","nameEn":"Shenzhen-Zhanjiang Railway","ref":"3071","operator":"中国铁路广州局集团有限公司","usage":"main","highspeed":"yes","status":"operational","color":"#E54848","dataOrigin":"datum-2026-08-01","sourceKey":"way:995265631"}},{"type":"Feature","geometry":{"type":"LineString","coordinates":[[111.7733105,21.7991338],[111.7679286,21.7978376],[111.7638248,21.7970132]]},"properties":{"key":"way:995265632@detail:447_87","osmType":"way","osmId":995265632,"sourceRegion":"guangdong","featureType":"infrastructure","railClass":"highspeed","mode":"rail","name":"深湛线","nameEn":"Shenzhen-Zhanjiang Railway","ref":"3071","operator":"中国铁路广州局集团有限公司","usage":"main","highspeed":"yes","status":"operational","color":"#E54848","dataOrigin":"datum-2026-08-01","sourceKey":"way:995265632"}},{"type":"Feature","geometry":{"type":"LineString","coordinates":[[111.773722,21.7992234],[111.7733105,21.7991338]]},"properties":{"key":"way:995265633@detail:447_87","osmType":"way","osmId":995265633,"sourceRegion":"guangdong","featureType":"infrastructure","railClass":"highspeed","mode":"rail","name":"深湛线","nameEn":"Shenzhen-Zhanjiang Railway","ref":"3071","operator":"中国铁路广州局集团有限公司","usage":"main","highspeed":"yes","bridge":"yes","status":"operational","color":"#E54848","dataOrigin":"datum-2026-08-01","sourceKey":"way:995265633"}},{"type":"Feature","geometry":{"type":"LineString","coordinates":[[111.7736836,21.7992969],[111.7732809,21.7992098]]},"properties":{"key":"way:995265634@detail:447_87","osmType":"way","osmId":995265634,"sourceRegion":"guangdong","featureType":"infrastructure","railClass":"highspeed","mode":"rail","name":"深湛线","nameEn":"Shenzhen-Zhanjiang Railway","ref":"3071","operator":"中国铁路广州局集团有限公司","usage":"main","highspeed":"yes","bridge":"yes","status":"operational","color":"#E54848","dataOrigin":"datum-2026-08-01","sourceKey":"way:995265634"}},{"type":"Feature","geometry":{"type":"LineString","coordinates":[[111.7786847,21.8003785],[111.7736836,21.7992969]]},"properties":{"key":"way:995265635@detail:447_87","osmType":"way","osmId":995265635,"sourceRegion":"guangdong","featureType":"infrastructure","railClass":"highspeed","mode":"rail","name":"深湛线","nameEn":"Shenzhen-Zhanjiang Railway","ref":"3071","operator":"中国铁路广州局集团有限公司","usage":"main","highspeed":"yes","status":"operational","color":"#E54848","dataOrigin":"datum-2026-08-01","sourceKey":"way:995265635"}},{"type":"Feature","geometry":{"type":"LineString","coordinates":[[111.778695,21.8003055],[111.773722,21.7992234]]},"properties":{"key":"way:995265636@detail:447_87","osmType":"way","osmId":995265636,"sourceRegion":"guangdong","featureType":"infrastructure","railClass":"highspeed","mode":"rail","name":"深湛线","nameEn":"Shenzhen-Zhanjiang Railway","ref":"3071","operator":"中国铁路广州局集团有限公司","usage":"main","highspeed":"yes","status":"operational","color":"#E54848","dataOrigin":"datum-2026-08-01","sourceKey":"way:995265636"}},{"type":"Feature","geometry":{"type":"LineString","coordinates":[[111.7865609,21.8018736],[111.7798324,21.8006405],[111.7786847,21.8003785]]},"properties":{"key":"way:995265637@detail:447_87","osmType":"way","osmId":995265637,"sourceRegion":"guangdong","featureType":"infrastructure","railClass":"highspeed","mode":"rail","name":"深湛线","nameEn":"Shenzhen-Zhanjiang Railway","ref":"3071","operator":"中国铁路广州局集团有限公司","usage":"main","highspeed":"yes","bridge":"yes","status":"operational","color":"#E54848","dataOrigin":"datum-2026-08-01","sourceKey":"way:995265637"}},{"type":"Feature","geometry":{"type":"LineString","coordinates":[[111.7865673,21.8017923],[111.778695,21.8003055]]},"properties":{"key":"way:995265638@detail:447_87","osmType":"way","osmId":995265638,"sourceRegion":"guangdong","featureType":"infrastructure","railClass":"highspeed","mode":"rail","name":"深湛线","nameEn":"Shenzhen-Zhanjiang Railway","ref":"3071","operator":"中国铁路广州局集团有限公司","usage":"main","highspeed":"yes","bridge":"yes","status":"operational","color":"#E54848","dataOrigin":"datum-2026-08-01","sourceKey":"way:995265638"}},{"type":"Feature","geometry":{"type":"LineString","coordinates":[[111.7544908,21.795006],[111.7521572,21.7945303],[111.7503762,21.7943509],[111.75,21.79433416025281]]},"properties":{"key":"way:995265639@detail:447_87","osmType":"way","osmId":995265639,"sourceRegion":"guangdong","featureType":"infrastructure","railClass":"highspeed","mode":"rail","name":"深湛线","nameEn":"Shenzhen-Zhanjiang Railway","ref":"3071","operator":"中国铁路广州局集团有限公司","usage":"main","highspeed":"yes","status":"operational","color":"#E54848","dataOrigin":"datum-2026-08-01","sourceKey":"way:995265639"}},{"type":"Feature","geometry":{"type":"LineString","coordinates":[[111.7544816,21.7950822],[111.7521508,21.7945746],[111.7503725,21.7943954],[111.75,21.794378834395065]]},"properties":{"key":"way:995265640@detail:447_87","osmType":"way","osmId":995265640,"sourceRegion":"guangdong","featureType":"infrastructure","railClass":"highspeed","mode":"rail","name":"深湛线","nameEn":"Shenzhen-Zhanjiang Railway","ref":"3071","operator":"中国铁路广州局集团有限公司","usage":"main","highspeed":"yes","status":"operational","color":"#E54848","dataOrigin":"datum-2026-08-01","sourceKey":"way:995265640"}},{"type":"Feature","geometry":{"type":"LineString","coordinates":[[111.7542992,21.8488118],[111.75,21.845139196251527]]},"properties":{"key":"way:1052634135@detail:447_87","osmType":"way","osmId":1052634135,"sourceRegion":"guangdong","featureType":"infrastructure","railClass":"highspeed","mode":"rail","name":"广湛高速线","nameEn":"Guangzhou-Zhanjiang Railway","usage":"main","highspeed":"yes","status":"operational","color":"#E54848","dataOrigin":"datum-2026-08-01","sourceKey":"way:1052634135"}},{"type":"Feature","geometry":{"type":"LineString","coordinates":[[111.7818022,21.8675559],[111.7801485,21.8667648],[111.778653,21.8660262],[111.7770838,21.8651889],[111.7749933,21.8640477],[111.7727006,21.8627697]]},"properties":{"key":"way:1052634136@detail:447_87","osmType":"way","osmId":1052634136,"sourceRegion":"guangdong","featureType":"infrastructure","railClass":"highspeed","mode":"rail","name":"广湛高速线","nameEn":"Guangzhou-Zhanjiang Railway","usage":"main","highspeed":"yes","status":"operational","color":"#E54848","dataOrigin":"datum-2026-08-01","sourceKey":"way:1052634136"}},{"type":"Feature","geometry":{"type":"LineString","coordinates":[[111.7661157,21.8584681],[111.7622108,21.8554866]]},"properties":{"key":"way:1052634137@detail:447_87","osmType":"way","osmId":1052634137,"sourceRegion":"guangdong","featureType":"infrastructure","railClass":"highspeed","mode":"rail","name":"广湛高速线","nameEn":"Guangzhou-Zhanjiang Railway","usage":"main","highspeed":"yes","tunnel":"yes","status":"operational","color":"#E54848","dataOrigin":"datum-2026-08-01","sourceKey":"way:1052634137"}},{"type":"Feature","geometry":{"type":"LineString","coordinates":[[111.7918289,21.8727657],[111.7868949,21.8700806]]},"properties":{"key":"way:1052634138@detail:447_87","osmType":"way","osmId":1052634138,"sourceRegion":"guangdong","featureType":"infrastructure","railClass":"highspeed","mode":"rail","name":"广湛高速线","nameEn":"Guangzhou-Zhanjiang Railway","usage":"main","highspeed":"yes","bridge":"yes","status":"operational","color":"#E54848","dataOrigin":"datum-2026-08-01","sourceKey":"way:1052634138"}},{"type":"Feature","geometry":{"type":"LineString","coordinates":[[111.7818022,21.8675559],[111.7834121,21.8683183]]},"properties":{"key":"way:1052634139@detail:447_87","osmType":"way","osmId":1052634139,"sourceRegion":"guangdong","featureType":"infrastructure","railClass":"highspeed","mode":"rail","name":"广湛高速线","nameEn":"Guangzhou-Zhanjiang Railway","usage":"main","highspeed":"yes","tunnel":"yes","status":"operational","color":"#E54848","dataOrigin":"datum-2026-08-01","sourceKey":"way:1052634139"}},{"type":"Feature","geometry":{"type":"LineString","coordinates":[[111.8340092,21.9212242],[111.8285127,21.9119659],[111.8258632,21.9075028],[111.8248439,21.9058786],[111.8237261,21.9040773],[111.8224739,21.9021518],[111.821376,21.9005402],[111.8201814,21.8989063],[111.8187976,21.8971268],[111.8173903,21.8954475],[111.8160891,21.8939751],[111.8148033,21.8925656],[111.8087896,21.8860804],[111.8074026,21.8846352],[111.8061141,21.8834051],[111.8046521,21.8820646],[111.8032449,21.8808295],[111.8014553,21.8793703],[111.8000429,21.8782758]]},"properties":{"key":"way:1052634140@detail:447_87","osmType":"way","osmId":1052634140,"sourceRegion":"guangdong","featureType":"infrastructure","railClass":"highspeed","mode":"rail","name":"广湛高速线","nameEn":"Guangzhou-Zhanjiang Railway","usage":"main","highspeed":"yes","bridge":"yes","status":"operational","color":"#E54848","dataOrigin":"datum-2026-08-01","sourceKey":"way:1052634140"}},{"type":"Feature","geometry":{"type":"LineString","coordinates":[[111.7987609,21.8772978],[111.7970582,21.8761025]]},"properties":{"key":"way:1052634141@detail:447_87","osmType":"way","osmId":1052634141,"sourceRegion":"guangdong","featureType":"infrastructure","railClass":"highspeed","mode":"rail","name":"广湛高速线","nameEn":"Guangzhou-Zhanjiang Railway","usage":"main","highspeed":"yes","tunnel":"yes","status":"operational","color":"#E54848","dataOrigin":"datum-2026-08-01","sourceKey":"way:1052634141"}},{"type":"Feature","geometry":{"type":"LineString","coordinates":[[111.858558,21.9654609],[111.8579987,21.9638835],[111.8574149,21.9623697],[111.8566573,21.9605931],[111.8558738,21.958823],[111.8550135,21.95706]]},"properties":{"key":"way:1052659286@detail:447_87","osmType":"way","osmId":1052659286,"sourceRegion":"guangdong","featureType":"infrastructure","railClass":"highspeed","mode":"rail","name":"广湛高速线","nameEn":"Guangzhou-Zhanjiang Railway","usage":"main","highspeed":"yes","status":"operational","color":"#E54848","dataOrigin":"datum-2026-08-01","sourceKey":"way:1052659286"}},{"type":"Feature","geometry":{"type":"LineString","coordinates":[[111.86504975874023,22.0],[111.8645743,21.9972493],[111.8641822,21.9946585],[111.8638457,21.9923378]]},"properties":{"key":"way:1052659287@detail:447_87","osmType":"way","osmId":1052659287,"sourceRegion":"guangdong","featureType":"infrastructure","railClass":"highspeed","mode":"rail","name":"广湛高速线","nameEn":"Guangzhou-Zhanjiang Railway","usage":"main","highspeed":"yes","status":"operational","color":"#E54848","dataOrigin":"datum-2026-08-01","sourceKey":"way:1052659287"}},{"type":"Feature","geometry":{"type":"LineString","coordinates":[[111.8625869,21.9826466],[111.8622229,21.9800494]]},"properties":{"key":"way:1052659288@detail:447_87","osmType":"way","osmId":1052659288,"sourceRegion":"guangdong","featureType":"infrastructure","railClass":"highspeed","mode":"rail","name":"广湛高速线","nameEn":"Guangzhou-Zhanjiang Railway","usage":"main","highspeed":"yes","bridge":"yes","status":"operational","color":"#E54848","dataOrigin":"datum-2026-08-01","sourceKey":"way:1052659288"}},{"type":"Feature","geometry":{"type":"LineString","coordinates":[[111.8601636,21.7914834],[111.8600708,21.7921468]]},"properties":{"key":"way:1073176471@detail:447_87","osmType":"way","osmId":1073176471,"sourceRegion":"guangdong","featureType":"infrastructure","railClass":"national","mode":"rail","name":"阳阳铁路","usage":"branch","bridge":"yes","status":"operational","color":"#E54848","dataOrigin":"datum-2026-08-01","sourceKey":"way:1073176471"}},{"type":"Feature","geometry":{"type":"LineString","coordinates":[[111.8600708,21.7921468],[111.8599284,21.7931654],[111.8597755,21.7942488],[111.8597299,21.7947967],[111.8597192,21.7953571],[111.8597567,21.7959498],[111.8598425,21.7963931],[111.8599713,21.7968837],[111.8601269,21.7974491],[111.8604219,21.7981215],[111.860894,21.799033],[111.861535,21.800181],[111.8617147,21.800572],[111.8619212,21.8010726],[111.8621868,21.8019094],[111.8624888,21.8029653],[111.8627447,21.8040318],[111.8629817,21.8054205]]},"properties":{"key":"way:1073176472@detail:447_87","osmType":"way","osmId":1073176472,"sourceRegion":"guangdong","featureType":"infrastructure","railClass":"national","mode":"rail","name":"阳阳铁路","usage":"branch","status":"operational","color":"#E54848","dataOrigin":"datum-2026-08-01","sourceKey":"way:1073176472"}},{"type":"Feature","geometry":{"type":"LineString","coordinates":[[111.8636096,21.9905772],[111.8625869,21.9826466]]},"properties":{"key":"way:1249472576@detail:447_87","osmType":"way","osmId":1249472576,"sourceRegion":"guangdong","featureType":"infrastructure","railClass":"highspeed","mode":"rail","name":"广湛高速线","nameEn":"Guangzhou-Zhanjiang Railway","usage":"main","highspeed":"yes","status":"operational","color":"#E54848","dataOrigin":"datum-2026-08-01","sourceKey":"way:1249472576"}},{"type":"Feature","geometry":{"type":"LineString","coordinates":[[111.8638457,21.9923378],[111.8636096,21.9905772]]},"properties":{"key":"way:1249472577@detail:447_87","osmType":"way","osmId":1249472577,"sourceRegion":"guangdong","featureType":"infrastructure","railClass":"highspeed","mode":"rail","name":"广湛高速线","nameEn":"Guangzhou-Zhanjiang Railway","usage":"main","highspeed":"yes","bridge":"yes","status":"operational","color":"#E54848","dataOrigin":"datum-2026-08-01","sourceKey":"way:1249472577"}},{"type":"Feature","geometry":{"type":"LineString","coordinates":[[111.8620305,21.9789335],[111.8618712,21.9780699]]},"properties":{"key":"way:1249472578@detail:447_87","osmType":"way","osmId":1249472578,"sourceRegion":"guangdong","featureType":"infrastructure","railClass":"highspeed","mode":"rail","name":"广湛高速线","nameEn":"Guangzhou-Zhanjiang Railway","usage":"main","highspeed":"yes","bridge":"yes","status":"operational","color":"#E54848","dataOrigin":"datum-2026-08-01","sourceKey":"way:1249472578"}},{"type":"Feature","geometry":{"type":"LineString","coordinates":[[111.8622229,21.9800494],[111.8620305,21.9789335]]},"properties":{"key":"way:1249472579@detail:447_87","osmType":"way","osmId":1249472579,"sourceRegion":"guangdong","featureType":"infrastructure","railClass":"highspeed","mode":"rail","name":"广湛高速线","nameEn":"Guangzhou-Zhanjiang Railway","usage":"main","highspeed":"yes","status":"operational","color":"#E54848","dataOrigin":"datum-2026-08-01","sourceKey":"way:1249472579"}},{"type":"Feature","geometry":{"type":"LineString","coordinates":[[111.8618712,21.9780699],[111.8614919,21.9761218]]},"properties":{"key":"way:1249472580@detail:447_87","osmType":"way","osmId":1249472580,"sourceRegion":"guangdong","featureType":"infrastructure","railClass":"highspeed","mode":"rail","name":"广湛高速线","nameEn":"Guangzhou-Zhanjiang Railway","usage":"main","highspeed":"yes","status":"operational","color":"#E54848","dataOrigin":"datum-2026-08-01","sourceKey":"way:1249472580"}},{"type":"Feature","geometry":{"type":"LineString","coordinates":[[111.8614919,21.9761218],[111.8612789,21.9751347]]},"properties":{"key":"way:1249472581@detail:447_87","osmType":"way","osmId":1249472581,"sourceRegion":"guangdong","featureType":"infrastructure","railClass":"highspeed","mode":"rail","name":"广湛高速线","nameEn":"Guangzhou-Zhanjiang Railway","usage":"main","highspeed":"yes","bridge":"yes","status":"operational","color":"#E54848","dataOrigin":"datum-2026-08-01","sourceKey":"way:1249472581"}},{"type":"Feature","geometry":{"type":"LineString","coordinates":[[111.8612789,21.9751347],[111.8609368,21.9735397]]},"properties":{"key":"way:1249472582@detail:447_87","osmType":"way","osmId":1249472582,"sourceRegion":"guangdong","featureType":"infrastructure","railClass":"highspeed","mode":"rail","name":"广湛高速线","nameEn":"Guangzhou-Zhanjiang Railway","usage":"main","highspeed":"yes","status":"operational","color":"#E54848","dataOrigin":"datum-2026-08-01","sourceKey":"way:1249472582"}},{"type":"Feature","geometry":{"type":"LineString","coordinates":[[111.8609368,21.9735397],[111.8607059,21.9725791]]},"properties":{"key":"way:1249472583@detail:447_87","osmType":"way","osmId":1249472583,"sourceRegion":"guangdong","featureType":"infrastructure","railClass":"highspeed","mode":"rail","name":"广湛高速线","nameEn":"Guangzhou-Zhanjiang Railway","usage":"main","highspeed":"yes","bridge":"yes","status":"operational","color":"#E54848","dataOrigin":"datum-2026-08-01","sourceKey":"way:1249472583"}},{"type":"Feature","geometry":{"type":"LineString","coordinates":[[111.8607059,21.9725791],[111.8602258,21.9707908]]},"properties":{"key":"way:1249472584@detail:447_87","osmType":"way","osmId":1249472584,"sourceRegion":"guangdong","featureType":"infrastructure","railClass":"highspeed","mode":"rail","name":"广湛高速线","nameEn":"Guangzhou-Zhanjiang Railway","usage":"main","highspeed":"yes","status":"operational","color":"#E54848","dataOrigin":"datum-2026-08-01","sourceKey":"way:1249472584"}},{"type":"Feature","geometry":{"type":"LineString","coordinates":[[111.8602258,21.9707908],[111.8599642,21.969886]]},"properties":{"key":"way:1249472585@detail:447_87","osmType":"way","osmId":1249472585,"sourceRegion":"guangdong","featureType":"infrastructure","railClass":"highspeed","mode":"rail","name":"广湛高速线","nameEn":"Guangzhou-Zhanjiang Railway","usage":"main","highspeed":"yes","bridge":"yes","status":"operational","color":"#E54848","dataOrigin":"datum-2026-08-01","sourceKey":"way:1249472585"}},{"type":"Feature","geometry":{"type":"LineString","coordinates":[[111.8599642,21.969886],[111.8589578,21.9666472]]},"properties":{"key":"way:1249472586@detail:447_87","osmType":"way","osmId":1249472586,"sourceRegion":"guangdong","featureType":"infrastructure","railClass":"highspeed","mode":"rail","name":"广湛高速线","nameEn":"Guangzhou-Zhanjiang Railway","usage":"main","highspeed":"yes","status":"operational","color":"#E54848","dataOrigin":"datum-2026-08-01","sourceKey":"way:1249472586"}},{"type":"Feature","geometry":{"type":"LineString","coordinates":[[111.8589578,21.9666472],[111.858558,21.9654609]]},"properties":{"key":"way:1249472587@detail:447_87","osmType":"way","osmId":1249472587,"sourceRegion":"guangdong","featureType":"infrastructure","railClass":"highspeed","mode":"rail","name":"广湛高速线","nameEn":"Guangzhou-Zhanjiang Railway","usage":"main","highspeed":"yes","bridge":"yes","status":"operational","color":"#E54848","dataOrigin":"datum-2026-08-01","sourceKey":"way:1249472587"}},{"type":"Feature","geometry":{"type":"LineString","coordinates":[[111.8000429,21.8782758],[111.7987609,21.8772978]]},"properties":{"key":"way:1249472588@detail:447_87","osmType":"way","osmId":1249472588,"sourceRegion":"guangdong","featureType":"infrastructure","railClass":"highspeed","mode":"rail","name":"广湛高速线","nameEn":"Guangzhou-Zhanjiang Railway","usage":"main","highspeed":"yes","status":"operational","color":"#E54848","dataOrigin":"datum-2026-08-01","sourceKey":"way:1249472588"}},{"type":"Feature","geometry":{"type":"LineString","coordinates":[[111.7970582,21.8761025],[111.7951451,21.8748037],[111.7938173,21.8739622]]},"properties":{"key":"way:1249472589@detail:447_87","osmType":"way","osmId":1249472589,"sourceRegion":"guangdong","featureType":"infrastructure","railClass":"highspeed","mode":"rail","name":"广湛高速线","nameEn":"Guangzhou-Zhanjiang Railway","usage":"main","highspeed":"yes","status":"operational","color":"#E54848","dataOrigin":"datum-2026-08-01","sourceKey":"way:1249472589"}},{"type":"Feature","geometry":{"type":"LineString","coordinates":[[111.7868949,21.8700806],[111.7834121,21.8683183]]},"properties":{"key":"way:1249472590@detail:447_87","osmType":"way","osmId":1249472590,"sourceRegion":"guangdong","featureType":"infrastructure","railClass":"highspeed","mode":"rail","name":"广湛高速线","nameEn":"Guangzhou-Zhanjiang Railway","usage":"main","highspeed":"yes","status":"operational","color":"#E54848","dataOrigin":"datum-2026-08-01","sourceKey":"way:1249472590"}},{"type":"Feature","geometry":{"type":"LineString","coordinates":[[111.7710177,21.8617613],[111.7696541,21.8608935],[111.7679596,21.8597667],[111.7661157,21.8584681]]},"properties":{"key":"way:1249472591@detail:447_87","osmType":"way","osmId":1249472591,"sourceRegion":"guangdong","featureType":"infrastructure","railClass":"highspeed","mode":"rail","name":"广湛高速线","nameEn":"Guangzhou-Zhanjiang Railway","usage":"main","highspeed":"yes","status":"operational","color":"#E54848","dataOrigin":"datum-2026-08-01","sourceKey":"way:1249472591"}},{"type":"Feature","geometry":{"type":"LineString","coordinates":[[111.7727006,21.8627697],[111.7710177,21.8617613]]},"properties":{"key":"way:1249472592@detail:447_87","osmType":"way","osmId":1249472592,"sourceRegion":"guangdong","featureType":"infrastructure","railClass":"highspeed","mode":"rail","name":"广湛高速线","nameEn":"Guangzhou-Zhanjiang Railway","usage":"main","highspeed":"yes","bridge":"yes","status":"operational","color":"#E54848","dataOrigin":"datum-2026-08-01","sourceKey":"way:1249472592"}},{"type":"Feature","geometry":{"type":"LineString","coordinates":[[111.8767352,21.8666096],[111.8768013,21.8663405],[111.8768573,21.8658316],[111.8769694,21.8647345],[111.8771059,21.8635516],[111.8772034,21.8626445],[111.877279,21.8617556],[111.8773643,21.8609661],[111.877452,21.8601971],[111.8774959,21.8598487],[111.8775031,21.8594083]]},"properties":{"key":"way:1286531874@detail:447_87","osmType":"way","osmId":1286531874,"sourceRegion":"guangdong","featureType":"infrastructure","railClass":"minor","mode":"rail","name":"未命名","service":"yard","status":"operational","color":"#52636F","dataOrigin":"datum-2026-08-01","sourceKey":"way:1286531874"}},{"type":"Feature","geometry":{"type":"LineString","coordinates":[[111.8775435,21.8590187],[111.8774284,21.8594809],[111.8774179,21.859523],[111.8773033,21.8598827],[111.8772473,21.8601993],[111.8770499,21.8619659],[111.8769402,21.8630788],[111.8768427,21.8641464],[111.8767208,21.8651756],[111.8766935,21.8655579],[111.8766818,21.8657207],[111.8766767,21.8660758],[111.8766581,21.8673493]]},"properties":{"key":"way:1286531875@detail:447_87","osmType":"way","osmId":1286531875,"sourceRegion":"guangdong","featureType":"infrastructure","railClass":"minor","mode":"rail","name":"未命名","service":"yard","status":"operational","color":"#52636F","dataOrigin":"datum-2026-08-01","sourceKey":"way:1286531875"}},{"type":"Feature","geometry":{"type":"LineString","coordinates":[[111.8766767,21.8660758],[111.8767233,21.8655963],[111.8768427,21.8646011],[111.8769402,21.8636533],[111.8770328,21.8626106],[111.87714,21.8616085],[111.8772473,21.8606608],[111.8772936,21.8602039],[111.8773277,21.8600229],[111.8774284,21.8594809]]},"properties":{"key":"way:1286531876@detail:447_87","osmType":"way","osmId":1286531876,"sourceRegion":"guangdong","featureType":"infrastructure","railClass":"minor","mode":"rail","name":"未命名","service":"yard","status":"operational","color":"#52636F","dataOrigin":"datum-2026-08-01","sourceKey":"way:1286531876"}},{"type":"Feature","geometry":{"type":"LineString","coordinates":[[111.8767881,21.8605657],[111.8766345,21.8617125],[111.8765151,21.8628073],[111.8765273,21.8630448],[111.8766516,21.8641215],[111.8767052,21.8646734],[111.8766954,21.8648317],[111.8766833,21.8651665]]},"properties":{"key":"way:1286531877@detail:447_87","osmType":"way","osmId":1286531877,"sourceRegion":"guangdong","featureType":"infrastructure","railClass":"minor","mode":"rail","name":"未命名","service":"spur","status":"operational","color":"#52636F","dataOrigin":"datum-2026-08-01","sourceKey":"way:1286531877"}},{"type":"Feature","geometry":{"type":"LineString","coordinates":[[111.8747137,21.8607896],[111.8757593,21.8625562],[111.8763638,21.8635921],[111.8764686,21.8638274],[111.876527,21.8639744],[111.876566,21.8641259],[111.8765953,21.8642865],[111.8766833,21.8651665],[111.8766935,21.8655579]]},"properties":{"key":"way:1286531878@detail:447_87","osmType":"way","osmId":1286531878,"sourceRegion":"guangdong","featureType":"infrastructure","railClass":"minor","mode":"rail","name":"未命名","service":"spur","status":"operational","color":"#52636F","dataOrigin":"datum-2026-08-01","sourceKey":"way:1286531878"}},{"type":"Feature","geometry":{"type":"LineString","coordinates":[[111.85568416398283,21.75],[111.8555872,21.7518643],[111.8555678,21.752136],[111.8555676,21.7522258],[111.8554881,21.7542371],[111.8555173,21.7547647],[111.8556235,21.7555363],[111.8558208,21.7563923],[111.8560863,21.7570969],[111.8567214,21.7588636],[111.8582376,21.7628811],[111.8589367,21.7648608],[111.8606079,21.7694395],[111.860953,21.7704253],[111.8618542,21.7728813],[111.8620741,21.7736086],[111.862219,21.7745053],[111.8623316,21.7752625],[111.8623155,21.7761144],[111.8622726,21.7768268],[111.8618607,21.7797078],[111.860638,21.7882135],[111.8601636,21.7914834]]},"properties":{"key":"way:1349768991@detail:447_87","osmType":"way","osmId":1349768991,"sourceRegion":"guangdong","featureType":"infrastructure","railClass":"national","mode":"rail","name":"阳阳铁路","usage":"branch","status":"operational","color":"#E54848","dataOrigin":"datum-2026-08-01","sourceKey":"way:1349768991"}},{"type":"Feature","geometry":{"type":"LineString","coordinates":[[111.8275969,21.9066911],[111.8275984,21.9070782]]},"properties":{"key":"way:1424777788@detail:447_87","osmType":"way","osmId":1424777788,"sourceRegion":"guangdong","featureType":"infrastructure","railClass":"highspeed","mode":"rail","name":"广湛高铁 施工 联络线","status":"operational","color":"#E54848","dataOrigin":"datum-2026-08-01","sourceKey":"way:1424777788"}},{"type":"Feature","geometry":{"type":"LineString","coordinates":[[111.8277558,21.9086238],[111.8277473,21.9094975],[111.8277673,21.9099941],[111.8278474,21.9106474],[111.8282138,21.9113777],[111.8285127,21.9119659]]},"properties":{"key":"way:1424777789@detail:447_87","osmType":"way","osmId":1424777789,"sourceRegion":"guangdong","featureType":"infrastructure","railClass":"highspeed","mode":"rail","name":"广湛高铁 施工 联络线","bridge":"yes","status":"operational","color":"#E54848","dataOrigin":"datum-2026-08-01","sourceKey":"way:1424777789"}},{"type":"Feature","geometry":{"type":"LineString","coordinates":[[111.8280082,21.900413],[111.8276187,21.9010064],[111.8273774,21.9016634]]},"properties":{"key":"way:1424777790@detail:447_87","osmType":"way","osmId":1424777790,"sourceRegion":"guangdong","featureType":"infrastructure","railClass":"highspeed","mode":"rail","name":"广湛高铁 施工 联络线","status":"operational","color":"#E54848","dataOrigin":"datum-2026-08-01","sourceKey":"way:1424777790"}},{"type":"Feature","geometry":{"type":"LineString","coordinates":[[111.7597169,21.8534396],[111.7542992,21.8488118]]},"properties":{"key":"way:1425041145@detail:447_87","osmType":"way","osmId":1425041145,"sourceRegion":"guangdong","featureType":"infrastructure","railClass":"highspeed","mode":"rail","name":"广湛高速线","nameEn":"Guangzhou-Zhanjiang Railway","usage":"main","highspeed":"yes","bridge":"yes","status":"operational","color":"#E54848","dataOrigin":"datum-2026-08-01","sourceKey":"way:1425041145"}},{"type":"Feature","geometry":{"type":"LineString","coordinates":[[111.7622108,21.8554866],[111.7605006,21.8540795],[111.7597169,21.8534396]]},"properties":{"key":"way:1425041146@detail:447_87","osmType":"way","osmId":1425041146,"sourceRegion":"guangdong","featureType":"infrastructure","railClass":"highspeed","mode":"rail","name":"广湛高速线","nameEn":"Guangzhou-Zhanjiang Railway","usage":"main","highspeed":"yes","status":"operational","color":"#E54848","dataOrigin":"datum-2026-08-01","sourceKey":"way:1425041146"}},{"type":"Feature","geometry":{"type":"LineString","coordinates":[[111.8275984,21.9070782],[111.8277501,21.9075642],[111.827793,21.9080475],[111.8277558,21.9086238]]},"properties":{"key":"way:1428241584@detail:447_87","osmType":"way","osmId":1428241584,"sourceRegion":"guangdong","featureType":"infrastructure","railClass":"highspeed","mode":"rail","name":"广湛高铁 施工 联络线","status":"operational","color":"#E54848","dataOrigin":"datum-2026-08-01","sourceKey":"way:1428241584"}},{"type":"Feature","geometry":{"type":"LineString","coordinates":[[111.8550135,21.95706],[111.8541585,21.955393],[111.8533162,21.9538542],[111.852228,21.9519377],[111.8513626,21.9504504],[111.8340092,21.9212242]]},"properties":{"key":"way:1431721211@detail:447_87","osmType":"way","osmId":1431721211,"sourceRegion":"guangdong","featureType":"infrastructure","railClass":"highspeed","mode":"rail","name":"广湛高速线","nameEn":"Guangzhou-Zhanjiang Railway","usage":"main","highspeed":"yes","bridge":"yes","status":"operational","color":"#E54848","dataOrigin":"datum-2026-08-01","sourceKey":"way:1431721211"}},{"type":"Feature","geometry":{"type":"LineString","coordinates":[[111.7934368,21.8737886],[111.7918014,21.8728078]]},"properties":{"key":"way:1462282082@detail:447_87","osmType":"way","osmId":1462282082,"sourceRegion":"guangdong","featureType":"infrastructure","railClass":"highspeed","mode":"rail","name":"广湛高速线","nameEn":"Guangzhou-Zhanjiang Railway","usage":"main","highspeed":"yes","status":"operational","color":"#E54848","dataOrigin":"datum-2026-08-01","sourceKey":"way:1462282082"}},{"type":"Feature","geometry":{"type":"LineString","coordinates":[[111.7937824,21.8740045],[111.7934368,21.8737886]]},"properties":{"key":"way:1462282083@detail:447_87","osmType":"way","osmId":1462282083,"sourceRegion":"guangdong","featureType":"infrastructure","railClass":"highspeed","mode":"rail","name":"广湛高速线","nameEn":"Guangzhou-Zhanjiang Railway","usage":"main","highspeed":"yes","bridge":"yes","status":"operational","color":"#E54848","dataOrigin":"datum-2026-08-01","sourceKey":"way:1462282083"}},{"type":"Feature","geometry":{"type":"LineString","coordinates":[[111.793466,21.8737475],[111.7918289,21.8727657]]},"properties":{"key":"way:1462282084@detail:447_87","osmType":"way","osmId":1462282084,"sourceRegion":"guangdong","featureType":"infrastructure","railClass":"highspeed","mode":"rail","name":"广湛高速线","nameEn":"Guangzhou-Zhanjiang Railway","usage":"main","highspeed":"yes","status":"operational","color":"#E54848","dataOrigin":"datum-2026-08-01","sourceKey":"way:1462282084"}},{"type":"Feature","geometry":{"type":"LineString","coordinates":[[111.7938173,21.8739622],[111.793466,21.8737475]]},"properties":{"key":"way:1462282085@detail:447_87","osmType":"way","osmId":1462282085,"sourceRegion":"guangdong","featureType":"infrastructure","railClass":"highspeed","mode":"rail","name":"广湛高速线","nameEn":"Guangzhou-Zhanjiang Railway","usage":"main","highspeed":"yes","bridge":"yes","status":"operational","color":"#E54848","dataOrigin":"datum-2026-08-01","sourceKey":"way:1462282085"}},{"type":"Feature","geometry":{"type":"LineString","coordinates":[[111.8637931,21.9923441],[111.863557,21.9905831]]},"properties":{"key":"way:1462282094@detail:447_87","osmType":"way","osmId":1462282094,"sourceRegion":"guangdong","featureType":"infrastructure","railClass":"highspeed","mode":"rail","name":"广湛高速线","nameEn":"Guangzhou-Zhanjiang Railway","usage":"main","highspeed":"yes","bridge":"yes","status":"operational","color":"#E54848","dataOrigin":"datum-2026-08-01","sourceKey":"way:1462282094"}},{"type":"Feature","geometry":{"type":"LineString","coordinates":[[111.8649961062108,22.0],[111.8645219,21.9972566],[111.8641297,21.9946652],[111.8637931,21.9923441]]},"properties":{"key":"way:1462282105@detail:447_87","osmType":"way","osmId":1462282105,"sourceRegion":"guangdong","featureType":"infrastructure","railClass":"highspeed","mode":"rail","name":"广湛高速线","nameEn":"Guangzhou-Zhanjiang Railway","usage":"main","highspeed":"yes","status":"operational","color":"#E54848","dataOrigin":"datum-2026-08-01","sourceKey":"way:1462282105"}},{"type":"Feature","geometry":{"type":"LineString","coordinates":[[111.863557,21.9905831],[111.8625343,21.9826527]]},"properties":{"key":"way:1462282109@detail:447_87","osmType":"way","osmId":1462282109,"sourceRegion":"guangdong","featureType":"infrastructure","railClass":"highspeed","mode":"rail","name":"广湛高速线","nameEn":"Guangzhou-Zhanjiang Railway","usage":"main","highspeed":"yes","status":"operational","color":"#E54848","dataOrigin":"datum-2026-08-01","sourceKey":"way:1462282109"}},{"type":"Feature","geometry":{"type":"LineString","coordinates":[[111.8606543,21.9725904],[111.8601745,21.9708031]]},"properties":{"key":"way:1462282244@detail:447_87","osmType":"way","osmId":1462282244,"sourceRegion":"guangdong","featureType":"infrastructure","railClass":"highspeed","mode":"rail","name":"广湛高速线","nameEn":"Guangzhou-Zhanjiang Railway","usage":"main","highspeed":"yes","status":"operational","color":"#E54848","dataOrigin":"datum-2026-08-01","sourceKey":"way:1462282244"}},{"type":"Feature","geometry":{"type":"LineString","coordinates":[[111.8614397,21.9761305],[111.8612269,21.9751442]]},"properties":{"key":"way:1462282245@detail:447_87","osmType":"way","osmId":1462282245,"sourceRegion":"guangdong","featureType":"infrastructure","railClass":"highspeed","mode":"rail","name":"广湛高速线","nameEn":"Guangzhou-Zhanjiang Railway","usage":"main","highspeed":"yes","bridge":"yes","status":"operational","color":"#E54848","dataOrigin":"datum-2026-08-01","sourceKey":"way:1462282245"}},{"type":"Feature","geometry":{"type":"LineString","coordinates":[[111.8601745,21.9708031],[111.8599131,21.9698992]]},"properties":{"key":"way:1462282246@detail:447_87","osmType":"way","osmId":1462282246,"sourceRegion":"guangdong","featureType":"infrastructure","railClass":"highspeed","mode":"rail","name":"广湛高速线","nameEn":"Guangzhou-Zhanjiang Railway","usage":"main","highspeed":"yes","bridge":"yes","status":"operational","color":"#E54848","dataOrigin":"datum-2026-08-01","sourceKey":"way:1462282246"}},{"type":"Feature","geometry":{"type":"LineString","coordinates":[[111.8619782,21.9789415],[111.861819,21.9780783]]},"properties":{"key":"way:1462282247@detail:447_87","osmType":"way","osmId":1462282247,"sourceRegion":"guangdong","featureType":"infrastructure","railClass":"highspeed","mode":"rail","name":"广湛高速线","nameEn":"Guangzhou-Zhanjiang Railway","usage":"main","highspeed":"yes","bridge":"yes","status":"operational","color":"#E54848","dataOrigin":"datum-2026-08-01","sourceKey":"way:1462282247"}},{"type":"Feature","geometry":{"type":"LineString","coordinates":[[111.8585075,21.9654759],[111.8579486,21.9638995],[111.8573653,21.962387],[111.8566081,21.9606115],[111.8558251,21.9588425],[111.8549654,21.9570807]]},"properties":{"key":"way:1462282248@detail:447_87","osmType":"way","osmId":1462282248,"sourceRegion":"guangdong","featureType":"infrastructure","railClass":"highspeed","mode":"rail","name":"广湛高速线","nameEn":"Guangzhou-Zhanjiang Railway","usage":"main","highspeed":"yes","status":"operational","color":"#E54848","dataOrigin":"datum-2026-08-01","sourceKey":"way:1462282248"}},{"type":"Feature","geometry":{"type":"LineString","coordinates":[[111.8612269,21.9751442],[111.860885,21.9735502]]},"properties":{"key":"way:1462282249@detail:447_87","osmType":"way","osmId":1462282249,"sourceRegion":"guangdong","featureType":"infrastructure","railClass":"highspeed","mode":"rail","name":"广湛高速线","nameEn":"Guangzhou-Zhanjiang Railway","usage":"main","highspeed":"yes","status":"operational","color":"#E54848","dataOrigin":"datum-2026-08-01","sourceKey":"way:1462282249"}},{"type":"Feature","geometry":{"type":"LineString","coordinates":[[111.8599131,21.9698992],[111.858907,21.9666613]]},"properties":{"key":"way:1462282250@detail:447_87","osmType":"way","osmId":1462282250,"sourceRegion":"guangdong","featureType":"infrastructure","railClass":"highspeed","mode":"rail","name":"广湛高速线","nameEn":"Guangzhou-Zhanjiang Railway","usage":"main","highspeed":"yes","status":"operational","color":"#E54848","dataOrigin":"datum-2026-08-01","sourceKey":"way:1462282250"}},{"type":"Feature","geometry":{"type":"LineString","coordinates":[[111.8621704,21.9800564],[111.8619782,21.9789415]]},"properties":{"key":"way:1462282251@detail:447_87","osmType":"way","osmId":1462282251,"sourceRegion":"guangdong","featureType":"infrastructure","railClass":"highspeed","mode":"rail","name":"广湛高速线","nameEn":"Guangzhou-Zhanjiang Railway","usage":"main","highspeed":"yes","status":"operational","color":"#E54848","dataOrigin":"datum-2026-08-01","sourceKey":"way:1462282251"}},{"type":"Feature","geometry":{"type":"LineString","coordinates":[[111.860885,21.9735502],[111.8606543,21.9725904]]},"properties":{"key":"way:1462282252@detail:447_87","osmType":"way","osmId":1462282252,"sourceRegion":"guangdong","featureType":"infrastructure","railClass":"highspeed","mode":"rail","name":"广湛高速线","nameEn":"Guangzhou-Zhanjiang Railway","usage":"main","highspeed":"yes","bridge":"yes","status":"operational","color":"#E54848","dataOrigin":"datum-2026-08-01","sourceKey":"way:1462282252"}},{"type":"Feature","geometry":{"type":"LineString","coordinates":[[111.858907,21.9666613],[111.8585075,21.9654759]]},"properties":{"key":"way:1462282253@detail:447_87","osmType":"way","osmId":1462282253,"sourceRegion":"guangdong","featureType":"infrastructure","railClass":"highspeed","mode":"rail","name":"广湛高速线","nameEn":"Guangzhou-Zhanjiang Railway","usage":"main","highspeed":"yes","bridge":"yes","status":"operational","color":"#E54848","dataOrigin":"datum-2026-08-01","sourceKey":"way:1462282253"}},{"type":"Feature","geometry":{"type":"LineString","coordinates":[[111.8549654,21.9570807],[111.8541109,21.9554147],[111.8532691,21.9538768],[111.8521812,21.9519608],[111.8513161,21.9504739],[111.8339628,21.9212479]]},"properties":{"key":"way:1462282254@detail:447_87","osmType":"way","osmId":1462282254,"sourceRegion":"guangdong","featureType":"infrastructure","railClass":"highspeed","mode":"rail","name":"广湛高速线","nameEn":"Guangzhou-Zhanjiang Railway","usage":"main","highspeed":"yes","bridge":"yes","status":"operational","color":"#E54848","dataOrigin":"datum-2026-08-01","sourceKey":"way:1462282254"}},{"type":"Feature","geometry":{"type":"LineString","coordinates":[[111.8339628,21.9212479],[111.8284663,21.9119896],[111.8258171,21.907527],[111.824798,21.9059032],[111.8236804,21.9041023],[111.8224288,21.9021776],[111.8213317,21.9005671],[111.820138,21.8989345],[111.8187552,21.8971563],[111.8173489,21.8954782],[111.8160484,21.8940066],[111.814763,21.8925975],[111.8087497,21.8861128],[111.8073638,21.8846687],[111.8060765,21.8834397],[111.8046153,21.8821],[111.8032088,21.8808655],[111.8014204,21.8794073],[111.8000089,21.8783136]]},"properties":{"key":"way:1462282255@detail:447_87","osmType":"way","osmId":1462282255,"sourceRegion":"guangdong","featureType":"infrastructure","railClass":"highspeed","mode":"rail","name":"广湛高速线","nameEn":"Guangzhou-Zhanjiang Railway","usage":"main","highspeed":"yes","bridge":"yes","status":"operational","color":"#E54848","dataOrigin":"datum-2026-08-01","sourceKey":"way:1462282255"}},{"type":"Feature","geometry":{"type":"LineString","coordinates":[[111.861819,21.9780783],[111.8614397,21.9761305]]},"properties":{"key":"way:1462282256@detail:447_87","osmType":"way","osmId":1462282256,"sourceRegion":"guangdong","featureType":"infrastructure","railClass":"highspeed","mode":"rail","name":"广湛高速线","nameEn":"Guangzhou-Zhanjiang Railway","usage":"main","highspeed":"yes","status":"operational","color":"#E54848","dataOrigin":"datum-2026-08-01","sourceKey":"way:1462282256"}},{"type":"Feature","geometry":{"type":"LineString","coordinates":[[111.8625343,21.9826527],[111.8621704,21.9800564]]},"properties":{"key":"way:1462282257@detail:447_87","osmType":"way","osmId":1462282257,"sourceRegion":"guangdong","featureType":"infrastructure","railClass":"highspeed","mode":"rail","name":"广湛高速线","nameEn":"Guangzhou-Zhanjiang Railway","usage":"main","highspeed":"yes","bridge":"yes","status":"operational","color":"#E54848","dataOrigin":"datum-2026-08-01","sourceKey":"way:1462282257"}},{"type":"Feature","geometry":{"type":"LineString","coordinates":[[111.7918014,21.8728078],[111.786869,21.8701235]]},"properties":{"key":"way:1462282258@detail:447_87","osmType":"way","osmId":1462282258,"sourceRegion":"guangdong","featureType":"infrastructure","railClass":"highspeed","mode":"rail","name":"广湛高速线","nameEn":"Guangzhou-Zhanjiang Railway","usage":"main","highspeed":"yes","bridge":"yes","status":"operational","color":"#E54848","dataOrigin":"datum-2026-08-01","sourceKey":"way:1462282258"}},{"type":"Feature","geometry":{"type":"LineString","coordinates":[[111.7726726,21.8628115],[111.7709883,21.8618023]]},"properties":{"key":"way:1462282259@detail:447_87","osmType":"way","osmId":1462282259,"sourceRegion":"guangdong","featureType":"infrastructure","railClass":"highspeed","mode":"rail","name":"广湛高速线","nameEn":"Guangzhou-Zhanjiang Railway","usage":"main","highspeed":"yes","bridge":"yes","status":"operational","color":"#E54848","dataOrigin":"datum-2026-08-01","sourceKey":"way:1462282259"}},{"type":"Feature","geometry":{"type":"LineString","coordinates":[[111.7542633,21.848848],[111.75,21.84520608311949]]},"properties":{"key":"way:1462282260@detail:447_87","osmType":"way","osmId":1462282260,"sourceRegion":"guangdong","featureType":"infrastructure","railClass":"highspeed","mode":"rail","name":"广湛高速线","nameEn":"Guangzhou-Zhanjiang Railway","usage":"main","highspeed":"yes","status":"operational","color":"#E54848","dataOrigin":"datum-2026-08-01","sourceKey":"way:1462282260"}},{"type":"Feature","geometry":{"type":"LineString","coordinates":[[111.781778,21.8675997],[111.7833874,21.8683618]]},"properties":{"key":"way:1462282262@detail:447_87","osmType":"way","osmId":1462282262,"sourceRegion":"guangdong","featureType":"infrastructure","railClass":"highspeed","mode":"rail","name":"广湛高速线","nameEn":"Guangzhou-Zhanjiang Railway","usage":"main","highspeed":"yes","tunnel":"yes","status":"operational","color":"#E54848","dataOrigin":"datum-2026-08-01","sourceKey":"way:1462282262"}},{"type":"Feature","geometry":{"type":"LineString","coordinates":[[111.7596811,21.8534758],[111.7542633,21.848848]]},"properties":{"key":"way:1462282265@detail:447_87","osmType":"way","osmId":1462282265,"sourceRegion":"guangdong","featureType":"infrastructure","railClass":"highspeed","mode":"rail","name":"广湛高速线","nameEn":"Guangzhou-Zhanjiang Railway","usage":"main","highspeed":"yes","bridge":"yes","status":"operational","color":"#E54848","dataOrigin":"datum-2026-08-01","sourceKey":"way:1462282265"}},{"type":"Feature","geometry":{"type":"LineString","coordinates":[[111.786869,21.8701235],[111.7833874,21.8683618]]},"properties":{"key":"way:1462282267@detail:447_87","osmType":"way","osmId":1462282267,"sourceRegion":"guangdong","featureType":"infrastructure","railClass":"highspeed","mode":"rail","name":"广湛高速线","nameEn":"Guangzhou-Zhanjiang Railway","usage":"main","highspeed":"yes","status":"operational","color":"#E54848","dataOrigin":"datum-2026-08-01","sourceKey":"way:1462282267"}},{"type":"Feature","geometry":{"type":"LineString","coordinates":[[111.781778,21.8675997],[111.7801239,21.8668084],[111.7786273,21.8660692],[111.7770572,21.8652314],[111.7749662,21.86409],[111.7726726,21.8628115]]},"properties":{"key":"way:1462282269@detail:447_87","osmType":"way","osmId":1462282269,"sourceRegion":"guangdong","featureType":"infrastructure","railClass":"highspeed","mode":"rail","name":"广湛高速线","nameEn":"Guangzhou-Zhanjiang Railway","usage":"main","highspeed":"yes","status":"operational","color":"#E54848","dataOrigin":"datum-2026-08-01","sourceKey":"way:1462282269"}},{"type":"Feature","geometry":{"type":"LineString","coordinates":[[111.7621764,21.855524],[111.7604651,21.8541161],[111.7596811,21.8534758]]},"properties":{"key":"way:1462282270@detail:447_87","osmType":"way","osmId":1462282270,"sourceRegion":"guangdong","featureType":"infrastructure","railClass":"highspeed","mode":"rail","name":"广湛高速线","nameEn":"Guangzhou-Zhanjiang Railway","usage":"main","highspeed":"yes","status":"operational","color":"#E54848","dataOrigin":"datum-2026-08-01","sourceKey":"way:1462282270"}},{"type":"Feature","geometry":{"type":"LineString","coordinates":[[111.7709883,21.8618023],[111.7696237,21.8609338],[111.7679281,21.8598063],[111.7660828,21.8585067]]},"properties":{"key":"way:1462282272@detail:447_87","osmType":"way","osmId":1462282272,"sourceRegion":"guangdong","featureType":"infrastructure","railClass":"highspeed","mode":"rail","name":"广湛高速线","nameEn":"Guangzhou-Zhanjiang Railway","usage":"main","highspeed":"yes","status":"operational","color":"#E54848","dataOrigin":"datum-2026-08-01","sourceKey":"way:1462282272"}},{"type":"Feature","geometry":{"type":"LineString","coordinates":[[111.7660828,21.8585067],[111.7621764,21.855524]]},"properties":{"key":"way:1462282274@detail:447_87","osmType":"way","osmId":1462282274,"sourceRegion":"guangdong","featureType":"infrastructure","railClass":"highspeed","mode":"rail","name":"广湛高速线","nameEn":"Guangzhou-Zhanjiang Railway","usage":"main","highspeed":"yes","tunnel":"yes","status":"operational","color":"#E54848","dataOrigin":"datum-2026-08-01","sourceKey":"way:1462282274"}},{"type":"Feature","geometry":{"type":"LineString","coordinates":[[111.8000089,21.8783136],[111.7987278,21.8773362]]},"properties":{"key":"way:1462282277@detail:447_87","osmType":"way","osmId":1462282277,"sourceRegion":"guangdong","featureType":"infrastructure","railClass":"highspeed","mode":"rail","name":"广湛高速线","nameEn":"Guangzhou-Zhanjiang Railway","usage":"main","highspeed":"yes","status":"operational","color":"#E54848","dataOrigin":"datum-2026-08-01","sourceKey":"way:1462282277"}},{"type":"Feature","geometry":{"type":"LineString","coordinates":[[111.7987278,21.8773362],[111.7970267,21.876142]]},"properties":{"key":"way:1462282278@detail:447_87","osmType":"way","osmId":1462282278,"sourceRegion":"guangdong","featureType":"infrastructure","railClass":"highspeed","mode":"rail","name":"广湛高速线","nameEn":"Guangzhou-Zhanjiang Railway","usage":"main","highspeed":"yes","tunnel":"yes","status":"operational","color":"#E54848","dataOrigin":"datum-2026-08-01","sourceKey":"way:1462282278"}},{"type":"Feature","geometry":{"type":"LineString","coordinates":[[111.7970267,21.876142],[111.7951149,21.8748441],[111.7937824,21.8740045]]},"properties":{"key":"way:1462282279@detail:447_87","osmType":"way","osmId":1462282279,"sourceRegion":"guangdong","featureType":"infrastructure","railClass":"highspeed","mode":"rail","name":"广湛高速线","nameEn":"Guangzhou-Zhanjiang Railway","usage":"main","highspeed":"yes","status":"operational","color":"#E54848","dataOrigin":"datum-2026-08-01","sourceKey":"way:1462282279"}},{"type":"Feature","geometry":{"type":"LineString","coordinates":[[111.8779432,21.8529995],[111.8780116,21.8534469]]},"properties":{"key":"way:1491180652@detail:447_87","osmType":"way","osmId":1491180652,"sourceRegion":"guangdong","featureType":"infrastructure","railClass":"national","mode":"rail","name":"阳阳铁路","usage":"branch","status":"operational","color":"#E54848","dataOrigin":"datum-2026-08-01","sourceKey":"way:1491180652"}},{"type":"Feature","geometry":{"type":"LineString","coordinates":[[111.8780116,21.8534469],[111.878027,21.8537129]]},"properties":{"key":"way:1491180653@detail:447_87","osmType":"way","osmId":1491180653,"sourceRegion":"guangdong","featureType":"infrastructure","railClass":"national","mode":"rail","name":"阳阳铁路","usage":"branch","bridge":"yes","status":"operational","color":"#E54848","dataOrigin":"datum-2026-08-01","sourceKey":"way:1491180653"}}]}