{"type":"FeatureCollection","features":[{"type":"Feature","geometry":{"type":"Point","coordinates":[111.7830157,23.121775]},"properties":{"key":"node:4346644640","osmType":"node","osmId":4346644640,"sourceRegion":"guangdong","featureType":"station","railClass":"minor","mode":"station","name":"南江口","nameEn":"Nanjiangkou","status":"operational","color":"#52636F","dataOrigin":"datum-2026-08-01","sourceKey":"node:4346644640","stationGroup":"南江口","hasOperationalRail":true,"hasConstructionRail":false}},{"type":"Feature","geometry":{"type":"LineString","coordinates":[[111.7712384,23.1213821],[111.774838,23.1215252]]},"properties":{"key":"way:516917752@detail:447_92","osmType":"way","osmId":516917752,"sourceRegion":"guangdong","featureType":"infrastructure","railClass":"highspeed","mode":"rail","name":"南广线","nameEn":"Nanguang Line","ref":"3029","usage":"main","highspeed":"yes","tunnel":"yes","status":"operational","color":"#E54848","dataOrigin":"datum-2026-08-01","sourceKey":"way:516917752"}},{"type":"Feature","geometry":{"type":"LineString","coordinates":[[111.7703533,23.121313],[111.7712384,23.1213821]]},"properties":{"key":"way:516917753@detail:447_92","osmType":"way","osmId":516917753,"sourceRegion":"guangdong","featureType":"infrastructure","railClass":"highspeed","mode":"rail","name":"南广线","nameEn":"Nanguang Line","ref":"3029","usage":"main","highspeed":"yes","status":"operational","color":"#E54848","dataOrigin":"datum-2026-08-01","sourceKey":"way:516917753"}},{"type":"Feature","geometry":{"type":"LineString","coordinates":[[111.7684543,23.1212193],[111.7703533,23.121313]]},"properties":{"key":"way:516917754@detail:447_92","osmType":"way","osmId":516917754,"sourceRegion":"guangdong","featureType":"infrastructure","railClass":"highspeed","mode":"rail","name":"南广线","nameEn":"Nanguang Line","ref":"3029","usage":"main","highspeed":"yes","tunnel":"yes","status":"operational","color":"#E54848","dataOrigin":"datum-2026-08-01","sourceKey":"way:516917754"}},{"type":"Feature","geometry":{"type":"LineString","coordinates":[[111.7672795,23.1211897],[111.7684543,23.1212193]]},"properties":{"key":"way:516917755@detail:447_92","osmType":"way","osmId":516917755,"sourceRegion":"guangdong","featureType":"infrastructure","railClass":"highspeed","mode":"rail","name":"南广线","nameEn":"Nanguang Line","ref":"3029","usage":"main","highspeed":"yes","bridge":"yes","status":"operational","color":"#E54848","dataOrigin":"datum-2026-08-01","sourceKey":"way:516917755"}},{"type":"Feature","geometry":{"type":"LineString","coordinates":[[111.7642647,23.1213525],[111.7672795,23.1211897]]},"properties":{"key":"way:516917756@detail:447_92","osmType":"way","osmId":516917756,"sourceRegion":"guangdong","featureType":"infrastructure","railClass":"highspeed","mode":"rail","name":"南广线","nameEn":"Nanguang Line","ref":"3029","usage":"main","highspeed":"yes","tunnel":"yes","status":"operational","color":"#E54848","dataOrigin":"datum-2026-08-01","sourceKey":"way:516917756"}},{"type":"Feature","geometry":{"type":"LineString","coordinates":[[111.7587194,23.1218773],[111.7596888,23.1216929],[111.7618078,23.1215252],[111.7642647,23.1213525]]},"properties":{"key":"way:516917757@detail:447_92","osmType":"way","osmId":516917757,"sourceRegion":"guangdong","featureType":"infrastructure","railClass":"highspeed","mode":"rail","name":"南广线","nameEn":"Nanguang Line","ref":"3029","usage":"main","highspeed":"yes","bridge":"yes","status":"operational","color":"#E54848","dataOrigin":"datum-2026-08-01","sourceKey":"way:516917757"}},{"type":"Feature","geometry":{"type":"LineString","coordinates":[[111.753096,23.1231236],[111.7536968,23.1229953]]},"properties":{"key":"way:516917758@detail:447_92","osmType":"way","osmId":516917758,"sourceRegion":"guangdong","featureType":"infrastructure","railClass":"highspeed","mode":"rail","name":"南广线","nameEn":"Nanguang Line","ref":"3029","usage":"main","highspeed":"yes","status":"operational","color":"#E54848","dataOrigin":"datum-2026-08-01","sourceKey":"way:516917758"}},{"type":"Feature","geometry":{"type":"LineString","coordinates":[[111.75,23.1241264310096],[111.753096,23.1231236]]},"properties":{"key":"way:516917759@detail:447_92","osmType":"way","osmId":516917759,"sourceRegion":"guangdong","featureType":"infrastructure","railClass":"highspeed","mode":"rail","name":"南广线","nameEn":"Nanguang Line","ref":"3029","usage":"main","highspeed":"yes","tunnel":"yes","status":"operational","color":"#E54848","dataOrigin":"datum-2026-08-01","sourceKey":"way:516917759"}},{"type":"Feature","geometry":{"type":"LineString","coordinates":[[111.774838,23.1215252],[111.776309,23.1215562],[111.7767048,23.1215646],[111.7775527,23.1215967],[111.779631,23.1216755],[111.7879865,23.1220236],[111.7894143,23.1220696],[111.7935184,23.1222018]]},"properties":{"key":"way:516917767@detail:447_92","osmType":"way","osmId":516917767,"sourceRegion":"guangdong","featureType":"infrastructure","railClass":"highspeed","mode":"rail","name":"南广线","nameEn":"Nanguang Line","ref":"3029","usage":"main","highspeed":"yes","status":"operational","color":"#E54848","dataOrigin":"datum-2026-08-01","sourceKey":"way:516917767"}},{"type":"Feature","geometry":{"type":"LineString","coordinates":[[111.7935184,23.1222018],[111.7978957,23.1223794],[111.8023375,23.122261],[111.8065754,23.1217923]]},"properties":{"key":"way:516917768@detail:447_92","osmType":"way","osmId":516917768,"sourceRegion":"guangdong","featureType":"infrastructure","railClass":"highspeed","mode":"rail","name":"南广线","nameEn":"Nanguang Line","ref":"3029","usage":"main","highspeed":"yes","tunnel":"yes","status":"operational","color":"#E54848","dataOrigin":"datum-2026-08-01","sourceKey":"way:516917768"}},{"type":"Feature","geometry":{"type":"LineString","coordinates":[[111.8126264,23.12085],[111.8143645,23.1206132]]},"properties":{"key":"way:516917769@detail:447_92","osmType":"way","osmId":516917769,"sourceRegion":"guangdong","featureType":"infrastructure","railClass":"highspeed","mode":"rail","name":"南广线","nameEn":"Nanguang Line","ref":"3029","usage":"main","highspeed":"yes","bridge":"yes","status":"operational","color":"#E54848","dataOrigin":"datum-2026-08-01","sourceKey":"way:516917769"}},{"type":"Feature","geometry":{"type":"LineString","coordinates":[[111.8143645,23.1206132],[111.8180231,23.120258]]},"properties":{"key":"way:516917770@detail:447_92","osmType":"way","osmId":516917770,"sourceRegion":"guangdong","featureType":"infrastructure","railClass":"highspeed","mode":"rail","name":"南广线","nameEn":"Nanguang Line","ref":"3029","usage":"main","highspeed":"yes","tunnel":"yes","status":"operational","color":"#E54848","dataOrigin":"datum-2026-08-01","sourceKey":"way:516917770"}},{"type":"Feature","geometry":{"type":"LineString","coordinates":[[111.8180231,23.120258],[111.8188101,23.1202481]]},"properties":{"key":"way:516917771@detail:447_92","osmType":"way","osmId":516917771,"sourceRegion":"guangdong","featureType":"infrastructure","railClass":"highspeed","mode":"rail","name":"南广线","nameEn":"Nanguang Line","ref":"3029","usage":"main","highspeed":"yes","status":"operational","color":"#E54848","dataOrigin":"datum-2026-08-01","sourceKey":"way:516917771"}},{"type":"Feature","geometry":{"type":"LineString","coordinates":[[111.8188101,23.1202481],[111.8204048,23.1202185],[111.8227047,23.1201905]]},"properties":{"key":"way:516917772@detail:447_92","osmType":"way","osmId":516917772,"sourceRegion":"guangdong","featureType":"infrastructure","railClass":"highspeed","mode":"rail","name":"南广线","nameEn":"Nanguang Line","ref":"3029","usage":"main","highspeed":"yes","tunnel":"yes","status":"operational","color":"#E54848","dataOrigin":"datum-2026-08-01","sourceKey":"way:516917772"}},{"type":"Feature","geometry":{"type":"LineString","coordinates":[[111.8227047,23.1201905],[111.8230601,23.1201635]]},"properties":{"key":"way:516917773@detail:447_92","osmType":"way","osmId":516917773,"sourceRegion":"guangdong","featureType":"infrastructure","railClass":"highspeed","mode":"rail","name":"南广线","nameEn":"Nanguang Line","ref":"3029","usage":"main","highspeed":"yes","status":"operational","color":"#E54848","dataOrigin":"datum-2026-08-01","sourceKey":"way:516917773"}},{"type":"Feature","geometry":{"type":"LineString","coordinates":[[111.8230601,23.1201635],[111.8270942,23.1201198]]},"properties":{"key":"way:516917774@detail:447_92","osmType":"way","osmId":516917774,"sourceRegion":"guangdong","featureType":"infrastructure","railClass":"highspeed","mode":"rail","name":"南广线","nameEn":"Nanguang Line","ref":"3029","usage":"main","highspeed":"yes","bridge":"yes","status":"operational","color":"#E54848","dataOrigin":"datum-2026-08-01","sourceKey":"way:516917774"}},{"type":"Feature","geometry":{"type":"LineString","coordinates":[[111.9923154,23.0563962],[111.9942278,23.0563219],[111.9966203,23.0563089],[111.9984111,23.0563479],[112.0,23.056378646210007]]},"properties":{"key":"way:516917775@detail:447_92","osmType":"way","osmId":516917775,"sourceRegion":"guangdong","featureType":"infrastructure","railClass":"highspeed","mode":"rail","name":"南广线","nameEn":"Nanguang Line","ref":"3029","usage":"main","highspeed":"yes","bridge":"yes","status":"operational","color":"#E54848","dataOrigin":"datum-2026-08-01","sourceKey":"way:516917775"}},{"type":"Feature","geometry":{"type":"LineString","coordinates":[[111.9901028,23.0565605],[111.9923154,23.0563962]]},"properties":{"key":"way:549412186@detail:447_92","osmType":"way","osmId":549412186,"sourceRegion":"guangdong","featureType":"infrastructure","railClass":"highspeed","mode":"rail","name":"南广线","nameEn":"Nanguang Line","ref":"3029","usage":"main","highspeed":"yes","status":"operational","color":"#E54848","dataOrigin":"datum-2026-08-01","sourceKey":"way:549412186"}},{"type":"Feature","geometry":{"type":"LineString","coordinates":[[111.9861224,23.0570047],[111.9868192,23.0569117]]},"properties":{"key":"way:549412189@detail:447_92","osmType":"way","osmId":549412189,"sourceRegion":"guangdong","featureType":"infrastructure","railClass":"highspeed","mode":"rail","name":"南广线","nameEn":"Nanguang Line","ref":"3029","usage":"main","highspeed":"yes","status":"operational","color":"#E54848","dataOrigin":"datum-2026-08-01","sourceKey":"way:549412189"}},{"type":"Feature","geometry":{"type":"LineString","coordinates":[[111.9868192,23.0569117],[111.9901028,23.0565605]]},"properties":{"key":"way:549412193@detail:447_92","osmType":"way","osmId":549412193,"sourceRegion":"guangdong","featureType":"infrastructure","railClass":"highspeed","mode":"rail","name":"南广线","nameEn":"Nanguang Line","ref":"3029","usage":"main","highspeed":"yes","bridge":"yes","status":"operational","color":"#E54848","dataOrigin":"datum-2026-08-01","sourceKey":"way:549412193"}},{"type":"Feature","geometry":{"type":"LineString","coordinates":[[111.9805019,23.0581207],[111.9809192,23.0580379]]},"properties":{"key":"way:549412197@detail:447_92","osmType":"way","osmId":549412197,"sourceRegion":"guangdong","featureType":"infrastructure","railClass":"highspeed","mode":"rail","name":"南广线","nameEn":"Nanguang Line","ref":"3029","usage":"main","highspeed":"yes","status":"operational","color":"#E54848","dataOrigin":"datum-2026-08-01","sourceKey":"way:549412197"}},{"type":"Feature","geometry":{"type":"LineString","coordinates":[[111.978521,23.058673],[111.9805019,23.0581207]]},"properties":{"key":"way:549412200@detail:447_92","osmType":"way","osmId":549412200,"sourceRegion":"guangdong","featureType":"infrastructure","railClass":"highspeed","mode":"rail","name":"南广线","nameEn":"Nanguang Line","ref":"3029","usage":"main","highspeed":"yes","tunnel":"yes","status":"operational","color":"#E54848","dataOrigin":"datum-2026-08-01","sourceKey":"way:549412200"}},{"type":"Feature","geometry":{"type":"LineString","coordinates":[[111.9809192,23.0580379],[111.9833207,23.0575222],[111.9861224,23.0570047]]},"properties":{"key":"way:549412202@detail:447_92","osmType":"way","osmId":549412202,"sourceRegion":"guangdong","featureType":"infrastructure","railClass":"highspeed","mode":"rail","name":"南广线","nameEn":"Nanguang Line","ref":"3029","usage":"main","highspeed":"yes","tunnel":"yes","status":"operational","color":"#E54848","dataOrigin":"datum-2026-08-01","sourceKey":"way:549412202"}},{"type":"Feature","geometry":{"type":"LineString","coordinates":[[111.9769224,23.059132],[111.978521,23.058673]]},"properties":{"key":"way:549412205@detail:447_92","osmType":"way","osmId":549412205,"sourceRegion":"guangdong","featureType":"infrastructure","railClass":"highspeed","mode":"rail","name":"南广线","nameEn":"Nanguang Line","ref":"3029","usage":"main","highspeed":"yes","status":"operational","color":"#E54848","dataOrigin":"datum-2026-08-01","sourceKey":"way:549412205"}},{"type":"Feature","geometry":{"type":"LineString","coordinates":[[111.967127,23.0633521],[111.9700599,23.0618657],[111.9738149,23.0602863],[111.9769224,23.059132]]},"properties":{"key":"way:549412208@detail:447_92","osmType":"way","osmId":549412208,"sourceRegion":"guangdong","featureType":"infrastructure","railClass":"highspeed","mode":"rail","name":"南广线","nameEn":"Nanguang Line","ref":"3029","usage":"main","highspeed":"yes","tunnel":"yes","status":"operational","color":"#E54848","dataOrigin":"datum-2026-08-01","sourceKey":"way:549412208"}},{"type":"Feature","geometry":{"type":"LineString","coordinates":[[111.9656518,23.0641418],[111.9658783,23.0640004]]},"properties":{"key":"way:549412212@detail:447_92","osmType":"way","osmId":549412212,"sourceRegion":"guangdong","featureType":"infrastructure","railClass":"highspeed","mode":"rail","name":"南广线","nameEn":"Nanguang Line","ref":"3029","usage":"main","highspeed":"yes","status":"operational","color":"#E54848","dataOrigin":"datum-2026-08-01","sourceKey":"way:549412212"}},{"type":"Feature","geometry":{"type":"LineString","coordinates":[[111.9658783,23.0640004],[111.967127,23.0633521]]},"properties":{"key":"way:549412215@detail:447_92","osmType":"way","osmId":549412215,"sourceRegion":"guangdong","featureType":"infrastructure","railClass":"highspeed","mode":"rail","name":"南广线","nameEn":"Nanguang Line","ref":"3029","usage":"main","highspeed":"yes","bridge":"yes","status":"operational","color":"#E54848","dataOrigin":"datum-2026-08-01","sourceKey":"way:549412215"}},{"type":"Feature","geometry":{"type":"LineString","coordinates":[[111.9629106,23.0659334],[111.9656518,23.0641418]]},"properties":{"key":"way:549412219@detail:447_92","osmType":"way","osmId":549412219,"sourceRegion":"guangdong","featureType":"infrastructure","railClass":"highspeed","mode":"rail","name":"南广线","nameEn":"Nanguang Line","ref":"3029","usage":"main","highspeed":"yes","tunnel":"yes","status":"operational","color":"#E54848","dataOrigin":"datum-2026-08-01","sourceKey":"way:549412219"}},{"type":"Feature","geometry":{"type":"LineString","coordinates":[[111.9621971,23.0663628],[111.96255,23.0661574]]},"properties":{"key":"way:549412223@detail:447_92","osmType":"way","osmId":549412223,"sourceRegion":"guangdong","featureType":"infrastructure","railClass":"highspeed","mode":"rail","name":"南广线","nameEn":"Nanguang Line","ref":"3029","usage":"main","highspeed":"yes","status":"operational","color":"#E54848","dataOrigin":"datum-2026-08-01","sourceKey":"way:549412223"}},{"type":"Feature","geometry":{"type":"LineString","coordinates":[[111.925145,23.0888275],[111.9311527,23.0850157],[111.9394093,23.0781913],[111.9621971,23.0663628]]},"properties":{"key":"way:549412226@detail:447_92","osmType":"way","osmId":549412226,"sourceRegion":"guangdong","featureType":"infrastructure","railClass":"highspeed","mode":"rail","name":"南广线","nameEn":"Nanguang Line","ref":"3029","usage":"main","highspeed":"yes","tunnel":"yes","status":"operational","color":"#E54848","dataOrigin":"datum-2026-08-01","sourceKey":"way:549412226"}},{"type":"Feature","geometry":{"type":"LineString","coordinates":[[111.9228652,23.0898737],[111.925145,23.0888275]]},"properties":{"key":"way:549412230@detail:447_92","osmType":"way","osmId":549412230,"sourceRegion":"guangdong","featureType":"infrastructure","railClass":"highspeed","mode":"rail","name":"南广线","nameEn":"Nanguang Line","ref":"3029","usage":"main","highspeed":"yes","status":"operational","color":"#E54848","dataOrigin":"datum-2026-08-01","sourceKey":"way:549412230"}},{"type":"Feature","geometry":{"type":"LineString","coordinates":[[111.9142607,23.0928147],[111.9194412,23.0910819],[111.9228652,23.0898737]]},"properties":{"key":"way:549412233@detail:447_92","osmType":"way","osmId":549412233,"sourceRegion":"guangdong","featureType":"infrastructure","railClass":"highspeed","mode":"rail","name":"南广线","nameEn":"Nanguang Line","ref":"3029","usage":"main","highspeed":"yes","tunnel":"yes","status":"operational","color":"#E54848","dataOrigin":"datum-2026-08-01","sourceKey":"way:549412233"}},{"type":"Feature","geometry":{"type":"LineString","coordinates":[[111.9107094,23.0939398],[111.9121583,23.0934808]]},"properties":{"key":"way:549412237@detail:447_92","osmType":"way","osmId":549412237,"sourceRegion":"guangdong","featureType":"infrastructure","railClass":"highspeed","mode":"rail","name":"南广线","nameEn":"Nanguang Line","ref":"3029","usage":"main","highspeed":"yes","status":"operational","color":"#E54848","dataOrigin":"datum-2026-08-01","sourceKey":"way:549412237"}},{"type":"Feature","geometry":{"type":"LineString","coordinates":[[111.9121583,23.0934808],[111.9142607,23.0928147]]},"properties":{"key":"way:549412240@detail:447_92","osmType":"way","osmId":549412240,"sourceRegion":"guangdong","featureType":"infrastructure","railClass":"highspeed","mode":"rail","name":"南广线","nameEn":"Nanguang Line","ref":"3029","usage":"main","highspeed":"yes","bridge":"yes","status":"operational","color":"#E54848","dataOrigin":"datum-2026-08-01","sourceKey":"way:549412240"}},{"type":"Feature","geometry":{"type":"LineString","coordinates":[[111.8756154,23.1076718],[111.878972,23.1068324],[111.8863535,23.1043653],[111.8951511,23.1008127],[111.9021033,23.09726],[111.9107094,23.0939398]]},"properties":{"key":"way:549412244@detail:447_92","osmType":"way","osmId":549412244,"sourceRegion":"guangdong","featureType":"infrastructure","railClass":"highspeed","mode":"rail","name":"南广线","nameEn":"Nanguang Line","ref":"3029","usage":"main","highspeed":"yes","tunnel":"yes","status":"operational","color":"#E54848","dataOrigin":"datum-2026-08-01","sourceKey":"way:549412244"}},{"type":"Feature","geometry":{"type":"LineString","coordinates":[[111.8671504,23.1094727],[111.8750361,23.1077902]]},"properties":{"key":"way:549412247@detail:447_92","osmType":"way","osmId":549412247,"sourceRegion":"guangdong","featureType":"infrastructure","railClass":"highspeed","mode":"rail","name":"南广线","nameEn":"Nanguang Line","ref":"3029","usage":"main","highspeed":"yes","tunnel":"yes","status":"operational","color":"#E54848","dataOrigin":"datum-2026-08-01","sourceKey":"way:549412247"}},{"type":"Feature","geometry":{"type":"LineString","coordinates":[[111.8750361,23.1077902],[111.8756154,23.1076718]]},"properties":{"key":"way:549412251@detail:447_92","osmType":"way","osmId":549412251,"sourceRegion":"guangdong","featureType":"infrastructure","railClass":"highspeed","mode":"rail","name":"南广线","nameEn":"Nanguang Line","ref":"3029","usage":"main","highspeed":"yes","status":"operational","color":"#E54848","dataOrigin":"datum-2026-08-01","sourceKey":"way:549412251"}},{"type":"Feature","geometry":{"type":"LineString","coordinates":[[111.8660345,23.109759],[111.8671504,23.1094727]]},"properties":{"key":"way:549412252@detail:447_92","osmType":"way","osmId":549412252,"sourceRegion":"guangdong","featureType":"infrastructure","railClass":"highspeed","mode":"rail","name":"南广线","nameEn":"Nanguang Line","ref":"3029","usage":"main","highspeed":"yes","status":"operational","color":"#E54848","dataOrigin":"datum-2026-08-01","sourceKey":"way:549412252"}},{"type":"Feature","geometry":{"type":"LineString","coordinates":[[111.8366697,23.1193206],[111.8400386,23.1183536],[111.8445661,23.116834],[111.8581581,23.1121413],[111.8660345,23.109759]]},"properties":{"key":"way:549412253@detail:447_92","osmType":"way","osmId":549412253,"sourceRegion":"guangdong","featureType":"infrastructure","railClass":"highspeed","mode":"rail","name":"南广线","nameEn":"Nanguang Line","ref":"3029","usage":"main","highspeed":"yes","tunnel":"yes","status":"operational","color":"#E54848","dataOrigin":"datum-2026-08-01","sourceKey":"way:549412253"}},{"type":"Feature","geometry":{"type":"LineString","coordinates":[[111.8354466,23.1195229],[111.8360352,23.1194432],[111.8366697,23.1193206]]},"properties":{"key":"way:549412254@detail:447_92","osmType":"way","osmId":549412254,"sourceRegion":"guangdong","featureType":"infrastructure","railClass":"highspeed","mode":"rail","name":"南广线","nameEn":"Nanguang Line","ref":"3029","usage":"main","highspeed":"yes","bridge":"yes","status":"operational","color":"#E54848","dataOrigin":"datum-2026-08-01","sourceKey":"way:549412254"}},{"type":"Feature","geometry":{"type":"LineString","coordinates":[[111.8304899,23.1200508],[111.83272,23.1198872],[111.8354466,23.1195229]]},"properties":{"key":"way:549412255@detail:447_92","osmType":"way","osmId":549412255,"sourceRegion":"guangdong","featureType":"infrastructure","railClass":"highspeed","mode":"rail","name":"南广线","nameEn":"Nanguang Line","ref":"3029","usage":"main","highspeed":"yes","tunnel":"yes","status":"operational","color":"#E54848","dataOrigin":"datum-2026-08-01","sourceKey":"way:549412255"}},{"type":"Feature","geometry":{"type":"LineString","coordinates":[[111.8270942,23.1201198],[111.8304899,23.1200508]]},"properties":{"key":"way:549412256@detail:447_92","osmType":"way","osmId":549412256,"sourceRegion":"guangdong","featureType":"infrastructure","railClass":"highspeed","mode":"rail","name":"南广线","nameEn":"Nanguang Line","ref":"3029","usage":"main","highspeed":"yes","status":"operational","color":"#E54848","dataOrigin":"datum-2026-08-01","sourceKey":"way:549412256"}},{"type":"Feature","geometry":{"type":"LineString","coordinates":[[111.8104071,23.1212003],[111.8126264,23.12085]]},"properties":{"key":"way:549412257@detail:447_92","osmType":"way","osmId":549412257,"sourceRegion":"guangdong","featureType":"infrastructure","railClass":"highspeed","mode":"rail","name":"南广线","nameEn":"Nanguang Line","ref":"3029","usage":"main","highspeed":"yes","status":"operational","color":"#E54848","dataOrigin":"datum-2026-08-01","sourceKey":"way:549412257"}},{"type":"Feature","geometry":{"type":"LineString","coordinates":[[111.8071171,23.1217105],[111.8094829,23.1213532],[111.8104071,23.1212003]]},"properties":{"key":"way:549412258@detail:447_92","osmType":"way","osmId":549412258,"sourceRegion":"guangdong","featureType":"infrastructure","railClass":"highspeed","mode":"rail","name":"南广线","nameEn":"Nanguang Line","ref":"3029","usage":"main","highspeed":"yes","bridge":"yes","status":"operational","color":"#E54848","dataOrigin":"datum-2026-08-01","sourceKey":"way:549412258"}},{"type":"Feature","geometry":{"type":"LineString","coordinates":[[111.8065754,23.1217923],[111.8071171,23.1217105]]},"properties":{"key":"way:549412259@detail:447_92","osmType":"way","osmId":549412259,"sourceRegion":"guangdong","featureType":"infrastructure","railClass":"highspeed","mode":"rail","name":"南广线","nameEn":"Nanguang Line","ref":"3029","usage":"main","highspeed":"yes","status":"operational","color":"#E54848","dataOrigin":"datum-2026-08-01","sourceKey":"way:549412259"}},{"type":"Feature","geometry":{"type":"LineString","coordinates":[[111.7570173,23.1222011],[111.7587194,23.1218773]]},"properties":{"key":"way:549412260@detail:447_92","osmType":"way","osmId":549412260,"sourceRegion":"guangdong","featureType":"infrastructure","railClass":"highspeed","mode":"rail","name":"南广线","nameEn":"Nanguang Line","ref":"3029","usage":"main","highspeed":"yes","status":"operational","color":"#E54848","dataOrigin":"datum-2026-08-01","sourceKey":"way:549412260"}},{"type":"Feature","geometry":{"type":"LineString","coordinates":[[111.7536968,23.1229953],[111.7570173,23.1222011]]},"properties":{"key":"way:549412261@detail:447_92","osmType":"way","osmId":549412261,"sourceRegion":"guangdong","featureType":"infrastructure","railClass":"highspeed","mode":"rail","name":"南广线","nameEn":"Nanguang Line","ref":"3029","usage":"main","highspeed":"yes","tunnel":"yes","status":"operational","color":"#E54848","dataOrigin":"datum-2026-08-01","sourceKey":"way:549412261"}},{"type":"Feature","geometry":{"type":"LineString","coordinates":[[111.7530768,23.123063],[111.75,23.12405958931397]]},"properties":{"key":"way:631439919@detail:447_92","osmType":"way","osmId":631439919,"sourceRegion":"guangdong","featureType":"infrastructure","railClass":"highspeed","mode":"rail","name":"南广线","nameEn":"Nanguang Line","ref":"3029","usage":"main","highspeed":"yes","tunnel":"yes","status":"operational","color":"#E54848","dataOrigin":"datum-2026-08-01","sourceKey":"way:631439919"}},{"type":"Feature","geometry":{"type":"LineString","coordinates":[[111.7536804,23.1229341],[111.7530768,23.123063]]},"properties":{"key":"way:631439924@detail:447_92","osmType":"way","osmId":631439924,"sourceRegion":"guangdong","featureType":"infrastructure","railClass":"highspeed","mode":"rail","name":"南广线","nameEn":"Nanguang Line","ref":"3029","usage":"main","highspeed":"yes","status":"operational","color":"#E54848","dataOrigin":"datum-2026-08-01","sourceKey":"way:631439924"}},{"type":"Feature","geometry":{"type":"LineString","coordinates":[[111.7570017,23.1221397],[111.7536804,23.1229341]]},"properties":{"key":"way:631439928@detail:447_92","osmType":"way","osmId":631439928,"sourceRegion":"guangdong","featureType":"infrastructure","railClass":"highspeed","mode":"rail","name":"南广线","nameEn":"Nanguang Line","ref":"3029","usage":"main","highspeed":"yes","tunnel":"yes","status":"operational","color":"#E54848","dataOrigin":"datum-2026-08-01","sourceKey":"way:631439928"}},{"type":"Feature","geometry":{"type":"LineString","coordinates":[[111.7587055,23.1218155],[111.7570017,23.1221397]]},"properties":{"key":"way:631439931@detail:447_92","osmType":"way","osmId":631439931,"sourceRegion":"guangdong","featureType":"infrastructure","railClass":"highspeed","mode":"rail","name":"南广线","nameEn":"Nanguang Line","ref":"3029","usage":"main","highspeed":"yes","status":"operational","color":"#E54848","dataOrigin":"datum-2026-08-01","sourceKey":"way:631439931"}},{"type":"Feature","geometry":{"type":"LineString","coordinates":[[111.7642601,23.1212896],[111.7618022,23.1214623],[111.7596789,23.1216304],[111.7587055,23.1218155]]},"properties":{"key":"way:631439935@detail:447_92","osmType":"way","osmId":631439935,"sourceRegion":"guangdong","featureType":"infrastructure","railClass":"highspeed","mode":"rail","name":"南广线","nameEn":"Nanguang Line","ref":"3029","usage":"main","highspeed":"yes","bridge":"yes","status":"operational","color":"#E54848","dataOrigin":"datum-2026-08-01","sourceKey":"way:631439935"}},{"type":"Feature","geometry":{"type":"LineString","coordinates":[[111.7672784,23.1211266],[111.7642601,23.1212896]]},"properties":{"key":"way:631439940@detail:447_92","osmType":"way","osmId":631439940,"sourceRegion":"guangdong","featureType":"infrastructure","railClass":"highspeed","mode":"rail","name":"南广线","nameEn":"Nanguang Line","ref":"3029","usage":"main","highspeed":"yes","tunnel":"yes","status":"operational","color":"#E54848","dataOrigin":"datum-2026-08-01","sourceKey":"way:631439940"}},{"type":"Feature","geometry":{"type":"LineString","coordinates":[[111.7684571,23.1211563],[111.7672784,23.1211266]]},"properties":{"key":"way:631439945@detail:447_92","osmType":"way","osmId":631439945,"sourceRegion":"guangdong","featureType":"infrastructure","railClass":"highspeed","mode":"rail","name":"南广线","nameEn":"Nanguang Line","ref":"3029","usage":"main","highspeed":"yes","bridge":"yes","status":"operational","color":"#E54848","dataOrigin":"datum-2026-08-01","sourceKey":"way:631439945"}},{"type":"Feature","geometry":{"type":"LineString","coordinates":[[111.770358,23.1212501],[111.7684571,23.1211563]]},"properties":{"key":"way:631439950@detail:447_92","osmType":"way","osmId":631439950,"sourceRegion":"guangdong","featureType":"infrastructure","railClass":"highspeed","mode":"rail","name":"南广线","nameEn":"Nanguang Line","ref":"3029","usage":"main","highspeed":"yes","tunnel":"yes","status":"operational","color":"#E54848","dataOrigin":"datum-2026-08-01","sourceKey":"way:631439950"}},{"type":"Feature","geometry":{"type":"LineString","coordinates":[[111.7712428,23.1213191],[111.770358,23.1212501]]},"properties":{"key":"way:631439954@detail:447_92","osmType":"way","osmId":631439954,"sourceRegion":"guangdong","featureType":"infrastructure","railClass":"highspeed","mode":"rail","name":"南广线","nameEn":"Nanguang Line","ref":"3029","usage":"main","highspeed":"yes","status":"operational","color":"#E54848","dataOrigin":"datum-2026-08-01","sourceKey":"way:631439954"}},{"type":"Feature","geometry":{"type":"LineString","coordinates":[[111.7748403,23.1214622],[111.7712428,23.1213191]]},"properties":{"key":"way:631439959@detail:447_92","osmType":"way","osmId":631439959,"sourceRegion":"guangdong","featureType":"infrastructure","railClass":"highspeed","mode":"rail","name":"南广线","nameEn":"Nanguang Line","ref":"3029","usage":"main","highspeed":"yes","tunnel":"yes","status":"operational","color":"#E54848","dataOrigin":"datum-2026-08-01","sourceKey":"way:631439959"}},{"type":"Feature","geometry":{"type":"LineString","coordinates":[[111.7935213,23.1221388],[111.7899697,23.1220613],[111.788885,23.1220377],[111.7796338,23.1216125],[111.7771954,23.1215201],[111.776707,23.1215016],[111.7755911,23.121478],[111.7748403,23.1214622]]},"properties":{"key":"way:631439963@detail:447_92","osmType":"way","osmId":631439963,"sourceRegion":"guangdong","featureType":"infrastructure","railClass":"highspeed","mode":"rail","name":"南广线","nameEn":"Nanguang Line","ref":"3029","usage":"main","highspeed":"yes","status":"operational","color":"#E54848","dataOrigin":"datum-2026-08-01","sourceKey":"way:631439963"}},{"type":"Feature","geometry":{"type":"LineString","coordinates":[[111.8065657,23.1217298],[111.8023324,23.122198],[111.7978962,23.1223163],[111.7935213,23.1221388]]},"properties":{"key":"way:631439967@detail:447_92","osmType":"way","osmId":631439967,"sourceRegion":"guangdong","featureType":"infrastructure","railClass":"highspeed","mode":"rail","name":"南广线","nameEn":"Nanguang Line","ref":"3029","usage":"main","highspeed":"yes","tunnel":"yes","status":"operational","color":"#E54848","dataOrigin":"datum-2026-08-01","sourceKey":"way:631439967"}},{"type":"Feature","geometry":{"type":"LineString","coordinates":[[111.807106,23.1216483],[111.8065657,23.1217298]]},"properties":{"key":"way:631439972@detail:447_92","osmType":"way","osmId":631439972,"sourceRegion":"guangdong","featureType":"infrastructure","railClass":"highspeed","mode":"rail","name":"南广线","nameEn":"Nanguang Line","ref":"3029","usage":"main","highspeed":"yes","status":"operational","color":"#E54848","dataOrigin":"datum-2026-08-01","sourceKey":"way:631439972"}},{"type":"Feature","geometry":{"type":"LineString","coordinates":[[111.8103952,23.1211382],[111.8094713,23.121291],[111.807106,23.1216483]]},"properties":{"key":"way:631439976@detail:447_92","osmType":"way","osmId":631439976,"sourceRegion":"guangdong","featureType":"infrastructure","railClass":"highspeed","mode":"rail","name":"南广线","nameEn":"Nanguang Line","ref":"3029","usage":"main","highspeed":"yes","bridge":"yes","status":"operational","color":"#E54848","dataOrigin":"datum-2026-08-01","sourceKey":"way:631439976"}},{"type":"Feature","geometry":{"type":"LineString","coordinates":[[111.8126156,23.1207877],[111.8103952,23.1211382]]},"properties":{"key":"way:631439980@detail:447_92","osmType":"way","osmId":631439980,"sourceRegion":"guangdong","featureType":"infrastructure","railClass":"highspeed","mode":"rail","name":"南广线","nameEn":"Nanguang Line","ref":"3029","usage":"main","highspeed":"yes","status":"operational","color":"#E54848","dataOrigin":"datum-2026-08-01","sourceKey":"way:631439980"}},{"type":"Feature","geometry":{"type":"LineString","coordinates":[[111.8143559,23.1205506],[111.8126156,23.1207877]]},"properties":{"key":"way:631439984@detail:447_92","osmType":"way","osmId":631439984,"sourceRegion":"guangdong","featureType":"infrastructure","railClass":"highspeed","mode":"rail","name":"南广线","nameEn":"Nanguang Line","ref":"3029","usage":"main","highspeed":"yes","bridge":"yes","status":"operational","color":"#E54848","dataOrigin":"datum-2026-08-01","sourceKey":"way:631439984"}},{"type":"Feature","geometry":{"type":"LineString","coordinates":[[111.818019,23.120195],[111.8143559,23.1205506]]},"properties":{"key":"way:631439989@detail:447_92","osmType":"way","osmId":631439989,"sourceRegion":"guangdong","featureType":"infrastructure","railClass":"highspeed","mode":"rail","name":"南广线","nameEn":"Nanguang Line","ref":"3029","usage":"main","highspeed":"yes","tunnel":"yes","status":"operational","color":"#E54848","dataOrigin":"datum-2026-08-01","sourceKey":"way:631439989"}},{"type":"Feature","geometry":{"type":"LineString","coordinates":[[111.8188089,23.120185],[111.818019,23.120195]]},"properties":{"key":"way:631439993@detail:447_92","osmType":"way","osmId":631439993,"sourceRegion":"guangdong","featureType":"infrastructure","railClass":"highspeed","mode":"rail","name":"南广线","nameEn":"Nanguang Line","ref":"3029","usage":"main","highspeed":"yes","status":"operational","color":"#E54848","dataOrigin":"datum-2026-08-01","sourceKey":"way:631439993"}},{"type":"Feature","geometry":{"type":"LineString","coordinates":[[111.8227062,23.1201175],[111.8204029,23.1201555],[111.8188089,23.120185]]},"properties":{"key":"way:631439997@detail:447_92","osmType":"way","osmId":631439997,"sourceRegion":"guangdong","featureType":"infrastructure","railClass":"highspeed","mode":"rail","name":"南广线","nameEn":"Nanguang Line","ref":"3029","usage":"main","highspeed":"yes","tunnel":"yes","status":"operational","color":"#E54848","dataOrigin":"datum-2026-08-01","sourceKey":"way:631439997"}},{"type":"Feature","geometry":{"type":"LineString","coordinates":[[111.8230598,23.1201004],[111.8227062,23.1201175]]},"properties":{"key":"way:631440001@detail:447_92","osmType":"way","osmId":631440001,"sourceRegion":"guangdong","featureType":"infrastructure","railClass":"highspeed","mode":"rail","name":"南广线","nameEn":"Nanguang Line","ref":"3029","usage":"main","highspeed":"yes","status":"operational","color":"#E54848","dataOrigin":"datum-2026-08-01","sourceKey":"way:631440001"}},{"type":"Feature","geometry":{"type":"LineString","coordinates":[[111.8270931,23.1200567],[111.8230598,23.1201004]]},"properties":{"key":"way:631440005@detail:447_92","osmType":"way","osmId":631440005,"sourceRegion":"guangdong","featureType":"infrastructure","railClass":"highspeed","mode":"rail","name":"南广线","nameEn":"Nanguang Line","ref":"3029","usage":"main","highspeed":"yes","bridge":"yes","status":"operational","color":"#E54848","dataOrigin":"datum-2026-08-01","sourceKey":"way:631440005"}},{"type":"Feature","geometry":{"type":"LineString","coordinates":[[111.8304864,23.1199878],[111.8270931,23.1200567]]},"properties":{"key":"way:631440009@detail:447_92","osmType":"way","osmId":631440009,"sourceRegion":"guangdong","featureType":"infrastructure","railClass":"highspeed","mode":"rail","name":"南广线","nameEn":"Nanguang Line","ref":"3029","usage":"main","highspeed":"yes","status":"operational","color":"#E54848","dataOrigin":"datum-2026-08-01","sourceKey":"way:631440009"}},{"type":"Feature","geometry":{"type":"LineString","coordinates":[[111.8354367,23.1194605],[111.8327123,23.1198245],[111.8304864,23.1199878]]},"properties":{"key":"way:631440013@detail:447_92","osmType":"way","osmId":631440013,"sourceRegion":"guangdong","featureType":"infrastructure","railClass":"highspeed","mode":"rail","name":"南广线","nameEn":"Nanguang Line","ref":"3029","usage":"main","highspeed":"yes","tunnel":"yes","status":"operational","color":"#E54848","dataOrigin":"datum-2026-08-01","sourceKey":"way:631440013"}},{"type":"Feature","geometry":{"type":"LineString","coordinates":[[111.8366524,23.1192595],[111.8360231,23.1193811],[111.8354367,23.1194605]]},"properties":{"key":"way:631440017@detail:447_92","osmType":"way","osmId":631440017,"sourceRegion":"guangdong","featureType":"infrastructure","railClass":"highspeed","mode":"rail","name":"南广线","nameEn":"Nanguang Line","ref":"3029","usage":"main","highspeed":"yes","bridge":"yes","status":"operational","color":"#E54848","dataOrigin":"datum-2026-08-01","sourceKey":"way:631440017"}},{"type":"Feature","geometry":{"type":"LineString","coordinates":[[111.8660146,23.1096986],[111.8581353,23.1120818],[111.8445423,23.1167748],[111.8400166,23.1182938],[111.8366524,23.1192595]]},"properties":{"key":"way:631440022@detail:447_92","osmType":"way","osmId":631440022,"sourceRegion":"guangdong","featureType":"infrastructure","railClass":"highspeed","mode":"rail","name":"南广线","nameEn":"Nanguang Line","ref":"3029","usage":"main","highspeed":"yes","tunnel":"yes","status":"operational","color":"#E54848","dataOrigin":"datum-2026-08-01","sourceKey":"way:631440022"}},{"type":"Feature","geometry":{"type":"LineString","coordinates":[[111.8671334,23.1094116],[111.8660146,23.1096986]]},"properties":{"key":"way:631440026@detail:447_92","osmType":"way","osmId":631440026,"sourceRegion":"guangdong","featureType":"infrastructure","railClass":"highspeed","mode":"rail","name":"南广线","nameEn":"Nanguang Line","ref":"3029","usage":"main","highspeed":"yes","status":"operational","color":"#E54848","dataOrigin":"datum-2026-08-01","sourceKey":"way:631440026"}},{"type":"Feature","geometry":{"type":"LineString","coordinates":[[111.8750209,23.1077287],[111.8671334,23.1094116]]},"properties":{"key":"way:631440030@detail:447_92","osmType":"way","osmId":631440030,"sourceRegion":"guangdong","featureType":"infrastructure","railClass":"highspeed","mode":"rail","name":"南广线","nameEn":"Nanguang Line","ref":"3029","usage":"main","highspeed":"yes","tunnel":"yes","status":"operational","color":"#E54848","dataOrigin":"datum-2026-08-01","sourceKey":"way:631440030"}},{"type":"Feature","geometry":{"type":"LineString","coordinates":[[111.875599,23.1076105],[111.8750209,23.1077287]]},"properties":{"key":"way:631440034@detail:447_92","osmType":"way","osmId":631440034,"sourceRegion":"guangdong","featureType":"infrastructure","railClass":"highspeed","mode":"rail","name":"南广线","nameEn":"Nanguang Line","ref":"3029","usage":"main","highspeed":"yes","status":"operational","color":"#E54848","dataOrigin":"datum-2026-08-01","sourceKey":"way:631440034"}},{"type":"Feature","geometry":{"type":"LineString","coordinates":[[111.9106849,23.0938808],[111.9020733,23.0972032],[111.8951206,23.1007561],[111.886328,23.1043067],[111.8789513,23.1067722],[111.875599,23.1076105]]},"properties":{"key":"way:631440038@detail:447_92","osmType":"way","osmId":631440038,"sourceRegion":"guangdong","featureType":"infrastructure","railClass":"highspeed","mode":"rail","name":"南广线","nameEn":"Nanguang Line","ref":"3029","usage":"main","highspeed":"yes","tunnel":"yes","status":"operational","color":"#E54848","dataOrigin":"datum-2026-08-01","sourceKey":"way:631440038"}},{"type":"Feature","geometry":{"type":"LineString","coordinates":[[111.912136,23.0934212],[111.9106849,23.0938808]]},"properties":{"key":"way:631440043@detail:447_92","osmType":"way","osmId":631440043,"sourceRegion":"guangdong","featureType":"infrastructure","railClass":"highspeed","mode":"rail","name":"南广线","nameEn":"Nanguang Line","ref":"3029","usage":"main","highspeed":"yes","status":"operational","color":"#E54848","dataOrigin":"datum-2026-08-01","sourceKey":"way:631440043"}},{"type":"Feature","geometry":{"type":"LineString","coordinates":[[111.9142378,23.0927552],[111.912136,23.0934212]]},"properties":{"key":"way:631440046@detail:447_92","osmType":"way","osmId":631440046,"sourceRegion":"guangdong","featureType":"infrastructure","railClass":"highspeed","mode":"rail","name":"南广线","nameEn":"Nanguang Line","ref":"3029","usage":"main","highspeed":"yes","bridge":"yes","status":"operational","color":"#E54848","dataOrigin":"datum-2026-08-01","sourceKey":"way:631440046"}},{"type":"Feature","geometry":{"type":"LineString","coordinates":[[111.9228375,23.0898159],[111.9194172,23.0910228],[111.9142378,23.0927552]]},"properties":{"key":"way:631440050@detail:447_92","osmType":"way","osmId":631440050,"sourceRegion":"guangdong","featureType":"infrastructure","railClass":"highspeed","mode":"rail","name":"南广线","nameEn":"Nanguang Line","ref":"3029","usage":"main","highspeed":"yes","tunnel":"yes","status":"operational","color":"#E54848","dataOrigin":"datum-2026-08-01","sourceKey":"way:631440050"}},{"type":"Feature","geometry":{"type":"LineString","coordinates":[[111.9251101,23.088773],[111.9228375,23.0898159]]},"properties":{"key":"way:631440054@detail:447_92","osmType":"way","osmId":631440054,"sourceRegion":"guangdong","featureType":"infrastructure","railClass":"highspeed","mode":"rail","name":"南广线","nameEn":"Nanguang Line","ref":"3029","usage":"main","highspeed":"yes","status":"operational","color":"#E54848","dataOrigin":"datum-2026-08-01","sourceKey":"way:631440054"}},{"type":"Feature","geometry":{"type":"LineString","coordinates":[[111.9621614,23.0663089],[111.9393691,23.0781397],[111.9311101,23.0849661],[111.9251101,23.088773]]},"properties":{"key":"way:631440057@detail:447_92","osmType":"way","osmId":631440057,"sourceRegion":"guangdong","featureType":"infrastructure","railClass":"highspeed","mode":"rail","name":"南广线","nameEn":"Nanguang Line","ref":"3029","usage":"main","highspeed":"yes","tunnel":"yes","status":"operational","color":"#E54848","dataOrigin":"datum-2026-08-01","sourceKey":"way:631440057"}},{"type":"Feature","geometry":{"type":"LineString","coordinates":[[111.9625134,23.0661022],[111.9621614,23.0663089]]},"properties":{"key":"way:631440061@detail:447_92","osmType":"way","osmId":631440061,"sourceRegion":"guangdong","featureType":"infrastructure","railClass":"highspeed","mode":"rail","name":"南广线","nameEn":"Nanguang Line","ref":"3029","usage":"main","highspeed":"yes","status":"operational","color":"#E54848","dataOrigin":"datum-2026-08-01","sourceKey":"way:631440061"}},{"type":"Feature","geometry":{"type":"LineString","coordinates":[[111.9656127,23.06409],[111.962872,23.0658813]]},"properties":{"key":"way:631440064@detail:447_92","osmType":"way","osmId":631440064,"sourceRegion":"guangdong","featureType":"infrastructure","railClass":"highspeed","mode":"rail","name":"南广线","nameEn":"Nanguang Line","ref":"3029","usage":"main","highspeed":"yes","tunnel":"yes","status":"operational","color":"#E54848","dataOrigin":"datum-2026-08-01","sourceKey":"way:631440064"}},{"type":"Feature","geometry":{"type":"LineString","coordinates":[[111.9658421,23.0639467],[111.9656127,23.06409]]},"properties":{"key":"way:631440068@detail:447_92","osmType":"way","osmId":631440068,"sourceRegion":"guangdong","featureType":"infrastructure","railClass":"highspeed","mode":"rail","name":"南广线","nameEn":"Nanguang Line","ref":"3029","usage":"main","highspeed":"yes","status":"operational","color":"#E54848","dataOrigin":"datum-2026-08-01","sourceKey":"way:631440068"}},{"type":"Feature","geometry":{"type":"LineString","coordinates":[[111.9670936,23.063297],[111.9658421,23.0639467]]},"properties":{"key":"way:631440071@detail:447_92","osmType":"way","osmId":631440071,"sourceRegion":"guangdong","featureType":"infrastructure","railClass":"highspeed","mode":"rail","name":"南广线","nameEn":"Nanguang Line","ref":"3029","usage":"main","highspeed":"yes","bridge":"yes","status":"operational","color":"#E54848","dataOrigin":"datum-2026-08-01","sourceKey":"way:631440071"}},{"type":"Feature","geometry":{"type":"LineString","coordinates":[[111.9768993,23.0590725],[111.9737878,23.0602283],[111.9700291,23.0618093],[111.9670936,23.063297]]},"properties":{"key":"way:631440075@detail:447_92","osmType":"way","osmId":631440075,"sourceRegion":"guangdong","featureType":"infrastructure","railClass":"highspeed","mode":"rail","name":"南广线","nameEn":"Nanguang Line","ref":"3029","usage":"main","highspeed":"yes","tunnel":"yes","status":"operational","color":"#E54848","dataOrigin":"datum-2026-08-01","sourceKey":"way:631440075"}},{"type":"Feature","geometry":{"type":"LineString","coordinates":[[111.9785008,23.0586127],[111.9768993,23.0590725]]},"properties":{"key":"way:631440078@detail:447_92","osmType":"way","osmId":631440078,"sourceRegion":"guangdong","featureType":"infrastructure","railClass":"highspeed","mode":"rail","name":"南广线","nameEn":"Nanguang Line","ref":"3029","usage":"main","highspeed":"yes","status":"operational","color":"#E54848","dataOrigin":"datum-2026-08-01","sourceKey":"way:631440078"}},{"type":"Feature","geometry":{"type":"LineString","coordinates":[[111.9804847,23.0580596],[111.9785008,23.0586127]]},"properties":{"key":"way:631440082@detail:447_92","osmType":"way","osmId":631440082,"sourceRegion":"guangdong","featureType":"infrastructure","railClass":"highspeed","mode":"rail","name":"南广线","nameEn":"Nanguang Line","ref":"3029","usage":"main","highspeed":"yes","tunnel":"yes","status":"operational","color":"#E54848","dataOrigin":"datum-2026-08-01","sourceKey":"way:631440082"}},{"type":"Feature","geometry":{"type":"LineString","coordinates":[[111.9809042,23.0579763],[111.9804847,23.0580596]]},"properties":{"key":"way:631440085@detail:447_92","osmType":"way","osmId":631440085,"sourceRegion":"guangdong","featureType":"infrastructure","railClass":"highspeed","mode":"rail","name":"南广线","nameEn":"Nanguang Line","ref":"3029","usage":"main","highspeed":"yes","status":"operational","color":"#E54848","dataOrigin":"datum-2026-08-01","sourceKey":"way:631440085"}},{"type":"Feature","geometry":{"type":"LineString","coordinates":[[111.9861107,23.0569425],[111.9833062,23.0574605],[111.9809042,23.0579763]]},"properties":{"key":"way:631440089@detail:447_92","osmType":"way","osmId":631440089,"sourceRegion":"guangdong","featureType":"infrastructure","railClass":"highspeed","mode":"rail","name":"南广线","nameEn":"Nanguang Line","ref":"3029","usage":"main","highspeed":"yes","tunnel":"yes","status":"operational","color":"#E54848","dataOrigin":"datum-2026-08-01","sourceKey":"way:631440089"}},{"type":"Feature","geometry":{"type":"LineString","coordinates":[[111.9868103,23.0568491],[111.9861107,23.0569425]]},"properties":{"key":"way:631440092@detail:447_92","osmType":"way","osmId":631440092,"sourceRegion":"guangdong","featureType":"infrastructure","railClass":"highspeed","mode":"rail","name":"南广线","nameEn":"Nanguang Line","ref":"3029","usage":"main","highspeed":"yes","status":"operational","color":"#E54848","dataOrigin":"datum-2026-08-01","sourceKey":"way:631440092"}},{"type":"Feature","geometry":{"type":"LineString","coordinates":[[111.9900961,23.0564977],[111.9868103,23.0568491]]},"properties":{"key":"way:631440096@detail:447_92","osmType":"way","osmId":631440096,"sourceRegion":"guangdong","featureType":"infrastructure","railClass":"highspeed","mode":"rail","name":"南广线","nameEn":"Nanguang Line","ref":"3029","usage":"main","highspeed":"yes","bridge":"yes","status":"operational","color":"#E54848","dataOrigin":"datum-2026-08-01","sourceKey":"way:631440096"}},{"type":"Feature","geometry":{"type":"LineString","coordinates":[[111.9923112,23.0563332],[111.9900961,23.0564977]]},"properties":{"key":"way:631440099@detail:447_92","osmType":"way","osmId":631440099,"sourceRegion":"guangdong","featureType":"infrastructure","railClass":"highspeed","mode":"rail","name":"南广线","nameEn":"Nanguang Line","ref":"3029","usage":"main","highspeed":"yes","status":"operational","color":"#E54848","dataOrigin":"datum-2026-08-01","sourceKey":"way:631440099"}},{"type":"Feature","geometry":{"type":"LineString","coordinates":[[112.0,23.05631551900748],[111.9984126,23.0562848],[111.9966209,23.0562458],[111.9942262,23.0562588],[111.9923112,23.0563332]]},"properties":{"key":"way:631440103@detail:447_92","osmType":"way","osmId":631440103,"sourceRegion":"guangdong","featureType":"infrastructure","railClass":"highspeed","mode":"rail","name":"南广线","nameEn":"Nanguang Line","ref":"3029","usage":"main","highspeed":"yes","bridge":"yes","status":"operational","color":"#E54848","dataOrigin":"datum-2026-08-01","sourceKey":"way:631440103"}},{"type":"Feature","geometry":{"type":"LineString","coordinates":[[111.7775527,23.1215967],[111.7786015,23.121664],[111.7869009,23.1220226],[111.7879865,23.1220236]]},"properties":{"key":"way:1334656659@detail:447_92","osmType":"way","osmId":1334656659,"sourceRegion":"guangdong","featureType":"infrastructure","railClass":"minor","mode":"rail","name":"未命名","service":"siding","highspeed":"yes","status":"operational","color":"#52636F","dataOrigin":"datum-2026-08-01","sourceKey":"way:1334656659"}},{"type":"Feature","geometry":{"type":"LineString","coordinates":[[111.788885,23.1220377],[111.7882723,23.1219668],[111.7878551,23.1219372],[111.7790458,23.1215357],[111.7779143,23.1215111],[111.7771954,23.1215201]]},"properties":{"key":"way:1334656660@detail:447_92","osmType":"way","osmId":1334656660,"sourceRegion":"guangdong","featureType":"infrastructure","railClass":"minor","mode":"rail","name":"未命名","service":"siding","highspeed":"yes","status":"operational","color":"#52636F","dataOrigin":"datum-2026-08-01","sourceKey":"way:1334656660"}},{"type":"Feature","geometry":{"type":"LineString","coordinates":[[111.7894143,23.1220696],[111.7899697,23.1220613]]},"properties":{"key":"way:1334656661@detail:447_92","osmType":"way","osmId":1334656661,"sourceRegion":"guangdong","featureType":"infrastructure","railClass":"highspeed","mode":"rail","name":"未命名","highspeed":"yes","status":"operational","color":"#E54848","dataOrigin":"datum-2026-08-01","sourceKey":"way:1334656661"}},{"type":"Feature","geometry":{"type":"LineString","coordinates":[[111.776309,23.1215562],[111.7755911,23.121478]]},"properties":{"key":"way:1334656662@detail:447_92","osmType":"way","osmId":1334656662,"sourceRegion":"guangdong","featureType":"infrastructure","railClass":"highspeed","mode":"rail","name":"未命名","highspeed":"yes","status":"operational","color":"#E54848","dataOrigin":"datum-2026-08-01","sourceKey":"way:1334656662"}},{"type":"Feature","geometry":{"type":"LineString","coordinates":[[111.9627333,23.0660452],[111.9629106,23.0659334]]},"properties":{"key":"way:1466925259@detail:447_92","osmType":"way","osmId":1466925259,"sourceRegion":"guangdong","featureType":"infrastructure","railClass":"highspeed","mode":"rail","name":"南广线","nameEn":"Nanguang Line","ref":"3029","usage":"main","highspeed":"yes","status":"operational","color":"#E54848","dataOrigin":"datum-2026-08-01","sourceKey":"way:1466925259"}},{"type":"Feature","geometry":{"type":"LineString","coordinates":[[111.96255,23.0661574],[111.9627333,23.0660452]]},"properties":{"key":"way:1466925260@detail:447_92","osmType":"way","osmId":1466925260,"sourceRegion":"guangdong","featureType":"infrastructure","railClass":"highspeed","mode":"rail","name":"南广线","nameEn":"Nanguang Line","ref":"3029","usage":"main","highspeed":"yes","bridge":"yes","status":"operational","color":"#E54848","dataOrigin":"datum-2026-08-01","sourceKey":"way:1466925260"}},{"type":"Feature","geometry":{"type":"LineString","coordinates":[[111.962872,23.0658813],[111.9627051,23.0659853]]},"properties":{"key":"way:1466925261@detail:447_92","osmType":"way","osmId":1466925261,"sourceRegion":"guangdong","featureType":"infrastructure","railClass":"highspeed","mode":"rail","name":"南广线","nameEn":"Nanguang Line","ref":"3029","usage":"main","highspeed":"yes","status":"operational","color":"#E54848","dataOrigin":"datum-2026-08-01","sourceKey":"way:1466925261"}},{"type":"Feature","geometry":{"type":"LineString","coordinates":[[111.9627051,23.0659853],[111.9625134,23.0661022]]},"properties":{"key":"way:1466925262@detail:447_92","osmType":"way","osmId":1466925262,"sourceRegion":"guangdong","featureType":"infrastructure","railClass":"highspeed","mode":"rail","name":"南广线","nameEn":"Nanguang Line","ref":"3029","usage":"main","highspeed":"yes","bridge":"yes","status":"operational","color":"#E54848","dataOrigin":"datum-2026-08-01","sourceKey":"way:1466925262"}}]}