{"type":"FeatureCollection","features":[{"type":"Feature","geometry":{"type":"Point","coordinates":[111.8636996,22.5560456]},"properties":{"key":"node:5711018313","osmType":"node","osmId":5711018313,"sourceRegion":"guangdong","featureType":"station","railClass":"minor","mode":"station","name":"河塱","nameEn":"Helang","status":"operational","color":"#52636F","dataOrigin":"datum-2026-08-01","sourceKey":"node:5711018313","stationGroup":"河塱","hasOperationalRail":true,"hasConstructionRail":false}},{"type":"Feature","geometry":{"type":"Point","coordinates":[111.8660358,22.6041189]},"properties":{"key":"node:5711018802","osmType":"node","osmId":5711018802,"sourceRegion":"guangdong","featureType":"station","railClass":"minor","mode":"station","name":"河邦","nameEn":"Hebang","status":"operational","color":"#52636F","dataOrigin":"datum-2026-08-01","sourceKey":"node:5711018802","stationGroup":"河邦","hasOperationalRail":true,"hasConstructionRail":false}},{"type":"Feature","geometry":{"type":"Point","coordinates":[111.9977912,22.5226376]},"properties":{"key":"node:8440342284","osmType":"node","osmId":8440342284,"sourceRegion":"guangdong","featureType":"station","railClass":"minor","mode":"station","name":"龙坪","status":"operational","color":"#52636F","dataOrigin":"datum-2026-08-01","sourceKey":"node:8440342284","stationGroup":"龙坪","hasOperationalRail":true,"hasConstructionRail":false}},{"type":"Feature","geometry":{"type":"LineString","coordinates":[[111.89372,22.5254843],[111.8911878,22.5275974],[111.8897704,22.5287426],[111.8870401,22.5311343],[111.8870369,22.5311325],[111.8856773,22.5322621],[111.8851522,22.5327006],[111.8845335,22.5331259],[111.8836774,22.5335977],[111.8827926,22.5339565],[111.8817782,22.5342754],[111.8752822,22.5359232],[111.8719218,22.5367872]]},"properties":{"key":"way:227789680@detail:447_90","osmType":"way","osmId":227789680,"sourceRegion":"guangdong","featureType":"infrastructure","railClass":"national","mode":"rail","name":"罗定铁路","usage":"branch","status":"operational","color":"#E54848","dataOrigin":"datum-2026-08-01","sourceKey":"way:227789680"}},{"type":"Feature","geometry":{"type":"LineString","coordinates":[[111.8689426,22.5922849],[111.8675834,22.5982328],[111.8671731,22.5999075],[111.8668852,22.6010704],[111.8659495,22.6050707],[111.86517,22.6082424],[111.8649399,22.6088822],[111.8647165,22.6093456],[111.8644452,22.6098334],[111.8641154,22.6102977],[111.863689,22.6108117],[111.8632142,22.6112571]]},"properties":{"key":"way:227789682@detail:447_90","osmType":"way","osmId":227789682,"sourceRegion":"guangdong","featureType":"infrastructure","railClass":"national","mode":"rail","name":"罗定铁路","usage":"branch","status":"operational","color":"#E54848","dataOrigin":"datum-2026-08-01","sourceKey":"way:227789682"}},{"type":"Feature","geometry":{"type":"LineString","coordinates":[[111.8636837,22.5572812],[111.8636461,22.5580159],[111.8630271,22.5629149],[111.8627607,22.5665043],[111.8629767,22.5675545],[111.8637037,22.5701999],[111.8639241,22.5707997],[111.8640714,22.5711355],[111.8642363,22.5715957],[111.8645674,22.5721407],[111.8658127,22.5738555],[111.8672307,22.5757564],[111.8675186,22.5762682]]},"properties":{"key":"way:227789684@detail:447_90","osmType":"way","osmId":227789684,"sourceRegion":"guangdong","featureType":"infrastructure","railClass":"national","mode":"rail","name":"罗定铁路","usage":"branch","status":"operational","color":"#E54848","dataOrigin":"datum-2026-08-01","sourceKey":"way:227789684"}},{"type":"Feature","geometry":{"type":"LineString","coordinates":[[111.8676698,22.5766205],[111.8678785,22.5771123],[111.8680225,22.5776506],[111.8680873,22.5782156],[111.8681017,22.5786808],[111.8680873,22.5791726],[111.8676338,22.5811997],[111.8673747,22.5825423],[111.8673531,22.5830341],[111.867461,22.5836854],[111.8676122,22.5843301],[111.8677849,22.5848352],[111.8680369,22.5854001]]},"properties":{"key":"way:227789689@detail:447_90","osmType":"way","osmId":227789689,"sourceRegion":"guangdong","featureType":"infrastructure","railClass":"national","mode":"rail","name":"罗定铁路","usage":"branch","status":"operational","color":"#E54848","dataOrigin":"datum-2026-08-01","sourceKey":"way:227789689"}},{"type":"Feature","geometry":{"type":"LineString","coordinates":[[111.8674389,22.5384022],[111.8671799,22.5386415],[111.8669712,22.5388941],[111.8666978,22.5392596],[111.8664891,22.5397115],[111.8662661,22.540396],[111.8662229,22.5407948],[111.8661941,22.5412334],[111.8663092,22.5442174],[111.8663524,22.5461048],[111.8663164,22.5468159],[111.8662732,22.5472944],[111.8661365,22.547826]]},"properties":{"key":"way:227789691@detail:447_90","osmType":"way","osmId":227789691,"sourceRegion":"guangdong","featureType":"infrastructure","railClass":"national","mode":"rail","name":"罗定铁路","usage":"branch","status":"operational","color":"#E54848","dataOrigin":"datum-2026-08-01","sourceKey":"way:227789691"}},{"type":"Feature","geometry":{"type":"LineString","coordinates":[[111.8636965,22.5570321],[111.8636837,22.5572812]]},"properties":{"key":"way:227789693@detail:447_90","osmType":"way","osmId":227789693,"sourceRegion":"guangdong","featureType":"infrastructure","railClass":"national","mode":"rail","name":"罗定铁路","usage":"branch","bridge":"yes","status":"operational","color":"#E54848","dataOrigin":"datum-2026-08-01","sourceKey":"way:227789693"}},{"type":"Feature","geometry":{"type":"LineString","coordinates":[[111.8612348,22.6127455],[111.8607093,22.6131376]]},"properties":{"key":"way:227789697@detail:447_90","osmType":"way","osmId":227789697,"sourceRegion":"guangdong","featureType":"infrastructure","railClass":"national","mode":"rail","name":"罗定铁路","usage":"branch","bridge":"yes","status":"operational","color":"#E54848","dataOrigin":"datum-2026-08-01","sourceKey":"way:227789697"}},{"type":"Feature","geometry":{"type":"LineString","coordinates":[[111.8689942,22.5920592],[111.8689426,22.5922849]]},"properties":{"key":"way:227789699@detail:447_90","osmType":"way","osmId":227789699,"sourceRegion":"guangdong","featureType":"infrastructure","railClass":"national","mode":"rail","name":"罗定铁路","usage":"branch","bridge":"yes","status":"operational","color":"#E54848","dataOrigin":"datum-2026-08-01","sourceKey":"way:227789699"}},{"type":"Feature","geometry":{"type":"LineString","coordinates":[[111.8680369,22.5854001],[111.8690518,22.5874138]]},"properties":{"key":"way:227789700@detail:447_90","osmType":"way","osmId":227789700,"sourceRegion":"guangdong","featureType":"infrastructure","railClass":"national","mode":"rail","name":"罗定铁路","usage":"branch","bridge":"yes","status":"operational","color":"#E54848","dataOrigin":"datum-2026-08-01","sourceKey":"way:227789700"}},{"type":"Feature","geometry":{"type":"LineString","coordinates":[[111.8572903,22.616287],[111.8570888,22.6167388]]},"properties":{"key":"way:227789702@detail:447_90","osmType":"way","osmId":227789702,"sourceRegion":"guangdong","featureType":"infrastructure","railClass":"national","mode":"rail","name":"罗定铁路","usage":"branch","bridge":"yes","status":"operational","color":"#E54848","dataOrigin":"datum-2026-08-01","sourceKey":"way:227789702"}},{"type":"Feature","geometry":{"type":"LineString","coordinates":[[111.8632142,22.6112571],[111.8629047,22.6115163]]},"properties":{"key":"way:227789704@detail:447_90","osmType":"way","osmId":227789704,"sourceRegion":"guangdong","featureType":"infrastructure","railClass":"national","mode":"rail","name":"罗定铁路","usage":"branch","bridge":"yes","status":"operational","color":"#E54848","dataOrigin":"datum-2026-08-01","sourceKey":"way:227789704"}},{"type":"Feature","geometry":{"type":"LineString","coordinates":[[111.8573767,22.6210572],[111.857427,22.6213163]]},"properties":{"key":"way:227789705@detail:447_90","osmType":"way","osmId":227789705,"sourceRegion":"guangdong","featureType":"infrastructure","railClass":"national","mode":"rail","name":"罗定铁路","usage":"branch","bridge":"yes","status":"operational","color":"#E54848","dataOrigin":"datum-2026-08-01","sourceKey":"way:227789705"}},{"type":"Feature","geometry":{"type":"LineString","coordinates":[[111.8636461,22.5580159],[111.8637692,22.5573223]]},"properties":{"key":"way:227789713@detail:447_90","osmType":"way","osmId":227789713,"sourceRegion":"guangdong","featureType":"infrastructure","railClass":"national","mode":"rail","name":"未命名","status":"operational","color":"#E54848","dataOrigin":"datum-2026-08-01","sourceKey":"way:227789713"}},{"type":"Feature","geometry":{"type":"LineString","coordinates":[[111.8637692,22.5573223],[111.8638123,22.5570631]]},"properties":{"key":"way:227789714@detail:447_90","osmType":"way","osmId":227789714,"sourceRegion":"guangdong","featureType":"infrastructure","railClass":"national","mode":"rail","name":"未命名","bridge":"yes","status":"operational","color":"#E54848","dataOrigin":"datum-2026-08-01","sourceKey":"way:227789714"}},{"type":"Feature","geometry":{"type":"LineString","coordinates":[[111.8675186,22.5762682],[111.8676698,22.5766205]]},"properties":{"key":"way:227789718@detail:447_90","osmType":"way","osmId":227789718,"sourceRegion":"guangdong","featureType":"infrastructure","railClass":"national","mode":"rail","name":"罗定铁路","usage":"branch","bridge":"yes","status":"operational","color":"#E54848","dataOrigin":"datum-2026-08-01","sourceKey":"way:227789718"}},{"type":"Feature","geometry":{"type":"LineString","coordinates":[[111.8679642,22.5380367],[111.8674389,22.5384022]]},"properties":{"key":"way:227789720@detail:447_90","osmType":"way","osmId":227789720,"sourceRegion":"guangdong","featureType":"infrastructure","railClass":"national","mode":"rail","name":"罗定铁路","usage":"branch","bridge":"yes","status":"operational","color":"#E54848","dataOrigin":"datum-2026-08-01","sourceKey":"way:227789720"}},{"type":"Feature","geometry":{"type":"LineString","coordinates":[[111.8661365,22.547826],[111.8655969,22.5495672]]},"properties":{"key":"way:227789722@detail:447_90","osmType":"way","osmId":227789722,"sourceRegion":"guangdong","featureType":"infrastructure","railClass":"national","mode":"rail","name":"罗定铁路","usage":"branch","bridge":"yes","status":"operational","color":"#E54848","dataOrigin":"datum-2026-08-01","sourceKey":"way:227789722"}},{"type":"Feature","geometry":{"type":"LineString","coordinates":[[111.8687414,22.5376379],[111.8684176,22.5377709],[111.8679642,22.5380367]]},"properties":{"key":"way:227789724@detail:447_90","osmType":"way","osmId":227789724,"sourceRegion":"guangdong","featureType":"infrastructure","railClass":"national","mode":"rail","name":"罗定铁路","usage":"branch","status":"operational","color":"#E54848","dataOrigin":"datum-2026-08-01","sourceKey":"way:227789724"}},{"type":"Feature","geometry":{"type":"LineString","coordinates":[[111.8719218,22.5367872],[111.8694609,22.5374053],[111.8687414,22.5376379]]},"properties":{"key":"way:227789726@detail:447_90","osmType":"way","osmId":227789726,"sourceRegion":"guangdong","featureType":"infrastructure","railClass":"national","mode":"rail","name":"罗定铁路","usage":"branch","bridge":"yes","status":"operational","color":"#E54848","dataOrigin":"datum-2026-08-01","sourceKey":"way:227789726"}},{"type":"Feature","geometry":{"type":"LineString","coordinates":[[111.8629047,22.6115163],[111.8624008,22.6119548],[111.8612348,22.6127455]]},"properties":{"key":"way:227789728@detail:447_90","osmType":"way","osmId":227789728,"sourceRegion":"guangdong","featureType":"infrastructure","railClass":"national","mode":"rail","name":"罗定铁路","usage":"branch","status":"operational","color":"#E54848","dataOrigin":"datum-2026-08-01","sourceKey":"way:227789728"}},{"type":"Feature","geometry":{"type":"LineString","coordinates":[[111.8949861,22.5238231],[111.8942524,22.5249128],[111.89372,22.5254843]]},"properties":{"key":"way:227789730@detail:447_90","osmType":"way","osmId":227789730,"sourceRegion":"guangdong","featureType":"infrastructure","railClass":"national","mode":"rail","name":"罗定铁路","usage":"branch","tunnel":"yes","status":"operational","color":"#E54848","dataOrigin":"datum-2026-08-01","sourceKey":"way:227789730"}},{"type":"Feature","geometry":{"type":"LineString","coordinates":[[111.90160624666511,22.5],[111.9015901,22.5000515],[111.9013455,22.5010949],[111.9008275,22.5039594],[111.8998492,22.5103262],[111.898842,22.5165332],[111.8986694,22.5173772],[111.898468,22.5180749],[111.8981658,22.5186664],[111.8981337,22.5187117],[111.8971011,22.5203011],[111.8949861,22.5238231]]},"properties":{"key":"way:227789747@detail:447_90","osmType":"way","osmId":227789747,"sourceRegion":"guangdong","featureType":"infrastructure","railClass":"national","mode":"rail","name":"春罗线","nameEn":"Chunluo Line","usage":"branch","status":"operational","color":"#E54848","dataOrigin":"datum-2026-08-01","sourceKey":"way:227789747"}},{"type":"Feature","geometry":{"type":"LineString","coordinates":[[111.8607093,22.6131376],[111.8589818,22.6144731],[111.858334,22.6149848],[111.8578085,22.6155961],[111.8572903,22.616287]]},"properties":{"key":"way:227789750@detail:447_90","osmType":"way","osmId":227789750,"sourceRegion":"guangdong","featureType":"infrastructure","railClass":"national","mode":"rail","name":"罗定铁路","usage":"branch","status":"operational","color":"#E54848","dataOrigin":"datum-2026-08-01","sourceKey":"way:227789750"}},{"type":"Feature","geometry":{"type":"LineString","coordinates":[[111.8570888,22.6167388],[111.856916,22.6173434],[111.8568369,22.6183001],[111.8568872,22.6189977],[111.8573767,22.6210572]]},"properties":{"key":"way:227789755@detail:447_90","osmType":"way","osmId":227789755,"sourceRegion":"guangdong","featureType":"infrastructure","railClass":"national","mode":"rail","name":"罗定铁路","usage":"branch","status":"operational","color":"#E54848","dataOrigin":"datum-2026-08-01","sourceKey":"way:227789755"}},{"type":"Feature","geometry":{"type":"LineString","coordinates":[[111.857427,22.6213163],[111.858046,22.6240468],[111.8582475,22.6250566],[111.8582979,22.6258804],[111.8582475,22.6269899],[111.8579381,22.6301321],[111.8579381,22.6311485],[111.8581396,22.6350547],[111.8583411,22.6361574],[111.859284,22.6391932],[111.8594351,22.6399172],[111.859651,22.6423019],[111.8598526,22.6430459],[111.8598903,22.6431299],[111.8601476,22.6437035],[111.8605795,22.6444143],[111.8611913,22.6451782],[111.86235,22.6465531],[111.8627747,22.6472307],[111.8631057,22.6479215],[111.8633864,22.6487518],[111.8646536,22.6532766],[111.8647472,22.6537949],[111.8647328,22.6544261],[111.8645888,22.6551437],[111.8643512,22.6557881],[111.8634728,22.6578345],[111.8633504,22.6583993],[111.8633216,22.6591035],[111.863408,22.6598211],[111.8640056,22.662565],[111.8643224,22.6636546],[111.8648336,22.6647442],[111.8668711,22.669315],[111.8671735,22.6703248],[111.8673463,22.6712948],[111.8673895,22.6722249],[111.8674648,22.6739914],[111.8674305,22.674434],[111.8673751,22.6747626],[111.86733,22.675178],[111.8671807,22.6757059],[111.8668207,22.6766094],[111.8663815,22.6774132],[111.8657984,22.6781705],[111.8628177,22.6818508],[111.8620545,22.682628],[111.8614137,22.6831727],[111.8607081,22.6836776],[111.8599594,22.6841426],[111.8588578,22.684674],[111.85407,22.6869192],[111.852702,22.6875901],[111.8519543,22.6880921],[111.8512042,22.6886963],[111.8503433,22.689552],[111.8500165,22.6899549],[111.8488992,22.6913126],[111.8460419,22.6947889],[111.8455959,22.6952954],[111.8452719,22.6957603],[111.8450153,22.6961941],[111.8447471,22.6967979],[111.8408882,22.7068491]]},"properties":{"key":"way:227789757@detail:447_90","osmType":"way","osmId":227789757,"sourceRegion":"guangdong","featureType":"infrastructure","railClass":"national","mode":"rail","name":"罗定铁路","usage":"branch","status":"operational","color":"#E54848","dataOrigin":"datum-2026-08-01","sourceKey":"way:227789757"}},{"type":"Feature","geometry":{"type":"LineString","coordinates":[[111.8648825,22.5520925],[111.8647118,22.5528567],[111.8641721,22.5549101],[111.863985,22.5557208],[111.8638915,22.5564186],[111.8638123,22.5570631]]},"properties":{"key":"way:227789760@detail:447_90","osmType":"way","osmId":227789760,"sourceRegion":"guangdong","featureType":"infrastructure","railClass":"national","mode":"rail","name":"未命名","status":"operational","color":"#E54848","dataOrigin":"datum-2026-08-01","sourceKey":"way:227789760"}},{"type":"Feature","geometry":{"type":"LineString","coordinates":[[111.8690518,22.5874138],[111.8691958,22.5877394],[111.8693181,22.5882113],[111.8694405,22.5889357],[111.8694837,22.5895936],[111.8694261,22.5901984],[111.8689942,22.5920592]]},"properties":{"key":"way:227789764@detail:447_90","osmType":"way","osmId":227789764,"sourceRegion":"guangdong","featureType":"infrastructure","railClass":"national","mode":"rail","name":"罗定铁路","usage":"branch","status":"operational","color":"#E54848","dataOrigin":"datum-2026-08-01","sourceKey":"way:227789764"}},{"type":"Feature","geometry":{"type":"LineString","coordinates":[[111.8655969,22.5495672],[111.8650428,22.5516073],[111.8648825,22.5520925],[111.8646542,22.5527836],[111.8643232,22.554013],[111.8640924,22.554885],[111.8638404,22.5561281],[111.8636965,22.5570321]]},"properties":{"key":"way:227789771@detail:447_90","osmType":"way","osmId":227789771,"sourceRegion":"guangdong","featureType":"infrastructure","railClass":"national","mode":"rail","name":"罗定铁路","usage":"branch","status":"operational","color":"#E54848","dataOrigin":"datum-2026-08-01","sourceKey":"way:227789771"}},{"type":"Feature","geometry":{"type":"LineString","coordinates":[[111.777648,22.7483024],[111.7769076,22.7486587],[111.7759163,22.7489584],[111.7749345,22.7490295],[111.7739422,22.7488991],[111.7729487,22.7486092],[111.7702514,22.7478273],[111.7696506,22.7477284],[111.769082,22.7476821],[111.7683041,22.7477433],[111.7676331,22.7478622],[111.7670703,22.7480797],[111.7661203,22.7485498],[111.7642771451026,22.75]]},"properties":{"key":"way:494407503@detail:447_90","osmType":"way","osmId":494407503,"sourceRegion":"guangdong","featureType":"infrastructure","railClass":"national","mode":"rail","name":"罗定铁路","usage":"branch","status":"operational","color":"#E54848","dataOrigin":"datum-2026-08-01","sourceKey":"way:494407503"}},{"type":"Feature","geometry":{"type":"LineString","coordinates":[[111.7785555,22.7476642],[111.777648,22.7483024]]},"properties":{"key":"way:600682563@detail:447_90","osmType":"way","osmId":600682563,"sourceRegion":"guangdong","featureType":"infrastructure","railClass":"national","mode":"rail","name":"罗定铁路","usage":"branch","bridge":"yes","status":"operational","color":"#E54848","dataOrigin":"datum-2026-08-01","sourceKey":"way:600682563"}},{"type":"Feature","geometry":{"type":"LineString","coordinates":[[111.8115849,22.7282329],[111.8013855,22.7342086],[111.7894888,22.7411784]]},"properties":{"key":"way:600682564@detail:447_90","osmType":"way","osmId":600682564,"sourceRegion":"guangdong","featureType":"infrastructure","railClass":"national","mode":"rail","name":"罗定铁路","usage":"branch","tunnel":"yes","status":"operational","color":"#E54848","dataOrigin":"datum-2026-08-01","sourceKey":"way:600682564"}},{"type":"Feature","geometry":{"type":"LineString","coordinates":[[111.7894888,22.7411784],[111.7858618,22.7430038],[111.7842096,22.7438944],[111.7805181,22.7462346],[111.7785555,22.7476642]]},"properties":{"key":"way:600682565@detail:447_90","osmType":"way","osmId":600682565,"sourceRegion":"guangdong","featureType":"infrastructure","railClass":"national","mode":"rail","name":"罗定铁路","usage":"branch","status":"operational","color":"#E54848","dataOrigin":"datum-2026-08-01","sourceKey":"way:600682565"}},{"type":"Feature","geometry":{"type":"LineString","coordinates":[[111.8408882,22.7068491],[111.8407673,22.7071634]]},"properties":{"key":"way:757305574@detail:447_90","osmType":"way","osmId":757305574,"sourceRegion":"guangdong","featureType":"infrastructure","railClass":"national","mode":"rail","name":"罗定铁路","usage":"branch","bridge":"yes","status":"operational","color":"#E54848","dataOrigin":"datum-2026-08-01","sourceKey":"way:757305574"}},{"type":"Feature","geometry":{"type":"LineString","coordinates":[[111.8407673,22.7071634],[111.8398601,22.7095261],[111.8393075,22.7106643],[111.8384975,22.7118024],[111.8377465,22.7126239],[111.8366146,22.7135542],[111.8352072,22.7145596]]},"properties":{"key":"way:757305575@detail:447_90","osmType":"way","osmId":757305575,"sourceRegion":"guangdong","featureType":"infrastructure","railClass":"national","mode":"rail","name":"罗定铁路","usage":"branch","status":"operational","color":"#E54848","dataOrigin":"datum-2026-08-01","sourceKey":"way:757305575"}},{"type":"Feature","geometry":{"type":"LineString","coordinates":[[111.8352072,22.7145596],[111.8345901,22.714991]]},"properties":{"key":"way:757305576@detail:447_90","osmType":"way","osmId":757305576,"sourceRegion":"guangdong","featureType":"infrastructure","railClass":"national","mode":"rail","name":"罗定铁路","usage":"branch","bridge":"yes","status":"operational","color":"#E54848","dataOrigin":"datum-2026-08-01","sourceKey":"way:757305576"}},{"type":"Feature","geometry":{"type":"LineString","coordinates":[[111.8345901,22.714991],[111.8278545,22.7198484],[111.825639,22.7213972],[111.8245125,22.7218994],[111.8196037,22.7239601]]},"properties":{"key":"way:757305577@detail:447_90","osmType":"way","osmId":757305577,"sourceRegion":"guangdong","featureType":"infrastructure","railClass":"national","mode":"rail","name":"罗定铁路","usage":"branch","status":"operational","color":"#E54848","dataOrigin":"datum-2026-08-01","sourceKey":"way:757305577"}},{"type":"Feature","geometry":{"type":"LineString","coordinates":[[111.8196037,22.7239601],[111.8192481,22.7241202]]},"properties":{"key":"way:757305578@detail:447_90","osmType":"way","osmId":757305578,"sourceRegion":"guangdong","featureType":"infrastructure","railClass":"national","mode":"rail","name":"罗定铁路","usage":"branch","bridge":"yes","status":"operational","color":"#E54848","dataOrigin":"datum-2026-08-01","sourceKey":"way:757305578"}},{"type":"Feature","geometry":{"type":"LineString","coordinates":[[111.8192481,22.7241202],[111.8159562,22.7255238],[111.8130864,22.7270373],[111.8115849,22.7282329]]},"properties":{"key":"way:757305579@detail:447_90","osmType":"way","osmId":757305579,"sourceRegion":"guangdong","featureType":"infrastructure","railClass":"national","mode":"rail","name":"罗定铁路","usage":"branch","status":"operational","color":"#E54848","dataOrigin":"datum-2026-08-01","sourceKey":"way:757305579"}},{"type":"Feature","geometry":{"type":"LineString","coordinates":[[111.9957428,22.5193699],[111.9960658,22.5197976],[111.9972456,22.5215491],[112.0,22.525860562861773]]},"properties":{"key":"way:793531443@detail:447_90","osmType":"way","osmId":793531443,"sourceRegion":"guangdong","featureType":"infrastructure","railClass":"national","mode":"rail","name":"未命名","status":"operational","color":"#E54848","dataOrigin":"datum-2026-08-01","sourceKey":"way:793531443"}},{"type":"Feature","geometry":{"type":"LineString","coordinates":[[111.98856221442125,22.5],[111.988714,22.500656],[111.990828,22.510965],[111.991076,22.511801],[111.991328,22.512404],[111.991623,22.512973],[111.9921597,22.5138005],[111.992763,22.514783],[111.9945964,22.5175994],[111.9955983,22.5191384],[111.9957428,22.5193699],[111.9971723,22.5216031],[112.0,22.525958404473513]]},"properties":{"key":"way:1489615979@detail:447_90","osmType":"way","osmId":1489615979,"sourceRegion":"guangdong","featureType":"infrastructure","railClass":"national","mode":"rail","name":"广茂线","nameEn":"Guangmao Line","ref":"0708","operator":"中国铁路广州局集团有限公司","usage":"main","status":"operational","color":"#E54848","dataOrigin":"datum-2026-08-01","sourceKey":"way:1489615979"}}]}