{"type":"FeatureCollection","features":[{"type":"Feature","geometry":{"type":"LineString","coordinates":[[111.945362,24.063756],[111.9475913,24.0621767],[111.9499014,24.0604084],[111.9521539,24.0584686],[111.9559825,24.0550391],[111.9640738,24.0477347],[111.9678252,24.0443573],[111.9718763,24.0407013],[111.9747412,24.0381019],[111.9754293,24.0375081],[111.9787069,24.0347419],[111.9815191,24.0326683],[111.983495,24.0313792],[111.9892562,24.0275401],[111.9940311,24.0243829],[111.9967412,24.022539],[111.9990272,24.0208046],[112.0,24.019966796245132]]},"properties":{"key":"way:316056735@detail:447_96","osmType":"way","osmId":316056735,"sourceRegion":"guangdong","featureType":"infrastructure","railClass":"highspeed","mode":"rail","name":"贵广客专线","nameEn":"Guiguang Passenger Line","ref":"3044","usage":"main","highspeed":"yes","bridge":"viaduct","status":"operational","color":"#E54848","dataOrigin":"datum-2026-08-01","sourceKey":"way:316056735"}},{"type":"Feature","geometry":{"type":"LineString","coordinates":[[111.9065595,24.0914674],[111.9071299,24.0911249],[111.9109646,24.0885544]]},"properties":{"key":"way:316056780@detail:447_96","osmType":"way","osmId":316056780,"sourceRegion":"guangdong","featureType":"infrastructure","railClass":"highspeed","mode":"rail","name":"贵广客专线","nameEn":"Guiguang Passenger Line","ref":"3044","usage":"main","highspeed":"yes","status":"operational","color":"#E54848","dataOrigin":"datum-2026-08-01","sourceKey":"way:316056780"}},{"type":"Feature","geometry":{"type":"LineString","coordinates":[[111.9109646,24.0885544],[111.9116106,24.0880935],[111.945362,24.063756]]},"properties":{"key":"way:316056781@detail:447_96","osmType":"way","osmId":316056781,"sourceRegion":"guangdong","featureType":"infrastructure","railClass":"highspeed","mode":"rail","name":"贵广客专线","nameEn":"Guiguang Passenger Line","ref":"3044","usage":"main","highspeed":"yes","tunnel":"yes","status":"operational","color":"#E54848","dataOrigin":"datum-2026-08-01","sourceKey":"way:316056781"}},{"type":"Feature","geometry":{"type":"LineString","coordinates":[[111.8502733,24.1232585],[111.9065595,24.0914674]]},"properties":{"key":"way:342312991@detail:447_96","osmType":"way","osmId":342312991,"sourceRegion":"guangdong","featureType":"infrastructure","railClass":"highspeed","mode":"rail","name":"贵广客专线","nameEn":"Guiguang Passenger Line","ref":"3044","usage":"main","highspeed":"yes","tunnel":"yes","status":"operational","color":"#E54848","dataOrigin":"datum-2026-08-01","sourceKey":"way:342312991"}},{"type":"Feature","geometry":{"type":"LineString","coordinates":[[111.9065225,24.0914144],[111.8502364,24.1232054]]},"properties":{"key":"way:631438844@detail:447_96","osmType":"way","osmId":631438844,"sourceRegion":"guangdong","featureType":"infrastructure","railClass":"highspeed","mode":"rail","name":"贵广客专线","nameEn":"Guiguang Passenger Line","ref":"3044","usage":"main","highspeed":"yes","tunnel":"yes","status":"operational","color":"#E54848","dataOrigin":"datum-2026-08-01","sourceKey":"way:631438844"}},{"type":"Feature","geometry":{"type":"LineString","coordinates":[[111.910923,24.0885043],[111.9070906,24.0910733],[111.9065225,24.0914144]]},"properties":{"key":"way:631438851@detail:447_96","osmType":"way","osmId":631438851,"sourceRegion":"guangdong","featureType":"infrastructure","railClass":"highspeed","mode":"rail","name":"贵广客专线","nameEn":"Guiguang Passenger Line","ref":"3044","usage":"main","highspeed":"yes","status":"operational","color":"#E54848","dataOrigin":"datum-2026-08-01","sourceKey":"way:631438851"}},{"type":"Feature","geometry":{"type":"LineString","coordinates":[[111.9453196,24.0637065],[111.9115681,24.0880441],[111.910923,24.0885043]]},"properties":{"key":"way:631438856@detail:447_96","osmType":"way","osmId":631438856,"sourceRegion":"guangdong","featureType":"infrastructure","railClass":"highspeed","mode":"rail","name":"贵广客专线","nameEn":"Guiguang Passenger Line","ref":"3044","usage":"main","highspeed":"yes","tunnel":"yes","status":"operational","color":"#E54848","dataOrigin":"datum-2026-08-01","sourceKey":"way:631438856"}},{"type":"Feature","geometry":{"type":"LineString","coordinates":[[112.0,24.01988037805905],[111.9989815,24.0207575],[111.9966986,24.0224896],[111.9939903,24.0243322],[111.9892157,24.0274892],[111.9834535,24.031329],[111.9814642,24.0326445],[111.9786712,24.0347017],[111.9753825,24.037462],[111.9746933,24.0380567],[111.9718278,24.0406566],[111.9677768,24.0443125],[111.9640254,24.0476899],[111.9559342,24.0549943],[111.9521062,24.0584233],[111.9498556,24.0603614],[111.9475481,24.0621277],[111.9453196,24.0637065]]},"properties":{"key":"way:631438863@detail:447_96","osmType":"way","osmId":631438863,"sourceRegion":"guangdong","featureType":"infrastructure","railClass":"highspeed","mode":"rail","name":"贵广客专线","nameEn":"Guiguang Passenger Line","ref":"3044","usage":"main","highspeed":"yes","bridge":"viaduct","status":"operational","color":"#E54848","dataOrigin":"datum-2026-08-01","sourceKey":"way:631438863"}}]}