{"type":"FeatureCollection","features":[{"type":"Feature","geometry":{"type":"Point","coordinates":[111.9438153,22.460293]},"properties":{"key":"node:2662698266","osmType":"node","osmId":2662698266,"sourceRegion":"guangdong","featureType":"station","railClass":"minor","mode":"station","name":"春湾","nameEn":"Chunwan","status":"operational","color":"#52636F","dataOrigin":"datum-2026-08-01","sourceKey":"node:2662698266","stationGroup":"春湾","hasOperationalRail":true,"hasConstructionRail":false}},{"type":"Feature","geometry":{"type":"Point","coordinates":[111.8420634,22.3224683]},"properties":{"key":"node:9193526301","osmType":"node","osmId":9193526301,"sourceRegion":"guangdong","featureType":"station","railClass":"minor","mode":"station","name":"陂面","nameEn":"Beimian","status":"operational","color":"#52636F","dataOrigin":"datum-2026-08-01","sourceKey":"node:9193526301","stationGroup":"陂面","hasOperationalRail":true,"hasConstructionRail":false}},{"type":"Feature","geometry":{"type":"Point","coordinates":[111.8993247,22.3982579]},"properties":{"key":"node:9193526302","osmType":"node","osmId":9193526302,"sourceRegion":"guangdong","featureType":"station","railClass":"minor","mode":"station","name":"潭寮","nameEn":"Tanliao","status":"operational","color":"#52636F","dataOrigin":"datum-2026-08-01","sourceKey":"node:9193526302","stationGroup":"潭寮","hasOperationalRail":true,"hasConstructionRail":false}},{"type":"Feature","geometry":{"type":"LineString","coordinates":[[111.856254,22.3342892],[111.858568,22.336168],[111.859129,22.336683],[111.859805,22.337431],[111.86071,22.338688],[111.861384,22.339763],[111.868626,22.352971],[111.869218,22.353821],[111.870983,22.356059],[111.871563,22.356906],[111.871928,22.357573],[111.872625,22.359171],[111.878133,22.373443],[111.878554,22.374366],[111.879063,22.375255],[111.879844,22.376278],[111.880568,22.377003],[111.891011,22.386018],[111.891771,22.386691],[111.892879,22.38779],[111.893533,22.388598],[111.894268,22.389675],[111.8972471,22.3948546],[111.898484,22.397005],[111.9014173,22.402127],[111.9017003,22.4026409],[111.9020875,22.4033755],[111.903023,22.404961],[111.9048769,22.4080853],[111.905503,22.40916],[111.906011,22.409798],[111.906803,22.410566],[111.909211,22.412333],[111.909816,22.412861],[111.910675,22.413881],[111.911104,22.414535],[111.911344,22.414993],[111.911865,22.41614],[111.913123,22.419161],[111.914055,22.42152],[111.918399,22.430355],[111.9185289,22.4306734]]},"properties":{"key":"way:48996052@detail:447_89","osmType":"way","osmId":48996052,"sourceRegion":"guangdong","featureType":"infrastructure","railClass":"national","mode":"rail","name":"广茂线","nameEn":"Guangmao Line","ref":"0708","operator":"中国铁路广州局集团有限公司","usage":"main","status":"operational","color":"#E54848","dataOrigin":"datum-2026-08-01","sourceKey":"way:48996052"}},{"type":"Feature","geometry":{"type":"LineString","coordinates":[[111.79715563094156,22.25],[111.798664,22.2530709],[111.802848,22.26095],[111.803576,22.262006],[111.8057988,22.2646258],[111.806515,22.26544],[111.807104,22.266261],[111.807508,22.266933],[111.808055,22.268056],[111.815459,22.284698],[111.816239,22.286031],[111.820443,22.291899],[111.821129,22.292981],[111.821351,22.293429],[111.821615,22.294131],[111.822348,22.29678],[111.822623,22.297481],[111.822973,22.298154],[111.823394,22.298796],[111.823869,22.299411],[111.827645,22.303953],[111.828418,22.304971],[111.8288691,22.3057021],[111.8291397,22.3062268],[111.829154,22.306244],[111.831334,22.310275],[111.83201,22.31137],[111.832781,22.312411],[111.833464,22.313208],[111.836086,22.3160606],[111.83679,22.3168118],[111.8369478,22.3169803],[111.8409197,22.3212187],[111.8427882,22.3232554],[111.8432396,22.3237367],[111.8435634,22.3240819],[111.8438339,22.3243704],[111.845701,22.326373],[111.847333,22.328059],[111.847757,22.3284515],[111.8482914,22.3288644],[111.8487009,22.3291325],[111.8492924,22.3294735],[111.8499898,22.3298425]]},"properties":{"key":"way:48996503@detail:447_89","osmType":"way","osmId":48996503,"sourceRegion":"guangdong","featureType":"infrastructure","railClass":"national","mode":"rail","name":"广茂线","nameEn":"Guangmao Line","ref":"0708","operator":"中国铁路广州局集团有限公司","usage":"main","status":"operational","color":"#E54848","dataOrigin":"datum-2026-08-01","sourceKey":"way:48996503"}},{"type":"Feature","geometry":{"type":"LineString","coordinates":[[111.8540211,22.3324843],[111.856254,22.3342892]]},"properties":{"key":"way:151362681@detail:447_89","osmType":"way","osmId":151362681,"sourceRegion":"guangdong","featureType":"infrastructure","railClass":"national","mode":"rail","name":"广茂线","nameEn":"Guangmao Line","ref":"0708","operator":"中国铁路广州局集团有限公司","usage":"main","bridge":"yes","status":"operational","color":"#E54848","dataOrigin":"datum-2026-08-01","sourceKey":"way:151362681"}},{"type":"Feature","geometry":{"type":"LineString","coordinates":[[111.9273803,22.4500778],[111.9298759,22.4506738]]},"properties":{"key":"way:151362684@detail:447_89","osmType":"way","osmId":151362684,"sourceRegion":"guangdong","featureType":"infrastructure","railClass":"national","mode":"rail","name":"广茂线","nameEn":"Guangmao Line","ref":"0708","operator":"中国铁路广州局集团有限公司","usage":"main","bridge":"yes","status":"operational","color":"#E54848","dataOrigin":"datum-2026-08-01","sourceKey":"way:151362684"}},{"type":"Feature","geometry":{"type":"LineString","coordinates":[[111.9298759,22.4506738],[111.9312845,22.4510073],[111.9320079,22.451228],[111.9323673,22.4513462],[111.9328562,22.4515456],[111.9333574,22.4517855],[111.9337335,22.4520018],[111.9342351,22.4523173],[111.9352324,22.453111],[111.9365937,22.4542653],[111.9370061,22.4546143],[111.9379866,22.455444],[111.9383426,22.4557472],[111.9387441,22.4560892],[111.939011,22.4563165],[111.9458746,22.4621493],[111.9460408,22.4622906],[111.9465066,22.4626814],[111.9484702,22.4643289]]},"properties":{"key":"way:151362693@detail:447_89","osmType":"way","osmId":151362693,"sourceRegion":"guangdong","featureType":"infrastructure","railClass":"national","mode":"rail","name":"广茂线","nameEn":"Guangmao Line","ref":"0708","operator":"中国铁路广州局集团有限公司","usage":"main","status":"operational","color":"#E54848","dataOrigin":"datum-2026-08-01","sourceKey":"way:151362693"}},{"type":"Feature","geometry":{"type":"LineString","coordinates":[[111.9373191,22.4549355],[111.9368692,22.454547],[111.9366378,22.4543525],[111.9359358,22.4537622],[111.9350748,22.453032],[111.9343554,22.4524633],[111.9338952,22.4521709],[111.9335069,22.4519649],[111.932867,22.4516659],[111.9316518,22.4512871],[111.9297896,22.4508286]]},"properties":{"key":"way:227789685@detail:447_89","osmType":"way","osmId":227789685,"sourceRegion":"guangdong","featureType":"infrastructure","railClass":"national","mode":"rail","name":"春罗线","nameEn":"Chunluo Line","usage":"branch","status":"operational","color":"#E54848","dataOrigin":"datum-2026-08-01","sourceKey":"way:227789685"}},{"type":"Feature","geometry":{"type":"LineString","coordinates":[[111.9205509,22.4401887],[111.920856,22.442481],[111.921128,22.444211],[111.921316,22.444954],[111.921693,22.445916],[111.922079,22.446593],[111.922528,22.447229],[111.923058,22.447828],[111.923881,22.448539],[111.924798,22.449134],[111.925548,22.449496],[111.926336,22.449796],[111.9273803,22.4500778]]},"properties":{"key":"way:227789688@detail:447_89","osmType":"way","osmId":227789688,"sourceRegion":"guangdong","featureType":"infrastructure","railClass":"national","mode":"rail","name":"广茂线","nameEn":"Guangmao Line","ref":"0708","operator":"中国铁路广州局集团有限公司","usage":"main","status":"operational","color":"#E54848","dataOrigin":"datum-2026-08-01","sourceKey":"way:227789688"}},{"type":"Feature","geometry":{"type":"LineString","coordinates":[[111.9185289,22.4306734],[111.9186327,22.4309275]]},"properties":{"key":"way:227789695@detail:447_89","osmType":"way","osmId":227789695,"sourceRegion":"guangdong","featureType":"infrastructure","railClass":"national","mode":"rail","name":"广茂线","nameEn":"Guangmao Line","ref":"0708","operator":"中国铁路广州局集团有限公司","usage":"main","bridge":"yes","status":"operational","color":"#E54848","dataOrigin":"datum-2026-08-01","sourceKey":"way:227789695"}},{"type":"Feature","geometry":{"type":"LineString","coordinates":[[111.9484702,22.4643289],[111.9490626,22.4648203]]},"properties":{"key":"way:227789707@detail:447_89","osmType":"way","osmId":227789707,"sourceRegion":"guangdong","featureType":"infrastructure","railClass":"national","mode":"rail","name":"广茂线","nameEn":"Guangmao Line","ref":"0708","operator":"中国铁路广州局集团有限公司","usage":"main","bridge":"yes","status":"operational","color":"#E54848","dataOrigin":"datum-2026-08-01","sourceKey":"way:227789707"}},{"type":"Feature","geometry":{"type":"LineString","coordinates":[[111.9205272,22.4400105],[111.9205509,22.4401887]]},"properties":{"key":"way:227789709@detail:447_89","osmType":"way","osmId":227789709,"sourceRegion":"guangdong","featureType":"infrastructure","railClass":"national","mode":"rail","name":"广茂线","nameEn":"Guangmao Line","ref":"0708","operator":"中国铁路广州局集团有限公司","usage":"main","bridge":"yes","status":"operational","color":"#E54848","dataOrigin":"datum-2026-08-01","sourceKey":"way:227789709"}},{"type":"Feature","geometry":{"type":"LineString","coordinates":[[111.9490889,22.4650173],[111.9483548,22.4643976]]},"properties":{"key":"way:227789711@detail:447_89","osmType":"way","osmId":227789711,"sourceRegion":"guangdong","featureType":"infrastructure","railClass":"minor","mode":"rail","name":"未命名","service":"yard","bridge":"yes","status":"operational","color":"#52636F","dataOrigin":"datum-2026-08-01","sourceKey":"way:227789711"}},{"type":"Feature","geometry":{"type":"LineString","coordinates":[[111.9297896,22.4508286],[111.9273449,22.4502372]]},"properties":{"key":"way:227789716@detail:447_89","osmType":"way","osmId":227789716,"sourceRegion":"guangdong","featureType":"infrastructure","railClass":"national","mode":"rail","name":"春罗线","nameEn":"Chunluo Line","usage":"branch","bridge":"yes","status":"operational","color":"#E54848","dataOrigin":"datum-2026-08-01","sourceKey":"way:227789716"}},{"type":"Feature","geometry":{"type":"LineString","coordinates":[[111.954079,22.4695893],[111.9538086,22.4692521],[111.9534462,22.4688465],[111.952942,22.4683844],[111.9522394,22.4677641],[111.9490889,22.4650173]]},"properties":{"key":"way:227789723@detail:447_89","osmType":"way","osmId":227789723,"sourceRegion":"guangdong","featureType":"infrastructure","railClass":"minor","mode":"rail","name":"未命名","service":"yard","status":"operational","color":"#52636F","dataOrigin":"datum-2026-08-01","sourceKey":"way:227789723"}},{"type":"Feature","geometry":{"type":"LineString","coordinates":[[111.9416677,22.4570158],[111.9398825,22.4565101],[111.939383,22.4563032],[111.9383738,22.4556347],[111.9380885,22.4554428]]},"properties":{"key":"way:227789745@detail:447_89","osmType":"way","osmId":227789745,"sourceRegion":"guangdong","featureType":"infrastructure","railClass":"minor","mode":"rail","name":"未命名","service":"yard","status":"operational","color":"#52636F","dataOrigin":"datum-2026-08-01","sourceKey":"way:227789745"}},{"type":"Feature","geometry":{"type":"LineString","coordinates":[[111.9273449,22.4502372],[111.9261801,22.4499647],[111.9255977,22.4498251],[111.9249937,22.4497255],[111.924289,22.4496457],[111.9235628,22.449659],[111.9230164,22.4496989],[111.9222326,22.4498318],[111.9214992,22.4500179],[111.9207658,22.4502504],[111.9199893,22.4505827],[111.919335,22.4509947],[111.9187238,22.45144],[111.9181845,22.451945],[111.9177387,22.4524234],[111.9159973,22.4547276],[111.9151143,22.4560052],[111.914611,22.4567029],[111.9143209,22.4571742],[111.9141652,22.4574205],[111.9138416,22.4581648],[111.9136043,22.4589223],[111.913439,22.4597728],[111.9134174,22.4604838],[111.9134533,22.4611882],[111.9135756,22.4620587],[111.9144528,22.4656135],[111.9146397,22.4666301],[111.9147476,22.4676606],[111.9147692,22.4686777],[111.9147476,22.4696948],[111.9147086,22.4698507],[111.9145462,22.4708182],[111.9143376,22.4717755],[111.9140426,22.4727261],[111.912201,22.4768076],[111.9121425,22.4768698],[111.91061,22.4802521],[111.9091898,22.4832636],[111.9091365,22.4833886],[111.9076329,22.4865523],[111.9051558,22.4919251],[111.9049568,22.4923017],[111.9029497,22.496602],[111.9024246,22.4977652],[111.9020289,22.4987089],[111.9018571,22.4991999],[111.90160624666511,22.5]]},"properties":{"key":"way:227789747@detail:447_89","osmType":"way","osmId":227789747,"sourceRegion":"guangdong","featureType":"infrastructure","railClass":"national","mode":"rail","name":"春罗线","nameEn":"Chunluo Line","usage":"branch","status":"operational","color":"#E54848","dataOrigin":"datum-2026-08-01","sourceKey":"way:227789747"}},{"type":"Feature","geometry":{"type":"LineString","coordinates":[[111.9461901,22.4626384],[111.9458009,22.4624194],[111.9453829,22.462184],[111.9451769,22.4620403],[111.9449205,22.4618254],[111.9436918,22.4607859],[111.9392489,22.4570043],[111.9390543,22.4568293],[111.9387917,22.4565567],[111.9384492,22.4561281],[111.9378189,22.4554562],[111.9376425,22.4552682]]},"properties":{"key":"way:227789752@detail:447_89","osmType":"way","osmId":227789752,"sourceRegion":"guangdong","featureType":"infrastructure","railClass":"minor","mode":"rail","name":"未命名","service":"yard","status":"operational","color":"#52636F","dataOrigin":"datum-2026-08-01","sourceKey":"way:227789752"}},{"type":"Feature","geometry":{"type":"LineString","coordinates":[[111.9186327,22.4309275],[111.919143,22.432178],[111.919555,22.433575],[111.919891,22.435231],[111.9205272,22.4400105]]},"properties":{"key":"way:227789753@detail:447_89","osmType":"way","osmId":227789753,"sourceRegion":"guangdong","featureType":"infrastructure","railClass":"national","mode":"rail","name":"广茂线","nameEn":"Guangmao Line","ref":"0708","operator":"中国铁路广州局集团有限公司","usage":"main","status":"operational","color":"#E54848","dataOrigin":"datum-2026-08-01","sourceKey":"way:227789753"}},{"type":"Feature","geometry":{"type":"LineString","coordinates":[[111.9311745,22.451735],[111.9323737,22.4521533],[111.9335139,22.452551],[111.9338702,22.4526778],[111.9341344,22.4527718],[111.9349498,22.4530866],[111.9351697,22.4531981],[111.935332,22.453312],[111.9363279,22.4541552],[111.9367851,22.4545423],[111.9369288,22.454664],[111.9372722,22.4549547],[111.9376425,22.4552682],[111.9380412,22.4556058],[111.9382924,22.4558222],[111.9385005,22.4560015],[111.9389175,22.4563607]]},"properties":{"key":"way:227789762@detail:447_89","osmType":"way","osmId":227789762,"sourceRegion":"guangdong","featureType":"infrastructure","railClass":"minor","mode":"rail","name":"未命名","service":"yard","status":"operational","color":"#52636F","dataOrigin":"datum-2026-08-01","sourceKey":"way:227789762"}},{"type":"Feature","geometry":{"type":"LineString","coordinates":[[111.9349963,22.4539282],[111.9354689,22.4540472],[111.9358499,22.4541801],[111.9363532,22.4544259],[111.9365487,22.4545345],[111.9368088,22.4547157],[111.9371519,22.4550011],[111.9375641,22.455344]]},"properties":{"key":"way:227789769@detail:447_89","osmType":"way","osmId":227789769,"sourceRegion":"guangdong","featureType":"infrastructure","railClass":"minor","mode":"rail","name":"未命名","service":"yard","status":"operational","color":"#52636F","dataOrigin":"datum-2026-08-01","sourceKey":"way:227789769"}},{"type":"Feature","geometry":{"type":"LineString","coordinates":[[111.9383738,22.4556347],[111.9389516,22.4559001],[111.9392316,22.4559724],[111.9394505,22.4560414],[111.9412181,22.456547]]},"properties":{"key":"way:600682506@detail:447_89","osmType":"way","osmId":600682506,"sourceRegion":"guangdong","featureType":"infrastructure","railClass":"minor","mode":"rail","name":"未命名","service":"yard","status":"operational","color":"#52636F","dataOrigin":"datum-2026-08-01","sourceKey":"way:600682506"}},{"type":"Feature","geometry":{"type":"LineString","coordinates":[[111.9347656,22.4538857],[111.9349963,22.4539282]]},"properties":{"key":"way:600682541@detail:447_89","osmType":"way","osmId":600682541,"sourceRegion":"guangdong","featureType":"infrastructure","railClass":"minor","mode":"rail","name":"未命名","service":"yard","bridge":"yes","status":"operational","color":"#52636F","dataOrigin":"datum-2026-08-01","sourceKey":"way:600682541"}},{"type":"Feature","geometry":{"type":"LineString","coordinates":[[111.9317767,22.4534824],[111.9335186,22.4537293],[111.9347656,22.4538857]]},"properties":{"key":"way:600682543@detail:447_89","osmType":"way","osmId":600682543,"sourceRegion":"guangdong","featureType":"infrastructure","railClass":"minor","mode":"rail","name":"未命名","service":"yard","status":"operational","color":"#52636F","dataOrigin":"datum-2026-08-01","sourceKey":"way:600682543"}},{"type":"Feature","geometry":{"type":"LineString","coordinates":[[111.933724,22.4525561],[111.9332761,22.4523801],[111.9312671,22.4517034]]},"properties":{"key":"way:600682544@detail:447_89","osmType":"way","osmId":600682544,"sourceRegion":"guangdong","featureType":"infrastructure","railClass":"minor","mode":"rail","name":"未命名","service":"yard","status":"operational","color":"#52636F","dataOrigin":"datum-2026-08-01","sourceKey":"way:600682544"}},{"type":"Feature","geometry":{"type":"LineString","coordinates":[[111.934234,22.4528602],[111.9338702,22.4526778]]},"properties":{"key":"way:600682546@detail:447_89","osmType":"way","osmId":600682546,"sourceRegion":"guangdong","featureType":"infrastructure","railClass":"minor","mode":"rail","name":"未命名","service":"yard","status":"operational","color":"#52636F","dataOrigin":"datum-2026-08-01","sourceKey":"way:600682546"}},{"type":"Feature","geometry":{"type":"LineString","coordinates":[[111.934234,22.4528602],[111.9347409,22.4530396],[111.9350446,22.4531634],[111.9352837,22.4533169],[111.9356242,22.453612],[111.9361371,22.4540675],[111.9362933,22.4541995],[111.9367715,22.4546037],[111.9369131,22.4547234],[111.9371677,22.4549329],[111.9372213,22.454977],[111.9372764,22.4550244],[111.9376334,22.4553314]]},"properties":{"key":"way:600682547@detail:447_89","osmType":"way","osmId":600682547,"sourceRegion":"guangdong","featureType":"infrastructure","railClass":"minor","mode":"rail","name":"未命名","service":"yard","status":"operational","color":"#52636F","dataOrigin":"datum-2026-08-01","sourceKey":"way:600682547"}},{"type":"Feature","geometry":{"type":"LineString","coordinates":[[111.9306877,22.451329],[111.9328549,22.4520901],[111.933201,22.4522512],[111.933724,22.4525561],[111.9341344,22.4527718]]},"properties":{"key":"way:600682548@detail:447_89","osmType":"way","osmId":600682548,"sourceRegion":"guangdong","featureType":"infrastructure","railClass":"minor","mode":"rail","name":"未命名","service":"yard","status":"operational","color":"#52636F","dataOrigin":"datum-2026-08-01","sourceKey":"way:600682548"}},{"type":"Feature","geometry":{"type":"LineString","coordinates":[[111.9339826,22.4527963],[111.9337267,22.4527519],[111.9330373,22.452628],[111.9327638,22.4525462],[111.9315836,22.4521396],[111.9313073,22.4520107],[111.9308108,22.4517465]]},"properties":{"key":"way:600682550@detail:447_89","osmType":"way","osmId":600682550,"sourceRegion":"guangdong","featureType":"infrastructure","railClass":"minor","mode":"rail","name":"未命名","service":"yard","status":"operational","color":"#52636F","dataOrigin":"datum-2026-08-01","sourceKey":"way:600682550"}},{"type":"Feature","geometry":{"type":"LineString","coordinates":[[111.9320282,22.4521828],[111.933496,22.4526875],[111.9337267,22.4527519]]},"properties":{"key":"way:600682551@detail:447_89","osmType":"way","osmId":600682551,"sourceRegion":"guangdong","featureType":"infrastructure","railClass":"minor","mode":"rail","name":"未命名","service":"yard","status":"operational","color":"#52636F","dataOrigin":"datum-2026-08-01","sourceKey":"way:600682551"}},{"type":"Feature","geometry":{"type":"LineString","coordinates":[[111.9315817,22.4519748],[111.9320282,22.4521828],[111.932348,22.4523429],[111.9330561,22.4525834],[111.933496,22.4526875]]},"properties":{"key":"way:600682552@detail:447_89","osmType":"way","osmId":600682552,"sourceRegion":"guangdong","featureType":"infrastructure","railClass":"minor","mode":"rail","name":"未命名","service":"yard","status":"operational","color":"#52636F","dataOrigin":"datum-2026-08-01","sourceKey":"way:600682552"}},{"type":"Feature","geometry":{"type":"LineString","coordinates":[[111.9316855,22.4520107],[111.9323737,22.4521533]]},"properties":{"key":"way:600682554@detail:447_89","osmType":"way","osmId":600682554,"sourceRegion":"guangdong","featureType":"infrastructure","railClass":"minor","mode":"rail","name":"未命名","service":"yard","status":"operational","color":"#52636F","dataOrigin":"datum-2026-08-01","sourceKey":"way:600682554"}},{"type":"Feature","geometry":{"type":"LineString","coordinates":[[111.9308272,22.4517133],[111.9315817,22.4519748],[111.9316855,22.4520107],[111.9320491,22.4521351],[111.9338707,22.4527581],[111.9339826,22.4527963],[111.934234,22.4528602]]},"properties":{"key":"way:600682555@detail:447_89","osmType":"way","osmId":600682555,"sourceRegion":"guangdong","featureType":"infrastructure","railClass":"minor","mode":"rail","name":"未命名","service":"yard","status":"operational","color":"#52636F","dataOrigin":"datum-2026-08-01","sourceKey":"way:600682555"}},{"type":"Feature","geometry":{"type":"LineString","coordinates":[[111.9675075,22.2857433],[111.93906453877717,22.25]]},"properties":{"key":"way:1052867804@detail:447_89","osmType":"way","osmId":1052867804,"sourceRegion":"guangdong","featureType":"infrastructure","railClass":"highspeed","mode":"rail","name":"广湛高速线","nameEn":"Guangzhou-Zhanjiang Railway","usage":"main","highspeed":"yes","tunnel":"yes","status":"operational","color":"#E54848","dataOrigin":"datum-2026-08-01","sourceKey":"way:1052867804"}},{"type":"Feature","geometry":{"type":"LineString","coordinates":[[111.9800274,22.3007133],[111.9722778,22.2914639]]},"properties":{"key":"way:1052867806@detail:447_89","osmType":"way","osmId":1052867806,"sourceRegion":"guangdong","featureType":"infrastructure","railClass":"highspeed","mode":"rail","name":"广湛高速线","nameEn":"Guangzhou-Zhanjiang Railway","usage":"main","highspeed":"yes","bridge":"yes","status":"operational","color":"#E54848","dataOrigin":"datum-2026-08-01","sourceKey":"way:1052867806"}},{"type":"Feature","geometry":{"type":"LineString","coordinates":[[111.9953511,22.3250952],[111.9945681,22.3238861],[111.9938035,22.3226439],[111.992974,22.3212598],[111.9921822,22.3199215],[111.9913842,22.3185429],[111.9905458,22.317028],[111.9887125,22.3136143],[111.9879727,22.3122672],[111.9871915,22.3109163],[111.9864094,22.3096038],[111.9855682,22.3082408],[111.9847237,22.306928],[111.9838758,22.3057019],[111.9830033,22.3045108],[111.9820797,22.3032892],[111.9810541,22.3019751],[111.9800274,22.3007133]]},"properties":{"key":"way:1052867815@detail:447_89","osmType":"way","osmId":1052867815,"sourceRegion":"guangdong","featureType":"infrastructure","railClass":"highspeed","mode":"rail","name":"广湛高速线","nameEn":"Guangzhou-Zhanjiang Railway","usage":"main","highspeed":"yes","tunnel":"yes","status":"operational","color":"#E54848","dataOrigin":"datum-2026-08-01","sourceKey":"way:1052867815"}},{"type":"Feature","geometry":{"type":"LineString","coordinates":[[111.9960982,22.3262048],[111.9953511,22.3250952]]},"properties":{"key":"way:1052867816@detail:447_89","osmType":"way","osmId":1052867816,"sourceRegion":"guangdong","featureType":"infrastructure","railClass":"highspeed","mode":"rail","name":"广湛高速线","nameEn":"Guangzhou-Zhanjiang Railway","usage":"main","highspeed":"yes","status":"operational","color":"#E54848","dataOrigin":"datum-2026-08-01","sourceKey":"way:1052867816"}},{"type":"Feature","geometry":{"type":"LineString","coordinates":[[112.0,22.331752366993253],[111.9999536,22.331688],[111.9980347,22.3289757],[111.9960982,22.3262048]]},"properties":{"key":"way:1052867817@detail:447_89","osmType":"way","osmId":1052867817,"sourceRegion":"guangdong","featureType":"infrastructure","railClass":"highspeed","mode":"rail","name":"广湛高速线","nameEn":"Guangzhou-Zhanjiang Railway","usage":"main","highspeed":"yes","tunnel":"yes","status":"operational","color":"#E54848","dataOrigin":"datum-2026-08-01","sourceKey":"way:1052867817"}},{"type":"Feature","geometry":{"type":"LineString","coordinates":[[111.9330612,22.4514906],[111.9334686,22.451701],[111.9337963,22.4518903],[111.9341239,22.4521036],[111.9343894,22.4523266],[111.9349413,22.4527805],[111.9366937,22.4542661],[111.9380885,22.4554428],[111.9387285,22.4559898],[111.9392042,22.4564027],[111.9397106,22.4568422],[111.9414333,22.458303],[111.9454462,22.4617178],[111.9458746,22.4621493]]},"properties":{"key":"way:1058255957@detail:447_89","osmType":"way","osmId":1058255957,"sourceRegion":"guangdong","featureType":"infrastructure","railClass":"minor","mode":"rail","name":"未命名","service":"yard","status":"operational","color":"#52636F","dataOrigin":"datum-2026-08-01","sourceKey":"way:1058255957"}},{"type":"Feature","geometry":{"type":"LineString","coordinates":[[111.9370061,22.4546143],[111.9373191,22.4549355]]},"properties":{"key":"way:1058255959@detail:447_89","osmType":"way","osmId":1058255959,"sourceRegion":"guangdong","featureType":"infrastructure","railClass":"minor","mode":"rail","name":"未命名","service":"yard","status":"operational","color":"#52636F","dataOrigin":"datum-2026-08-01","sourceKey":"way:1058255959"}},{"type":"Feature","geometry":{"type":"LineString","coordinates":[[111.9482607,22.4643226],[111.9478861,22.4639162],[111.9475566,22.4636309],[111.9474704,22.4635598],[111.947029,22.4631961],[111.9469362,22.4631195],[111.9468371,22.4630339],[111.9464708,22.462717],[111.9460109,22.4623192],[111.9458732,22.4622],[111.9455764,22.4619433],[111.9452781,22.4617344],[111.9450941,22.4616035],[111.9429708,22.4597917],[111.9396212,22.4569475],[111.939477,22.4568249],[111.9393629,22.4567093],[111.9392047,22.456543],[111.939081,22.4564317],[111.9385672,22.4559954],[111.9383646,22.4558234],[111.9379431,22.4554654],[111.9376315,22.4552008],[111.9373191,22.4549355]]},"properties":{"key":"way:1058255960@detail:447_89","osmType":"way","osmId":1058255960,"sourceRegion":"guangdong","featureType":"infrastructure","railClass":"minor","mode":"rail","name":"未命名","service":"yard","status":"operational","color":"#52636F","dataOrigin":"datum-2026-08-01","sourceKey":"way:1058255960"}},{"type":"Feature","geometry":{"type":"LineString","coordinates":[[111.9371519,22.4550011],[111.9374078,22.4551766],[111.9376334,22.4553314],[111.9378189,22.4554562],[111.9380412,22.4556058],[111.9383646,22.4558234]]},"properties":{"key":"way:1058255961@detail:447_89","osmType":"way","osmId":1058255961,"sourceRegion":"guangdong","featureType":"infrastructure","railClass":"minor","mode":"rail","name":"未命名","service":"yard","status":"operational","color":"#52636F","dataOrigin":"datum-2026-08-01","sourceKey":"way:1058255961"}},{"type":"Feature","geometry":{"type":"LineString","coordinates":[[111.9385672,22.4559954],[111.9389175,22.4563607],[111.9391635,22.4566173],[111.9393354,22.4567665],[111.9419282,22.4589508],[111.9450535,22.4616299],[111.9452842,22.4617982],[111.9456222,22.4620288],[111.9458732,22.4622]]},"properties":{"key":"way:1058255962@detail:447_89","osmType":"way","osmId":1058255962,"sourceRegion":"guangdong","featureType":"infrastructure","railClass":"minor","mode":"rail","name":"未命名","service":"yard","status":"operational","color":"#52636F","dataOrigin":"datum-2026-08-01","sourceKey":"way:1058255962"}},{"type":"Feature","geometry":{"type":"LineString","coordinates":[[111.9385005,22.4560015],[111.9390554,22.4565785],[111.9391893,22.4567034],[111.9393766,22.4568603],[111.9447854,22.4614635],[111.9451093,22.4617298],[111.9453196,22.4618607],[111.9456222,22.4620288]]},"properties":{"key":"way:1058255963@detail:447_89","osmType":"way","osmId":1058255963,"sourceRegion":"guangdong","featureType":"infrastructure","railClass":"minor","mode":"rail","name":"未命名","service":"yard","status":"operational","color":"#52636F","dataOrigin":"datum-2026-08-01","sourceKey":"way:1058255963"}},{"type":"Feature","geometry":{"type":"LineString","coordinates":[[111.9392042,22.4564027],[111.9387441,22.4560892]]},"properties":{"key":"way:1058255964@detail:447_89","osmType":"way","osmId":1058255964,"sourceRegion":"guangdong","featureType":"infrastructure","railClass":"minor","mode":"rail","name":"未命名","service":"yard","status":"operational","color":"#52636F","dataOrigin":"datum-2026-08-01","sourceKey":"way:1058255964"}},{"type":"Feature","geometry":{"type":"LineString","coordinates":[[111.9376315,22.4552008],[111.9372722,22.4549547]]},"properties":{"key":"way:1058255965@detail:447_89","osmType":"way","osmId":1058255965,"sourceRegion":"guangdong","featureType":"infrastructure","railClass":"minor","mode":"rail","name":"未命名","service":"yard","status":"operational","color":"#52636F","dataOrigin":"datum-2026-08-01","sourceKey":"way:1058255965"}},{"type":"Feature","geometry":{"type":"LineString","coordinates":[[111.9454373,22.4623533],[111.9452808,22.4622196],[111.9450577,22.462029],[111.9448437,22.4618386],[111.9436499,22.4608277],[111.9410374,22.4586089],[111.9394463,22.4572576],[111.9390706,22.4569421],[111.9388477,22.4567232],[111.9383678,22.4562062],[111.9380738,22.4558896],[111.9378249,22.4556231],[111.9375641,22.455344],[111.9374078,22.4551766],[111.9372715,22.4550308],[111.9372213,22.454977],[111.9371733,22.4549256],[111.9369288,22.454664],[111.9366378,22.4543525]]},"properties":{"key":"way:1058255966@detail:447_89","osmType":"way","osmId":1058255966,"sourceRegion":"guangdong","featureType":"infrastructure","railClass":"minor","mode":"rail","name":"未命名","service":"yard","status":"operational","color":"#52636F","dataOrigin":"datum-2026-08-01","sourceKey":"way:1058255966"}},{"type":"Feature","geometry":{"type":"LineString","coordinates":[[111.9367715,22.4546037],[111.9365458,22.4543755],[111.9363279,22.4541552]]},"properties":{"key":"way:1058255967@detail:447_89","osmType":"way","osmId":1058255967,"sourceRegion":"guangdong","featureType":"infrastructure","railClass":"minor","mode":"rail","name":"未命名","service":"yard","status":"operational","color":"#52636F","dataOrigin":"datum-2026-08-01","sourceKey":"way:1058255967"}},{"type":"Feature","geometry":{"type":"LineString","coordinates":[[111.9367851,22.4545423],[111.9365458,22.4543755],[111.9362933,22.4541995]]},"properties":{"key":"way:1058255968@detail:447_89","osmType":"way","osmId":1058255968,"sourceRegion":"guangdong","featureType":"infrastructure","railClass":"minor","mode":"rail","name":"未命名","service":"yard","status":"operational","color":"#52636F","dataOrigin":"datum-2026-08-01","sourceKey":"way:1058255968"}},{"type":"Feature","geometry":{"type":"LineString","coordinates":[[111.9372715,22.4550308],[111.9371677,22.4549329]]},"properties":{"key":"way:1058255969@detail:447_89","osmType":"way","osmId":1058255969,"sourceRegion":"guangdong","featureType":"infrastructure","railClass":"minor","mode":"rail","name":"未命名","service":"yard","status":"operational","color":"#52636F","dataOrigin":"datum-2026-08-01","sourceKey":"way:1058255969"}},{"type":"Feature","geometry":{"type":"LineString","coordinates":[[111.9372764,22.4550244],[111.9371733,22.4549256]]},"properties":{"key":"way:1058255970@detail:447_89","osmType":"way","osmId":1058255970,"sourceRegion":"guangdong","featureType":"infrastructure","railClass":"minor","mode":"rail","name":"未命名","service":"yard","status":"operational","color":"#52636F","dataOrigin":"datum-2026-08-01","sourceKey":"way:1058255970"}},{"type":"Feature","geometry":{"type":"LineString","coordinates":[[111.9468371,22.4630339],[111.9463735,22.4627145],[111.9461825,22.4625828],[111.9455802,22.4621679],[111.9453833,22.4620212],[111.944748,22.4614956],[111.9391027,22.4566775],[111.9384327,22.4559702],[111.9382924,22.4558222]]},"properties":{"key":"way:1058255971@detail:447_89","osmType":"way","osmId":1058255971,"sourceRegion":"guangdong","featureType":"infrastructure","railClass":"minor","mode":"rail","name":"未命名","service":"yard","status":"operational","color":"#52636F","dataOrigin":"datum-2026-08-01","sourceKey":"way:1058255971"}},{"type":"Feature","geometry":{"type":"LineString","coordinates":[[111.9464708,22.462717],[111.9462342,22.4624823],[111.9460408,22.4622906]]},"properties":{"key":"way:1058255972@detail:447_89","osmType":"way","osmId":1058255972,"sourceRegion":"guangdong","featureType":"infrastructure","railClass":"minor","mode":"rail","name":"未命名","service":"yard","status":"operational","color":"#52636F","dataOrigin":"datum-2026-08-01","sourceKey":"way:1058255972"}},{"type":"Feature","geometry":{"type":"LineString","coordinates":[[111.9465066,22.4626814],[111.9462342,22.4624823],[111.9460109,22.4623192]]},"properties":{"key":"way:1058255973@detail:447_89","osmType":"way","osmId":1058255973,"sourceRegion":"guangdong","featureType":"infrastructure","railClass":"minor","mode":"rail","name":"未命名","service":"yard","status":"operational","color":"#52636F","dataOrigin":"datum-2026-08-01","sourceKey":"way:1058255973"}},{"type":"Feature","geometry":{"type":"LineString","coordinates":[[111.9383426,22.4557472],[111.9379431,22.4554654]]},"properties":{"key":"way:1058255974@detail:447_89","osmType":"way","osmId":1058255974,"sourceRegion":"guangdong","featureType":"infrastructure","railClass":"minor","mode":"rail","name":"未命名","service":"yard","status":"operational","color":"#52636F","dataOrigin":"datum-2026-08-01","sourceKey":"way:1058255974"}},{"type":"Feature","geometry":{"type":"LineString","coordinates":[[111.9483548,22.4643976],[111.9482607,22.4643226],[111.9480505,22.4641549],[111.9478654,22.4640044],[111.9473103,22.4635533],[111.9471904,22.4634517],[111.9464228,22.4628016]]},"properties":{"key":"way:1058255975@detail:447_89","osmType":"way","osmId":1058255975,"sourceRegion":"guangdong","featureType":"infrastructure","railClass":"minor","mode":"rail","name":"未命名","service":"yard","status":"operational","color":"#52636F","dataOrigin":"datum-2026-08-01","sourceKey":"way:1058255975"}},{"type":"Feature","geometry":{"type":"LineString","coordinates":[[111.9480505,22.4641549],[111.9477787,22.4638918],[111.9474286,22.4635984],[111.9469924,22.463233],[111.946694,22.462983],[111.9463735,22.4627145]]},"properties":{"key":"way:1058255976@detail:447_89","osmType":"way","osmId":1058255976,"sourceRegion":"guangdong","featureType":"infrastructure","railClass":"minor","mode":"rail","name":"未命名","service":"yard","status":"operational","color":"#52636F","dataOrigin":"datum-2026-08-01","sourceKey":"way:1058255976"}},{"type":"Feature","geometry":{"type":"LineString","coordinates":[[111.9458228,22.4623809],[111.9461901,22.4626384],[111.9464228,22.4628016],[111.946694,22.462983]]},"properties":{"key":"way:1058255977@detail:447_89","osmType":"way","osmId":1058255977,"sourceRegion":"guangdong","featureType":"infrastructure","railClass":"minor","mode":"rail","name":"未命名","service":"yard","status":"operational","color":"#52636F","dataOrigin":"datum-2026-08-01","sourceKey":"way:1058255977"}},{"type":"Feature","geometry":{"type":"LineString","coordinates":[[111.9452808,22.4622196],[111.9449133,22.46196],[111.944158,22.4613146],[111.9436051,22.4608465],[111.9425294,22.4599297],[111.9398149,22.4576251],[111.9390088,22.4569496],[111.9388876,22.4568316],[111.9388038,22.4567518],[111.9387268,22.4566668],[111.9386339,22.4565601],[111.9383678,22.4562062]]},"properties":{"key":"way:1058255978@detail:447_89","osmType":"way","osmId":1058255978,"sourceRegion":"guangdong","featureType":"infrastructure","railClass":"minor","mode":"rail","name":"未命名","service":"yard","status":"operational","color":"#52636F","dataOrigin":"datum-2026-08-01","sourceKey":"way:1058255978"}},{"type":"Feature","geometry":{"type":"LineString","coordinates":[[111.9478654,22.4640044],[111.9472172,22.4635648],[111.9464133,22.4630018],[111.9455915,22.4624557],[111.9454373,22.4623533],[111.9452476,22.4622273],[111.944906,22.4620003],[111.9447674,22.4618941],[111.944627,22.4617761],[111.9403675,22.4581546],[111.9391721,22.4571456],[111.9388776,22.4569],[111.9387648,22.4567824],[111.9386531,22.4566521],[111.9385351,22.4565094],[111.9380738,22.4558896]]},"properties":{"key":"way:1058255979@detail:447_89","osmType":"way","osmId":1058255979,"sourceRegion":"guangdong","featureType":"infrastructure","railClass":"minor","mode":"rail","name":"未命名","service":"yard","status":"operational","color":"#52636F","dataOrigin":"datum-2026-08-01","sourceKey":"way:1058255979"}},{"type":"Feature","geometry":{"type":"LineString","coordinates":[[111.9471904,22.4634517],[111.9467333,22.4631359],[111.946379,22.4628823],[111.9462323,22.4627893],[111.9461224,22.4627266],[111.9459668,22.4626476],[111.9455915,22.4624557],[111.9451694,22.46224],[111.9448853,22.4620852],[111.9447628,22.462005],[111.9446365,22.4619048],[111.9403628,22.4582825],[111.9388613,22.457001],[111.9385857,22.4567322],[111.9384696,22.4565718],[111.9382021,22.4561364]]},"properties":{"key":"way:1058255980@detail:447_89","osmType":"way","osmId":1058255980,"sourceRegion":"guangdong","featureType":"infrastructure","railClass":"minor","mode":"rail","name":"未命名","service":"yard","status":"operational","color":"#52636F","dataOrigin":"datum-2026-08-01","sourceKey":"way:1058255980"}},{"type":"Feature","geometry":{"type":"LineString","coordinates":[[111.9474704,22.4635598],[111.9472207,22.4633891],[111.9469924,22.463233]]},"properties":{"key":"way:1058255981@detail:447_89","osmType":"way","osmId":1058255981,"sourceRegion":"guangdong","featureType":"infrastructure","railClass":"minor","mode":"rail","name":"未命名","service":"yard","status":"operational","color":"#52636F","dataOrigin":"datum-2026-08-01","sourceKey":"way:1058255981"}},{"type":"Feature","geometry":{"type":"LineString","coordinates":[[111.9474286,22.4635984],[111.9472207,22.4633891],[111.947029,22.4631961]]},"properties":{"key":"way:1058255982@detail:447_89","osmType":"way","osmId":1058255982,"sourceRegion":"guangdong","featureType":"infrastructure","railClass":"minor","mode":"rail","name":"未命名","service":"yard","status":"operational","color":"#52636F","dataOrigin":"datum-2026-08-01","sourceKey":"way:1058255982"}},{"type":"Feature","geometry":{"type":"LineString","coordinates":[[111.9452476,22.4622273],[111.9449992,22.4621011],[111.9448782,22.4620272],[111.9447266,22.4619263],[111.9439728,22.4612855],[111.9390797,22.4571262],[111.9388464,22.4569276],[111.9386639,22.456739],[111.9385258,22.4565771],[111.9382021,22.4561364],[111.938006,22.4558696],[111.9378249,22.4556231]]},"properties":{"key":"way:1058255983@detail:447_89","osmType":"way","osmId":1058255983,"sourceRegion":"guangdong","featureType":"infrastructure","railClass":"minor","mode":"rail","name":"未命名","service":"yard","status":"operational","color":"#52636F","dataOrigin":"datum-2026-08-01","sourceKey":"way:1058255983"}},{"type":"Feature","geometry":{"type":"LineString","coordinates":[[111.9461825,22.4625828],[111.9458228,22.4623809],[111.9452845,22.4620786],[111.945016,22.4618482],[111.9446912,22.4615761],[111.9442041,22.4611533],[111.9393139,22.4570019],[111.9390699,22.4567826],[111.9389411,22.4566446],[111.9384327,22.4559702]]},"properties":{"key":"way:1058255984@detail:447_89","osmType":"way","osmId":1058255984,"sourceRegion":"guangdong","featureType":"infrastructure","railClass":"minor","mode":"rail","name":"未命名","service":"yard","status":"operational","color":"#52636F","dataOrigin":"datum-2026-08-01","sourceKey":"way:1058255984"}},{"type":"Feature","geometry":{"type":"LineString","coordinates":[[111.9394895,22.4576771],[111.9387953,22.4570951],[111.938661,22.4569729],[111.9385798,22.4568628],[111.93849,22.4567244],[111.9382278,22.4562608],[111.938006,22.4558696]]},"properties":{"key":"way:1058255985@detail:447_89","osmType":"way","osmId":1058255985,"sourceRegion":"guangdong","featureType":"infrastructure","railClass":"minor","mode":"rail","name":"未命名","service":"yard","status":"operational","color":"#52636F","dataOrigin":"datum-2026-08-01","sourceKey":"way:1058255985"}},{"type":"Feature","geometry":{"type":"LineString","coordinates":[[111.9490626,22.4648203],[111.9506489,22.4662154],[111.952739,22.467918],[111.9538002,22.4690898],[111.9542008,22.4695986],[111.9545775,22.470145],[111.9559084,22.4724754],[111.9567603,22.4739513],[111.9582059,22.4764359]]},"properties":{"key":"way:1058255986@detail:447_89","osmType":"way","osmId":1058255986,"sourceRegion":"guangdong","featureType":"infrastructure","railClass":"national","mode":"rail","name":"广茂线","nameEn":"Guangmao Line","ref":"0708","operator":"中国铁路广州局集团有限公司","usage":"main","status":"operational","color":"#E54848","dataOrigin":"datum-2026-08-01","sourceKey":"way:1058255986"}},{"type":"Feature","geometry":{"type":"LineString","coordinates":[[111.9582059,22.4764359],[111.9587654,22.4773975]]},"properties":{"key":"way:1058255987@detail:447_89","osmType":"way","osmId":1058255987,"sourceRegion":"guangdong","featureType":"infrastructure","railClass":"national","mode":"rail","name":"广茂线","nameEn":"Guangmao Line","ref":"0708","operator":"中国铁路广州局集团有限公司","usage":"main","bridge":"yes","status":"operational","color":"#E54848","dataOrigin":"datum-2026-08-01","sourceKey":"way:1058255987"}},{"type":"Feature","geometry":{"type":"LineString","coordinates":[[111.9587654,22.4773975],[111.959486,22.478636],[111.9612924,22.4818142],[111.9617935,22.4825199],[111.9623244,22.483156],[111.9628753,22.483697],[111.963501,22.484186],[111.9642814,22.4847602],[111.9654474,22.4855385],[111.9683588,22.4873596],[111.9697583,22.4882301],[111.9707888,22.4888531],[111.9715145,22.489225],[111.9724006,22.4897034],[111.9732302,22.4900917],[111.9743476,22.4905262],[111.97558,22.490971],[111.9793005,22.4921974]]},"properties":{"key":"way:1058260291@detail:447_89","osmType":"way","osmId":1058260291,"sourceRegion":"guangdong","featureType":"infrastructure","railClass":"national","mode":"rail","name":"广茂线","nameEn":"Guangmao Line","ref":"0708","operator":"中国铁路广州局集团有限公司","usage":"main","status":"operational","color":"#E54848","dataOrigin":"datum-2026-08-01","sourceKey":"way:1058260291"}},{"type":"Feature","geometry":{"type":"LineString","coordinates":[[111.9793005,22.4921974],[111.9803808,22.4925531],[111.9823174,22.4931612]]},"properties":{"key":"way:1058260292@detail:447_89","osmType":"way","osmId":1058260292,"sourceRegion":"guangdong","featureType":"infrastructure","railClass":"national","mode":"rail","name":"广茂线","nameEn":"Guangmao Line","ref":"0708","operator":"中国铁路广州局集团有限公司","usage":"main","tunnel":"yes","status":"operational","color":"#E54848","dataOrigin":"datum-2026-08-01","sourceKey":"way:1058260292"}},{"type":"Feature","geometry":{"type":"LineString","coordinates":[[111.9823174,22.4931612],[111.9834383,22.4936486],[111.9841636,22.4940085],[111.9847207,22.4943358],[111.9852934,22.4947884],[111.9858098,22.4952869],[111.986409,22.496],[111.9872519,22.497267]]},"properties":{"key":"way:1058260293@detail:447_89","osmType":"way","osmId":1058260293,"sourceRegion":"guangdong","featureType":"infrastructure","railClass":"national","mode":"rail","name":"广茂线","nameEn":"Guangmao Line","ref":"0708","operator":"中国铁路广州局集团有限公司","usage":"main","status":"operational","color":"#E54848","dataOrigin":"datum-2026-08-01","sourceKey":"way:1058260293"}},{"type":"Feature","geometry":{"type":"LineString","coordinates":[[111.9872519,22.497267],[111.9876667,22.4979173]]},"properties":{"key":"way:1058260294@detail:447_89","osmType":"way","osmId":1058260294,"sourceRegion":"guangdong","featureType":"infrastructure","railClass":"national","mode":"rail","name":"广茂线","nameEn":"Guangmao Line","ref":"0708","operator":"中国铁路广州局集团有限公司","usage":"main","bridge":"yes","status":"operational","color":"#E54848","dataOrigin":"datum-2026-08-01","sourceKey":"way:1058260294"}},{"type":"Feature","geometry":{"type":"LineString","coordinates":[[111.8431385,22.3237051],[111.8427956,22.32334],[111.8417971,22.3222631],[111.8410932,22.321505],[111.8406598,22.3210383],[111.8395541,22.3198391],[111.8388723,22.3191167],[111.8379422,22.3181102],[111.8372522,22.317374],[111.8371394,22.3172454],[111.8370127,22.3170902],[111.83679,22.3168118]]},"properties":{"key":"way:1060165412@detail:447_89","osmType":"way","osmId":1060165412,"sourceRegion":"guangdong","featureType":"infrastructure","railClass":"minor","mode":"rail","name":"未命名","usage":"main","service":"yard","status":"operational","color":"#52636F","dataOrigin":"datum-2026-08-01","sourceKey":"way:1060165412"}},{"type":"Feature","geometry":{"type":"LineString","coordinates":[[111.8410932,22.321505],[111.8413833,22.3218859],[111.8414857,22.3220153],[111.8415951,22.3221434],[111.8425239,22.3231297],[111.8428097,22.323412],[111.8431385,22.3237051],[111.8432294,22.3237862],[111.8435634,22.3240819]]},"properties":{"key":"way:1060165413@detail:447_89","osmType":"way","osmId":1060165413,"sourceRegion":"guangdong","featureType":"infrastructure","railClass":"minor","mode":"rail","name":"未命名","usage":"main","service":"yard","status":"operational","color":"#52636F","dataOrigin":"datum-2026-08-01","sourceKey":"way:1060165413"}},{"type":"Feature","geometry":{"type":"LineString","coordinates":[[111.8432396,22.3237367],[111.8429871,22.3234161],[111.8428931,22.3233038],[111.8426673,22.3230491],[111.8387914,22.3188841],[111.8377214,22.3177322],[111.8375484,22.3175399],[111.8374103,22.3174079],[111.8369478,22.3169803]]},"properties":{"key":"way:1060165414@detail:447_89","osmType":"way","osmId":1060165414,"sourceRegion":"guangdong","featureType":"infrastructure","railClass":"minor","mode":"rail","name":"未命名","usage":"main","service":"yard","status":"operational","color":"#52636F","dataOrigin":"datum-2026-08-01","sourceKey":"way:1060165414"}},{"type":"Feature","geometry":{"type":"LineString","coordinates":[[111.8972471,22.3948546],[111.8975145,22.3952418],[111.8977651,22.3956507],[111.9012709,22.4017664],[111.9014929,22.4021722],[111.9017003,22.4026409]]},"properties":{"key":"way:1060165429@detail:447_89","osmType":"way","osmId":1060165429,"sourceRegion":"guangdong","featureType":"infrastructure","railClass":"minor","mode":"rail","name":"未命名","service":"siding","status":"operational","color":"#52636F","dataOrigin":"datum-2026-08-01","sourceKey":"way:1060165429"}},{"type":"Feature","geometry":{"type":"LineString","coordinates":[[111.8500753,22.3298889],[111.851551,22.330643],[111.8522023,22.3310879],[111.8525654,22.331362],[111.8540211,22.3324843]]},"properties":{"key":"way:1181060986@detail:447_89","osmType":"way","osmId":1181060986,"sourceRegion":"guangdong","featureType":"infrastructure","railClass":"national","mode":"rail","name":"广茂线","nameEn":"Guangmao Line","ref":"0708","operator":"中国铁路广州局集团有限公司","usage":"main","status":"operational","color":"#E54848","dataOrigin":"datum-2026-08-01","sourceKey":"way:1181060986"}},{"type":"Feature","geometry":{"type":"LineString","coordinates":[[111.8499898,22.3298425],[111.8500415,22.3298705],[111.8500753,22.3298889]]},"properties":{"key":"way:1181060987@detail:447_89","osmType":"way","osmId":1181060987,"sourceRegion":"guangdong","featureType":"infrastructure","railClass":"national","mode":"rail","name":"广茂线","nameEn":"Guangmao Line","ref":"0708","operator":"中国铁路广州局集团有限公司","usage":"main","status":"operational","color":"#E54848","dataOrigin":"datum-2026-08-01","sourceKey":"way:1181060987"}},{"type":"Feature","geometry":{"type":"LineString","coordinates":[[111.9702758,22.2890744],[111.9682604,22.2866689]]},"properties":{"key":"way:1249436766@detail:447_89","osmType":"way","osmId":1249436766,"sourceRegion":"guangdong","featureType":"infrastructure","railClass":"highspeed","mode":"rail","name":"广湛高速线","nameEn":"Guangzhou-Zhanjiang Railway","usage":"main","highspeed":"yes","tunnel":"yes","status":"operational","color":"#E54848","dataOrigin":"datum-2026-08-01","sourceKey":"way:1249436766"}},{"type":"Feature","geometry":{"type":"LineString","coordinates":[[111.9722778,22.2914639],[111.9702758,22.2890744]]},"properties":{"key":"way:1249436767@detail:447_89","osmType":"way","osmId":1249436767,"sourceRegion":"guangdong","featureType":"infrastructure","railClass":"highspeed","mode":"rail","name":"广湛高速线","nameEn":"Guangzhou-Zhanjiang Railway","usage":"main","highspeed":"yes","status":"operational","color":"#E54848","dataOrigin":"datum-2026-08-01","sourceKey":"way:1249436767"}},{"type":"Feature","geometry":{"type":"LineString","coordinates":[[111.9682604,22.2866689],[111.9675075,22.2857433]]},"properties":{"key":"way:1249436768@detail:447_89","osmType":"way","osmId":1249436768,"sourceRegion":"guangdong","featureType":"infrastructure","railClass":"highspeed","mode":"rail","name":"广湛高速线","nameEn":"Guangzhou-Zhanjiang Railway","usage":"main","highspeed":"yes","status":"operational","color":"#E54848","dataOrigin":"datum-2026-08-01","sourceKey":"way:1249436768"}},{"type":"Feature","geometry":{"type":"LineString","coordinates":[[111.9702339,22.2891044],[111.9682183,22.2866987]]},"properties":{"key":"way:1462282112@detail:447_89","osmType":"way","osmId":1462282112,"sourceRegion":"guangdong","featureType":"infrastructure","railClass":"highspeed","mode":"rail","name":"广湛高速线","nameEn":"Guangzhou-Zhanjiang Railway","usage":"main","highspeed":"yes","tunnel":"yes","status":"operational","color":"#E54848","dataOrigin":"datum-2026-08-01","sourceKey":"way:1462282112"}},{"type":"Feature","geometry":{"type":"LineString","coordinates":[[112.0,22.331840686236724],[111.9999094,22.331715],[111.9979903,22.3290024],[111.9960534,22.3262311]]},"properties":{"key":"way:1462282113@detail:447_89","osmType":"way","osmId":1462282113,"sourceRegion":"guangdong","featureType":"infrastructure","railClass":"highspeed","mode":"rail","name":"广湛高速线","nameEn":"Guangzhou-Zhanjiang Railway","usage":"main","highspeed":"yes","tunnel":"yes","status":"operational","color":"#E54848","dataOrigin":"datum-2026-08-01","sourceKey":"way:1462282113"}},{"type":"Feature","geometry":{"type":"LineString","coordinates":[[111.967465,22.2857726],[111.93899870533777,22.25]]},"properties":{"key":"way:1462282116@detail:447_89","osmType":"way","osmId":1462282116,"sourceRegion":"guangdong","featureType":"infrastructure","railClass":"highspeed","mode":"rail","name":"广湛高速线","nameEn":"Guangzhou-Zhanjiang Railway","usage":"main","highspeed":"yes","tunnel":"yes","status":"operational","color":"#E54848","dataOrigin":"datum-2026-08-01","sourceKey":"way:1462282116"}},{"type":"Feature","geometry":{"type":"LineString","coordinates":[[111.9682183,22.2866987],[111.967465,22.2857726]]},"properties":{"key":"way:1462282117@detail:447_89","osmType":"way","osmId":1462282117,"sourceRegion":"guangdong","featureType":"infrastructure","railClass":"highspeed","mode":"rail","name":"广湛高速线","nameEn":"Guangzhou-Zhanjiang Railway","usage":"main","highspeed":"yes","status":"operational","color":"#E54848","dataOrigin":"datum-2026-08-01","sourceKey":"way:1462282117"}},{"type":"Feature","geometry":{"type":"LineString","coordinates":[[111.9722359,22.2914939],[111.9702339,22.2891044]]},"properties":{"key":"way:1462282122@detail:447_89","osmType":"way","osmId":1462282122,"sourceRegion":"guangdong","featureType":"infrastructure","railClass":"highspeed","mode":"rail","name":"广湛高速线","nameEn":"Guangzhou-Zhanjiang Railway","usage":"main","highspeed":"yes","status":"operational","color":"#E54848","dataOrigin":"datum-2026-08-01","sourceKey":"way:1462282122"}},{"type":"Feature","geometry":{"type":"LineString","coordinates":[[111.9953059,22.3251208],[111.9945223,22.3239108],[111.9937573,22.3226679],[111.9929276,22.3212835],[111.9921356,22.3199448],[111.9913372,22.3185656],[111.9904985,22.3170501],[111.9886651,22.3136363],[111.9879257,22.3122899],[111.9871449,22.3109397],[111.9863632,22.3096278],[111.9855224,22.3082655],[111.9846786,22.3069538],[111.9838315,22.3057289],[111.9829596,22.3045386],[111.9820365,22.3033176],[111.9810114,22.3020042],[111.9799853,22.3007431]]},"properties":{"key":"way:1462282128@detail:447_89","osmType":"way","osmId":1462282128,"sourceRegion":"guangdong","featureType":"infrastructure","railClass":"highspeed","mode":"rail","name":"广湛高速线","nameEn":"Guangzhou-Zhanjiang Railway","usage":"main","highspeed":"yes","tunnel":"yes","status":"operational","color":"#E54848","dataOrigin":"datum-2026-08-01","sourceKey":"way:1462282128"}},{"type":"Feature","geometry":{"type":"LineString","coordinates":[[111.9799853,22.3007431],[111.9722359,22.2914939]]},"properties":{"key":"way:1462282132@detail:447_89","osmType":"way","osmId":1462282132,"sourceRegion":"guangdong","featureType":"infrastructure","railClass":"highspeed","mode":"rail","name":"广湛高速线","nameEn":"Guangzhou-Zhanjiang Railway","usage":"main","highspeed":"yes","bridge":"yes","status":"operational","color":"#E54848","dataOrigin":"datum-2026-08-01","sourceKey":"way:1462282132"}},{"type":"Feature","geometry":{"type":"LineString","coordinates":[[111.9960534,22.3262311],[111.9953059,22.3251208]]},"properties":{"key":"way:1462282142@detail:447_89","osmType":"way","osmId":1462282142,"sourceRegion":"guangdong","featureType":"infrastructure","railClass":"highspeed","mode":"rail","name":"广湛高速线","nameEn":"Guangzhou-Zhanjiang Railway","usage":"main","highspeed":"yes","status":"operational","color":"#E54848","dataOrigin":"datum-2026-08-01","sourceKey":"way:1462282142"}},{"type":"Feature","geometry":{"type":"LineString","coordinates":[[111.9876667,22.4979173],[111.9879684,22.4983436],[111.9881484,22.4987132],[111.988379,22.499349],[111.9885189,22.4998128],[111.98856221442125,22.5]]},"properties":{"key":"way:1489615979@detail:447_89","osmType":"way","osmId":1489615979,"sourceRegion":"guangdong","featureType":"infrastructure","railClass":"national","mode":"rail","name":"广茂线","nameEn":"Guangmao Line","ref":"0708","operator":"中国铁路广州局集团有限公司","usage":"main","status":"operational","color":"#E54848","dataOrigin":"datum-2026-08-01","sourceKey":"way:1489615979"}}]}