{"type":"FeatureCollection","features":[{"type":"Feature","geometry":{"type":"Point","coordinates":[111.75662,22.19251]},"properties":{"key":"node:1640922648","osmType":"node","osmId":1640922648,"sourceRegion":"guangdong","featureType":"station","railClass":"minor","mode":"station","name":"阳春","nameEn":"Yangchun","status":"operational","color":"#52636F","dataOrigin":"datum-2026-08-01","sourceKey":"node:1640922648","stationGroup":"阳春","hasOperationalRail":true,"hasConstructionRail":false}},{"type":"Feature","geometry":{"type":"Point","coordinates":[111.761669,22.0513342]},"properties":{"key":"node:9192805746","osmType":"node","osmId":9192805746,"sourceRegion":"guangdong","featureType":"station","railClass":"minor","mode":"station","name":"岗美","operator":"广东阳江铁路有限公司","status":"operational","color":"#52636F","dataOrigin":"datum-2026-08-01","sourceKey":"node:9192805746","stationGroup":"岗美","hasOperationalRail":true,"hasConstructionRail":false}},{"type":"Feature","geometry":{"type":"Point","coordinates":[111.7963868,22.2478329]},"properties":{"key":"node:9193526300","osmType":"node","osmId":9193526300,"sourceRegion":"guangdong","featureType":"station","railClass":"minor","mode":"station","name":"黑石岗","nameEn":"Heishigang","status":"operational","color":"#52636F","dataOrigin":"datum-2026-08-01","sourceKey":"node:9193526300","stationGroup":"黑石岗","hasOperationalRail":true,"hasConstructionRail":false}},{"type":"Feature","geometry":{"type":"Point","coordinates":[111.9049824,22.1891207]},"properties":{"key":"node:9674103621","osmType":"node","osmId":9674103621,"sourceRegion":"guangdong","featureType":"station","railClass":"minor","mode":"station","name":"阳春东","nameEn":"Yangchundong","status":"operational","color":"#52636F","dataOrigin":"datum-2026-08-01","sourceKey":"node:9674103621","stationGroup":"阳春东","hasOperationalRail":true,"hasConstructionRail":false}},{"type":"Feature","geometry":{"type":"LineString","coordinates":[[111.75,22.184115257803523],[111.7518355,22.186649],[111.7523426,22.1873491],[111.752671,22.1878024],[111.754027,22.189693],[111.756958,22.193724],[111.7572948,22.1942179],[111.7577044,22.1947835],[111.7580228,22.1952198],[111.7583661,22.1956903],[111.7586387,22.1960638],[111.7589381,22.1964791],[111.7592118,22.1968587],[111.7595406,22.1973146],[111.7601276,22.1981286],[111.763285,22.202506],[111.763736,22.203051],[111.764059,22.203401],[111.766413,22.205548],[111.776329,22.214354],[111.777206,22.215214],[111.777751,22.215839],[111.778375,22.216649],[111.779085,22.217674],[111.779906,22.21914],[111.783459,22.22632],[111.784328,22.227911],[111.785041,22.229078],[111.786479,22.231178],[111.790865,22.237809],[111.792345,22.240206],[111.79715563094156,22.25]]},"properties":{"key":"way:48996503@detail:447_88","osmType":"way","osmId":48996503,"sourceRegion":"guangdong","featureType":"infrastructure","railClass":"national","mode":"rail","name":"广茂线","nameEn":"Guangmao Line","ref":"0708","operator":"中国铁路广州局集团有限公司","usage":"main","status":"operational","color":"#E54848","dataOrigin":"datum-2026-08-01","sourceKey":"way:48996503"}},{"type":"Feature","geometry":{"type":"MultiLineString","coordinates":[[[111.7611051,22.0462757],[111.7612015,22.0467136],[111.761268,22.0470155],[111.7614806,22.0479811],[111.761958,22.0501241],[111.7621244,22.0508753],[111.7623764,22.0520134],[111.7627788,22.0538431],[111.763083,22.0551464],[111.7631971,22.055635],[111.7634171,22.0565776],[111.7636878,22.0578295],[111.7637763,22.058644],[111.7637488,22.0593668],[111.7635939,22.0601465],[111.7632857,22.0609876],[111.7629451,22.0615842],[111.7625356,22.0621261],[111.7622254,22.0624449],[111.7619313,22.0627318],[111.7613089,22.063195],[111.7606276,22.0635877],[111.7599678,22.0638413],[111.7592812,22.0640352],[111.7578864,22.0642788],[111.7571086,22.0644826],[111.7560947,22.0648306],[111.7554563,22.0651587],[111.7549145,22.0655863],[111.7545176,22.0659144],[111.7540187,22.0664364],[111.7536592,22.0669783],[111.7534232,22.067376],[111.7531282,22.0681018],[111.7528814,22.0689172],[111.7522645,22.0711741],[111.7516047,22.0735653],[111.7508483,22.0762995],[111.7507262,22.0767216],[111.7502099,22.0784669],[111.75,22.07921852035511]],[[111.75,22.09440599551141],[111.7510039,22.0962173],[111.7522377,22.0984292],[111.7533481,22.1004223],[111.7547214,22.1029024],[111.7556924,22.1046519],[111.7568833,22.1068188],[111.7579454,22.1087422],[111.7589003,22.1104867],[111.7604077,22.1131853],[111.7616254,22.1153621],[111.7625052,22.1169574],[111.7628914,22.1177575],[111.7635727,22.1196112],[111.7645168,22.1222699],[111.7655736,22.1252366],[111.7665124,22.1278654],[111.7677516,22.1313141],[111.7684758,22.1333614],[111.7687976,22.1341962],[111.7700851,22.1367304],[111.7701724,22.1370109]]]},"properties":{"key":"way:194838750@detail:447_88","osmType":"way","osmId":194838750,"sourceRegion":"guangdong","featureType":"infrastructure","railClass":"national","mode":"rail","name":"阳阳铁路","usage":"branch","status":"operational","color":"#E54848","dataOrigin":"datum-2026-08-01","sourceKey":"way:194838750"}},{"type":"Feature","geometry":{"type":"LineString","coordinates":[[111.7607671,22.0449779],[111.7609119,22.0455],[111.7611051,22.0462757]]},"properties":{"key":"way:569157215@detail:447_88","osmType":"way","osmId":569157215,"sourceRegion":"guangdong","featureType":"infrastructure","railClass":"national","mode":"rail","name":"阳阳铁路","usage":"branch","bridge":"yes","status":"operational","color":"#E54848","dataOrigin":"datum-2026-08-01","sourceKey":"way:569157215"}},{"type":"Feature","geometry":{"type":"LineString","coordinates":[[111.7720044,22.0040339],[111.7712622,22.0049887],[111.7695335,22.0072923],[111.7670166,22.0105709],[111.7662171,22.0116682],[111.7652625,22.0129681],[111.7642107,22.0142986],[111.7639106,22.0147436],[111.7617702,22.0175336],[111.7601502,22.0194084],[111.7582566,22.0214325],[111.7578703,22.0219099],[111.7574573,22.0224967],[111.7571461,22.022994],[111.7569154,22.0234267],[111.7566848,22.0239389],[111.7564756,22.0245953],[111.7563361,22.0251821],[111.7562449,22.0259629],[111.7562503,22.0267138],[111.7563361,22.029051],[111.7564058,22.0317064],[111.7565024,22.0345906],[111.7565936,22.0370868],[111.7565947,22.0376878],[111.7566258,22.037773],[111.7566794,22.0382503],[111.756835,22.0389465],[111.7569745,22.0394089],[111.7571676,22.0399211],[111.7574894,22.0405327],[111.7578006,22.0410349],[111.758101,22.0414377],[111.758734,22.0421586],[111.7598766,22.0434166],[111.7603111,22.0440083],[111.7605901,22.0445553],[111.7607671,22.0449779]]},"properties":{"key":"way:569157216@detail:447_88","osmType":"way","osmId":569157216,"sourceRegion":"guangdong","featureType":"infrastructure","railClass":"national","mode":"rail","name":"阳阳铁路","usage":"branch","status":"operational","color":"#E54848","dataOrigin":"datum-2026-08-01","sourceKey":"way:569157216"}},{"type":"Feature","geometry":{"type":"LineString","coordinates":[[111.75,22.184232062817433],[111.7502444,22.184561],[111.7517924,22.1866833],[111.7520087,22.1869799],[111.7521148,22.1871282],[111.7522958,22.1873813],[111.7526598,22.1878906]]},"properties":{"key":"way:569157220@detail:447_88","osmType":"way","osmId":569157220,"sourceRegion":"guangdong","featureType":"infrastructure","railClass":"national","mode":"rail","name":"阳阳铁路","usage":"branch","status":"operational","color":"#E54848","dataOrigin":"datum-2026-08-01","sourceKey":"way:569157220"}},{"type":"Feature","geometry":{"type":"LineString","coordinates":[[111.7511514,22.1564981],[111.7502958,22.1576508],[111.75,22.15801022593866]]},"properties":{"key":"way:837730400@detail:447_88","osmType":"way","osmId":837730400,"sourceRegion":"guangdong","featureType":"infrastructure","railClass":"national","mode":"rail","name":"阳阳铁路","usage":"branch","bridge":"yes","status":"operational","color":"#E54848","dataOrigin":"datum-2026-08-01","sourceKey":"way:837730400"}},{"type":"Feature","geometry":{"type":"LineString","coordinates":[[111.7610728,22.1467281],[111.7608368,22.1467773],[111.7598873,22.1470059],[111.7587876,22.1475127],[111.7580956,22.1480095],[111.7573661,22.1487548],[111.7567438,22.1495101],[111.7555153,22.1510801],[111.7537665,22.1533457],[111.7512399,22.1563739],[111.7511514,22.1564981]]},"properties":{"key":"way:970902124@detail:447_88","osmType":"way","osmId":970902124,"sourceRegion":"guangdong","featureType":"infrastructure","railClass":"national","mode":"rail","name":"阳阳铁路","usage":"branch","status":"operational","color":"#E54848","dataOrigin":"datum-2026-08-01","sourceKey":"way:970902124"}},{"type":"Feature","geometry":{"type":"LineString","coordinates":[[111.7701724,22.1370109],[111.7702728,22.1375453],[111.770364,22.1383701],[111.7703319,22.1389863],[111.7701119,22.1399055],[111.7698491,22.1405515],[111.7695165,22.1411776],[111.7683738,22.1430409],[111.7682556,22.1432964],[111.7679447,22.1437713],[111.7674029,22.1444122],[111.7668718,22.1448992],[111.7663622,22.1452718],[111.7656112,22.1456445],[111.7650533,22.145878],[111.7640394,22.1461165],[111.762591,22.1464196],[111.7614806,22.1466432],[111.7612327,22.1466948]]},"properties":{"key":"way:970902128@detail:447_88","osmType":"way","osmId":970902128,"sourceRegion":"guangdong","featureType":"infrastructure","railClass":"national","mode":"rail","name":"阳阳铁路","usage":"branch","status":"operational","color":"#E54848","dataOrigin":"datum-2026-08-01","sourceKey":"way:970902128"}},{"type":"Feature","geometry":{"type":"LineString","coordinates":[[111.77501048375011,22.0],[111.7728408,22.0029169],[111.7724299,22.0034641]]},"properties":{"key":"way:976244572@detail:447_88","osmType":"way","osmId":976244572,"sourceRegion":"guangdong","featureType":"infrastructure","railClass":"national","mode":"rail","name":"阳阳铁路","usage":"branch","status":"operational","color":"#E54848","dataOrigin":"datum-2026-08-01","sourceKey":"way:976244572"}},{"type":"Feature","geometry":{"type":"LineString","coordinates":[[111.7724299,22.0034641],[111.7720044,22.0040339]]},"properties":{"key":"way:976244573@detail:447_88","osmType":"way","osmId":976244573,"sourceRegion":"guangdong","featureType":"infrastructure","railClass":"national","mode":"rail","name":"阳阳铁路","usage":"branch","bridge":"yes","status":"operational","color":"#E54848","dataOrigin":"datum-2026-08-01","sourceKey":"way:976244573"}},{"type":"Feature","geometry":{"type":"LineString","coordinates":[[111.7612327,22.1466948],[111.7610728,22.1467281]]},"properties":{"key":"way:995523559@detail:447_88","osmType":"way","osmId":995523559,"sourceRegion":"guangdong","featureType":"infrastructure","railClass":"national","mode":"rail","name":"阳阳铁路","usage":"branch","bridge":"yes","status":"operational","color":"#E54848","dataOrigin":"datum-2026-08-01","sourceKey":"way:995523559"}},{"type":"Feature","geometry":{"type":"LineString","coordinates":[[111.867351,22.0114886],[111.8650784,22.0001657],[111.86504975874023,22.0]]},"properties":{"key":"way:1052659287@detail:447_88","osmType":"way","osmId":1052659287,"sourceRegion":"guangdong","featureType":"infrastructure","railClass":"highspeed","mode":"rail","name":"广湛高速线","nameEn":"Guangzhou-Zhanjiang Railway","usage":"main","highspeed":"yes","status":"operational","color":"#E54848","dataOrigin":"datum-2026-08-01","sourceKey":"way:1052659287"}},{"type":"Feature","geometry":{"type":"LineString","coordinates":[[111.8835128,22.0703806],[111.8785965,22.0534802],[111.8756273,22.0452216],[111.8747395,22.0427603],[111.8737444,22.0398366],[111.8728301,22.0368533]]},"properties":{"key":"way:1052659290@detail:447_88","osmType":"way","osmId":1052659290,"sourceRegion":"guangdong","featureType":"infrastructure","railClass":"highspeed","mode":"rail","name":"广湛高速线","nameEn":"Guangzhou-Zhanjiang Railway","usage":"main","highspeed":"yes","status":"operational","color":"#E54848","dataOrigin":"datum-2026-08-01","sourceKey":"way:1052659290"}},{"type":"Feature","geometry":{"type":"LineString","coordinates":[[111.93906453877717,22.25],[111.9314022,22.240371],[111.9293118,22.2376432],[111.927168,22.2347835],[111.9249472,22.2317279],[111.9226417,22.228385],[111.9205527,22.2251877],[111.9188635,22.2224305],[111.917242,22.2195799],[111.9156997,22.2167079],[111.9142822,22.2139652],[111.9128492,22.2109283],[111.911604,22.2079848],[111.9105554,22.2052643],[111.9094222,22.2020665]]},"properties":{"key":"way:1052867804@detail:447_88","osmType":"way","osmId":1052867804,"sourceRegion":"guangdong","featureType":"infrastructure","railClass":"highspeed","mode":"rail","name":"广湛高速线","nameEn":"Guangzhou-Zhanjiang Railway","usage":"main","highspeed":"yes","tunnel":"yes","status":"operational","color":"#E54848","dataOrigin":"datum-2026-08-01","sourceKey":"way:1052867804"}},{"type":"Feature","geometry":{"type":"LineString","coordinates":[[111.7567708,22.1964256],[111.7583015,22.1967716],[111.7583862,22.1967908],[111.7587188,22.196916],[111.758957,22.1970253],[111.7591522,22.197138],[111.7593258,22.1972703],[111.7594929,22.1974168],[111.7597107,22.197662]]},"properties":{"key":"way:1060165473@detail:447_88","osmType":"way","osmId":1060165473,"sourceRegion":"guangdong","featureType":"infrastructure","railClass":"minor","mode":"rail","name":"未命名","service":"yard","status":"operational","color":"#52636F","dataOrigin":"datum-2026-08-01","sourceKey":"way:1060165473"}},{"type":"Feature","geometry":{"type":"LineString","coordinates":[[111.7564163,22.195997],[111.7581243,22.1963833],[111.7581778,22.1964001],[111.7583613,22.1964579],[111.7585964,22.1965616],[111.7587795,22.1966701],[111.7589667,22.1968164],[111.7592118,22.1970234]]},"properties":{"key":"way:1060165474@detail:447_88","osmType":"way","osmId":1060165474,"sourceRegion":"guangdong","featureType":"infrastructure","railClass":"minor","mode":"rail","name":"未命名","service":"yard","status":"operational","color":"#52636F","dataOrigin":"datum-2026-08-01","sourceKey":"way:1060165474"}},{"type":"Feature","geometry":{"type":"LineString","coordinates":[[111.7558462,22.1951816],[111.7573191,22.1955101],[111.7576102,22.1955884],[111.7578087,22.1956676],[111.7579861,22.1957617],[111.7581919,22.1958943],[111.7583446,22.1960074],[111.7584759,22.196121],[111.758592,22.1962439],[111.7587548,22.1964202]]},"properties":{"key":"way:1060165475@detail:447_88","osmType":"way","osmId":1060165475,"sourceRegion":"guangdong","featureType":"infrastructure","railClass":"minor","mode":"rail","name":"未命名","service":"yard","status":"operational","color":"#52636F","dataOrigin":"datum-2026-08-01","sourceKey":"way:1060165475"}},{"type":"Feature","geometry":{"type":"LineString","coordinates":[[111.7557722,22.1955157],[111.7571784,22.1958275],[111.7577112,22.1959577],[111.7579151,22.1960202],[111.758115,22.1960988],[111.7582799,22.1961793],[111.758415,22.196263],[111.7586124,22.1964029],[111.7587197,22.1964962],[111.7588356,22.1966025],[111.7590218,22.1968108],[111.7592118,22.1970234],[111.7594423,22.1972812]]},"properties":{"key":"way:1060165476@detail:447_88","osmType":"way","osmId":1060165476,"sourceRegion":"guangdong","featureType":"infrastructure","railClass":"minor","mode":"rail","name":"未命名","service":"yard","status":"operational","color":"#52636F","dataOrigin":"datum-2026-08-01","sourceKey":"way:1060165476"}},{"type":"Feature","geometry":{"type":"LineString","coordinates":[[111.762408,22.1996724],[111.7608192,22.198606],[111.7605962,22.1984469],[111.7604632,22.198352],[111.7602731,22.1981892],[111.760106,22.1980155],[111.7599678,22.1978214],[111.759612,22.1973303],[111.7577969,22.1948247],[111.7564587,22.1929666],[111.7533485,22.1886655],[111.7529408,22.1881211],[111.752671,22.1878024]]},"properties":{"key":"way:1060165477@detail:447_88","osmType":"way","osmId":1060165477,"sourceRegion":"guangdong","featureType":"infrastructure","railClass":"minor","mode":"rail","name":"未命名","service":"yard","status":"operational","color":"#52636F","dataOrigin":"datum-2026-08-01","sourceKey":"way:1060165477"}},{"type":"Feature","geometry":{"type":"LineString","coordinates":[[111.7616268,22.200335],[111.7601465,22.1982536],[111.7598742,22.1978839],[111.7597107,22.197662],[111.7594423,22.1972812],[111.7590767,22.1967762],[111.7585118,22.1959939],[111.7584193,22.1958657],[111.7581786,22.1955563],[111.7578973,22.1951516],[111.7574145,22.1945953],[111.7571863,22.1943166],[111.7570817,22.1941772],[111.7568368,22.1938421],[111.7536109,22.189383],[111.7530806,22.1886605],[111.75292,22.1883949],[111.7525892,22.1878976],[111.7522958,22.1873813]]},"properties":{"key":"way:1060165478@detail:447_88","osmType":"way","osmId":1060165478,"sourceRegion":"guangdong","featureType":"infrastructure","railClass":"minor","mode":"rail","name":"未命名","service":"yard","status":"operational","color":"#52636F","dataOrigin":"datum-2026-08-01","sourceKey":"way:1060165478"}},{"type":"Feature","geometry":{"type":"LineString","coordinates":[[111.7528759,22.1944115],[111.7546617,22.1944214],[111.7550452,22.1944222],[111.7553974,22.1944245],[111.7557104,22.1944418],[111.7561345,22.1945017],[111.756602,22.1946363],[111.7569219,22.1947542],[111.75726,22.1948983],[111.7574858,22.1950282],[111.7576746,22.1951747],[111.7578418,22.1953259],[111.7580805,22.1955874],[111.758291,22.1958168],[111.7584815,22.1960448],[111.7587548,22.1964202],[111.7588398,22.196537],[111.7590218,22.1968108]]},"properties":{"key":"way:1060165479@detail:447_88","osmType":"way","osmId":1060165479,"sourceRegion":"guangdong","featureType":"infrastructure","railClass":"minor","mode":"rail","name":"未命名","service":"yard","status":"operational","color":"#52636F","dataOrigin":"datum-2026-08-01","sourceKey":"way:1060165479"}},{"type":"Feature","geometry":{"type":"LineString","coordinates":[[111.7589381,22.1964791],[111.7585118,22.1959939]]},"properties":{"key":"way:1060165480@detail:447_88","osmType":"way","osmId":1060165480,"sourceRegion":"guangdong","featureType":"infrastructure","railClass":"minor","mode":"rail","name":"未命名","service":"yard","status":"operational","color":"#52636F","dataOrigin":"datum-2026-08-01","sourceKey":"way:1060165480"}},{"type":"Feature","geometry":{"type":"LineString","coordinates":[[111.7583661,22.1956903],[111.7578973,22.1951516]]},"properties":{"key":"way:1060165481@detail:447_88","osmType":"way","osmId":1060165481,"sourceRegion":"guangdong","featureType":"infrastructure","railClass":"minor","mode":"rail","name":"未命名","service":"yard","status":"operational","color":"#52636F","dataOrigin":"datum-2026-08-01","sourceKey":"way:1060165481"}},{"type":"Feature","geometry":{"type":"LineString","coordinates":[[111.7581786,22.1955563],[111.7573899,22.1947135],[111.7571639,22.1944593],[111.7569932,22.1942334],[111.7563712,22.1933611],[111.7555475,22.1922135],[111.7532582,22.1890596],[111.7530406,22.1887405],[111.7529087,22.1885359],[111.7526002,22.1880019],[111.7524355,22.1877437],[111.7520145,22.1870613],[111.7517924,22.1866833]]},"properties":{"key":"way:1060171140@detail:447_88","osmType":"way","osmId":1060171140,"sourceRegion":"guangdong","featureType":"infrastructure","railClass":"minor","mode":"rail","name":"未命名","service":"yard","status":"operational","color":"#52636F","dataOrigin":"datum-2026-08-01","sourceKey":"way:1060171140"}},{"type":"Feature","geometry":{"type":"LineString","coordinates":[[111.7598742,22.1978839],[111.7595406,22.1973146]]},"properties":{"key":"way:1060171141@detail:447_88","osmType":"way","osmId":1060171141,"sourceRegion":"guangdong","featureType":"infrastructure","railClass":"minor","mode":"rail","name":"未命名","service":"yard","status":"operational","color":"#52636F","dataOrigin":"datum-2026-08-01","sourceKey":"way:1060171141"}},{"type":"Feature","geometry":{"type":"LineString","coordinates":[[111.759612,22.1973303],[111.7592118,22.1968587]]},"properties":{"key":"way:1060171142@detail:447_88","osmType":"way","osmId":1060171142,"sourceRegion":"guangdong","featureType":"infrastructure","railClass":"minor","mode":"rail","name":"未命名","service":"yard","status":"operational","color":"#52636F","dataOrigin":"datum-2026-08-01","sourceKey":"way:1060171142"}},{"type":"Feature","geometry":{"type":"LineString","coordinates":[[111.7580228,22.1952198],[111.7573242,22.1944101],[111.7571814,22.1942475],[111.7571023,22.1941388],[111.7549566,22.1911348],[111.7537808,22.1895383],[111.7533047,22.1888795],[111.7528587,22.1882301],[111.7526598,22.1878906],[111.7523426,22.1873491]]},"properties":{"key":"way:1060171143@detail:447_88","osmType":"way","osmId":1060171143,"sourceRegion":"guangdong","featureType":"infrastructure","railClass":"minor","mode":"rail","name":"未命名","service":"yard","status":"operational","color":"#52636F","dataOrigin":"datum-2026-08-01","sourceKey":"way:1060171143"}},{"type":"Feature","geometry":{"type":"LineString","coordinates":[[111.7525892,22.1878976],[111.7520145,22.1870613]]},"properties":{"key":"way:1060171144@detail:447_88","osmType":"way","osmId":1060171144,"sourceRegion":"guangdong","featureType":"infrastructure","railClass":"minor","mode":"rail","name":"未命名","service":"yard","status":"operational","color":"#52636F","dataOrigin":"datum-2026-08-01","sourceKey":"way:1060171144"}},{"type":"Feature","geometry":{"type":"LineString","coordinates":[[111.7521148,22.1871282],[111.7518355,22.186649]]},"properties":{"key":"way:1060171145@detail:447_88","osmType":"way","osmId":1060171145,"sourceRegion":"guangdong","featureType":"infrastructure","railClass":"minor","mode":"rail","name":"未命名","service":"yard","status":"operational","color":"#52636F","dataOrigin":"datum-2026-08-01","sourceKey":"way:1060171145"}},{"type":"Feature","geometry":{"type":"LineString","coordinates":[[111.7573899,22.1947135],[111.7571555,22.194494],[111.7569925,22.194305],[111.7558343,22.1926999],[111.7533526,22.1892634],[111.7530387,22.1888257],[111.7528022,22.1884945],[111.7526868,22.1883274],[111.7526038,22.1881653],[111.7524355,22.1877437]]},"properties":{"key":"way:1060171146@detail:447_88","osmType":"way","osmId":1060171146,"sourceRegion":"guangdong","featureType":"infrastructure","railClass":"minor","mode":"rail","name":"未命名","service":"yard","status":"operational","color":"#52636F","dataOrigin":"datum-2026-08-01","sourceKey":"way:1060171146"}},{"type":"Feature","geometry":{"type":"LineString","coordinates":[[111.9094222,22.2020665],[111.9068715,22.1935928]]},"properties":{"key":"way:1249472557@detail:447_88","osmType":"way","osmId":1249472557,"sourceRegion":"guangdong","featureType":"infrastructure","railClass":"highspeed","mode":"rail","name":"广湛高速线","nameEn":"Guangzhou-Zhanjiang Railway","usage":"main","highspeed":"yes","status":"operational","color":"#E54848","dataOrigin":"datum-2026-08-01","sourceKey":"way:1249472557"}},{"type":"Feature","geometry":{"type":"LineString","coordinates":[[111.9068715,22.1935928],[111.9062331,22.191703],[111.9059417,22.1908403],[111.9052365,22.1887207]]},"properties":{"key":"way:1249472558@detail:447_88","osmType":"way","osmId":1249472558,"sourceRegion":"guangdong","featureType":"infrastructure","railClass":"highspeed","mode":"rail","name":"广湛高速线","nameEn":"Guangzhou-Zhanjiang Railway","usage":"main","highspeed":"yes","bridge":"yes","status":"operational","color":"#E54848","dataOrigin":"datum-2026-08-01","sourceKey":"way:1249472558"}},{"type":"Feature","geometry":{"type":"LineString","coordinates":[[111.9052365,22.1887207],[111.9049265,22.1877761],[111.9044859,22.1865305],[111.9041971,22.185713],[111.9039657,22.185058]]},"properties":{"key":"way:1249472559@detail:447_88","osmType":"way","osmId":1249472559,"sourceRegion":"guangdong","featureType":"infrastructure","railClass":"highspeed","mode":"rail","name":"广湛高速线","nameEn":"Guangzhou-Zhanjiang Railway","usage":"main","highspeed":"yes","status":"operational","color":"#E54848","dataOrigin":"datum-2026-08-01","sourceKey":"way:1249472559"}},{"type":"Feature","geometry":{"type":"LineString","coordinates":[[111.9028764,22.1820009],[111.8967739,22.1630944],[111.8960185,22.1606063],[111.8953228,22.1580881],[111.8947606,22.1558636],[111.8942204,22.1535216]]},"properties":{"key":"way:1249472560@detail:447_88","osmType":"way","osmId":1249472560,"sourceRegion":"guangdong","featureType":"infrastructure","railClass":"highspeed","mode":"rail","name":"广湛高速线","nameEn":"Guangzhou-Zhanjiang Railway","usage":"main","highspeed":"yes","tunnel":"yes","status":"operational","color":"#E54848","dataOrigin":"datum-2026-08-01","sourceKey":"way:1249472560"}},{"type":"Feature","geometry":{"type":"LineString","coordinates":[[111.8933767,22.148991],[111.8931529,22.1474716]]},"properties":{"key":"way:1249472561@detail:447_88","osmType":"way","osmId":1249472561,"sourceRegion":"guangdong","featureType":"infrastructure","railClass":"highspeed","mode":"rail","name":"广湛高速线","nameEn":"Guangzhou-Zhanjiang Railway","usage":"main","highspeed":"yes","bridge":"yes","status":"operational","color":"#E54848","dataOrigin":"datum-2026-08-01","sourceKey":"way:1249472561"}},{"type":"Feature","geometry":{"type":"LineString","coordinates":[[111.8935729,22.150205],[111.8933767,22.148991]]},"properties":{"key":"way:1249472562@detail:447_88","osmType":"way","osmId":1249472562,"sourceRegion":"guangdong","featureType":"infrastructure","railClass":"highspeed","mode":"rail","name":"广湛高速线","nameEn":"Guangzhou-Zhanjiang Railway","usage":"main","highspeed":"yes","status":"operational","color":"#E54848","dataOrigin":"datum-2026-08-01","sourceKey":"way:1249472562"}},{"type":"Feature","geometry":{"type":"LineString","coordinates":[[111.8942204,22.1535216],[111.8935729,22.150205]]},"properties":{"key":"way:1249472563@detail:447_88","osmType":"way","osmId":1249472563,"sourceRegion":"guangdong","featureType":"infrastructure","railClass":"highspeed","mode":"rail","name":"广湛高速线","nameEn":"Guangzhou-Zhanjiang Railway","usage":"main","highspeed":"yes","bridge":"yes","status":"operational","color":"#E54848","dataOrigin":"datum-2026-08-01","sourceKey":"way:1249472563"}},{"type":"Feature","geometry":{"type":"LineString","coordinates":[[111.8931529,22.1474716],[111.8929293,22.1458719],[111.8927431,22.1443065],[111.8926085,22.1427736],[111.8925043,22.1411513],[111.8921256,22.1185576]]},"properties":{"key":"way:1249472564@detail:447_88","osmType":"way","osmId":1249472564,"sourceRegion":"guangdong","featureType":"infrastructure","railClass":"highspeed","mode":"rail","name":"广湛高速线","nameEn":"Guangzhou-Zhanjiang Railway","usage":"main","highspeed":"yes","tunnel":"yes","status":"operational","color":"#E54848","dataOrigin":"datum-2026-08-01","sourceKey":"way:1249472564"}},{"type":"Feature","geometry":{"type":"LineString","coordinates":[[111.892096,22.117861],[111.8919533,22.1157565]]},"properties":{"key":"way:1249472565@detail:447_88","osmType":"way","osmId":1249472565,"sourceRegion":"guangdong","featureType":"infrastructure","railClass":"highspeed","mode":"rail","name":"广湛高速线","nameEn":"Guangzhou-Zhanjiang Railway","usage":"main","highspeed":"yes","bridge":"yes","status":"operational","color":"#E54848","dataOrigin":"datum-2026-08-01","sourceKey":"way:1249472565"}},{"type":"Feature","geometry":{"type":"LineString","coordinates":[[111.8919533,22.1157565],[111.8915416,22.1114203]]},"properties":{"key":"way:1249472566@detail:447_88","osmType":"way","osmId":1249472566,"sourceRegion":"guangdong","featureType":"infrastructure","railClass":"highspeed","mode":"rail","name":"广湛高速线","nameEn":"Guangzhou-Zhanjiang Railway","usage":"main","highspeed":"yes","status":"operational","color":"#E54848","dataOrigin":"datum-2026-08-01","sourceKey":"way:1249472566"}},{"type":"Feature","geometry":{"type":"LineString","coordinates":[[111.8915416,22.1114203],[111.890971,22.1068365]]},"properties":{"key":"way:1249472567@detail:447_88","osmType":"way","osmId":1249472567,"sourceRegion":"guangdong","featureType":"infrastructure","railClass":"highspeed","mode":"rail","name":"广湛高速线","nameEn":"Guangzhou-Zhanjiang Railway","usage":"main","highspeed":"yes","bridge":"yes","status":"operational","color":"#E54848","dataOrigin":"datum-2026-08-01","sourceKey":"way:1249472567"}},{"type":"Feature","geometry":{"type":"LineString","coordinates":[[111.890971,22.1068365],[111.8899405,22.0995342],[111.8897927,22.0973171],[111.8895963,22.0951953],[111.8893476,22.0931609],[111.8889962,22.0908665],[111.8885781,22.0886228],[111.8881185,22.0863793],[111.8876161,22.0842447]]},"properties":{"key":"way:1249472568@detail:447_88","osmType":"way","osmId":1249472568,"sourceRegion":"guangdong","featureType":"infrastructure","railClass":"highspeed","mode":"rail","name":"广湛高速线","nameEn":"Guangzhou-Zhanjiang Railway","usage":"main","highspeed":"yes","tunnel":"yes","status":"operational","color":"#E54848","dataOrigin":"datum-2026-08-01","sourceKey":"way:1249472568"}},{"type":"Feature","geometry":{"type":"LineString","coordinates":[[111.8876161,22.0842447],[111.8870863,22.0822069],[111.8865452,22.0802365],[111.8858695,22.0779448]]},"properties":{"key":"way:1249472569@detail:447_88","osmType":"way","osmId":1249472569,"sourceRegion":"guangdong","featureType":"infrastructure","railClass":"highspeed","mode":"rail","name":"广湛高速线","nameEn":"Guangzhou-Zhanjiang Railway","usage":"main","highspeed":"yes","bridge":"yes","status":"operational","color":"#E54848","dataOrigin":"datum-2026-08-01","sourceKey":"way:1249472569"}},{"type":"Feature","geometry":{"type":"LineString","coordinates":[[111.8847828,22.0744784],[111.8835128,22.0703806]]},"properties":{"key":"way:1249472570@detail:447_88","osmType":"way","osmId":1249472570,"sourceRegion":"guangdong","featureType":"infrastructure","railClass":"highspeed","mode":"rail","name":"广湛高速线","nameEn":"Guangzhou-Zhanjiang Railway","usage":"main","highspeed":"yes","tunnel":"yes","status":"operational","color":"#E54848","dataOrigin":"datum-2026-08-01","sourceKey":"way:1249472570"}},{"type":"Feature","geometry":{"type":"LineString","coordinates":[[111.8717473,22.0325286],[111.8684734,22.0166939]]},"properties":{"key":"way:1249472571@detail:447_88","osmType":"way","osmId":1249472571,"sourceRegion":"guangdong","featureType":"infrastructure","railClass":"highspeed","mode":"rail","name":"广湛高速线","nameEn":"Guangzhou-Zhanjiang Railway","usage":"main","highspeed":"yes","status":"operational","color":"#E54848","dataOrigin":"datum-2026-08-01","sourceKey":"way:1249472571"}},{"type":"Feature","geometry":{"type":"LineString","coordinates":[[111.8728301,22.0368533],[111.8725531,22.0358511],[111.8722509,22.0346761],[111.8720083,22.0336884],[111.8717473,22.0325286]]},"properties":{"key":"way:1249472572@detail:447_88","osmType":"way","osmId":1249472572,"sourceRegion":"guangdong","featureType":"infrastructure","railClass":"highspeed","mode":"rail","name":"广湛高速线","nameEn":"Guangzhou-Zhanjiang Railway","usage":"main","highspeed":"yes","bridge":"yes","status":"operational","color":"#E54848","dataOrigin":"datum-2026-08-01","sourceKey":"way:1249472572"}},{"type":"Feature","geometry":{"type":"LineString","coordinates":[[111.8684734,22.0166939],[111.8679607,22.0143586]]},"properties":{"key":"way:1249472573@detail:447_88","osmType":"way","osmId":1249472573,"sourceRegion":"guangdong","featureType":"infrastructure","railClass":"highspeed","mode":"rail","name":"广湛高速线","nameEn":"Guangzhou-Zhanjiang Railway","usage":"main","highspeed":"yes","bridge":"yes","status":"operational","color":"#E54848","dataOrigin":"datum-2026-08-01","sourceKey":"way:1249472573"}},{"type":"Feature","geometry":{"type":"LineString","coordinates":[[111.8679607,22.0143586],[111.8675429,22.0123943]]},"properties":{"key":"way:1249472574@detail:447_88","osmType":"way","osmId":1249472574,"sourceRegion":"guangdong","featureType":"infrastructure","railClass":"highspeed","mode":"rail","name":"广湛高速线","nameEn":"Guangzhou-Zhanjiang Railway","usage":"main","highspeed":"yes","status":"operational","color":"#E54848","dataOrigin":"datum-2026-08-01","sourceKey":"way:1249472574"}},{"type":"Feature","geometry":{"type":"LineString","coordinates":[[111.8675429,22.0123943],[111.867351,22.0114886]]},"properties":{"key":"way:1249472575@detail:447_88","osmType":"way","osmId":1249472575,"sourceRegion":"guangdong","featureType":"infrastructure","railClass":"highspeed","mode":"rail","name":"广湛高速线","nameEn":"Guangzhou-Zhanjiang Railway","usage":"main","highspeed":"yes","bridge":"yes","status":"operational","color":"#E54848","dataOrigin":"datum-2026-08-01","sourceKey":"way:1249472575"}},{"type":"Feature","geometry":{"type":"LineString","coordinates":[[111.8858695,22.0779448],[111.8850779,22.0754196]]},"properties":{"key":"way:1431721209@detail:447_88","osmType":"way","osmId":1431721209,"sourceRegion":"guangdong","featureType":"infrastructure","railClass":"highspeed","mode":"rail","name":"广湛高速线","nameEn":"Guangzhou-Zhanjiang Railway","usage":"main","highspeed":"yes","tunnel":"yes","status":"operational","color":"#E54848","dataOrigin":"datum-2026-08-01","sourceKey":"way:1431721209"}},{"type":"Feature","geometry":{"type":"LineString","coordinates":[[111.8850779,22.0754196],[111.8847828,22.0744784]]},"properties":{"key":"way:1431721210@detail:447_88","osmType":"way","osmId":1431721210,"sourceRegion":"guangdong","featureType":"infrastructure","railClass":"highspeed","mode":"rail","name":"广湛高速线","nameEn":"Guangzhou-Zhanjiang Railway","usage":"main","highspeed":"yes","bridge":"yes","status":"operational","color":"#E54848","dataOrigin":"datum-2026-08-01","sourceKey":"way:1431721210"}},{"type":"Feature","geometry":{"type":"LineString","coordinates":[[111.8920666,22.1185527],[111.8920431,22.1178638]]},"properties":{"key":"way:1462282086@detail:447_88","osmType":"way","osmId":1462282086,"sourceRegion":"guangdong","featureType":"infrastructure","railClass":"highspeed","mode":"rail","name":"广湛高速线","nameEn":"Guangzhou-Zhanjiang Railway","usage":"main","highspeed":"yes","status":"operational","color":"#E54848","dataOrigin":"datum-2026-08-01","sourceKey":"way:1462282086"}},{"type":"Feature","geometry":{"type":"LineString","coordinates":[[111.8921256,22.1185576],[111.892096,22.117861]]},"properties":{"key":"way:1462282087@detail:447_88","osmType":"way","osmId":1462282087,"sourceRegion":"guangdong","featureType":"infrastructure","railClass":"highspeed","mode":"rail","name":"广湛高速线","nameEn":"Guangzhou-Zhanjiang Railway","usage":"main","highspeed":"yes","status":"operational","color":"#E54848","dataOrigin":"datum-2026-08-01","sourceKey":"way:1462282087"}},{"type":"Feature","geometry":{"type":"LineString","coordinates":[[111.8931004,22.1474781],[111.8928767,22.1458777],[111.8926903,22.1443112],[111.8925556,22.142777],[111.8924514,22.1411542],[111.8920666,22.1185527]]},"properties":{"key":"way:1462282095@detail:447_88","osmType":"way","osmId":1462282095,"sourceRegion":"guangdong","featureType":"infrastructure","railClass":"highspeed","mode":"rail","name":"广湛高速线","nameEn":"Guangzhou-Zhanjiang Railway","usage":"main","highspeed":"yes","tunnel":"yes","status":"operational","color":"#E54848","dataOrigin":"datum-2026-08-01","sourceKey":"way:1462282095"}},{"type":"Feature","geometry":{"type":"LineString","coordinates":[[111.890918,22.1068392],[111.8898876,22.0995371],[111.8897398,22.0973207],[111.8895436,22.0952002],[111.889295,22.0931671],[111.8889438,22.0908741],[111.8885259,22.0886316],[111.8880666,22.0863891],[111.8875644,22.0842557]]},"properties":{"key":"way:1462282096@detail:447_88","osmType":"way","osmId":1462282096,"sourceRegion":"guangdong","featureType":"infrastructure","railClass":"highspeed","mode":"rail","name":"广湛高速线","nameEn":"Guangzhou-Zhanjiang Railway","usage":"main","highspeed":"yes","tunnel":"yes","status":"operational","color":"#E54848","dataOrigin":"datum-2026-08-01","sourceKey":"way:1462282096"}},{"type":"Feature","geometry":{"type":"LineString","coordinates":[[111.872779,22.0368666],[111.8725018,22.0358633],[111.8721993,22.0346873],[111.8719565,22.0336988],[111.8716954,22.0325385]]},"properties":{"key":"way:1462282097@detail:447_88","osmType":"way","osmId":1462282097,"sourceRegion":"guangdong","featureType":"infrastructure","railClass":"highspeed","mode":"rail","name":"广湛高速线","nameEn":"Guangzhou-Zhanjiang Railway","usage":"main","highspeed":"yes","bridge":"yes","status":"operational","color":"#E54848","dataOrigin":"datum-2026-08-01","sourceKey":"way:1462282097"}},{"type":"Feature","geometry":{"type":"LineString","coordinates":[[111.8858185,22.0779581],[111.885027,22.0754333]]},"properties":{"key":"way:1462282098@detail:447_88","osmType":"way","osmId":1462282098,"sourceRegion":"guangdong","featureType":"infrastructure","railClass":"highspeed","mode":"rail","name":"广湛高速线","nameEn":"Guangzhou-Zhanjiang Railway","usage":"main","highspeed":"yes","tunnel":"yes","status":"operational","color":"#E54848","dataOrigin":"datum-2026-08-01","sourceKey":"way:1462282098"}},{"type":"Feature","geometry":{"type":"LineString","coordinates":[[111.8920431,22.1178638],[111.8919004,22.1157592]]},"properties":{"key":"way:1462282099@detail:447_88","osmType":"way","osmId":1462282099,"sourceRegion":"guangdong","featureType":"infrastructure","railClass":"highspeed","mode":"rail","name":"广湛高速线","nameEn":"Guangzhou-Zhanjiang Railway","usage":"main","highspeed":"yes","bridge":"yes","status":"operational","color":"#E54848","dataOrigin":"datum-2026-08-01","sourceKey":"way:1462282099"}},{"type":"Feature","geometry":{"type":"LineString","coordinates":[[111.8875644,22.0842557],[111.8870348,22.0822187],[111.8864939,22.080249],[111.8858185,22.0779581]]},"properties":{"key":"way:1462282100@detail:447_88","osmType":"way","osmId":1462282100,"sourceRegion":"guangdong","featureType":"infrastructure","railClass":"highspeed","mode":"rail","name":"广湛高速线","nameEn":"Guangzhou-Zhanjiang Railway","usage":"main","highspeed":"yes","bridge":"yes","status":"operational","color":"#E54848","dataOrigin":"datum-2026-08-01","sourceKey":"way:1462282100"}},{"type":"Feature","geometry":{"type":"LineString","coordinates":[[111.8834619,22.0703943],[111.8785214,22.05351],[111.8755522,22.045244],[111.8746644,22.0427852],[111.8736801,22.0398565],[111.872779,22.0368666]]},"properties":{"key":"way:1462282101@detail:447_88","osmType":"way","osmId":1462282101,"sourceRegion":"guangdong","featureType":"infrastructure","railClass":"highspeed","mode":"rail","name":"广湛高速线","nameEn":"Guangzhou-Zhanjiang Railway","usage":"main","highspeed":"yes","status":"operational","color":"#E54848","dataOrigin":"datum-2026-08-01","sourceKey":"way:1462282101"}},{"type":"Feature","geometry":{"type":"LineString","coordinates":[[111.8684214,22.0167036],[111.8679087,22.0143683]]},"properties":{"key":"way:1462282102@detail:447_88","osmType":"way","osmId":1462282102,"sourceRegion":"guangdong","featureType":"infrastructure","railClass":"highspeed","mode":"rail","name":"广湛高速线","nameEn":"Guangzhou-Zhanjiang Railway","usage":"main","highspeed":"yes","bridge":"yes","status":"operational","color":"#E54848","dataOrigin":"datum-2026-08-01","sourceKey":"way:1462282102"}},{"type":"Feature","geometry":{"type":"LineString","coordinates":[[111.885027,22.0754333],[111.8847319,22.0744921]]},"properties":{"key":"way:1462282103@detail:447_88","osmType":"way","osmId":1462282103,"sourceRegion":"guangdong","featureType":"infrastructure","railClass":"highspeed","mode":"rail","name":"广湛高速线","nameEn":"Guangzhou-Zhanjiang Railway","usage":"main","highspeed":"yes","bridge":"yes","status":"operational","color":"#E54848","dataOrigin":"datum-2026-08-01","sourceKey":"way:1462282103"}},{"type":"Feature","geometry":{"type":"LineString","coordinates":[[111.8919004,22.1157592],[111.8914887,22.111423]]},"properties":{"key":"way:1462282104@detail:447_88","osmType":"way","osmId":1462282104,"sourceRegion":"guangdong","featureType":"infrastructure","railClass":"highspeed","mode":"rail","name":"广湛高速线","nameEn":"Guangzhou-Zhanjiang Railway","usage":"main","highspeed":"yes","status":"operational","color":"#E54848","dataOrigin":"datum-2026-08-01","sourceKey":"way:1462282104"}},{"type":"Feature","geometry":{"type":"LineString","coordinates":[[111.8672989,22.0114978],[111.8650262,22.0001741],[111.8649961062108,22.0]]},"properties":{"key":"way:1462282105@detail:447_88","osmType":"way","osmId":1462282105,"sourceRegion":"guangdong","featureType":"infrastructure","railClass":"highspeed","mode":"rail","name":"广湛高速线","nameEn":"Guangzhou-Zhanjiang Railway","usage":"main","highspeed":"yes","status":"operational","color":"#E54848","dataOrigin":"datum-2026-08-01","sourceKey":"way:1462282105"}},{"type":"Feature","geometry":{"type":"LineString","coordinates":[[111.8847319,22.0744921],[111.8834619,22.0703943]]},"properties":{"key":"way:1462282106@detail:447_88","osmType":"way","osmId":1462282106,"sourceRegion":"guangdong","featureType":"infrastructure","railClass":"highspeed","mode":"rail","name":"广湛高速线","nameEn":"Guangzhou-Zhanjiang Railway","usage":"main","highspeed":"yes","tunnel":"yes","status":"operational","color":"#E54848","dataOrigin":"datum-2026-08-01","sourceKey":"way:1462282106"}},{"type":"Feature","geometry":{"type":"LineString","coordinates":[[111.8679087,22.0143683],[111.8674909,22.0124038]]},"properties":{"key":"way:1462282107@detail:447_88","osmType":"way","osmId":1462282107,"sourceRegion":"guangdong","featureType":"infrastructure","railClass":"highspeed","mode":"rail","name":"广湛高速线","nameEn":"Guangzhou-Zhanjiang Railway","usage":"main","highspeed":"yes","status":"operational","color":"#E54848","dataOrigin":"datum-2026-08-01","sourceKey":"way:1462282107"}},{"type":"Feature","geometry":{"type":"LineString","coordinates":[[111.8914887,22.111423],[111.890918,22.1068392]]},"properties":{"key":"way:1462282108@detail:447_88","osmType":"way","osmId":1462282108,"sourceRegion":"guangdong","featureType":"infrastructure","railClass":"highspeed","mode":"rail","name":"广湛高速线","nameEn":"Guangzhou-Zhanjiang Railway","usage":"main","highspeed":"yes","bridge":"yes","status":"operational","color":"#E54848","dataOrigin":"datum-2026-08-01","sourceKey":"way:1462282108"}},{"type":"Feature","geometry":{"type":"LineString","coordinates":[[111.8716954,22.0325385],[111.8684214,22.0167036]]},"properties":{"key":"way:1462282110@detail:447_88","osmType":"way","osmId":1462282110,"sourceRegion":"guangdong","featureType":"infrastructure","railClass":"highspeed","mode":"rail","name":"广湛高速线","nameEn":"Guangzhou-Zhanjiang Railway","usage":"main","highspeed":"yes","status":"operational","color":"#E54848","dataOrigin":"datum-2026-08-01","sourceKey":"way:1462282110"}},{"type":"Feature","geometry":{"type":"LineString","coordinates":[[111.8674909,22.0124038],[111.8672989,22.0114978]]},"properties":{"key":"way:1462282111@detail:447_88","osmType":"way","osmId":1462282111,"sourceRegion":"guangdong","featureType":"infrastructure","railClass":"highspeed","mode":"rail","name":"广湛高速线","nameEn":"Guangzhou-Zhanjiang Railway","usage":"main","highspeed":"yes","bridge":"yes","status":"operational","color":"#E54848","dataOrigin":"datum-2026-08-01","sourceKey":"way:1462282111"}},{"type":"Feature","geometry":{"type":"LineString","coordinates":[[111.93899870533777,22.25],[111.9313592,22.2403997],[111.9292684,22.2376714],[111.9271242,22.2348112],[111.9249029,22.2317548],[111.9225967,22.2284109],[111.920507,22.2252125],[111.918817,22.222454],[111.9171948,22.2196023],[111.9156521,22.2167294],[111.914234,22.2139856],[111.9128002,22.2109471],[111.9115544,22.208002],[111.9105053,22.2052802],[111.9093716,22.2020812]]},"properties":{"key":"way:1462282116@detail:447_88","osmType":"way","osmId":1462282116,"sourceRegion":"guangdong","featureType":"infrastructure","railClass":"highspeed","mode":"rail","name":"广湛高速线","nameEn":"Guangzhou-Zhanjiang Railway","usage":"main","highspeed":"yes","tunnel":"yes","status":"operational","color":"#E54848","dataOrigin":"datum-2026-08-01","sourceKey":"way:1462282116"}},{"type":"Feature","geometry":{"type":"LineString","coordinates":[[111.9093716,22.2020812],[111.9068302,22.1936364]]},"properties":{"key":"way:1462282118@detail:447_88","osmType":"way","osmId":1462282118,"sourceRegion":"guangdong","featureType":"infrastructure","railClass":"highspeed","mode":"rail","name":"广湛高速线","nameEn":"Guangzhou-Zhanjiang Railway","usage":"main","highspeed":"yes","status":"operational","color":"#E54848","dataOrigin":"datum-2026-08-01","sourceKey":"way:1462282118"}},{"type":"Feature","geometry":{"type":"LineString","coordinates":[[111.9068302,22.1936364],[111.906453,22.1925475],[111.9058695,22.1908629],[111.9051744,22.1887204]]},"properties":{"key":"way:1462282126@detail:447_88","osmType":"way","osmId":1462282126,"sourceRegion":"guangdong","featureType":"infrastructure","railClass":"highspeed","mode":"rail","name":"广湛高速线","nameEn":"Guangzhou-Zhanjiang Railway","usage":"main","highspeed":"yes","bridge":"yes","status":"operational","color":"#E54848","dataOrigin":"datum-2026-08-01","sourceKey":"way:1462282126"}},{"type":"Feature","geometry":{"type":"LineString","coordinates":[[111.8935206,22.150213],[111.8933242,22.148998]]},"properties":{"key":"way:1462282129@detail:447_88","osmType":"way","osmId":1462282129,"sourceRegion":"guangdong","featureType":"infrastructure","railClass":"highspeed","mode":"rail","name":"广湛高速线","nameEn":"Guangzhou-Zhanjiang Railway","usage":"main","highspeed":"yes","status":"operational","color":"#E54848","dataOrigin":"datum-2026-08-01","sourceKey":"way:1462282129"}},{"type":"Feature","geometry":{"type":"LineString","coordinates":[[111.9051744,22.1887204],[111.9048476,22.1877422],[111.9044262,22.1865337],[111.9041721,22.1858209],[111.9039045,22.1850703]]},"properties":{"key":"way:1462282134@detail:447_88","osmType":"way","osmId":1462282134,"sourceRegion":"guangdong","featureType":"infrastructure","railClass":"highspeed","mode":"rail","name":"广湛高速线","nameEn":"Guangzhou-Zhanjiang Railway","operator":"广铁集团","usage":"main","highspeed":"yes","status":"operational","color":"#E54848","dataOrigin":"datum-2026-08-01","sourceKey":"way:1462282134"}},{"type":"Feature","geometry":{"type":"LineString","coordinates":[[111.8941684,22.1535311],[111.8935206,22.150213]]},"properties":{"key":"way:1462282137@detail:447_88","osmType":"way","osmId":1462282137,"sourceRegion":"guangdong","featureType":"infrastructure","railClass":"highspeed","mode":"rail","name":"广湛高速线","nameEn":"Guangzhou-Zhanjiang Railway","usage":"main","highspeed":"yes","bridge":"yes","status":"operational","color":"#E54848","dataOrigin":"datum-2026-08-01","sourceKey":"way:1462282137"}},{"type":"Feature","geometry":{"type":"LineString","coordinates":[[111.9028256,22.182015],[111.896723,22.1631081],[111.8959673,22.160619],[111.8952713,22.1580998],[111.8947089,22.1558743],[111.8941684,22.1535311]]},"properties":{"key":"way:1462282147@detail:447_88","osmType":"way","osmId":1462282147,"sourceRegion":"guangdong","featureType":"infrastructure","railClass":"highspeed","mode":"rail","name":"广湛高速线","nameEn":"Guangzhou-Zhanjiang Railway","usage":"main","highspeed":"yes","tunnel":"yes","status":"operational","color":"#E54848","dataOrigin":"datum-2026-08-01","sourceKey":"way:1462282147"}},{"type":"Feature","geometry":{"type":"LineString","coordinates":[[111.8933242,22.148998],[111.8931004,22.1474781]]},"properties":{"key":"way:1462282148@detail:447_88","osmType":"way","osmId":1462282148,"sourceRegion":"guangdong","featureType":"infrastructure","railClass":"highspeed","mode":"rail","name":"广湛高速线","nameEn":"Guangzhou-Zhanjiang Railway","usage":"main","highspeed":"yes","bridge":"yes","status":"operational","color":"#E54848","dataOrigin":"datum-2026-08-01","sourceKey":"way:1462282148"}},{"type":"Feature","geometry":{"type":"LineString","coordinates":[[111.7612015,22.0467136],[111.7612279,22.0469543],[111.7612694,22.0472065],[111.7613028,22.0473673],[111.7614412,22.0480355],[111.7619908,22.0504671],[111.7625735,22.0530693],[111.7630862,22.0552758],[111.7631971,22.055635]]},"properties":{"key":"way:1491180655@detail:447_88","osmType":"way","osmId":1491180655,"sourceRegion":"guangdong","featureType":"infrastructure","railClass":"minor","mode":"rail","name":"未命名","service":"siding","status":"operational","color":"#52636F","dataOrigin":"datum-2026-08-01","sourceKey":"way:1491180655"}},{"type":"Feature","geometry":{"type":"LineString","coordinates":[[111.7613028,22.0473673],[111.7613343,22.0477351],[111.7614709,22.0483483],[111.7620609,22.050894],[111.7624612,22.0527371],[111.7629956,22.0550263],[111.7630862,22.0552758]]},"properties":{"key":"way:1491180656@detail:447_88","osmType":"way","osmId":1491180656,"sourceRegion":"guangdong","featureType":"infrastructure","railClass":"minor","mode":"rail","name":"未命名","service":"siding","status":"operational","color":"#52636F","dataOrigin":"datum-2026-08-01","sourceKey":"way:1491180656"}},{"type":"Feature","geometry":{"type":"LineString","coordinates":[[111.7629956,22.0550263],[111.7629332,22.0548936],[111.7628773,22.054729],[111.7624195,22.0527624],[111.7621063,22.0513609],[111.7615487,22.0489473],[111.7613834,22.0481628],[111.7613343,22.0477351]]},"properties":{"key":"way:1491180657@detail:447_88","osmType":"way","osmId":1491180657,"sourceRegion":"guangdong","featureType":"infrastructure","railClass":"minor","mode":"rail","name":"未命名","service":"siding","status":"operational","color":"#52636F","dataOrigin":"datum-2026-08-01","sourceKey":"way:1491180657"}},{"type":"Feature","geometry":{"type":"LineString","coordinates":[[111.761268,22.0470155],[111.7613988,22.0473756],[111.7615085,22.04787],[111.7618384,22.0493525],[111.7621487,22.0507614],[111.7625652,22.0526347],[111.7627168,22.053307],[111.7629109,22.0541039],[111.7630579,22.0548093],[111.763083,22.0551464]]},"properties":{"key":"way:1491180658@detail:447_88","osmType":"way","osmId":1491180658,"sourceRegion":"guangdong","featureType":"infrastructure","railClass":"minor","mode":"rail","name":"未命名","service":"siding","status":"operational","color":"#52636F","dataOrigin":"datum-2026-08-01","sourceKey":"way:1491180658"}},{"type":"Feature","geometry":{"type":"LineString","coordinates":[[111.9039657,22.185058],[111.9028764,22.1820009]]},"properties":{"key":"way:1519562082@detail:447_88","osmType":"way","osmId":1519562082,"sourceRegion":"guangdong","featureType":"infrastructure","railClass":"highspeed","mode":"rail","name":"广湛高速线","nameEn":"Guangzhou-Zhanjiang Railway","usage":"main","highspeed":"yes","status":"operational","color":"#E54848","dataOrigin":"datum-2026-08-01","sourceKey":"way:1519562082"}},{"type":"Feature","geometry":{"type":"LineString","coordinates":[[111.9039045,22.1850703],[111.9028256,22.182015]]},"properties":{"key":"way:1519562083@detail:447_88","osmType":"way","osmId":1519562083,"sourceRegion":"guangdong","featureType":"infrastructure","railClass":"highspeed","mode":"rail","name":"广湛高速线","nameEn":"Guangzhou-Zhanjiang Railway","operator":"广铁集团","usage":"main","highspeed":"yes","status":"operational","color":"#E54848","dataOrigin":"datum-2026-08-01","sourceKey":"way:1519562083"}},{"type":"Feature","geometry":{"type":"LineString","coordinates":[[111.9041971,22.185713],[111.904353,22.1860199],[111.9046415,22.1868472],[111.9052536,22.1885591],[111.9057144,22.1900295],[111.9059768,22.1908166],[111.9061299,22.1913018],[111.9062331,22.191703]]},"properties":{"key":"way:1519562084@detail:447_88","osmType":"way","osmId":1519562084,"sourceRegion":"guangdong","featureType":"infrastructure","railClass":"minor","mode":"rail","name":"未命名","service":"siding","highspeed":"yes","status":"operational","color":"#52636F","dataOrigin":"datum-2026-08-01","sourceKey":"way:1519562084"}},{"type":"Feature","geometry":{"type":"LineString","coordinates":[[111.9041721,22.1858209],[111.9042439,22.1860699],[111.9043234,22.1863445],[111.9044804,22.1868333],[111.9047748,22.1877058],[111.905099,22.1886814],[111.905403,22.1896161],[111.9057819,22.1907579],[111.9059508,22.1912471],[111.9062607,22.1920866],[111.9063838,22.1924194],[111.906453,22.1925475]]},"properties":{"key":"way:1519562085@detail:447_88","osmType":"way","osmId":1519562085,"sourceRegion":"guangdong","featureType":"infrastructure","railClass":"minor","mode":"rail","name":"未命名","service":"siding","highspeed":"yes","status":"operational","color":"#52636F","dataOrigin":"datum-2026-08-01","sourceKey":"way:1519562085"}}]}