{"type":"FeatureCollection","features":[{"type":"Feature","geometry":{"type":"Point","coordinates":[112.1492725,21.9569582]},"properties":{"key":"node:8868075261","osmType":"node","osmId":8868075261,"sourceRegion":"guangdong","featureType":"station","railClass":"minor","mode":"station","name":"阳东","status":"operational","color":"#52636F","dataOrigin":"datum-2026-08-01","sourceKey":"node:8868075261","stationGroup":"阳东","hasOperationalRail":true,"hasConstructionRail":false}},{"type":"Feature","geometry":{"type":"LineString","coordinates":[[112.0777559,21.8460741],[112.0727563,21.8433255]]},"properties":{"key":"way:570573121@detail:448_87","osmType":"way","osmId":570573121,"sourceRegion":"guangdong","featureType":"infrastructure","railClass":"highspeed","mode":"rail","name":"深湛线","nameEn":"Shenzhen-Zhanjiang Railway","ref":"3071","operator":"中国铁路广州局集团有限公司","usage":"main","highspeed":"yes","tunnel":"yes","status":"operational","color":"#E54848","dataOrigin":"datum-2026-08-01","sourceKey":"way:570573121"}},{"type":"Feature","geometry":{"type":"LineString","coordinates":[[112.1631028,21.9910887],[112.1627605,21.9904868],[112.1617305,21.9884176],[112.1610224,21.9868855],[112.1604967,21.9854629],[112.1599817,21.9839606],[112.1594882,21.9818515],[112.1586513,21.9775634],[112.1583827,21.9762634],[112.1580783,21.9749303],[112.1576282,21.9733748],[112.1572472,21.9723718],[112.1569472,21.9715556],[112.1566292,21.9707497],[112.1560379,21.9694183],[112.1551346,21.9675994],[112.1535873,21.9645302],[112.1531174,21.9635982],[112.152946,21.963261],[112.1525209,21.9624246],[112.1512556,21.9599356],[112.1472308,21.9519852],[112.1467339,21.951006],[112.1466522,21.950845],[112.1462385,21.9500314],[112.1458747,21.9493044],[112.1456908,21.9489423]]},"properties":{"key":"way:570573122@detail:448_87","osmType":"way","osmId":570573122,"sourceRegion":"guangdong","featureType":"infrastructure","railClass":"highspeed","mode":"rail","name":"深湛线","nameEn":"Shenzhen-Zhanjiang Railway","ref":"3071","operator":"中国铁路广州局集团有限公司","usage":"main","highspeed":"yes","status":"operational","color":"#E54848","dataOrigin":"datum-2026-08-01","sourceKey":"way:570573122"}},{"type":"Feature","geometry":{"type":"LineString","coordinates":[[112.0526437,21.8327344],[112.0508828,21.8318282],[112.0487562,21.8307021],[112.0472753,21.8298908],[112.0454192,21.8290343],[112.0442015,21.8285064],[112.0431769,21.8281479],[112.0416856,21.8276848],[112.0402211,21.8272515],[112.0388907,21.8269577],[112.0377481,21.8267486],[112.0355165,21.8264547],[112.0299107,21.8259119],[112.0280439,21.8257974],[112.0269388,21.8257078],[112.0259839,21.8255932],[112.0248789,21.8254737],[112.0238543,21.8253243],[112.0227653,21.8251749],[112.0212901,21.8248911],[112.0199382,21.8245923],[112.0187527,21.8242835],[112.0170683,21.8238104],[112.0109475,21.8217238],[112.0043693,21.8192222],[112.0,21.81768588496643]]},"properties":{"key":"way:570573123@detail:448_87","osmType":"way","osmId":570573123,"sourceRegion":"guangdong","featureType":"infrastructure","railClass":"highspeed","mode":"rail","name":"深湛线","nameEn":"Shenzhen-Zhanjiang Railway","ref":"3071","operator":"中国铁路广州局集团有限公司","usage":"main","highspeed":"yes","bridge":"yes","status":"operational","color":"#E54848","dataOrigin":"datum-2026-08-01","sourceKey":"way:570573123"}},{"type":"Feature","geometry":{"type":"LineString","coordinates":[[112.1630597,21.9911084],[112.1627174,21.9905066],[112.1616866,21.9884357],[112.1609775,21.9869015],[112.160451,21.9854769],[112.1599352,21.9839721],[112.159441,21.9818602],[112.1585786,21.9775709],[112.1582739,21.9762775],[112.1579592,21.9749273],[112.157539,21.9733983],[112.1572036,21.9723881],[112.1567999,21.9712822],[112.1565528,21.9706819],[112.155957,21.9693745],[112.1551364,21.9677073],[112.1539115,21.9653004],[112.1530132,21.9635354],[112.1526064,21.9627291],[112.1516241,21.960782],[112.1512223,21.9599857],[112.147708,21.9530522],[112.1470528,21.9517594],[112.1466036,21.9508686],[112.1458302,21.9493275],[112.1456422,21.948958]]},"properties":{"key":"way:627789205@detail:448_87","osmType":"way","osmId":627789205,"sourceRegion":"guangdong","featureType":"infrastructure","railClass":"highspeed","mode":"rail","name":"深湛线","nameEn":"Shenzhen-Zhanjiang Railway","ref":"3071","operator":"中国铁路广州局集团有限公司","usage":"main","highspeed":"yes","status":"operational","color":"#E54848","dataOrigin":"datum-2026-08-01","sourceKey":"way:627789205"}},{"type":"Feature","geometry":{"type":"LineString","coordinates":[[112.0777309,21.8461122],[112.0727317,21.8433639]]},"properties":{"key":"way:627789206@detail:448_87","osmType":"way","osmId":627789206,"sourceRegion":"guangdong","featureType":"infrastructure","railClass":"highspeed","mode":"rail","name":"深湛线","nameEn":"Shenzhen-Zhanjiang Railway","ref":"3071","operator":"中国铁路广州局集团有限公司","usage":"main","highspeed":"yes","tunnel":"yes","status":"operational","color":"#E54848","dataOrigin":"datum-2026-08-01","sourceKey":"way:627789206"}},{"type":"Feature","geometry":{"type":"LineString","coordinates":[[112.0525997,21.8327625],[112.0508529,21.8319252],[112.0486926,21.8307781],[112.0472532,21.8299304],[112.0453983,21.8290745],[112.0441828,21.8285476],[112.0431608,21.82819],[112.0416707,21.8277272],[112.0402082,21.8272945],[112.0388805,21.8270013],[112.0377401,21.8267926],[112.0355106,21.826499],[112.0299066,21.8259564],[112.0280402,21.8258419],[112.0269336,21.8257522],[112.025978,21.8256375],[112.0248724,21.8255179],[112.0238471,21.8253684],[112.0227569,21.8252189],[112.0212797,21.8249347],[112.0199261,21.8246355],[112.0187392,21.8243264],[112.017053,21.8238528],[112.0109305,21.8217656],[112.0043246,21.8192604],[112.0,21.817734841547672]]},"properties":{"key":"way:627789208@detail:448_87","osmType":"way","osmId":627789208,"sourceRegion":"guangdong","featureType":"infrastructure","railClass":"highspeed","mode":"rail","name":"深湛线","nameEn":"Shenzhen-Zhanjiang Railway","ref":"3071","operator":"中国铁路广州局集团有限公司","usage":"main","highspeed":"yes","bridge":"yes","status":"operational","color":"#E54848","dataOrigin":"datum-2026-08-01","sourceKey":"way:627789208"}},{"type":"Feature","geometry":{"type":"LineString","coordinates":[[112.1250561,21.8944673],[112.1239724,21.8909018],[112.1235006,21.8893895],[112.1227937,21.8873819],[112.1216793,21.8851745],[112.1205008,21.8829278],[112.1188942,21.880761],[112.1157841,21.8769396],[112.1115809,21.8722628],[112.104459,21.865952],[112.0985585,21.8607349],[112.0954485,21.8581072],[112.091567,21.8551615],[112.0887355,21.85331],[112.0848943,21.8506708],[112.0822451,21.848869],[112.0794571,21.8471123],[112.0777309,21.8461122]]},"properties":{"key":"way:952972901@detail:448_87","osmType":"way","osmId":952972901,"sourceRegion":"guangdong","featureType":"infrastructure","railClass":"highspeed","mode":"rail","name":"深湛线","nameEn":"Shenzhen-Zhanjiang Railway","ref":"3071","operator":"中国铁路广州局集团有限公司","usage":"main","highspeed":"yes","status":"operational","color":"#E54848","dataOrigin":"datum-2026-08-01","sourceKey":"way:952972901"}},{"type":"Feature","geometry":{"type":"LineString","coordinates":[[112.1251235,21.8946978],[112.1250561,21.8944673]]},"properties":{"key":"way:952972902@detail:448_87","osmType":"way","osmId":952972902,"sourceRegion":"guangdong","featureType":"infrastructure","railClass":"highspeed","mode":"rail","name":"深湛线","nameEn":"Shenzhen-Zhanjiang Railway","ref":"3071","operator":"中国铁路广州局集团有限公司","usage":"main","highspeed":"yes","bridge":"yes","status":"operational","color":"#E54848","dataOrigin":"datum-2026-08-01","sourceKey":"way:952972902"}},{"type":"Feature","geometry":{"type":"LineString","coordinates":[[112.1250958,21.8944543],[112.1240186,21.8908896],[112.1235466,21.8893764],[112.1228385,21.8873654],[112.1217227,21.8851553],[112.1205425,21.8829053],[112.1189332,21.8807349],[112.1158218,21.8769118],[112.1116161,21.8722323],[112.1044922,21.8659197],[112.0985913,21.8607022],[112.0954799,21.8580734],[112.0915961,21.8551259],[112.0887637,21.8532738],[112.0849228,21.8506349],[112.0822728,21.8488325],[112.0794833,21.8470749],[112.0777559,21.8460741]]},"properties":{"key":"way:952972903@detail:448_87","osmType":"way","osmId":952972903,"sourceRegion":"guangdong","featureType":"infrastructure","railClass":"highspeed","mode":"rail","name":"深湛线","nameEn":"Shenzhen-Zhanjiang Railway","ref":"3071","operator":"中国铁路广州局集团有限公司","usage":"main","highspeed":"yes","status":"operational","color":"#E54848","dataOrigin":"datum-2026-08-01","sourceKey":"way:952972903"}},{"type":"Feature","geometry":{"type":"LineString","coordinates":[[112.1251669,21.894682],[112.1250958,21.8944543]]},"properties":{"key":"way:952972904@detail:448_87","osmType":"way","osmId":952972904,"sourceRegion":"guangdong","featureType":"infrastructure","railClass":"highspeed","mode":"rail","name":"深湛线","nameEn":"Shenzhen-Zhanjiang Railway","ref":"3071","operator":"中国铁路广州局集团有限公司","usage":"main","highspeed":"yes","bridge":"yes","status":"operational","color":"#E54848","dataOrigin":"datum-2026-08-01","sourceKey":"way:952972904"}},{"type":"Feature","geometry":{"type":"LineString","coordinates":[[112.1289154,21.9065868],[112.1280849,21.90402],[112.1266365,21.8995305],[112.1251669,21.894682]]},"properties":{"key":"way:952972905@detail:448_87","osmType":"way","osmId":952972905,"sourceRegion":"guangdong","featureType":"infrastructure","railClass":"highspeed","mode":"rail","name":"深湛线","nameEn":"Shenzhen-Zhanjiang Railway","ref":"3071","operator":"中国铁路广州局集团有限公司","usage":"main","highspeed":"yes","status":"operational","color":"#E54848","dataOrigin":"datum-2026-08-01","sourceKey":"way:952972905"}},{"type":"Feature","geometry":{"type":"LineString","coordinates":[[112.1289477,21.9067007],[112.1289154,21.9065868]]},"properties":{"key":"way:952972906@detail:448_87","osmType":"way","osmId":952972906,"sourceRegion":"guangdong","featureType":"infrastructure","railClass":"highspeed","mode":"rail","name":"深湛线","nameEn":"Shenzhen-Zhanjiang Railway","ref":"3071","operator":"中国铁路广州局集团有限公司","usage":"main","highspeed":"yes","bridge":"yes","status":"operational","color":"#E54848","dataOrigin":"datum-2026-08-01","sourceKey":"way:952972906"}},{"type":"Feature","geometry":{"type":"LineString","coordinates":[[112.1288721,21.9066081],[112.1280388,21.9040328],[112.1265903,21.8995429],[112.1251235,21.8946978]]},"properties":{"key":"way:952972907@detail:448_87","osmType":"way","osmId":952972907,"sourceRegion":"guangdong","featureType":"infrastructure","railClass":"highspeed","mode":"rail","name":"深湛线","nameEn":"Shenzhen-Zhanjiang Railway","ref":"3071","operator":"中国铁路广州局集团有限公司","usage":"main","highspeed":"yes","status":"operational","color":"#E54848","dataOrigin":"datum-2026-08-01","sourceKey":"way:952972907"}},{"type":"Feature","geometry":{"type":"LineString","coordinates":[[112.1289056,21.9067114],[112.1288721,21.9066081]]},"properties":{"key":"way:952972908@detail:448_87","osmType":"way","osmId":952972908,"sourceRegion":"guangdong","featureType":"infrastructure","railClass":"highspeed","mode":"rail","name":"深湛线","nameEn":"Shenzhen-Zhanjiang Railway","ref":"3071","operator":"中国铁路广州局集团有限公司","usage":"main","highspeed":"yes","bridge":"yes","status":"operational","color":"#E54848","dataOrigin":"datum-2026-08-01","sourceKey":"way:952972908"}},{"type":"Feature","geometry":{"type":"LineString","coordinates":[[112.1445169,21.946575],[112.1438241,21.9449065],[112.1432984,21.9435232],[112.142719,21.9419608],[112.1419573,21.9393435],[112.1398437,21.9322078],[112.1391141,21.9297595],[112.1385348,21.9280577],[112.1376121,21.9257685],[112.1360671,21.9225836],[112.1340716,21.9189208],[112.1330094,21.9168008],[112.1320975,21.9150888],[112.1310997,21.9130383],[112.130413,21.9112267],[112.1297693,21.9092161],[112.1290398,21.9069764],[112.1289477,21.9067007]]},"properties":{"key":"way:958441637@detail:448_87","osmType":"way","osmId":958441637,"sourceRegion":"guangdong","featureType":"infrastructure","railClass":"highspeed","mode":"rail","name":"深湛线","nameEn":"Shenzhen-Zhanjiang Railway","ref":"3071","operator":"中国铁路广州局集团有限公司","usage":"main","highspeed":"yes","status":"operational","color":"#E54848","dataOrigin":"datum-2026-08-01","sourceKey":"way:958441637"}},{"type":"Feature","geometry":{"type":"LineString","coordinates":[[112.1446727,21.9468987],[112.1445169,21.946575]]},"properties":{"key":"way:958441638@detail:448_87","osmType":"way","osmId":958441638,"sourceRegion":"guangdong","featureType":"infrastructure","railClass":"highspeed","mode":"rail","name":"深湛线","nameEn":"Shenzhen-Zhanjiang Railway","ref":"3071","operator":"中国铁路广州局集团有限公司","usage":"main","highspeed":"yes","bridge":"yes","status":"operational","color":"#E54848","dataOrigin":"datum-2026-08-01","sourceKey":"way:958441638"}},{"type":"Feature","geometry":{"type":"LineString","coordinates":[[112.1444696,21.9465866],[112.1437792,21.9449225],[112.143253,21.9435379],[112.142673,21.9419739],[112.1419109,21.9393552],[112.1397973,21.9322197],[112.139068,21.9297722],[112.1384893,21.9280722],[112.1375676,21.9257855],[112.1360237,21.9226028],[112.1340283,21.9189403],[112.132966,21.9168201],[112.132054,21.9151079],[112.131055,21.9130549],[112.1303672,21.9112405],[112.1297232,21.9092289],[112.1289938,21.9069893],[112.1289056,21.9067114]]},"properties":{"key":"way:958441639@detail:448_87","osmType":"way","osmId":958441639,"sourceRegion":"guangdong","featureType":"infrastructure","railClass":"highspeed","mode":"rail","name":"深湛线","nameEn":"Shenzhen-Zhanjiang Railway","ref":"3071","operator":"中国铁路广州局集团有限公司","usage":"main","highspeed":"yes","status":"operational","color":"#E54848","dataOrigin":"datum-2026-08-01","sourceKey":"way:958441639"}},{"type":"Feature","geometry":{"type":"LineString","coordinates":[[112.1446294,21.9469155],[112.1444696,21.9465866]]},"properties":{"key":"way:958441640@detail:448_87","osmType":"way","osmId":958441640,"sourceRegion":"guangdong","featureType":"infrastructure","railClass":"highspeed","mode":"rail","name":"深湛线","nameEn":"Shenzhen-Zhanjiang Railway","ref":"3071","operator":"中国铁路广州局集团有限公司","usage":"main","highspeed":"yes","bridge":"yes","status":"operational","color":"#E54848","dataOrigin":"datum-2026-08-01","sourceKey":"way:958441640"}},{"type":"Feature","geometry":{"type":"LineString","coordinates":[[112.1452371,21.9480491],[112.1446727,21.9468987]]},"properties":{"key":"way:970025057@detail:448_87","osmType":"way","osmId":970025057,"sourceRegion":"guangdong","featureType":"infrastructure","railClass":"highspeed","mode":"rail","name":"深湛线","nameEn":"Shenzhen-Zhanjiang Railway","ref":"3071","operator":"中国铁路广州局集团有限公司","usage":"main","highspeed":"yes","status":"operational","color":"#E54848","dataOrigin":"datum-2026-08-01","sourceKey":"way:970025057"}},{"type":"Feature","geometry":{"type":"LineString","coordinates":[[112.1451916,21.9480668],[112.1446294,21.9469155]]},"properties":{"key":"way:970025058@detail:448_87","osmType":"way","osmId":970025058,"sourceRegion":"guangdong","featureType":"infrastructure","railClass":"highspeed","mode":"rail","name":"深湛线","nameEn":"Shenzhen-Zhanjiang Railway","ref":"3071","operator":"中国铁路广州局集团有限公司","usage":"main","highspeed":"yes","status":"operational","color":"#E54848","dataOrigin":"datum-2026-08-01","sourceKey":"way:970025058"}},{"type":"Feature","geometry":{"type":"LineString","coordinates":[[112.1456422,21.948958],[112.1451916,21.9480668]]},"properties":{"key":"way:970025059@detail:448_87","osmType":"way","osmId":970025059,"sourceRegion":"guangdong","featureType":"infrastructure","railClass":"highspeed","mode":"rail","name":"深湛线","nameEn":"Shenzhen-Zhanjiang Railway","ref":"3071","operator":"中国铁路广州局集团有限公司","usage":"main","highspeed":"yes","bridge":"yes","status":"operational","color":"#E54848","dataOrigin":"datum-2026-08-01","sourceKey":"way:970025059"}},{"type":"Feature","geometry":{"type":"LineString","coordinates":[[112.1456908,21.9489423],[112.1452371,21.9480491]]},"properties":{"key":"way:970025060@detail:448_87","osmType":"way","osmId":970025060,"sourceRegion":"guangdong","featureType":"infrastructure","railClass":"highspeed","mode":"rail","name":"深湛线","nameEn":"Shenzhen-Zhanjiang Railway","ref":"3071","operator":"中国铁路广州局集团有限公司","usage":"main","highspeed":"yes","bridge":"yes","status":"operational","color":"#E54848","dataOrigin":"datum-2026-08-01","sourceKey":"way:970025060"}},{"type":"Feature","geometry":{"type":"LineString","coordinates":[[112.1462385,21.9500314],[112.1458302,21.9493275]]},"properties":{"key":"way:970025061@detail:448_87","osmType":"way","osmId":970025061,"sourceRegion":"guangdong","featureType":"infrastructure","railClass":"minor","mode":"rail","name":"未命名","usage":"main","service":"crossover","highspeed":"yes","status":"operational","color":"#52636F","dataOrigin":"datum-2026-08-01","sourceKey":"way:970025061"}},{"type":"Feature","geometry":{"type":"LineString","coordinates":[[112.1466697,21.9507602],[112.1472081,21.9518327],[112.1478511,21.9530807],[112.1514273,21.9601529],[112.1522333,21.9617456],[112.1525842,21.962439],[112.1533956,21.9640423],[112.1543184,21.9658659],[112.155308,21.9678291],[112.1555783,21.968353]]},"properties":{"key":"way:970025062@detail:448_87","osmType":"way","osmId":970025062,"sourceRegion":"guangdong","featureType":"infrastructure","railClass":"minor","mode":"rail","name":"未命名","service":"siding","highspeed":"yes","status":"operational","color":"#52636F","dataOrigin":"datum-2026-08-01","sourceKey":"way:970025062"}},{"type":"Feature","geometry":{"type":"LineString","coordinates":[[112.15226,21.9614144],[112.1522833,21.9615912],[112.15234,21.9617829],[112.1525842,21.962439]]},"properties":{"key":"way:970025063@detail:448_87","osmType":"way","osmId":970025063,"sourceRegion":"guangdong","featureType":"infrastructure","railClass":"minor","mode":"rail","name":"未命名","service":"siding","highspeed":"yes","status":"operational","color":"#52636F","dataOrigin":"datum-2026-08-01","sourceKey":"way:970025063"}},{"type":"Feature","geometry":{"type":"LineString","coordinates":[[112.1533956,21.9640423],[112.1538819,21.9647806],[112.1541694,21.9652131],[112.1543824,21.9655334],[112.1547623,21.9661048],[112.154885,21.966314],[112.1552392,21.9670079]]},"properties":{"key":"way:970025064@detail:448_87","osmType":"way","osmId":970025064,"sourceRegion":"guangdong","featureType":"infrastructure","railClass":"minor","mode":"rail","name":"未命名","usage":"main","service":"yard","status":"operational","color":"#52636F","dataOrigin":"datum-2026-08-01","sourceKey":"way:970025064"}},{"type":"Feature","geometry":{"type":"LineString","coordinates":[[112.1552754,21.9669985],[112.1549477,21.9663372],[112.1548752,21.9662053],[112.1547963,21.9660674],[112.1547037,21.9659281],[112.1545525,21.9657309],[112.1543824,21.9655334]]},"properties":{"key":"way:970025065@detail:448_87","osmType":"way","osmId":970025065,"sourceRegion":"guangdong","featureType":"infrastructure","railClass":"minor","mode":"rail","name":"未命名","usage":"main","service":"yard","status":"operational","color":"#52636F","dataOrigin":"datum-2026-08-01","sourceKey":"way:970025065"}},{"type":"Feature","geometry":{"type":"LineString","coordinates":[[112.1556733,21.9681887],[112.154372,21.965614],[112.1541694,21.9652131]]},"properties":{"key":"way:970025066@detail:448_87","osmType":"way","osmId":970025066,"sourceRegion":"guangdong","featureType":"infrastructure","railClass":"minor","mode":"rail","name":"未命名","usage":"main","service":"yard","status":"operational","color":"#52636F","dataOrigin":"datum-2026-08-01","sourceKey":"way:970025066"}},{"type":"Feature","geometry":{"type":"LineString","coordinates":[[112.1551782,21.9670236],[112.154669,21.9660708],[112.1545753,21.9659072],[112.154372,21.965614]]},"properties":{"key":"way:970025067@detail:448_87","osmType":"way","osmId":970025067,"sourceRegion":"guangdong","featureType":"infrastructure","railClass":"minor","mode":"rail","name":"未命名","usage":"main","service":"yard","status":"operational","color":"#52636F","dataOrigin":"datum-2026-08-01","sourceKey":"way:970025067"}},{"type":"Feature","geometry":{"type":"LineString","coordinates":[[112.1539115,21.9653004],[112.1535873,21.9645302]]},"properties":{"key":"way:970025068@detail:448_87","osmType":"way","osmId":970025068,"sourceRegion":"guangdong","featureType":"infrastructure","railClass":"minor","mode":"rail","name":"未命名","usage":"main","service":"crossover","highspeed":"yes","status":"operational","color":"#52636F","dataOrigin":"datum-2026-08-01","sourceKey":"way:970025068"}},{"type":"Feature","geometry":{"type":"LineString","coordinates":[[112.152946,21.963261],[112.1526064,21.9627291]]},"properties":{"key":"way:970025069@detail:448_87","osmType":"way","osmId":970025069,"sourceRegion":"guangdong","featureType":"infrastructure","railClass":"minor","mode":"rail","name":"未命名","usage":"main","service":"crossover","highspeed":"yes","status":"operational","color":"#52636F","dataOrigin":"datum-2026-08-01","sourceKey":"way:970025069"}},{"type":"Feature","geometry":{"type":"LineString","coordinates":[[112.1525209,21.9624246],[112.1522333,21.9617456]]},"properties":{"key":"way:970025070@detail:448_87","osmType":"way","osmId":970025070,"sourceRegion":"guangdong","featureType":"infrastructure","railClass":"minor","mode":"rail","name":"未命名","service":"yard","highspeed":"yes","status":"operational","color":"#52636F","dataOrigin":"datum-2026-08-01","sourceKey":"way:970025070"}},{"type":"Feature","geometry":{"type":"LineString","coordinates":[[112.1516241,21.960782],[112.1512639,21.9601829],[112.151064,21.9598076],[112.1508203,21.959308],[112.1481434,21.9540346],[112.1479466,21.9536101],[112.147708,21.9530522]]},"properties":{"key":"way:970025071@detail:448_87","osmType":"way","osmId":970025071,"sourceRegion":"guangdong","featureType":"infrastructure","railClass":"minor","mode":"rail","name":"未命名","service":"siding","highspeed":"yes","status":"operational","color":"#52636F","dataOrigin":"datum-2026-08-01","sourceKey":"way:970025071"}},{"type":"Feature","geometry":{"type":"LineString","coordinates":[[112.1467339,21.951006],[112.1472081,21.9518327]]},"properties":{"key":"way:970025072@detail:448_87","osmType":"way","osmId":970025072,"sourceRegion":"guangdong","featureType":"infrastructure","railClass":"minor","mode":"rail","name":"未命名","usage":"main","service":"yard","highspeed":"yes","status":"operational","color":"#52636F","dataOrigin":"datum-2026-08-01","sourceKey":"way:970025072"}},{"type":"Feature","geometry":{"type":"LineString","coordinates":[[112.17042021750626,22.0],[112.1698287,21.9994812],[112.1685826,21.9982164],[112.167348,21.9969224],[112.1661881,21.9956178],[112.1652318,21.9944422],[112.1643077,21.9931667],[112.1639657,21.9926263]]},"properties":{"key":"way:1426185893@detail:448_87","osmType":"way","osmId":1426185893,"sourceRegion":"guangdong","featureType":"infrastructure","railClass":"highspeed","mode":"rail","name":"深湛线","nameEn":"Shenzhen-Zhanjiang Railway","ref":"3071","operator":"中国铁路广州局集团有限公司","usage":"main","highspeed":"yes","status":"operational","color":"#E54848","dataOrigin":"datum-2026-08-01","sourceKey":"way:1426185893"}},{"type":"Feature","geometry":{"type":"LineString","coordinates":[[112.17049016218856,22.0],[112.169863,21.9994499],[112.1686184,21.9981866],[112.1673846,21.9968934],[112.1662259,21.9955902],[112.165271,21.9944163],[112.1643484,21.993143],[112.1640081,21.9926054]]},"properties":{"key":"way:1426185894@detail:448_87","osmType":"way","osmId":1426185894,"sourceRegion":"guangdong","featureType":"infrastructure","railClass":"highspeed","mode":"rail","name":"深湛线","nameEn":"Shenzhen-Zhanjiang Railway","ref":"3071","operator":"中国铁路广州局集团有限公司","usage":"main","highspeed":"yes","status":"operational","color":"#E54848","dataOrigin":"datum-2026-08-01","sourceKey":"way:1426185894"}},{"type":"Feature","geometry":{"type":"LineString","coordinates":[[112.1639657,21.9926263],[112.1635446,21.991961],[112.1630597,21.9911084]]},"properties":{"key":"way:1426185895@detail:448_87","osmType":"way","osmId":1426185895,"sourceRegion":"guangdong","featureType":"infrastructure","railClass":"highspeed","mode":"rail","name":"深湛线","nameEn":"Shenzhen-Zhanjiang Railway","ref":"3071","operator":"中国铁路广州局集团有限公司","usage":"main","highspeed":"yes","bridge":"yes","status":"operational","color":"#E54848","dataOrigin":"datum-2026-08-01","sourceKey":"way:1426185895"}},{"type":"Feature","geometry":{"type":"LineString","coordinates":[[112.1640081,21.9926054],[112.1635866,21.9919393],[112.1631028,21.9910887]]},"properties":{"key":"way:1426185896@detail:448_87","osmType":"way","osmId":1426185896,"sourceRegion":"guangdong","featureType":"infrastructure","railClass":"highspeed","mode":"rail","name":"深湛线","nameEn":"Shenzhen-Zhanjiang Railway","ref":"3071","operator":"中国铁路广州局集团有限公司","usage":"main","highspeed":"yes","bridge":"yes","status":"operational","color":"#E54848","dataOrigin":"datum-2026-08-01","sourceKey":"way:1426185896"}},{"type":"Feature","geometry":{"type":"LineString","coordinates":[[112.0727563,21.8433255],[112.0706534,21.8421604],[112.0642883,21.8388664]]},"properties":{"key":"way:1511176890@detail:448_87","osmType":"way","osmId":1511176890,"sourceRegion":"guangdong","featureType":"infrastructure","railClass":"highspeed","mode":"rail","name":"深湛线","nameEn":"Shenzhen-Zhanjiang Railway","ref":"3071","operator":"中国铁路广州局集团有限公司","usage":"main","highspeed":"yes","status":"operational","color":"#E54848","dataOrigin":"datum-2026-08-01","sourceKey":"way:1511176890"}},{"type":"Feature","geometry":{"type":"LineString","coordinates":[[112.0727317,21.8433639],[112.0706294,21.8421991],[112.0642801,21.8389132]]},"properties":{"key":"way:1511176891@detail:448_87","osmType":"way","osmId":1511176891,"sourceRegion":"guangdong","featureType":"infrastructure","railClass":"highspeed","mode":"rail","name":"深湛线","nameEn":"Shenzhen-Zhanjiang Railway","ref":"3071","operator":"中国铁路广州局集团有限公司","usage":"main","highspeed":"yes","status":"operational","color":"#E54848","dataOrigin":"datum-2026-08-01","sourceKey":"way:1511176891"}},{"type":"Feature","geometry":{"type":"LineString","coordinates":[[112.0642801,21.8389132],[112.0640102,21.8387735],[112.059064,21.836189],[112.0560491,21.8345956],[112.0540469,21.8335316]]},"properties":{"key":"way:1511176892@detail:448_87","osmType":"way","osmId":1511176892,"sourceRegion":"guangdong","featureType":"infrastructure","railClass":"highspeed","mode":"rail","name":"深湛线","nameEn":"Shenzhen-Zhanjiang Railway","ref":"3071","operator":"中国铁路广州局集团有限公司","usage":"main","highspeed":"yes","bridge":"yes","status":"operational","color":"#E54848","dataOrigin":"datum-2026-08-01","sourceKey":"way:1511176892"}},{"type":"Feature","geometry":{"type":"LineString","coordinates":[[112.0642883,21.8388664],[112.0640337,21.8387346],[112.0590877,21.8361502],[112.0560729,21.8345568],[112.0542741,21.8336009],[112.0540744,21.8334947]]},"properties":{"key":"way:1511176893@detail:448_87","osmType":"way","osmId":1511176893,"sourceRegion":"guangdong","featureType":"infrastructure","railClass":"highspeed","mode":"rail","name":"深湛线","nameEn":"Shenzhen-Zhanjiang Railway","ref":"3071","operator":"中国铁路广州局集团有限公司","usage":"main","highspeed":"yes","bridge":"yes","status":"operational","color":"#E54848","dataOrigin":"datum-2026-08-01","sourceKey":"way:1511176893"}},{"type":"Feature","geometry":{"type":"LineString","coordinates":[[112.0540744,21.8334947],[112.0526437,21.8327344]]},"properties":{"key":"way:1511176894@detail:448_87","osmType":"way","osmId":1511176894,"sourceRegion":"guangdong","featureType":"infrastructure","railClass":"highspeed","mode":"rail","name":"深湛线","nameEn":"Shenzhen-Zhanjiang Railway","ref":"3071","operator":"中国铁路广州局集团有限公司","usage":"main","highspeed":"yes","status":"operational","color":"#E54848","dataOrigin":"datum-2026-08-01","sourceKey":"way:1511176894"}},{"type":"Feature","geometry":{"type":"LineString","coordinates":[[112.0540469,21.8335316],[112.0525997,21.8327625]]},"properties":{"key":"way:1511176895@detail:448_87","osmType":"way","osmId":1511176895,"sourceRegion":"guangdong","featureType":"infrastructure","railClass":"highspeed","mode":"rail","name":"深湛线","nameEn":"Shenzhen-Zhanjiang Railway","ref":"3071","operator":"中国铁路广州局集团有限公司","usage":"main","highspeed":"yes","status":"operational","color":"#E54848","dataOrigin":"datum-2026-08-01","sourceKey":"way:1511176895"}}]}