{"type":"FeatureCollection","features":[{"type":"Feature","geometry":{"type":"Point","coordinates":[112.1332222,23.0150181]},"properties":{"key":"node:5098263175","osmType":"node","osmId":5098263175,"sourceRegion":"guangdong","featureType":"station","railClass":"minor","mode":"station","name":"云浮东","nameEn":"Yunfu East","status":"operational","color":"#52636F","dataOrigin":"datum-2026-08-01","sourceKey":"node:5098263175","stationGroup":"云浮东","hasOperationalRail":true,"hasConstructionRail":false}},{"type":"Feature","geometry":{"type":"LineString","coordinates":[[112.1594702,23.0123293],[112.1628249,23.0120651],[112.1658182,23.0119762],[112.1675616,23.011991],[112.1686774,23.0120453],[112.1698844,23.0121342]]},"properties":{"key":"way:239597008@detail:448_92","osmType":"way","osmId":239597008,"sourceRegion":"guangdong","featureType":"infrastructure","railClass":"highspeed","mode":"rail","name":"南广线","nameEn":"Nanguang Line","ref":"3029","usage":"main","highspeed":"yes","bridge":"yes","status":"operational","color":"#E54848","dataOrigin":"datum-2026-08-01","sourceKey":"way:239597008"}},{"type":"Feature","geometry":{"type":"LineString","coordinates":[[112.0451561,23.0467589],[112.0671037,23.0358379],[112.0781421,23.0294836],[112.0881843,23.0237172],[112.0906352,23.0224282]]},"properties":{"key":"way:239599187@detail:448_92","osmType":"way","osmId":239599187,"sourceRegion":"guangdong","featureType":"infrastructure","railClass":"highspeed","mode":"rail","name":"南广线","nameEn":"Nanguang Line","ref":"3029","usage":"main","highspeed":"yes","tunnel":"yes","status":"operational","color":"#E54848","dataOrigin":"datum-2026-08-01","sourceKey":"way:239599187"}},{"type":"Feature","geometry":{"type":"LineString","coordinates":[[112.0166203,23.055982],[112.0206785,23.0553702],[112.0263004,23.0540276],[112.032094,23.0518952],[112.037241,23.0496663]]},"properties":{"key":"way:239700325@detail:448_92","osmType":"way","osmId":239700325,"sourceRegion":"guangdong","featureType":"infrastructure","railClass":"highspeed","mode":"rail","name":"南广线","nameEn":"Nanguang Line","ref":"3029","usage":"main","highspeed":"yes","tunnel":"yes","status":"operational","color":"#E54848","dataOrigin":"datum-2026-08-01","sourceKey":"way:239700325"}},{"type":"Feature","geometry":{"type":"LineString","coordinates":[[112.043058,23.0475296],[112.0451561,23.0467589]]},"properties":{"key":"way:239700326@detail:448_92","osmType":"way","osmId":239700326,"sourceRegion":"guangdong","featureType":"infrastructure","railClass":"highspeed","mode":"rail","name":"南广线","nameEn":"Nanguang Line","ref":"3029","usage":"main","highspeed":"yes","status":"operational","color":"#E54848","dataOrigin":"datum-2026-08-01","sourceKey":"way:239700326"}},{"type":"Feature","geometry":{"type":"LineString","coordinates":[[112.0,23.056378646210007],[112.0000958,23.0563805],[112.0018229,23.0564131],[112.0034926,23.0564441],[112.0051698,23.0564718],[112.0088246,23.0564913],[112.0125153,23.0563531],[112.0166203,23.055982]]},"properties":{"key":"way:516917775@detail:448_92","osmType":"way","osmId":516917775,"sourceRegion":"guangdong","featureType":"infrastructure","railClass":"highspeed","mode":"rail","name":"南广线","nameEn":"Nanguang Line","ref":"3029","usage":"main","highspeed":"yes","bridge":"yes","status":"operational","color":"#E54848","dataOrigin":"datum-2026-08-01","sourceKey":"way:516917775"}},{"type":"Feature","geometry":{"type":"LineString","coordinates":[[112.1800467,23.0135191],[112.248001,23.0253958],[112.25,23.02584931657129]]},"properties":{"key":"way:549412096@detail:448_92","osmType":"way","osmId":549412096,"sourceRegion":"guangdong","featureType":"infrastructure","railClass":"highspeed","mode":"rail","name":"南广线","nameEn":"Nanguang Line","ref":"3029","usage":"main","highspeed":"yes","tunnel":"yes","status":"operational","color":"#E54848","dataOrigin":"datum-2026-08-01","sourceKey":"way:549412096"}},{"type":"Feature","geometry":{"type":"LineString","coordinates":[[112.1714857,23.0122724],[112.1747963,23.0126452]]},"properties":{"key":"way:549412099@detail:448_92","osmType":"way","osmId":549412099,"sourceRegion":"guangdong","featureType":"infrastructure","railClass":"highspeed","mode":"rail","name":"南广线","nameEn":"Nanguang Line","ref":"3029","usage":"main","highspeed":"yes","tunnel":"yes","status":"operational","color":"#E54848","dataOrigin":"datum-2026-08-01","sourceKey":"way:549412099"}},{"type":"Feature","geometry":{"type":"LineString","coordinates":[[112.1698844,23.0121342],[112.1714857,23.0122724]]},"properties":{"key":"way:549412100@detail:448_92","osmType":"way","osmId":549412100,"sourceRegion":"guangdong","featureType":"infrastructure","railClass":"highspeed","mode":"rail","name":"南广线","nameEn":"Nanguang Line","ref":"3029","usage":"main","highspeed":"yes","status":"operational","color":"#E54848","dataOrigin":"datum-2026-08-01","sourceKey":"way:549412100"}},{"type":"Feature","geometry":{"type":"LineString","coordinates":[[112.1747963,23.0126452],[112.1785426,23.0132945],[112.1800467,23.0135191]]},"properties":{"key":"way:549412101@detail:448_92","osmType":"way","osmId":549412101,"sourceRegion":"guangdong","featureType":"infrastructure","railClass":"highspeed","mode":"rail","name":"南广线","nameEn":"Nanguang Line","ref":"3029","usage":"main","highspeed":"yes","status":"operational","color":"#E54848","dataOrigin":"datum-2026-08-01","sourceKey":"way:549412101"}},{"type":"Feature","geometry":{"type":"LineString","coordinates":[[112.1560353,23.0127245],[112.1583698,23.0124559]]},"properties":{"key":"way:549412102@detail:448_92","osmType":"way","osmId":549412102,"sourceRegion":"guangdong","featureType":"infrastructure","railClass":"highspeed","mode":"rail","name":"南广线","nameEn":"Nanguang Line","ref":"3029","usage":"main","highspeed":"yes","bridge":"yes","status":"operational","color":"#E54848","dataOrigin":"datum-2026-08-01","sourceKey":"way:549412102"}},{"type":"Feature","geometry":{"type":"LineString","coordinates":[[112.1583698,23.0124559],[112.1594702,23.0123293]]},"properties":{"key":"way:549412103@detail:448_92","osmType":"way","osmId":549412103,"sourceRegion":"guangdong","featureType":"infrastructure","railClass":"highspeed","mode":"rail","name":"南广线","nameEn":"Nanguang Line","ref":"3029","usage":"main","highspeed":"yes","status":"operational","color":"#E54848","dataOrigin":"datum-2026-08-01","sourceKey":"way:549412103"}},{"type":"Feature","geometry":{"type":"LineString","coordinates":[[112.1540149,23.0129416],[112.1560353,23.0127245]]},"properties":{"key":"way:549412104@detail:448_92","osmType":"way","osmId":549412104,"sourceRegion":"guangdong","featureType":"infrastructure","railClass":"highspeed","mode":"rail","name":"南广线","nameEn":"Nanguang Line","ref":"3029","usage":"main","highspeed":"yes","status":"operational","color":"#E54848","dataOrigin":"datum-2026-08-01","sourceKey":"way:549412104"}},{"type":"Feature","geometry":{"type":"LineString","coordinates":[[112.1521651,23.013153],[112.1540149,23.0129416]]},"properties":{"key":"way:549412109@detail:448_92","osmType":"way","osmId":549412109,"sourceRegion":"guangdong","featureType":"infrastructure","railClass":"highspeed","mode":"rail","name":"南广线","nameEn":"Nanguang Line","ref":"3029","usage":"main","highspeed":"yes","bridge":"yes","status":"operational","color":"#E54848","dataOrigin":"datum-2026-08-01","sourceKey":"way:549412109"}},{"type":"Feature","geometry":{"type":"LineString","coordinates":[[112.150454,23.0133231],[112.1514412,23.0132303],[112.1521651,23.013153]]},"properties":{"key":"way:549412113@detail:448_92","osmType":"way","osmId":549412113,"sourceRegion":"guangdong","featureType":"infrastructure","railClass":"highspeed","mode":"rail","name":"南广线","nameEn":"Nanguang Line","ref":"3029","usage":"main","highspeed":"yes","bridge":"yes","status":"operational","color":"#E54848","dataOrigin":"datum-2026-08-01","sourceKey":"way:549412113"}},{"type":"Feature","geometry":{"type":"LineString","coordinates":[[112.1426804,23.014206],[112.1447761,23.0139364],[112.1485582,23.0135298],[112.1493968,23.0134787],[112.150454,23.0133231]]},"properties":{"key":"way:549412115@detail:448_92","osmType":"way","osmId":549412115,"sourceRegion":"guangdong","featureType":"infrastructure","railClass":"highspeed","mode":"rail","name":"南广线","nameEn":"Nanguang Line","ref":"3029","usage":"main","highspeed":"yes","bridge":"yes","status":"operational","color":"#E54848","dataOrigin":"datum-2026-08-01","sourceKey":"way:549412115"}},{"type":"Feature","geometry":{"type":"LineString","coordinates":[[112.1222781,23.0165126],[112.1261807,23.0161791]]},"properties":{"key":"way:549412118@detail:448_92","osmType":"way","osmId":549412118,"sourceRegion":"guangdong","featureType":"infrastructure","railClass":"highspeed","mode":"rail","name":"南广线","nameEn":"Nanguang Line","ref":"3029","usage":"main","highspeed":"yes","tunnel":"yes","status":"operational","color":"#E54848","dataOrigin":"datum-2026-08-01","sourceKey":"way:549412118"}},{"type":"Feature","geometry":{"type":"LineString","coordinates":[[112.1150521,23.0173189],[112.1167634,23.0171567]]},"properties":{"key":"way:549412122@detail:448_92","osmType":"way","osmId":549412122,"sourceRegion":"guangdong","featureType":"infrastructure","railClass":"highspeed","mode":"rail","name":"南广线","nameEn":"Nanguang Line","ref":"3029","usage":"main","highspeed":"yes","bridge":"yes","status":"operational","color":"#E54848","dataOrigin":"datum-2026-08-01","sourceKey":"way:549412122"}},{"type":"Feature","geometry":{"type":"LineString","coordinates":[[112.1148666,23.0173303],[112.1150521,23.0173189]]},"properties":{"key":"way:549412126@detail:448_92","osmType":"way","osmId":549412126,"sourceRegion":"guangdong","featureType":"infrastructure","railClass":"highspeed","mode":"rail","name":"南广线","nameEn":"Nanguang Line","ref":"3029","usage":"main","highspeed":"yes","status":"operational","color":"#E54848","dataOrigin":"datum-2026-08-01","sourceKey":"way:549412126"}},{"type":"Feature","geometry":{"type":"LineString","coordinates":[[112.1173104,23.0170807],[112.1197673,23.0167997]]},"properties":{"key":"way:549412129@detail:448_92","osmType":"way","osmId":549412129,"sourceRegion":"guangdong","featureType":"infrastructure","railClass":"highspeed","mode":"rail","name":"南广线","nameEn":"Nanguang Line","ref":"3029","usage":"main","highspeed":"yes","tunnel":"yes","status":"operational","color":"#E54848","dataOrigin":"datum-2026-08-01","sourceKey":"way:549412129"}},{"type":"Feature","geometry":{"type":"LineString","coordinates":[[112.1167634,23.0171567],[112.1173104,23.0170807]]},"properties":{"key":"way:549412132@detail:448_92","osmType":"way","osmId":549412132,"sourceRegion":"guangdong","featureType":"infrastructure","railClass":"highspeed","mode":"rail","name":"南广线","nameEn":"Nanguang Line","ref":"3029","usage":"main","highspeed":"yes","status":"operational","color":"#E54848","dataOrigin":"datum-2026-08-01","sourceKey":"way:549412132"}},{"type":"Feature","geometry":{"type":"LineString","coordinates":[[112.1134756,23.0174642],[112.1148666,23.0173303]]},"properties":{"key":"way:549412135@detail:448_92","osmType":"way","osmId":549412135,"sourceRegion":"guangdong","featureType":"infrastructure","railClass":"highspeed","mode":"rail","name":"南广线","nameEn":"Nanguang Line","ref":"3029","usage":"main","highspeed":"yes","tunnel":"yes","status":"operational","color":"#E54848","dataOrigin":"datum-2026-08-01","sourceKey":"way:549412135"}},{"type":"Feature","geometry":{"type":"LineString","coordinates":[[112.1102328,23.0178864],[112.1134756,23.0174642]]},"properties":{"key":"way:549412139@detail:448_92","osmType":"way","osmId":549412139,"sourceRegion":"guangdong","featureType":"infrastructure","railClass":"highspeed","mode":"rail","name":"南广线","nameEn":"Nanguang Line","ref":"3029","usage":"main","highspeed":"yes","status":"operational","color":"#E54848","dataOrigin":"datum-2026-08-01","sourceKey":"way:549412139"}},{"type":"Feature","geometry":{"type":"LineString","coordinates":[[112.1091879,23.0180403],[112.109425,23.0179996]]},"properties":{"key":"way:549412142@detail:448_92","osmType":"way","osmId":549412142,"sourceRegion":"guangdong","featureType":"infrastructure","railClass":"highspeed","mode":"rail","name":"南广线","nameEn":"Nanguang Line","ref":"3029","usage":"main","highspeed":"yes","status":"operational","color":"#E54848","dataOrigin":"datum-2026-08-01","sourceKey":"way:549412142"}},{"type":"Feature","geometry":{"type":"LineString","coordinates":[[112.1080852,23.0182298],[112.1091879,23.0180403]]},"properties":{"key":"way:549412145@detail:448_92","osmType":"way","osmId":549412145,"sourceRegion":"guangdong","featureType":"infrastructure","railClass":"highspeed","mode":"rail","name":"南广线","nameEn":"Nanguang Line","ref":"3029","usage":"main","highspeed":"yes","tunnel":"yes","status":"operational","color":"#E54848","dataOrigin":"datum-2026-08-01","sourceKey":"way:549412145"}},{"type":"Feature","geometry":{"type":"LineString","coordinates":[[112.109425,23.0179996],[112.1102328,23.0178864]]},"properties":{"key":"way:549412149@detail:448_92","osmType":"way","osmId":549412149,"sourceRegion":"guangdong","featureType":"infrastructure","railClass":"highspeed","mode":"rail","name":"南广线","nameEn":"Nanguang Line","ref":"3029","usage":"main","highspeed":"yes","bridge":"yes","status":"operational","color":"#E54848","dataOrigin":"datum-2026-08-01","sourceKey":"way:549412149"}},{"type":"Feature","geometry":{"type":"LineString","coordinates":[[112.1056973,23.0187034],[112.1064443,23.0185387]]},"properties":{"key":"way:549412153@detail:448_92","osmType":"way","osmId":549412153,"sourceRegion":"guangdong","featureType":"infrastructure","railClass":"highspeed","mode":"rail","name":"南广线","nameEn":"Nanguang Line","ref":"3029","usage":"main","highspeed":"yes","bridge":"yes","status":"operational","color":"#E54848","dataOrigin":"datum-2026-08-01","sourceKey":"way:549412153"}},{"type":"Feature","geometry":{"type":"LineString","coordinates":[[112.103561,23.0191404],[112.1056973,23.0187034]]},"properties":{"key":"way:549412157@detail:448_92","osmType":"way","osmId":549412157,"sourceRegion":"guangdong","featureType":"infrastructure","railClass":"highspeed","mode":"rail","name":"南广线","nameEn":"Nanguang Line","ref":"3029","usage":"main","highspeed":"yes","status":"operational","color":"#E54848","dataOrigin":"datum-2026-08-01","sourceKey":"way:549412157"}},{"type":"Feature","geometry":{"type":"LineString","coordinates":[[112.1064443,23.0185387],[112.1080852,23.0182298]]},"properties":{"key":"way:549412160@detail:448_92","osmType":"way","osmId":549412160,"sourceRegion":"guangdong","featureType":"infrastructure","railClass":"highspeed","mode":"rail","name":"南广线","nameEn":"Nanguang Line","ref":"3029","usage":"main","highspeed":"yes","status":"operational","color":"#E54848","dataOrigin":"datum-2026-08-01","sourceKey":"way:549412160"}},{"type":"Feature","geometry":{"type":"LineString","coordinates":[[112.102215,23.0193973],[112.103561,23.0191404]]},"properties":{"key":"way:549412164@detail:448_92","osmType":"way","osmId":549412164,"sourceRegion":"guangdong","featureType":"infrastructure","railClass":"highspeed","mode":"rail","name":"南广线","nameEn":"Nanguang Line","ref":"3029","usage":"main","highspeed":"yes","bridge":"yes","status":"operational","color":"#E54848","dataOrigin":"datum-2026-08-01","sourceKey":"way:549412164"}},{"type":"Feature","geometry":{"type":"LineString","coordinates":[[112.0993726,23.0200217],[112.102215,23.0193973]]},"properties":{"key":"way:549412167@detail:448_92","osmType":"way","osmId":549412167,"sourceRegion":"guangdong","featureType":"infrastructure","railClass":"highspeed","mode":"rail","name":"南广线","nameEn":"Nanguang Line","ref":"3029","usage":"main","highspeed":"yes","status":"operational","color":"#E54848","dataOrigin":"datum-2026-08-01","sourceKey":"way:549412167"}},{"type":"Feature","geometry":{"type":"LineString","coordinates":[[112.0958298,23.020719],[112.0993726,23.0200217]]},"properties":{"key":"way:549412170@detail:448_92","osmType":"way","osmId":549412170,"sourceRegion":"guangdong","featureType":"infrastructure","railClass":"highspeed","mode":"rail","name":"南广线","nameEn":"Nanguang Line","ref":"3029","usage":"main","highspeed":"yes","bridge":"yes","status":"operational","color":"#E54848","dataOrigin":"datum-2026-08-01","sourceKey":"way:549412170"}},{"type":"Feature","geometry":{"type":"LineString","coordinates":[[112.0906352,23.0224282],[112.0916693,23.0220657],[112.093123,23.0216165],[112.0958298,23.020719]]},"properties":{"key":"way:549412174@detail:448_92","osmType":"way","osmId":549412174,"sourceRegion":"guangdong","featureType":"infrastructure","railClass":"highspeed","mode":"rail","name":"南广线","nameEn":"Nanguang Line","ref":"3029","usage":"main","highspeed":"yes","status":"operational","color":"#E54848","dataOrigin":"datum-2026-08-01","sourceKey":"way:549412174"}},{"type":"Feature","geometry":{"type":"LineString","coordinates":[[112.0381084,23.0493477],[112.043058,23.0475296]]},"properties":{"key":"way:549412179@detail:448_92","osmType":"way","osmId":549412179,"sourceRegion":"guangdong","featureType":"infrastructure","railClass":"highspeed","mode":"rail","name":"南广线","nameEn":"Nanguang Line","ref":"3029","usage":"main","highspeed":"yes","bridge":"yes","status":"operational","color":"#E54848","dataOrigin":"datum-2026-08-01","sourceKey":"way:549412179"}},{"type":"Feature","geometry":{"type":"LineString","coordinates":[[112.037241,23.0496663],[112.0381084,23.0493477]]},"properties":{"key":"way:549412183@detail:448_92","osmType":"way","osmId":549412183,"sourceRegion":"guangdong","featureType":"infrastructure","railClass":"highspeed","mode":"rail","name":"南广线","nameEn":"Nanguang Line","ref":"3029","usage":"main","highspeed":"yes","status":"operational","color":"#E54848","dataOrigin":"datum-2026-08-01","sourceKey":"way:549412183"}},{"type":"Feature","geometry":{"type":"LineString","coordinates":[[112.1261807,23.0161791],[112.13113,23.0155781],[112.136716,23.01483],[112.1411657,23.0144266],[112.1426804,23.014206]]},"properties":{"key":"way:583010866@detail:448_92","osmType":"way","osmId":583010866,"sourceRegion":"guangdong","featureType":"infrastructure","railClass":"highspeed","mode":"rail","name":"南广线","nameEn":"Nanguang Line","ref":"3029","usage":"main","highspeed":"yes","status":"operational","color":"#E54848","dataOrigin":"datum-2026-08-01","sourceKey":"way:583010866"}},{"type":"Feature","geometry":{"type":"LineString","coordinates":[[112.137883,23.0156558],[112.1394382,23.0153097],[112.1395853,23.0152769],[112.1398805,23.015185],[112.1402994,23.0150202],[112.1407511,23.0147787],[112.1411118,23.0145934],[112.1413597,23.0145045],[112.1419308,23.0143803],[112.1426937,23.0142463]]},"properties":{"key":"way:583010869@detail:448_92","osmType":"way","osmId":583010869,"sourceRegion":"guangdong","featureType":"infrastructure","railClass":"minor","mode":"rail","name":"未命名","service":"yard","status":"operational","color":"#52636F","dataOrigin":"datum-2026-08-01","sourceKey":"way:583010869"}},{"type":"Feature","geometry":{"type":"LineString","coordinates":[[112.0166114,23.0559194],[112.0125105,23.0562901],[112.0088234,23.0564282],[112.0051706,23.0564087],[112.0034939,23.056381],[112.0018243,23.05635],[112.0000972,23.0563174],[112.0,23.05631551900748]]},"properties":{"key":"way:631440103@detail:448_92","osmType":"way","osmId":631440103,"sourceRegion":"guangdong","featureType":"infrastructure","railClass":"highspeed","mode":"rail","name":"南广线","nameEn":"Nanguang Line","ref":"3029","usage":"main","highspeed":"yes","bridge":"yes","status":"operational","color":"#E54848","dataOrigin":"datum-2026-08-01","sourceKey":"way:631440103"}},{"type":"Feature","geometry":{"type":"LineString","coordinates":[[112.0372137,23.0496084],[112.0320666,23.0518373],[112.026279,23.0539675],[112.0206643,23.0553084],[112.0166114,23.0559194]]},"properties":{"key":"way:631440107@detail:448_92","osmType":"way","osmId":631440107,"sourceRegion":"guangdong","featureType":"infrastructure","railClass":"highspeed","mode":"rail","name":"南广线","nameEn":"Nanguang Line","ref":"3029","usage":"main","highspeed":"yes","tunnel":"yes","status":"operational","color":"#E54848","dataOrigin":"datum-2026-08-01","sourceKey":"way:631440107"}},{"type":"Feature","geometry":{"type":"LineString","coordinates":[[112.038083,23.0492891],[112.0372137,23.0496084]]},"properties":{"key":"way:631440111@detail:448_92","osmType":"way","osmId":631440111,"sourceRegion":"guangdong","featureType":"infrastructure","railClass":"highspeed","mode":"rail","name":"南广线","nameEn":"Nanguang Line","ref":"3029","usage":"main","highspeed":"yes","status":"operational","color":"#E54848","dataOrigin":"datum-2026-08-01","sourceKey":"way:631440111"}},{"type":"Feature","geometry":{"type":"LineString","coordinates":[[112.0430326,23.047471],[112.038083,23.0492891]]},"properties":{"key":"way:631440114@detail:448_92","osmType":"way","osmId":631440114,"sourceRegion":"guangdong","featureType":"infrastructure","railClass":"highspeed","mode":"rail","name":"南广线","nameEn":"Nanguang Line","ref":"3029","usage":"main","highspeed":"yes","bridge":"yes","status":"operational","color":"#E54848","dataOrigin":"datum-2026-08-01","sourceKey":"way:631440114"}},{"type":"Feature","geometry":{"type":"LineString","coordinates":[[112.045127,23.0467016],[112.0430326,23.047471]]},"properties":{"key":"way:631440118@detail:448_92","osmType":"way","osmId":631440118,"sourceRegion":"guangdong","featureType":"infrastructure","railClass":"highspeed","mode":"rail","name":"南广线","nameEn":"Nanguang Line","ref":"3029","usage":"main","highspeed":"yes","status":"operational","color":"#E54848","dataOrigin":"datum-2026-08-01","sourceKey":"way:631440118"}},{"type":"Feature","geometry":{"type":"LineString","coordinates":[[112.0906058,23.022371],[112.0881491,23.023663],[112.0781058,23.0294301],[112.0670692,23.0357833],[112.045127,23.0467016]]},"properties":{"key":"way:631440121@detail:448_92","osmType":"way","osmId":631440121,"sourceRegion":"guangdong","featureType":"infrastructure","railClass":"highspeed","mode":"rail","name":"南广线","nameEn":"Nanguang Line","ref":"3029","usage":"main","highspeed":"yes","tunnel":"yes","status":"operational","color":"#E54848","dataOrigin":"datum-2026-08-01","sourceKey":"way:631440121"}},{"type":"Feature","geometry":{"type":"LineString","coordinates":[[112.0958109,23.0206582],[112.0931005,23.0215569],[112.0916462,23.0220063],[112.0906058,23.022371]]},"properties":{"key":"way:631440125@detail:448_92","osmType":"way","osmId":631440125,"sourceRegion":"guangdong","featureType":"infrastructure","railClass":"highspeed","mode":"rail","name":"南广线","nameEn":"Nanguang Line","ref":"3029","usage":"main","highspeed":"yes","status":"operational","color":"#E54848","dataOrigin":"datum-2026-08-01","sourceKey":"way:631440125"}},{"type":"Feature","geometry":{"type":"LineString","coordinates":[[112.0993575,23.0199601],[112.0958109,23.0206582]]},"properties":{"key":"way:631440128@detail:448_92","osmType":"way","osmId":631440128,"sourceRegion":"guangdong","featureType":"infrastructure","railClass":"highspeed","mode":"rail","name":"南广线","nameEn":"Nanguang Line","ref":"3029","usage":"main","highspeed":"yes","bridge":"yes","status":"operational","color":"#E54848","dataOrigin":"datum-2026-08-01","sourceKey":"way:631440128"}},{"type":"Feature","geometry":{"type":"LineString","coordinates":[[112.1022001,23.0193357],[112.0993575,23.0199601]]},"properties":{"key":"way:631440132@detail:448_92","osmType":"way","osmId":631440132,"sourceRegion":"guangdong","featureType":"infrastructure","railClass":"highspeed","mode":"rail","name":"南广线","nameEn":"Nanguang Line","ref":"3029","usage":"main","highspeed":"yes","status":"operational","color":"#E54848","dataOrigin":"datum-2026-08-01","sourceKey":"way:631440132"}},{"type":"Feature","geometry":{"type":"LineString","coordinates":[[112.1035466,23.0190787],[112.1022001,23.0193357]]},"properties":{"key":"way:631440135@detail:448_92","osmType":"way","osmId":631440135,"sourceRegion":"guangdong","featureType":"infrastructure","railClass":"highspeed","mode":"rail","name":"南广线","nameEn":"Nanguang Line","ref":"3029","usage":"main","highspeed":"yes","bridge":"yes","status":"operational","color":"#E54848","dataOrigin":"datum-2026-08-01","sourceKey":"way:631440135"}},{"type":"Feature","geometry":{"type":"LineString","coordinates":[[112.1056819,23.0186419],[112.1035466,23.0190787]]},"properties":{"key":"way:631440139@detail:448_92","osmType":"way","osmId":631440139,"sourceRegion":"guangdong","featureType":"infrastructure","railClass":"highspeed","mode":"rail","name":"南广线","nameEn":"Nanguang Line","ref":"3029","usage":"main","highspeed":"yes","status":"operational","color":"#E54848","dataOrigin":"datum-2026-08-01","sourceKey":"way:631440139"}},{"type":"Feature","geometry":{"type":"LineString","coordinates":[[112.1064294,23.0184771],[112.1056819,23.0186419]]},"properties":{"key":"way:631440142@detail:448_92","osmType":"way","osmId":631440142,"sourceRegion":"guangdong","featureType":"infrastructure","railClass":"highspeed","mode":"rail","name":"南广线","nameEn":"Nanguang Line","ref":"3029","usage":"main","highspeed":"yes","bridge":"yes","status":"operational","color":"#E54848","dataOrigin":"datum-2026-08-01","sourceKey":"way:631440142"}},{"type":"Feature","geometry":{"type":"LineString","coordinates":[[112.108072,23.0181679],[112.1064294,23.0184771]]},"properties":{"key":"way:631440146@detail:448_92","osmType":"way","osmId":631440146,"sourceRegion":"guangdong","featureType":"infrastructure","railClass":"highspeed","mode":"rail","name":"南广线","nameEn":"Nanguang Line","ref":"3029","usage":"main","highspeed":"yes","status":"operational","color":"#E54848","dataOrigin":"datum-2026-08-01","sourceKey":"way:631440146"}},{"type":"Feature","geometry":{"type":"LineString","coordinates":[[112.1091753,23.0179783],[112.108072,23.0181679]]},"properties":{"key":"way:631440149@detail:448_92","osmType":"way","osmId":631440149,"sourceRegion":"guangdong","featureType":"infrastructure","railClass":"highspeed","mode":"rail","name":"南广线","nameEn":"Nanguang Line","ref":"3029","usage":"main","highspeed":"yes","tunnel":"yes","status":"operational","color":"#E54848","dataOrigin":"datum-2026-08-01","sourceKey":"way:631440149"}},{"type":"Feature","geometry":{"type":"LineString","coordinates":[[112.1094135,23.0179374],[112.1091753,23.0179783]]},"properties":{"key":"way:631440153@detail:448_92","osmType":"way","osmId":631440153,"sourceRegion":"guangdong","featureType":"infrastructure","railClass":"highspeed","mode":"rail","name":"南广线","nameEn":"Nanguang Line","ref":"3029","usage":"main","highspeed":"yes","status":"operational","color":"#E54848","dataOrigin":"datum-2026-08-01","sourceKey":"way:631440153"}},{"type":"Feature","geometry":{"type":"LineString","coordinates":[[112.1102228,23.0178239],[112.1094135,23.0179374]]},"properties":{"key":"way:631440156@detail:448_92","osmType":"way","osmId":631440156,"sourceRegion":"guangdong","featureType":"infrastructure","railClass":"highspeed","mode":"rail","name":"南广线","nameEn":"Nanguang Line","ref":"3029","usage":"main","highspeed":"yes","bridge":"yes","status":"operational","color":"#E54848","dataOrigin":"datum-2026-08-01","sourceKey":"way:631440156"}},{"type":"Feature","geometry":{"type":"LineString","coordinates":[[112.1134672,23.0174015],[112.1102228,23.0178239]]},"properties":{"key":"way:631440160@detail:448_92","osmType":"way","osmId":631440160,"sourceRegion":"guangdong","featureType":"infrastructure","railClass":"highspeed","mode":"rail","name":"南广线","nameEn":"Nanguang Line","ref":"3029","usage":"main","highspeed":"yes","status":"operational","color":"#E54848","dataOrigin":"datum-2026-08-01","sourceKey":"way:631440160"}},{"type":"Feature","geometry":{"type":"LineString","coordinates":[[112.1148607,23.0172674],[112.1134672,23.0174015]]},"properties":{"key":"way:631440163@detail:448_92","osmType":"way","osmId":631440163,"sourceRegion":"guangdong","featureType":"infrastructure","railClass":"highspeed","mode":"rail","name":"南广线","nameEn":"Nanguang Line","ref":"3029","usage":"main","highspeed":"yes","tunnel":"yes","status":"operational","color":"#E54848","dataOrigin":"datum-2026-08-01","sourceKey":"way:631440163"}},{"type":"Feature","geometry":{"type":"LineString","coordinates":[[112.1150475,23.0172559],[112.1148607,23.0172674]]},"properties":{"key":"way:631440167@detail:448_92","osmType":"way","osmId":631440167,"sourceRegion":"guangdong","featureType":"infrastructure","railClass":"highspeed","mode":"rail","name":"南广线","nameEn":"Nanguang Line","ref":"3029","usage":"main","highspeed":"yes","status":"operational","color":"#E54848","dataOrigin":"datum-2026-08-01","sourceKey":"way:631440167"}},{"type":"Feature","geometry":{"type":"LineString","coordinates":[[112.1167642,23.0171035],[112.1150475,23.0172559]]},"properties":{"key":"way:631440170@detail:448_92","osmType":"way","osmId":631440170,"sourceRegion":"guangdong","featureType":"infrastructure","railClass":"highspeed","mode":"rail","name":"南广线","nameEn":"Nanguang Line","ref":"3029","usage":"main","highspeed":"yes","bridge":"yes","status":"operational","color":"#E54848","dataOrigin":"datum-2026-08-01","sourceKey":"way:631440170"}},{"type":"Feature","geometry":{"type":"LineString","coordinates":[[112.1172986,23.0170079],[112.1167642,23.0171035]]},"properties":{"key":"way:631440174@detail:448_92","osmType":"way","osmId":631440174,"sourceRegion":"guangdong","featureType":"infrastructure","railClass":"highspeed","mode":"rail","name":"南广线","nameEn":"Nanguang Line","ref":"3029","usage":"main","highspeed":"yes","status":"operational","color":"#E54848","dataOrigin":"datum-2026-08-01","sourceKey":"way:631440174"}},{"type":"Feature","geometry":{"type":"LineString","coordinates":[[112.1222697,23.01645],[112.1197614,23.0167315]]},"properties":{"key":"way:631440177@detail:448_92","osmType":"way","osmId":631440177,"sourceRegion":"guangdong","featureType":"infrastructure","railClass":"highspeed","mode":"rail","name":"南广线","nameEn":"Nanguang Line","ref":"3029","usage":"main","highspeed":"yes","status":"operational","color":"#E54848","dataOrigin":"datum-2026-08-01","sourceKey":"way:631440177"}},{"type":"Feature","geometry":{"type":"LineString","coordinates":[[112.126172,23.0161165],[112.1222697,23.01645]]},"properties":{"key":"way:631440180@detail:448_92","osmType":"way","osmId":631440180,"sourceRegion":"guangdong","featureType":"infrastructure","railClass":"highspeed","mode":"rail","name":"南广线","nameEn":"Nanguang Line","ref":"3029","usage":"main","highspeed":"yes","tunnel":"yes","status":"operational","color":"#E54848","dataOrigin":"datum-2026-08-01","sourceKey":"way:631440180"}},{"type":"Feature","geometry":{"type":"LineString","coordinates":[[112.14268,23.0141466],[112.1367077,23.0147673],[112.1311206,23.0155156],[112.126172,23.0161165]]},"properties":{"key":"way:631440184@detail:448_92","osmType":"way","osmId":631440184,"sourceRegion":"guangdong","featureType":"infrastructure","railClass":"highspeed","mode":"rail","name":"南广线","nameEn":"Nanguang Line","ref":"3029","usage":"main","highspeed":"yes","status":"operational","color":"#E54848","dataOrigin":"datum-2026-08-01","sourceKey":"way:631440184"}},{"type":"Feature","geometry":{"type":"LineString","coordinates":[[112.1504413,23.0132731],[112.1447891,23.0138934],[112.14268,23.0141466]]},"properties":{"key":"way:631440187@detail:448_92","osmType":"way","osmId":631440187,"sourceRegion":"guangdong","featureType":"infrastructure","railClass":"highspeed","mode":"rail","name":"南广线","nameEn":"Nanguang Line","ref":"3029","usage":"main","highspeed":"yes","bridge":"yes","status":"operational","color":"#E54848","dataOrigin":"datum-2026-08-01","sourceKey":"way:631440187"}},{"type":"Feature","geometry":{"type":"LineString","coordinates":[[112.1521609,23.0131021],[112.1514393,23.0131666],[112.1504413,23.0132731]]},"properties":{"key":"way:631440191@detail:448_92","osmType":"way","osmId":631440191,"sourceRegion":"guangdong","featureType":"infrastructure","railClass":"highspeed","mode":"rail","name":"南广线","nameEn":"Nanguang Line","ref":"3029","usage":"main","highspeed":"yes","bridge":"yes","status":"operational","color":"#E54848","dataOrigin":"datum-2026-08-01","sourceKey":"way:631440191"}},{"type":"Feature","geometry":{"type":"LineString","coordinates":[[112.1540072,23.0128789],[112.1521609,23.0131021]]},"properties":{"key":"way:631440199@detail:448_92","osmType":"way","osmId":631440199,"sourceRegion":"guangdong","featureType":"infrastructure","railClass":"highspeed","mode":"rail","name":"南广线","nameEn":"Nanguang Line","ref":"3029","usage":"main","highspeed":"yes","bridge":"yes","status":"operational","color":"#E54848","dataOrigin":"datum-2026-08-01","sourceKey":"way:631440199"}},{"type":"Feature","geometry":{"type":"LineString","coordinates":[[112.1560271,23.0126618],[112.1540072,23.0128789]]},"properties":{"key":"way:631440202@detail:448_92","osmType":"way","osmId":631440202,"sourceRegion":"guangdong","featureType":"infrastructure","railClass":"highspeed","mode":"rail","name":"南广线","nameEn":"Nanguang Line","ref":"3029","usage":"main","highspeed":"yes","status":"operational","color":"#E54848","dataOrigin":"datum-2026-08-01","sourceKey":"way:631440202"}},{"type":"Feature","geometry":{"type":"LineString","coordinates":[[112.1583613,23.0123933],[112.1560271,23.0126618]]},"properties":{"key":"way:631440205@detail:448_92","osmType":"way","osmId":631440205,"sourceRegion":"guangdong","featureType":"infrastructure","railClass":"highspeed","mode":"rail","name":"南广线","nameEn":"Nanguang Line","ref":"3029","usage":"main","highspeed":"yes","bridge":"yes","status":"operational","color":"#E54848","dataOrigin":"datum-2026-08-01","sourceKey":"way:631440205"}},{"type":"Feature","geometry":{"type":"LineString","coordinates":[[112.1594623,23.0122666],[112.1583613,23.0123933]]},"properties":{"key":"way:631440209@detail:448_92","osmType":"way","osmId":631440209,"sourceRegion":"guangdong","featureType":"infrastructure","railClass":"highspeed","mode":"rail","name":"南广线","nameEn":"Nanguang Line","ref":"3029","usage":"main","highspeed":"yes","status":"operational","color":"#E54848","dataOrigin":"datum-2026-08-01","sourceKey":"way:631440209"}},{"type":"Feature","geometry":{"type":"LineString","coordinates":[[112.1698934,23.0120715],[112.1686819,23.0119823],[112.1675637,23.0119279],[112.1658174,23.0119131],[112.1628212,23.0120021],[112.1604797,23.0121651],[112.1594623,23.0122666]]},"properties":{"key":"way:631440213@detail:448_92","osmType":"way","osmId":631440213,"sourceRegion":"guangdong","featureType":"infrastructure","railClass":"highspeed","mode":"rail","name":"南广线","nameEn":"Nanguang Line","ref":"3029","usage":"main","highspeed":"yes","bridge":"yes","status":"operational","color":"#E54848","dataOrigin":"datum-2026-08-01","sourceKey":"way:631440213"}},{"type":"Feature","geometry":{"type":"LineString","coordinates":[[112.1714943,23.0122097],[112.1698934,23.0120715]]},"properties":{"key":"way:631440217@detail:448_92","osmType":"way","osmId":631440217,"sourceRegion":"guangdong","featureType":"infrastructure","railClass":"highspeed","mode":"rail","name":"南广线","nameEn":"Nanguang Line","ref":"3029","usage":"main","highspeed":"yes","status":"operational","color":"#E54848","dataOrigin":"datum-2026-08-01","sourceKey":"way:631440217"}},{"type":"Feature","geometry":{"type":"LineString","coordinates":[[112.1748041,23.0125824],[112.1714943,23.0122097]]},"properties":{"key":"way:631440220@detail:448_92","osmType":"way","osmId":631440220,"sourceRegion":"guangdong","featureType":"infrastructure","railClass":"highspeed","mode":"rail","name":"南广线","nameEn":"Nanguang Line","ref":"3029","usage":"main","highspeed":"yes","tunnel":"yes","status":"operational","color":"#E54848","dataOrigin":"datum-2026-08-01","sourceKey":"way:631440220"}},{"type":"Feature","geometry":{"type":"LineString","coordinates":[[112.1800603,23.0134572],[112.1785553,23.0132325],[112.1748041,23.0125824]]},"properties":{"key":"way:631440225@detail:448_92","osmType":"way","osmId":631440225,"sourceRegion":"guangdong","featureType":"infrastructure","railClass":"highspeed","mode":"rail","name":"南广线","nameEn":"Nanguang Line","ref":"3029","usage":"main","highspeed":"yes","status":"operational","color":"#E54848","dataOrigin":"datum-2026-08-01","sourceKey":"way:631440225"}},{"type":"Feature","geometry":{"type":"LineString","coordinates":[[112.25,23.025784309856384],[112.2480156,23.0253341],[112.1800603,23.0134572]]},"properties":{"key":"way:631440228@detail:448_92","osmType":"way","osmId":631440228,"sourceRegion":"guangdong","featureType":"infrastructure","railClass":"highspeed","mode":"rail","name":"南广线","nameEn":"Nanguang Line","ref":"3029","usage":"main","highspeed":"yes","tunnel":"yes","status":"operational","color":"#E54848","dataOrigin":"datum-2026-08-01","sourceKey":"way:631440228"}},{"type":"Feature","geometry":{"type":"LineString","coordinates":[[112.1426937,23.0142463],[112.1434003,23.0141547],[112.143563,23.0141278],[112.1454029,23.0139164],[112.1468631,23.0137703],[112.1478623,23.0137285],[112.1488543,23.013726]]},"properties":{"key":"way:845624197@detail:448_92","osmType":"way","osmId":845624197,"sourceRegion":"guangdong","featureType":"infrastructure","railClass":"minor","mode":"rail","name":"未命名","service":"yard","bridge":"yes","status":"operational","color":"#52636F","dataOrigin":"datum-2026-08-01","sourceKey":"way:845624197"}},{"type":"Feature","geometry":{"type":"LineString","coordinates":[[112.1488543,23.013726],[112.1498162,23.0136797]]},"properties":{"key":"way:845624198@detail:448_92","osmType":"way","osmId":845624198,"sourceRegion":"guangdong","featureType":"infrastructure","railClass":"minor","mode":"rail","name":"未命名","service":"yard","status":"operational","color":"#52636F","dataOrigin":"datum-2026-08-01","sourceKey":"way:845624198"}},{"type":"Feature","geometry":{"type":"LineString","coordinates":[[112.1411657,23.0144266],[112.1402729,23.0146029],[112.1394896,23.0146622],[112.1385682,23.0148701],[112.1380984,23.0149985],[112.1377162,23.0150807],[112.1372755,23.0151563],[112.1361687,23.0153531],[112.1351019,23.0155233],[112.1330294,23.0157984],[112.1342862,23.015625],[112.1309334,23.01602]]},"properties":{"key":"way:899448109@detail:448_92","osmType":"way","osmId":899448109,"sourceRegion":"guangdong","featureType":"infrastructure","railClass":"minor","mode":"rail","name":"未命名","service":"yard","status":"operational","color":"#52636F","dataOrigin":"datum-2026-08-01","sourceKey":"way:899448109"}},{"type":"Feature","geometry":{"type":"LineString","coordinates":[[112.1197673,23.0167997],[112.1222781,23.0165126]]},"properties":{"key":"way:899448112@detail:448_92","osmType":"way","osmId":899448112,"sourceRegion":"guangdong","featureType":"infrastructure","railClass":"highspeed","mode":"rail","name":"南广线","nameEn":"Nanguang Line","ref":"3029","usage":"main","highspeed":"yes","status":"operational","color":"#E54848","dataOrigin":"datum-2026-08-01","sourceKey":"way:899448112"}},{"type":"Feature","geometry":{"type":"LineString","coordinates":[[112.1197614,23.0167315],[112.1172986,23.0170079]]},"properties":{"key":"way:899448113@detail:448_92","osmType":"way","osmId":899448113,"sourceRegion":"guangdong","featureType":"infrastructure","railClass":"highspeed","mode":"rail","name":"南广线","nameEn":"Nanguang Line","ref":"3029","usage":"main","highspeed":"yes","tunnel":"yes","status":"operational","color":"#E54848","dataOrigin":"datum-2026-08-01","sourceKey":"way:899448113"}}]}