{"type":"FeatureCollection","features":[{"type":"Feature","geometry":{"type":"Point","coordinates":[112.1540561,23.8947088]},"properties":{"key":"node:3060297703","osmType":"node","osmId":3060297703,"sourceRegion":"guangdong","featureType":"station","railClass":"minor","mode":"station","name":"怀集","nameEn":"Huaiji","status":"operational","color":"#52636F","dataOrigin":"datum-2026-08-01","sourceKey":"node:3060297703","stationGroup":"怀集","hasOperationalRail":true,"hasConstructionRail":false}},{"type":"Feature","geometry":{"type":"LineString","coordinates":[[112.0364773,23.9811162],[112.0369314,23.9806675]]},"properties":{"key":"way:316056738@detail:448_95","osmType":"way","osmId":316056738,"sourceRegion":"guangdong","featureType":"infrastructure","railClass":"highspeed","mode":"rail","name":"贵广客专线","nameEn":"Guiguang Passenger Line","ref":"3044","usage":"main","highspeed":"yes","bridge":"yes","status":"operational","color":"#E54848","dataOrigin":"datum-2026-08-01","sourceKey":"way:316056738"}},{"type":"Feature","geometry":{"type":"LineString","coordinates":[[112.0253757,23.9935408],[112.0264646,23.992305]]},"properties":{"key":"way:316056739@detail:448_95","osmType":"way","osmId":316056739,"sourceRegion":"guangdong","featureType":"infrastructure","railClass":"highspeed","mode":"rail","name":"贵广客专线","nameEn":"Guiguang Passenger Line","ref":"3044","usage":"main","highspeed":"yes","status":"operational","color":"#E54848","dataOrigin":"datum-2026-08-01","sourceKey":"way:316056739"}},{"type":"Feature","geometry":{"type":"LineString","coordinates":[[112.0411279,23.9770077],[112.0421989,23.9762088]]},"properties":{"key":"way:316056741@detail:448_95","osmType":"way","osmId":316056741,"sourceRegion":"guangdong","featureType":"infrastructure","railClass":"highspeed","mode":"rail","name":"贵广客专线","nameEn":"Guiguang Passenger Line","ref":"3044","usage":"main","highspeed":"yes","bridge":"yes","status":"operational","color":"#E54848","dataOrigin":"datum-2026-08-01","sourceKey":"way:316056741"}},{"type":"Feature","geometry":{"type":"LineString","coordinates":[[112.0499771,23.9710686],[112.0503049,23.9708574]]},"properties":{"key":"way:316056742@detail:448_95","osmType":"way","osmId":316056742,"sourceRegion":"guangdong","featureType":"infrastructure","railClass":"highspeed","mode":"rail","name":"贵广客专线","nameEn":"Guiguang Passenger Line","ref":"3044","usage":"main","highspeed":"yes","bridge":"yes","status":"operational","color":"#E54848","dataOrigin":"datum-2026-08-01","sourceKey":"way:316056742"}},{"type":"Feature","geometry":{"type":"LineString","coordinates":[[112.0369314,23.9806675],[112.0383467,23.9793566]]},"properties":{"key":"way:316056744@detail:448_95","osmType":"way","osmId":316056744,"sourceRegion":"guangdong","featureType":"infrastructure","railClass":"highspeed","mode":"rail","name":"贵广客专线","nameEn":"Guiguang Passenger Line","ref":"3044","usage":"main","highspeed":"yes","status":"operational","color":"#E54848","dataOrigin":"datum-2026-08-01","sourceKey":"way:316056744"}},{"type":"Feature","geometry":{"type":"LineString","coordinates":[[112.0293332,23.9890559],[112.0300472,23.9882333]]},"properties":{"key":"way:316056745@detail:448_95","osmType":"way","osmId":316056745,"sourceRegion":"guangdong","featureType":"infrastructure","railClass":"highspeed","mode":"rail","name":"贵广客专线","nameEn":"Guiguang Passenger Line","ref":"3044","usage":"main","highspeed":"yes","status":"operational","color":"#E54848","dataOrigin":"datum-2026-08-01","sourceKey":"way:316056745"}},{"type":"Feature","geometry":{"type":"LineString","coordinates":[[112.0305661,23.9876515],[112.0310411,23.9871191]]},"properties":{"key":"way:316056746@detail:448_95","osmType":"way","osmId":316056746,"sourceRegion":"guangdong","featureType":"infrastructure","railClass":"highspeed","mode":"rail","name":"贵广客专线","nameEn":"Guiguang Passenger Line","ref":"3044","usage":"main","highspeed":"yes","status":"operational","color":"#E54848","dataOrigin":"datum-2026-08-01","sourceKey":"way:316056746"}},{"type":"Feature","geometry":{"type":"LineString","coordinates":[[112.0324804,23.9854687],[112.0329778,23.9849004]]},"properties":{"key":"way:316056747@detail:448_95","osmType":"way","osmId":316056747,"sourceRegion":"guangdong","featureType":"infrastructure","railClass":"highspeed","mode":"rail","name":"贵广客专线","nameEn":"Guiguang Passenger Line","ref":"3044","usage":"main","highspeed":"yes","status":"operational","color":"#E54848","dataOrigin":"datum-2026-08-01","sourceKey":"way:316056747"}},{"type":"Feature","geometry":{"type":"LineString","coordinates":[[112.0239439,23.9951757],[112.024217,23.9948701]]},"properties":{"key":"way:316056748@detail:448_95","osmType":"way","osmId":316056748,"sourceRegion":"guangdong","featureType":"infrastructure","railClass":"highspeed","mode":"rail","name":"贵广客专线","nameEn":"Guiguang Passenger Line","ref":"3044","usage":"main","highspeed":"yes","bridge":"viaduct","status":"operational","color":"#E54848","dataOrigin":"datum-2026-08-01","sourceKey":"way:316056748"}},{"type":"Feature","geometry":{"type":"LineString","coordinates":[[112.0503049,23.9708574],[112.0531482,23.9690477]]},"properties":{"key":"way:316056749@detail:448_95","osmType":"way","osmId":316056749,"sourceRegion":"guangdong","featureType":"infrastructure","railClass":"highspeed","mode":"rail","name":"贵广客专线","nameEn":"Guiguang Passenger Line","ref":"3044","usage":"main","highspeed":"yes","status":"operational","color":"#E54848","dataOrigin":"datum-2026-08-01","sourceKey":"way:316056749"}},{"type":"Feature","geometry":{"type":"LineString","coordinates":[[112.0812287,23.9499386],[112.0828698,23.9483921]]},"properties":{"key":"way:316056750@detail:448_95","osmType":"way","osmId":316056750,"sourceRegion":"guangdong","featureType":"infrastructure","railClass":"highspeed","mode":"rail","name":"贵广客专线","nameEn":"Guiguang Passenger Line","ref":"3044","usage":"main","highspeed":"yes","status":"operational","color":"#E54848","dataOrigin":"datum-2026-08-01","sourceKey":"way:316056750"}},{"type":"Feature","geometry":{"type":"LineString","coordinates":[[112.0300472,23.9882333],[112.0305661,23.9876515]]},"properties":{"key":"way:316056751@detail:448_95","osmType":"way","osmId":316056751,"sourceRegion":"guangdong","featureType":"infrastructure","railClass":"highspeed","mode":"rail","name":"贵广客专线","nameEn":"Guiguang Passenger Line","ref":"3044","usage":"main","highspeed":"yes","bridge":"viaduct","status":"operational","color":"#E54848","dataOrigin":"datum-2026-08-01","sourceKey":"way:316056751"}},{"type":"Feature","geometry":{"type":"LineString","coordinates":[[112.049012,23.9716828],[112.0499771,23.9710686]]},"properties":{"key":"way:316056753@detail:448_95","osmType":"way","osmId":316056753,"sourceRegion":"guangdong","featureType":"infrastructure","railClass":"highspeed","mode":"rail","name":"贵广客专线","nameEn":"Guiguang Passenger Line","ref":"3044","usage":"main","highspeed":"yes","status":"operational","color":"#E54848","dataOrigin":"datum-2026-08-01","sourceKey":"way:316056753"}},{"type":"Feature","geometry":{"type":"LineString","coordinates":[[112.0312031,23.9869304],[112.0324804,23.9854687]]},"properties":{"key":"way:316056754@detail:448_95","osmType":"way","osmId":316056754,"sourceRegion":"guangdong","featureType":"infrastructure","railClass":"highspeed","mode":"rail","name":"贵广客专线","nameEn":"Guiguang Passenger Line","ref":"3044","usage":"main","highspeed":"yes","bridge":"viaduct","status":"operational","color":"#E54848","dataOrigin":"datum-2026-08-01","sourceKey":"way:316056754"}},{"type":"Feature","geometry":{"type":"LineString","coordinates":[[112.0247057,23.9943012],[112.0253757,23.9935408]]},"properties":{"key":"way:316056755@detail:448_95","osmType":"way","osmId":316056755,"sourceRegion":"guangdong","featureType":"infrastructure","railClass":"highspeed","mode":"rail","name":"贵广客专线","nameEn":"Guiguang Passenger Line","ref":"3044","usage":"main","highspeed":"yes","bridge":"viaduct","status":"operational","color":"#E54848","dataOrigin":"datum-2026-08-01","sourceKey":"way:316056755"}},{"type":"Feature","geometry":{"type":"LineString","coordinates":[[112.0383467,23.9793566],[112.0394219,23.978411]]},"properties":{"key":"way:316056756@detail:448_95","osmType":"way","osmId":316056756,"sourceRegion":"guangdong","featureType":"infrastructure","railClass":"highspeed","mode":"rail","name":"贵广客专线","nameEn":"Guiguang Passenger Line","ref":"3044","usage":"main","highspeed":"yes","bridge":"yes","status":"operational","color":"#E54848","dataOrigin":"datum-2026-08-01","sourceKey":"way:316056756"}},{"type":"Feature","geometry":{"type":"LineString","coordinates":[[112.0879335,23.9435943],[112.0897814,23.9418719]]},"properties":{"key":"way:316056757@detail:448_95","osmType":"way","osmId":316056757,"sourceRegion":"guangdong","featureType":"infrastructure","railClass":"highspeed","mode":"rail","name":"贵广客专线","nameEn":"Guiguang Passenger Line","ref":"3044","usage":"main","highspeed":"yes","status":"operational","color":"#E54848","dataOrigin":"datum-2026-08-01","sourceKey":"way:316056757"}},{"type":"Feature","geometry":{"type":"LineString","coordinates":[[112.0473359,23.9727493],[112.049012,23.9716828]]},"properties":{"key":"way:316056758@detail:448_95","osmType":"way","osmId":316056758,"sourceRegion":"guangdong","featureType":"infrastructure","railClass":"highspeed","mode":"rail","name":"贵广客专线","nameEn":"Guiguang Passenger Line","ref":"3044","usage":"main","highspeed":"yes","bridge":"yes","status":"operational","color":"#E54848","dataOrigin":"datum-2026-08-01","sourceKey":"way:316056758"}},{"type":"Feature","geometry":{"type":"LineString","coordinates":[[112.0358697,23.9817368],[112.0364773,23.9811162]]},"properties":{"key":"way:316056759@detail:448_95","osmType":"way","osmId":316056759,"sourceRegion":"guangdong","featureType":"infrastructure","railClass":"highspeed","mode":"rail","name":"贵广客专线","nameEn":"Guiguang Passenger Line","ref":"3044","usage":"main","highspeed":"yes","status":"operational","color":"#E54848","dataOrigin":"datum-2026-08-01","sourceKey":"way:316056759"}},{"type":"Feature","geometry":{"type":"LineString","coordinates":[[112.0267485,23.9919828],[112.0288457,23.9896079]]},"properties":{"key":"way:316056761@detail:448_95","osmType":"way","osmId":316056761,"sourceRegion":"guangdong","featureType":"infrastructure","railClass":"highspeed","mode":"rail","name":"贵广客专线","nameEn":"Guiguang Passenger Line","ref":"3044","usage":"main","highspeed":"yes","status":"operational","color":"#E54848","dataOrigin":"datum-2026-08-01","sourceKey":"way:316056761"}},{"type":"Feature","geometry":{"type":"LineString","coordinates":[[112.0897814,23.9418719],[112.0904808,23.9412611]]},"properties":{"key":"way:316056762@detail:448_95","osmType":"way","osmId":316056762,"sourceRegion":"guangdong","featureType":"infrastructure","railClass":"highspeed","mode":"rail","name":"贵广客专线","nameEn":"Guiguang Passenger Line","ref":"3044","usage":"main","highspeed":"yes","bridge":"yes","status":"operational","color":"#E54848","dataOrigin":"datum-2026-08-01","sourceKey":"way:316056762"}},{"type":"Feature","geometry":{"type":"LineString","coordinates":[[112.0264646,23.992305],[112.0267485,23.9919828]]},"properties":{"key":"way:316056763@detail:448_95","osmType":"way","osmId":316056763,"sourceRegion":"guangdong","featureType":"infrastructure","railClass":"highspeed","mode":"rail","name":"贵广客专线","nameEn":"Guiguang Passenger Line","ref":"3044","usage":"main","highspeed":"yes","bridge":"viaduct","status":"operational","color":"#E54848","dataOrigin":"datum-2026-08-01","sourceKey":"way:316056763"}},{"type":"Feature","geometry":{"type":"LineString","coordinates":[[112.0353679,23.9822702],[112.0358697,23.9817368]]},"properties":{"key":"way:316056764@detail:448_95","osmType":"way","osmId":316056764,"sourceRegion":"guangdong","featureType":"infrastructure","railClass":"highspeed","mode":"rail","name":"贵广客专线","nameEn":"Guiguang Passenger Line","ref":"3044","usage":"main","highspeed":"yes","bridge":"yes","status":"operational","color":"#E54848","dataOrigin":"datum-2026-08-01","sourceKey":"way:316056764"}},{"type":"Feature","geometry":{"type":"LineString","coordinates":[[112.0342443,23.9834935],[112.0353679,23.9822702]]},"properties":{"key":"way:316056765@detail:448_95","osmType":"way","osmId":316056765,"sourceRegion":"guangdong","featureType":"infrastructure","railClass":"highspeed","mode":"rail","name":"贵广客专线","nameEn":"Guiguang Passenger Line","ref":"3044","usage":"main","highspeed":"yes","status":"operational","color":"#E54848","dataOrigin":"datum-2026-08-01","sourceKey":"way:316056765"}},{"type":"Feature","geometry":{"type":"LineString","coordinates":[[112.0539824,23.9685173],[112.0569369,23.9666352]]},"properties":{"key":"way:316056766@detail:448_95","osmType":"way","osmId":316056766,"sourceRegion":"guangdong","featureType":"infrastructure","railClass":"highspeed","mode":"rail","name":"贵广客专线","nameEn":"Guiguang Passenger Line","ref":"3044","usage":"main","highspeed":"yes","status":"operational","color":"#E54848","dataOrigin":"datum-2026-08-01","sourceKey":"way:316056766"}},{"type":"Feature","geometry":{"type":"LineString","coordinates":[[112.024217,23.9948701],[112.0247057,23.9943012]]},"properties":{"key":"way:316056767@detail:448_95","osmType":"way","osmId":316056767,"sourceRegion":"guangdong","featureType":"infrastructure","railClass":"highspeed","mode":"rail","name":"贵广客专线","nameEn":"Guiguang Passenger Line","ref":"3044","usage":"main","highspeed":"yes","status":"operational","color":"#E54848","dataOrigin":"datum-2026-08-01","sourceKey":"way:316056767"}},{"type":"Feature","geometry":{"type":"LineString","coordinates":[[112.0288457,23.9896079],[112.0293332,23.9890559]]},"properties":{"key":"way:316056768@detail:448_95","osmType":"way","osmId":316056768,"sourceRegion":"guangdong","featureType":"infrastructure","railClass":"highspeed","mode":"rail","name":"贵广客专线","nameEn":"Guiguang Passenger Line","ref":"3044","usage":"main","highspeed":"yes","bridge":"viaduct","status":"operational","color":"#E54848","dataOrigin":"datum-2026-08-01","sourceKey":"way:316056768"}},{"type":"Feature","geometry":{"type":"LineString","coordinates":[[112.0531482,23.9690477],[112.0539824,23.9685173]]},"properties":{"key":"way:316056769@detail:448_95","osmType":"way","osmId":316056769,"sourceRegion":"guangdong","featureType":"infrastructure","railClass":"highspeed","mode":"rail","name":"贵广客专线","nameEn":"Guiguang Passenger Line","ref":"3044","usage":"main","highspeed":"yes","bridge":"yes","status":"operational","color":"#E54848","dataOrigin":"datum-2026-08-01","sourceKey":"way:316056769"}},{"type":"Feature","geometry":{"type":"LineString","coordinates":[[112.0213136,23.9981665],[112.022393,23.9969253]]},"properties":{"key":"way:316056771@detail:448_95","osmType":"way","osmId":316056771,"sourceRegion":"guangdong","featureType":"infrastructure","railClass":"highspeed","mode":"rail","name":"贵广客专线","nameEn":"Guiguang Passenger Line","ref":"3044","usage":"main","highspeed":"yes","status":"operational","color":"#E54848","dataOrigin":"datum-2026-08-01","sourceKey":"way:316056771"}},{"type":"Feature","geometry":{"type":"LineString","coordinates":[[112.0641301,23.9620573],[112.0654974,23.9611959]]},"properties":{"key":"way:316056772@detail:448_95","osmType":"way","osmId":316056772,"sourceRegion":"guangdong","featureType":"infrastructure","railClass":"highspeed","mode":"rail","name":"贵广客专线","nameEn":"Guiguang Passenger Line","ref":"3044","usage":"main","highspeed":"yes","status":"operational","color":"#E54848","dataOrigin":"datum-2026-08-01","sourceKey":"way:316056772"}},{"type":"Feature","geometry":{"type":"LineString","coordinates":[[112.0232682,23.9959421],[112.0239439,23.9951757]]},"properties":{"key":"way:316056773@detail:448_95","osmType":"way","osmId":316056773,"sourceRegion":"guangdong","featureType":"infrastructure","railClass":"highspeed","mode":"rail","name":"贵广客专线","nameEn":"Guiguang Passenger Line","ref":"3044","usage":"main","highspeed":"yes","status":"operational","color":"#E54848","dataOrigin":"datum-2026-08-01","sourceKey":"way:316056773"}},{"type":"Feature","geometry":{"type":"LineString","coordinates":[[112.0443199,23.9747151],[112.0446863,23.9744689]]},"properties":{"key":"way:316056774@detail:448_95","osmType":"way","osmId":316056774,"sourceRegion":"guangdong","featureType":"infrastructure","railClass":"highspeed","mode":"rail","name":"贵广客专线","nameEn":"Guiguang Passenger Line","ref":"3044","usage":"main","highspeed":"yes","bridge":"yes","status":"operational","color":"#E54848","dataOrigin":"datum-2026-08-01","sourceKey":"way:316056774"}},{"type":"Feature","geometry":{"type":"LineString","coordinates":[[112.0310411,23.9871191],[112.0312031,23.9869304]]},"properties":{"key":"way:316056775@detail:448_95","osmType":"way","osmId":316056775,"sourceRegion":"guangdong","featureType":"infrastructure","railClass":"highspeed","mode":"rail","name":"贵广客专线","nameEn":"Guiguang Passenger Line","ref":"3044","usage":"main","highspeed":"yes","status":"operational","color":"#E54848","dataOrigin":"datum-2026-08-01","sourceKey":"way:316056775"}},{"type":"Feature","geometry":{"type":"LineString","coordinates":[[112.022393,23.9969253],[112.0232682,23.9959421]]},"properties":{"key":"way:316056777@detail:448_95","osmType":"way","osmId":316056777,"sourceRegion":"guangdong","featureType":"infrastructure","railClass":"highspeed","mode":"rail","name":"贵广客专线","nameEn":"Guiguang Passenger Line","ref":"3044","usage":"main","highspeed":"yes","bridge":"viaduct","status":"operational","color":"#E54848","dataOrigin":"datum-2026-08-01","sourceKey":"way:316056777"}},{"type":"Feature","geometry":{"type":"LineString","coordinates":[[112.0329778,23.9849004],[112.0342443,23.9834935]]},"properties":{"key":"way:316056779@detail:448_95","osmType":"way","osmId":316056779,"sourceRegion":"guangdong","featureType":"infrastructure","railClass":"highspeed","mode":"rail","name":"贵广客专线","nameEn":"Guiguang Passenger Line","ref":"3044","usage":"main","highspeed":"yes","bridge":"viaduct","status":"operational","color":"#E54848","dataOrigin":"datum-2026-08-01","sourceKey":"way:316056779"}},{"type":"Feature","geometry":{"type":"LineString","coordinates":[[112.0421989,23.9762088],[112.0431287,23.9755154],[112.0443199,23.9747151]]},"properties":{"key":"way:316056782@detail:448_95","osmType":"way","osmId":316056782,"sourceRegion":"guangdong","featureType":"infrastructure","railClass":"highspeed","mode":"rail","name":"贵广客专线","nameEn":"Guiguang Passenger Line","ref":"3044","usage":"main","highspeed":"yes","status":"operational","color":"#E54848","dataOrigin":"datum-2026-08-01","sourceKey":"way:316056782"}},{"type":"Feature","geometry":{"type":"LineString","coordinates":[[112.0394219,23.978411],[112.040548,23.9774857],[112.0411279,23.9770077]]},"properties":{"key":"way:316056784@detail:448_95","osmType":"way","osmId":316056784,"sourceRegion":"guangdong","featureType":"infrastructure","railClass":"highspeed","mode":"rail","name":"贵广客专线","nameEn":"Guiguang Passenger Line","ref":"3044","usage":"main","highspeed":"yes","status":"operational","color":"#E54848","dataOrigin":"datum-2026-08-01","sourceKey":"way:316056784"}},{"type":"Feature","geometry":{"type":"LineString","coordinates":[[112.0828698,23.9483921],[112.086536,23.9449371],[112.0879335,23.9435943]]},"properties":{"key":"way:316056785@detail:448_95","osmType":"way","osmId":316056785,"sourceRegion":"guangdong","featureType":"infrastructure","railClass":"highspeed","mode":"rail","name":"贵广客专线","nameEn":"Guiguang Passenger Line","ref":"3044","usage":"main","highspeed":"yes","bridge":"yes","status":"operational","color":"#E54848","dataOrigin":"datum-2026-08-01","sourceKey":"way:316056785"}},{"type":"Feature","geometry":{"type":"LineString","coordinates":[[112.0446863,23.9744689],[112.04563,23.9738349],[112.0473359,23.9727493]]},"properties":{"key":"way:316056788@detail:448_95","osmType":"way","osmId":316056788,"sourceRegion":"guangdong","featureType":"infrastructure","railClass":"highspeed","mode":"rail","name":"贵广客专线","nameEn":"Guiguang Passenger Line","ref":"3044","usage":"main","highspeed":"yes","status":"operational","color":"#E54848","dataOrigin":"datum-2026-08-01","sourceKey":"way:316056788"}},{"type":"Feature","geometry":{"type":"LineString","coordinates":[[112.1017382,23.932971],[112.1045114,23.9311838],[112.1153057,23.9249227],[112.12391,23.9200607],[112.1308239,23.9158401],[112.1351756,23.9125334]]},"properties":{"key":"way:316056790@detail:448_95","osmType":"way","osmId":316056790,"sourceRegion":"guangdong","featureType":"infrastructure","railClass":"highspeed","mode":"rail","name":"贵广客专线","nameEn":"Guiguang Passenger Line","ref":"3044","usage":"main","highspeed":"yes","bridge":"yes","status":"operational","color":"#E54848","dataOrigin":"datum-2026-08-01","sourceKey":"way:316056790"}},{"type":"Feature","geometry":{"type":"LineString","coordinates":[[112.0569369,23.9666352],[112.0599929,23.9646892],[112.0630928,23.9627183],[112.0641301,23.9620573]]},"properties":{"key":"way:316056792@detail:448_95","osmType":"way","osmId":316056792,"sourceRegion":"guangdong","featureType":"infrastructure","railClass":"highspeed","mode":"rail","name":"贵广客专线","nameEn":"Guiguang Passenger Line","ref":"3044","usage":"main","highspeed":"yes","bridge":"viaduct","status":"operational","color":"#E54848","dataOrigin":"datum-2026-08-01","sourceKey":"way:316056792"}},{"type":"Feature","geometry":{"type":"LineString","coordinates":[[112.01967111947599,24.0],[112.0202751,23.9993311],[112.0213136,23.9981665]]},"properties":{"key":"way:316056794@detail:448_95","osmType":"way","osmId":316056794,"sourceRegion":"guangdong","featureType":"infrastructure","railClass":"highspeed","mode":"rail","name":"贵广客专线","nameEn":"Guiguang Passenger Line","ref":"3044","usage":"main","highspeed":"yes","bridge":"viaduct","status":"operational","color":"#E54848","dataOrigin":"datum-2026-08-01","sourceKey":"way:316056794"}},{"type":"Feature","geometry":{"type":"LineString","coordinates":[[112.0654974,23.9611959],[112.0664048,23.9606317],[112.0703401,23.9581765],[112.0729832,23.9564814],[112.0767445,23.9538059],[112.0790146,23.9519898],[112.0799882,23.9511192],[112.0807282,23.9504602],[112.0812287,23.9499386]]},"properties":{"key":"way:316056796@detail:448_95","osmType":"way","osmId":316056796,"sourceRegion":"guangdong","featureType":"infrastructure","railClass":"highspeed","mode":"rail","name":"贵广客专线","nameEn":"Guiguang Passenger Line","ref":"3044","usage":"main","highspeed":"yes","bridge":"viaduct","status":"operational","color":"#E54848","dataOrigin":"datum-2026-08-01","sourceKey":"way:316056796"}},{"type":"Feature","geometry":{"type":"LineString","coordinates":[[112.2436222,23.8272379],[112.2479772,23.8237453],[112.25,23.822613406883733]]},"properties":{"key":"way:342310507@detail:448_95","osmType":"way","osmId":342310507,"sourceRegion":"guangdong","featureType":"infrastructure","railClass":"highspeed","mode":"rail","name":"贵广客专线","nameEn":"Guiguang Passenger Line","ref":"3044","usage":"main","highspeed":"yes","tunnel":"yes","status":"operational","color":"#E54848","dataOrigin":"datum-2026-08-01","sourceKey":"way:342310507"}},{"type":"Feature","geometry":{"type":"LineString","coordinates":[[112.2248763,23.8394097],[112.2362673,23.8326798]]},"properties":{"key":"way:342310508@detail:448_95","osmType":"way","osmId":342310508,"sourceRegion":"guangdong","featureType":"infrastructure","railClass":"highspeed","mode":"rail","name":"贵广客专线","nameEn":"Guiguang Passenger Line","ref":"3044","usage":"main","highspeed":"yes","tunnel":"yes","status":"operational","color":"#E54848","dataOrigin":"datum-2026-08-01","sourceKey":"way:342310508"}},{"type":"Feature","geometry":{"type":"LineString","coordinates":[[112.2245115,23.8396305],[112.2248763,23.8394097]]},"properties":{"key":"way:342310509@detail:448_95","osmType":"way","osmId":342310509,"sourceRegion":"guangdong","featureType":"infrastructure","railClass":"highspeed","mode":"rail","name":"贵广客专线","nameEn":"Guiguang Passenger Line","ref":"3044","usage":"main","highspeed":"yes","status":"operational","color":"#E54848","dataOrigin":"datum-2026-08-01","sourceKey":"way:342310509"}},{"type":"Feature","geometry":{"type":"LineString","coordinates":[[112.2203809,23.8423242],[112.2245115,23.8396305]]},"properties":{"key":"way:342310510@detail:448_95","osmType":"way","osmId":342310510,"sourceRegion":"guangdong","featureType":"infrastructure","railClass":"highspeed","mode":"rail","name":"贵广客专线","nameEn":"Guiguang Passenger Line","ref":"3044","usage":"main","highspeed":"yes","tunnel":"yes","status":"operational","color":"#E54848","dataOrigin":"datum-2026-08-01","sourceKey":"way:342310510"}},{"type":"Feature","geometry":{"type":"LineString","coordinates":[[112.2201207,23.842518],[112.2203809,23.8423242]]},"properties":{"key":"way:342310511@detail:448_95","osmType":"way","osmId":342310511,"sourceRegion":"guangdong","featureType":"infrastructure","railClass":"highspeed","mode":"rail","name":"贵广客专线","nameEn":"Guiguang Passenger Line","ref":"3044","usage":"main","highspeed":"yes","status":"operational","color":"#E54848","dataOrigin":"datum-2026-08-01","sourceKey":"way:342310511"}},{"type":"Feature","geometry":{"type":"LineString","coordinates":[[112.2060296,23.8522671],[112.2201207,23.842518]]},"properties":{"key":"way:342310512@detail:448_95","osmType":"way","osmId":342310512,"sourceRegion":"guangdong","featureType":"infrastructure","railClass":"highspeed","mode":"rail","name":"贵广客专线","nameEn":"Guiguang Passenger Line","ref":"3044","usage":"main","highspeed":"yes","tunnel":"yes","status":"operational","color":"#E54848","dataOrigin":"datum-2026-08-01","sourceKey":"way:342310512"}},{"type":"Feature","geometry":{"type":"LineString","coordinates":[[112.2015959,23.8555371],[112.2060296,23.8522671]]},"properties":{"key":"way:342310513@detail:448_95","osmType":"way","osmId":342310513,"sourceRegion":"guangdong","featureType":"infrastructure","railClass":"highspeed","mode":"rail","name":"贵广客专线","nameEn":"Guiguang Passenger Line","ref":"3044","usage":"main","highspeed":"yes","tunnel":"yes","status":"operational","color":"#E54848","dataOrigin":"datum-2026-08-01","sourceKey":"way:342310513"}},{"type":"Feature","geometry":{"type":"LineString","coordinates":[[112.1835353,23.8688664],[112.2007567,23.8561565],[112.2015959,23.8555371]]},"properties":{"key":"way:342310514@detail:448_95","osmType":"way","osmId":342310514,"sourceRegion":"guangdong","featureType":"infrastructure","railClass":"highspeed","mode":"rail","name":"贵广客专线","nameEn":"Guiguang Passenger Line","ref":"3044","usage":"main","highspeed":"yes","tunnel":"yes","status":"operational","color":"#E54848","dataOrigin":"datum-2026-08-01","sourceKey":"way:342310514"}},{"type":"Feature","geometry":{"type":"LineString","coordinates":[[112.1804869,23.8713893],[112.1812179,23.8707721]]},"properties":{"key":"way:342310515@detail:448_95","osmType":"way","osmId":342310515,"sourceRegion":"guangdong","featureType":"infrastructure","railClass":"highspeed","mode":"rail","name":"贵广客专线","nameEn":"Guiguang Passenger Line","ref":"3044","usage":"main","highspeed":"yes","tunnel":"yes","status":"operational","color":"#E54848","dataOrigin":"datum-2026-08-01","sourceKey":"way:342310515"}},{"type":"Feature","geometry":{"type":"LineString","coordinates":[[112.1722195,23.8785189],[112.1758803,23.8755305],[112.1774646,23.874095]]},"properties":{"key":"way:342310516@detail:448_95","osmType":"way","osmId":342310516,"sourceRegion":"guangdong","featureType":"infrastructure","railClass":"highspeed","mode":"rail","name":"贵广客专线","nameEn":"Guiguang Passenger Line","ref":"3044","usage":"main","highspeed":"yes","bridge":"yes","status":"operational","color":"#E54848","dataOrigin":"datum-2026-08-01","sourceKey":"way:342310516"}},{"type":"Feature","geometry":{"type":"LineString","coordinates":[[112.1383669,23.9094957],[112.1426946,23.9053836]]},"properties":{"key":"way:342311114@detail:448_95","osmType":"way","osmId":342311114,"sourceRegion":"guangdong","featureType":"infrastructure","railClass":"highspeed","mode":"rail","name":"贵广客专线","nameEn":"Guiguang Passenger Line","ref":"3044","usage":"main","highspeed":"yes","tunnel":"yes","status":"operational","color":"#E54848","dataOrigin":"datum-2026-08-01","sourceKey":"way:342311114"}},{"type":"Feature","geometry":{"type":"LineString","coordinates":[[112.0212599,23.9981271],[112.0202218,23.9992912],[112.0195817935776,24.0]]},"properties":{"key":"way:631438898@detail:448_95","osmType":"way","osmId":631438898,"sourceRegion":"guangdong","featureType":"infrastructure","railClass":"highspeed","mode":"rail","name":"贵广客专线","nameEn":"Guiguang Passenger Line","ref":"3044","usage":"main","highspeed":"yes","bridge":"viaduct","status":"operational","color":"#E54848","dataOrigin":"datum-2026-08-01","sourceKey":"way:631438898"}},{"type":"Feature","geometry":{"type":"LineString","coordinates":[[112.0223393,23.9968859],[112.0212599,23.9981271]]},"properties":{"key":"way:631438904@detail:448_95","osmType":"way","osmId":631438904,"sourceRegion":"guangdong","featureType":"infrastructure","railClass":"highspeed","mode":"rail","name":"贵广客专线","nameEn":"Guiguang Passenger Line","ref":"3044","usage":"main","highspeed":"yes","status":"operational","color":"#E54848","dataOrigin":"datum-2026-08-01","sourceKey":"way:631438904"}},{"type":"Feature","geometry":{"type":"LineString","coordinates":[[112.0232147,23.9959025],[112.0223393,23.9968859]]},"properties":{"key":"way:631438909@detail:448_95","osmType":"way","osmId":631438909,"sourceRegion":"guangdong","featureType":"infrastructure","railClass":"highspeed","mode":"rail","name":"贵广客专线","nameEn":"Guiguang Passenger Line","ref":"3044","usage":"main","highspeed":"yes","bridge":"viaduct","status":"operational","color":"#E54848","dataOrigin":"datum-2026-08-01","sourceKey":"way:631438909"}},{"type":"Feature","geometry":{"type":"LineString","coordinates":[[112.0238904,23.9951361],[112.0232147,23.9959025]]},"properties":{"key":"way:631438915@detail:448_95","osmType":"way","osmId":631438915,"sourceRegion":"guangdong","featureType":"infrastructure","railClass":"highspeed","mode":"rail","name":"贵广客专线","nameEn":"Guiguang Passenger Line","ref":"3044","usage":"main","highspeed":"yes","status":"operational","color":"#E54848","dataOrigin":"datum-2026-08-01","sourceKey":"way:631438915"}},{"type":"Feature","geometry":{"type":"LineString","coordinates":[[112.0241632,23.9948308],[112.0238904,23.9951361]]},"properties":{"key":"way:631438920@detail:448_95","osmType":"way","osmId":631438920,"sourceRegion":"guangdong","featureType":"infrastructure","railClass":"highspeed","mode":"rail","name":"贵广客专线","nameEn":"Guiguang Passenger Line","ref":"3044","usage":"main","highspeed":"yes","bridge":"viaduct","status":"operational","color":"#E54848","dataOrigin":"datum-2026-08-01","sourceKey":"way:631438920"}},{"type":"Feature","geometry":{"type":"LineString","coordinates":[[112.0246518,23.9942621],[112.0241632,23.9948308]]},"properties":{"key":"way:631438926@detail:448_95","osmType":"way","osmId":631438926,"sourceRegion":"guangdong","featureType":"infrastructure","railClass":"highspeed","mode":"rail","name":"贵广客专线","nameEn":"Guiguang Passenger Line","ref":"3044","usage":"main","highspeed":"yes","status":"operational","color":"#E54848","dataOrigin":"datum-2026-08-01","sourceKey":"way:631438926"}},{"type":"Feature","geometry":{"type":"LineString","coordinates":[[112.0253221,23.9935013],[112.0246518,23.9942621]]},"properties":{"key":"way:631438931@detail:448_95","osmType":"way","osmId":631438931,"sourceRegion":"guangdong","featureType":"infrastructure","railClass":"highspeed","mode":"rail","name":"贵广客专线","nameEn":"Guiguang Passenger Line","ref":"3044","usage":"main","highspeed":"yes","bridge":"viaduct","status":"operational","color":"#E54848","dataOrigin":"datum-2026-08-01","sourceKey":"way:631438931"}},{"type":"Feature","geometry":{"type":"LineString","coordinates":[[112.026411,23.9922655],[112.0253221,23.9935013]]},"properties":{"key":"way:631438938@detail:448_95","osmType":"way","osmId":631438938,"sourceRegion":"guangdong","featureType":"infrastructure","railClass":"highspeed","mode":"rail","name":"贵广客专线","nameEn":"Guiguang Passenger Line","ref":"3044","usage":"main","highspeed":"yes","status":"operational","color":"#E54848","dataOrigin":"datum-2026-08-01","sourceKey":"way:631438938"}},{"type":"Feature","geometry":{"type":"LineString","coordinates":[[112.0266949,23.9919433],[112.026411,23.9922655]]},"properties":{"key":"way:631438943@detail:448_95","osmType":"way","osmId":631438943,"sourceRegion":"guangdong","featureType":"infrastructure","railClass":"highspeed","mode":"rail","name":"贵广客专线","nameEn":"Guiguang Passenger Line","ref":"3044","usage":"main","highspeed":"yes","bridge":"viaduct","status":"operational","color":"#E54848","dataOrigin":"datum-2026-08-01","sourceKey":"way:631438943"}},{"type":"Feature","geometry":{"type":"LineString","coordinates":[[112.0287921,23.9895684],[112.0266949,23.9919433]]},"properties":{"key":"way:631438949@detail:448_95","osmType":"way","osmId":631438949,"sourceRegion":"guangdong","featureType":"infrastructure","railClass":"highspeed","mode":"rail","name":"贵广客专线","nameEn":"Guiguang Passenger Line","ref":"3044","usage":"main","highspeed":"yes","status":"operational","color":"#E54848","dataOrigin":"datum-2026-08-01","sourceKey":"way:631438949"}},{"type":"Feature","geometry":{"type":"LineString","coordinates":[[112.0292794,23.9890166],[112.0287921,23.9895684]]},"properties":{"key":"way:631438955@detail:448_95","osmType":"way","osmId":631438955,"sourceRegion":"guangdong","featureType":"infrastructure","railClass":"highspeed","mode":"rail","name":"贵广客专线","nameEn":"Guiguang Passenger Line","ref":"3044","usage":"main","highspeed":"yes","bridge":"viaduct","status":"operational","color":"#E54848","dataOrigin":"datum-2026-08-01","sourceKey":"way:631438955"}},{"type":"Feature","geometry":{"type":"LineString","coordinates":[[112.0299935,23.9881939],[112.0292794,23.9890166]]},"properties":{"key":"way:631438961@detail:448_95","osmType":"way","osmId":631438961,"sourceRegion":"guangdong","featureType":"infrastructure","railClass":"highspeed","mode":"rail","name":"贵广客专线","nameEn":"Guiguang Passenger Line","ref":"3044","usage":"main","highspeed":"yes","status":"operational","color":"#E54848","dataOrigin":"datum-2026-08-01","sourceKey":"way:631438961"}},{"type":"Feature","geometry":{"type":"LineString","coordinates":[[112.0305127,23.9876117],[112.0299935,23.9881939]]},"properties":{"key":"way:631438966@detail:448_95","osmType":"way","osmId":631438966,"sourceRegion":"guangdong","featureType":"infrastructure","railClass":"highspeed","mode":"rail","name":"贵广客专线","nameEn":"Guiguang Passenger Line","ref":"3044","usage":"main","highspeed":"yes","bridge":"viaduct","status":"operational","color":"#E54848","dataOrigin":"datum-2026-08-01","sourceKey":"way:631438966"}},{"type":"Feature","geometry":{"type":"LineString","coordinates":[[112.0309873,23.9870798],[112.0305127,23.9876117]]},"properties":{"key":"way:631438973@detail:448_95","osmType":"way","osmId":631438973,"sourceRegion":"guangdong","featureType":"infrastructure","railClass":"highspeed","mode":"rail","name":"贵广客专线","nameEn":"Guiguang Passenger Line","ref":"3044","usage":"main","highspeed":"yes","status":"operational","color":"#E54848","dataOrigin":"datum-2026-08-01","sourceKey":"way:631438973"}},{"type":"Feature","geometry":{"type":"LineString","coordinates":[[112.0311491,23.9868914],[112.0309873,23.9870798]]},"properties":{"key":"way:631438978@detail:448_95","osmType":"way","osmId":631438978,"sourceRegion":"guangdong","featureType":"infrastructure","railClass":"highspeed","mode":"rail","name":"贵广客专线","nameEn":"Guiguang Passenger Line","ref":"3044","usage":"main","highspeed":"yes","status":"operational","color":"#E54848","dataOrigin":"datum-2026-08-01","sourceKey":"way:631438978"}},{"type":"Feature","geometry":{"type":"LineString","coordinates":[[112.0324266,23.9854294],[112.0311491,23.9868914]]},"properties":{"key":"way:631438984@detail:448_95","osmType":"way","osmId":631438984,"sourceRegion":"guangdong","featureType":"infrastructure","railClass":"highspeed","mode":"rail","name":"贵广客专线","nameEn":"Guiguang Passenger Line","ref":"3044","usage":"main","highspeed":"yes","bridge":"viaduct","status":"operational","color":"#E54848","dataOrigin":"datum-2026-08-01","sourceKey":"way:631438984"}},{"type":"Feature","geometry":{"type":"LineString","coordinates":[[112.0329243,23.9848608],[112.0324266,23.9854294]]},"properties":{"key":"way:631438990@detail:448_95","osmType":"way","osmId":631438990,"sourceRegion":"guangdong","featureType":"infrastructure","railClass":"highspeed","mode":"rail","name":"贵广客专线","nameEn":"Guiguang Passenger Line","ref":"3044","usage":"main","highspeed":"yes","status":"operational","color":"#E54848","dataOrigin":"datum-2026-08-01","sourceKey":"way:631438990"}},{"type":"Feature","geometry":{"type":"LineString","coordinates":[[112.0341913,23.9834533],[112.0329243,23.9848608]]},"properties":{"key":"way:631438995@detail:448_95","osmType":"way","osmId":631438995,"sourceRegion":"guangdong","featureType":"infrastructure","railClass":"highspeed","mode":"rail","name":"贵广客专线","nameEn":"Guiguang Passenger Line","ref":"3044","usage":"main","highspeed":"yes","bridge":"viaduct","status":"operational","color":"#E54848","dataOrigin":"datum-2026-08-01","sourceKey":"way:631438995"}},{"type":"Feature","geometry":{"type":"LineString","coordinates":[[112.0353154,23.9822295],[112.0341913,23.9834533]]},"properties":{"key":"way:631439002@detail:448_95","osmType":"way","osmId":631439002,"sourceRegion":"guangdong","featureType":"infrastructure","railClass":"highspeed","mode":"rail","name":"贵广客专线","nameEn":"Guiguang Passenger Line","ref":"3044","usage":"main","highspeed":"yes","status":"operational","color":"#E54848","dataOrigin":"datum-2026-08-01","sourceKey":"way:631439002"}},{"type":"Feature","geometry":{"type":"LineString","coordinates":[[112.0358179,23.9816953],[112.0353154,23.9822295]]},"properties":{"key":"way:631439007@detail:448_95","osmType":"way","osmId":631439007,"sourceRegion":"guangdong","featureType":"infrastructure","railClass":"highspeed","mode":"rail","name":"贵广客专线","nameEn":"Guiguang Passenger Line","ref":"3044","usage":"main","highspeed":"yes","bridge":"yes","status":"operational","color":"#E54848","dataOrigin":"datum-2026-08-01","sourceKey":"way:631439007"}},{"type":"Feature","geometry":{"type":"LineString","coordinates":[[112.0364264,23.9810739],[112.0358179,23.9816953]]},"properties":{"key":"way:631439013@detail:448_95","osmType":"way","osmId":631439013,"sourceRegion":"guangdong","featureType":"infrastructure","railClass":"highspeed","mode":"rail","name":"贵广客专线","nameEn":"Guiguang Passenger Line","ref":"3044","usage":"main","highspeed":"yes","status":"operational","color":"#E54848","dataOrigin":"datum-2026-08-01","sourceKey":"way:631439013"}},{"type":"Feature","geometry":{"type":"LineString","coordinates":[[112.0368816,23.980624],[112.0364264,23.9810739]]},"properties":{"key":"way:631439019@detail:448_95","osmType":"way","osmId":631439019,"sourceRegion":"guangdong","featureType":"infrastructure","railClass":"highspeed","mode":"rail","name":"贵广客专线","nameEn":"Guiguang Passenger Line","ref":"3044","usage":"main","highspeed":"yes","bridge":"yes","status":"operational","color":"#E54848","dataOrigin":"datum-2026-08-01","sourceKey":"way:631439019"}},{"type":"Feature","geometry":{"type":"LineString","coordinates":[[112.0382983,23.9793118],[112.0368816,23.980624]]},"properties":{"key":"way:631439025@detail:448_95","osmType":"way","osmId":631439025,"sourceRegion":"guangdong","featureType":"infrastructure","railClass":"highspeed","mode":"rail","name":"贵广客专线","nameEn":"Guiguang Passenger Line","ref":"3044","usage":"main","highspeed":"yes","status":"operational","color":"#E54848","dataOrigin":"datum-2026-08-01","sourceKey":"way:631439025"}},{"type":"Feature","geometry":{"type":"LineString","coordinates":[[112.039375,23.9783649],[112.0382983,23.9793118]]},"properties":{"key":"way:631439031@detail:448_95","osmType":"way","osmId":631439031,"sourceRegion":"guangdong","featureType":"infrastructure","railClass":"highspeed","mode":"rail","name":"贵广客专线","nameEn":"Guiguang Passenger Line","ref":"3044","usage":"main","highspeed":"yes","bridge":"yes","status":"operational","color":"#E54848","dataOrigin":"datum-2026-08-01","sourceKey":"way:631439031"}},{"type":"Feature","geometry":{"type":"LineString","coordinates":[[112.041083,23.9769599],[112.0405019,23.9774389],[112.039375,23.9783649]]},"properties":{"key":"way:631439037@detail:448_95","osmType":"way","osmId":631439037,"sourceRegion":"guangdong","featureType":"infrastructure","railClass":"highspeed","mode":"rail","name":"贵广客专线","nameEn":"Guiguang Passenger Line","ref":"3044","usage":"main","highspeed":"yes","status":"operational","color":"#E54848","dataOrigin":"datum-2026-08-01","sourceKey":"way:631439037"}},{"type":"Feature","geometry":{"type":"LineString","coordinates":[[112.0421554,23.9761601],[112.041083,23.9769599]]},"properties":{"key":"way:631439043@detail:448_95","osmType":"way","osmId":631439043,"sourceRegion":"guangdong","featureType":"infrastructure","railClass":"highspeed","mode":"rail","name":"贵广客专线","nameEn":"Guiguang Passenger Line","ref":"3044","usage":"main","highspeed":"yes","bridge":"yes","status":"operational","color":"#E54848","dataOrigin":"datum-2026-08-01","sourceKey":"way:631439043"}},{"type":"Feature","geometry":{"type":"LineString","coordinates":[[112.0442791,23.9746644],[112.0430865,23.9754656],[112.0421554,23.9761601]]},"properties":{"key":"way:631439048@detail:448_95","osmType":"way","osmId":631439048,"sourceRegion":"guangdong","featureType":"infrastructure","railClass":"highspeed","mode":"rail","name":"贵广客专线","nameEn":"Guiguang Passenger Line","ref":"3044","usage":"main","highspeed":"yes","status":"operational","color":"#E54848","dataOrigin":"datum-2026-08-01","sourceKey":"way:631439048"}},{"type":"Feature","geometry":{"type":"LineString","coordinates":[[112.0446455,23.9744182],[112.0442791,23.9746644]]},"properties":{"key":"way:631439053@detail:448_95","osmType":"way","osmId":631439053,"sourceRegion":"guangdong","featureType":"infrastructure","railClass":"highspeed","mode":"rail","name":"贵广客专线","nameEn":"Guiguang Passenger Line","ref":"3044","usage":"main","highspeed":"yes","bridge":"yes","status":"operational","color":"#E54848","dataOrigin":"datum-2026-08-01","sourceKey":"way:631439053"}},{"type":"Feature","geometry":{"type":"LineString","coordinates":[[112.0472965,23.9726977],[112.0455899,23.9737837],[112.0446455,23.9744182]]},"properties":{"key":"way:631439054@detail:448_95","osmType":"way","osmId":631439054,"sourceRegion":"guangdong","featureType":"infrastructure","railClass":"highspeed","mode":"rail","name":"贵广客专线","nameEn":"Guiguang Passenger Line","ref":"3044","usage":"main","highspeed":"yes","status":"operational","color":"#E54848","dataOrigin":"datum-2026-08-01","sourceKey":"way:631439054"}},{"type":"Feature","geometry":{"type":"LineString","coordinates":[[112.0489726,23.9716312],[112.0472965,23.9726977]]},"properties":{"key":"way:631439055@detail:448_95","osmType":"way","osmId":631439055,"sourceRegion":"guangdong","featureType":"infrastructure","railClass":"highspeed","mode":"rail","name":"贵广客专线","nameEn":"Guiguang Passenger Line","ref":"3044","usage":"main","highspeed":"yes","bridge":"yes","status":"operational","color":"#E54848","dataOrigin":"datum-2026-08-01","sourceKey":"way:631439055"}},{"type":"Feature","geometry":{"type":"LineString","coordinates":[[112.0499376,23.9710171],[112.0489726,23.9716312]]},"properties":{"key":"way:631439056@detail:448_95","osmType":"way","osmId":631439056,"sourceRegion":"guangdong","featureType":"infrastructure","railClass":"highspeed","mode":"rail","name":"贵广客专线","nameEn":"Guiguang Passenger Line","ref":"3044","usage":"main","highspeed":"yes","status":"operational","color":"#E54848","dataOrigin":"datum-2026-08-01","sourceKey":"way:631439056"}},{"type":"Feature","geometry":{"type":"LineString","coordinates":[[112.0502654,23.9708059],[112.0499376,23.9710171]]},"properties":{"key":"way:631439057@detail:448_95","osmType":"way","osmId":631439057,"sourceRegion":"guangdong","featureType":"infrastructure","railClass":"highspeed","mode":"rail","name":"贵广客专线","nameEn":"Guiguang Passenger Line","ref":"3044","usage":"main","highspeed":"yes","bridge":"yes","status":"operational","color":"#E54848","dataOrigin":"datum-2026-08-01","sourceKey":"way:631439057"}},{"type":"Feature","geometry":{"type":"LineString","coordinates":[[112.0531089,23.968996],[112.0502654,23.9708059]]},"properties":{"key":"way:631439058@detail:448_95","osmType":"way","osmId":631439058,"sourceRegion":"guangdong","featureType":"infrastructure","railClass":"highspeed","mode":"rail","name":"贵广客专线","nameEn":"Guiguang Passenger Line","ref":"3044","usage":"main","highspeed":"yes","status":"operational","color":"#E54848","dataOrigin":"datum-2026-08-01","sourceKey":"way:631439058"}},{"type":"Feature","geometry":{"type":"LineString","coordinates":[[112.053943,23.9684657],[112.0531089,23.968996]]},"properties":{"key":"way:631439059@detail:448_95","osmType":"way","osmId":631439059,"sourceRegion":"guangdong","featureType":"infrastructure","railClass":"highspeed","mode":"rail","name":"贵广客专线","nameEn":"Guiguang Passenger Line","ref":"3044","usage":"main","highspeed":"yes","bridge":"yes","status":"operational","color":"#E54848","dataOrigin":"datum-2026-08-01","sourceKey":"way:631439059"}},{"type":"Feature","geometry":{"type":"LineString","coordinates":[[112.0568975,23.9665836],[112.053943,23.9684657]]},"properties":{"key":"way:631439060@detail:448_95","osmType":"way","osmId":631439060,"sourceRegion":"guangdong","featureType":"infrastructure","railClass":"highspeed","mode":"rail","name":"贵广客专线","nameEn":"Guiguang Passenger Line","ref":"3044","usage":"main","highspeed":"yes","status":"operational","color":"#E54848","dataOrigin":"datum-2026-08-01","sourceKey":"way:631439060"}},{"type":"Feature","geometry":{"type":"LineString","coordinates":[[112.0640909,23.9620056],[112.0630534,23.9626667],[112.0599536,23.9646375],[112.0568975,23.9665836]]},"properties":{"key":"way:631439061@detail:448_95","osmType":"way","osmId":631439061,"sourceRegion":"guangdong","featureType":"infrastructure","railClass":"highspeed","mode":"rail","name":"贵广客专线","nameEn":"Guiguang Passenger Line","ref":"3044","usage":"main","highspeed":"yes","bridge":"viaduct","status":"operational","color":"#E54848","dataOrigin":"datum-2026-08-01","sourceKey":"way:631439061"}},{"type":"Feature","geometry":{"type":"LineString","coordinates":[[112.0654585,23.961144],[112.0640909,23.9620056]]},"properties":{"key":"way:631439062@detail:448_95","osmType":"way","osmId":631439062,"sourceRegion":"guangdong","featureType":"infrastructure","railClass":"highspeed","mode":"rail","name":"贵广客专线","nameEn":"Guiguang Passenger Line","ref":"3044","usage":"main","highspeed":"yes","status":"operational","color":"#E54848","dataOrigin":"datum-2026-08-01","sourceKey":"way:631439062"}},{"type":"Feature","geometry":{"type":"LineString","coordinates":[[112.08118,23.9498941],[112.0799407,23.9510534],[112.0788157,23.9520919],[112.0767323,23.9537568],[112.07295,23.9564143],[112.0700016,23.958249],[112.0663656,23.9605799],[112.0654585,23.961144]]},"properties":{"key":"way:631439063@detail:448_95","osmType":"way","osmId":631439063,"sourceRegion":"guangdong","featureType":"infrastructure","railClass":"highspeed","mode":"rail","name":"贵广客专线","nameEn":"Guiguang Passenger Line","ref":"3044","usage":"main","highspeed":"yes","bridge":"viaduct","status":"operational","color":"#E54848","dataOrigin":"datum-2026-08-01","sourceKey":"way:631439063"}},{"type":"Feature","geometry":{"type":"LineString","coordinates":[[112.0828204,23.9483483],[112.08118,23.9498941]]},"properties":{"key":"way:631439064@detail:448_95","osmType":"way","osmId":631439064,"sourceRegion":"guangdong","featureType":"infrastructure","railClass":"highspeed","mode":"rail","name":"贵广客专线","nameEn":"Guiguang Passenger Line","ref":"3044","usage":"main","highspeed":"yes","status":"operational","color":"#E54848","dataOrigin":"datum-2026-08-01","sourceKey":"way:631439064"}},{"type":"Feature","geometry":{"type":"LineString","coordinates":[[112.087884,23.9435506],[112.0864863,23.9448935],[112.0828204,23.9483483]]},"properties":{"key":"way:631439065@detail:448_95","osmType":"way","osmId":631439065,"sourceRegion":"guangdong","featureType":"infrastructure","railClass":"highspeed","mode":"rail","name":"贵广客专线","nameEn":"Guiguang Passenger Line","ref":"3044","usage":"main","highspeed":"yes","bridge":"yes","status":"operational","color":"#E54848","dataOrigin":"datum-2026-08-01","sourceKey":"way:631439065"}},{"type":"Feature","geometry":{"type":"LineString","coordinates":[[112.089733,23.9418271],[112.087884,23.9435506]]},"properties":{"key":"way:631439066@detail:448_95","osmType":"way","osmId":631439066,"sourceRegion":"guangdong","featureType":"infrastructure","railClass":"highspeed","mode":"rail","name":"贵广客专线","nameEn":"Guiguang Passenger Line","ref":"3044","usage":"main","highspeed":"yes","status":"operational","color":"#E54848","dataOrigin":"datum-2026-08-01","sourceKey":"way:631439066"}},{"type":"Feature","geometry":{"type":"LineString","coordinates":[[112.0904341,23.9412148],[112.089733,23.9418271]]},"properties":{"key":"way:631439067@detail:448_95","osmType":"way","osmId":631439067,"sourceRegion":"guangdong","featureType":"infrastructure","railClass":"highspeed","mode":"rail","name":"贵广客专线","nameEn":"Guiguang Passenger Line","ref":"3044","usage":"main","highspeed":"yes","bridge":"yes","status":"operational","color":"#E54848","dataOrigin":"datum-2026-08-01","sourceKey":"way:631439067"}},{"type":"Feature","geometry":{"type":"LineString","coordinates":[[112.1351293,23.9124868],[112.1307828,23.9157894],[112.1239034,23.9200155],[112.1152689,23.9248695],[112.1044731,23.9311315],[112.1017017,23.9329175]]},"properties":{"key":"way:631439068@detail:448_95","osmType":"way","osmId":631439068,"sourceRegion":"guangdong","featureType":"infrastructure","railClass":"highspeed","mode":"rail","name":"贵广客专线","nameEn":"Guiguang Passenger Line","ref":"3044","usage":"main","highspeed":"yes","bridge":"yes","status":"operational","color":"#E54848","dataOrigin":"datum-2026-08-01","sourceKey":"way:631439068"}},{"type":"Feature","geometry":{"type":"LineString","coordinates":[[112.142645,23.9053399],[112.1383156,23.9094536]]},"properties":{"key":"way:631439069@detail:448_95","osmType":"way","osmId":631439069,"sourceRegion":"guangdong","featureType":"infrastructure","railClass":"highspeed","mode":"rail","name":"贵广客专线","nameEn":"Guiguang Passenger Line","ref":"3044","usage":"main","highspeed":"yes","tunnel":"yes","status":"operational","color":"#E54848","dataOrigin":"datum-2026-08-01","sourceKey":"way:631439069"}},{"type":"Feature","geometry":{"type":"LineString","coordinates":[[112.1804328,23.8713519],[112.1793396,23.8723075],[112.1779482,23.8735683]]},"properties":{"key":"way:631439071@detail:448_95","osmType":"way","osmId":631439071,"sourceRegion":"guangdong","featureType":"infrastructure","railClass":"highspeed","mode":"rail","name":"贵广客专线","nameEn":"Guiguang Passenger Line","ref":"3044","usage":"main","highspeed":"yes","bridge":"yes","status":"operational","color":"#E54848","dataOrigin":"datum-2026-08-01","sourceKey":"way:631439071"}},{"type":"Feature","geometry":{"type":"LineString","coordinates":[[112.1834931,23.8688163],[112.1812596,23.8706509]]},"properties":{"key":"way:631439072@detail:448_95","osmType":"way","osmId":631439072,"sourceRegion":"guangdong","featureType":"infrastructure","railClass":"highspeed","mode":"rail","name":"贵广客专线","nameEn":"Guiguang Passenger Line","ref":"3044","usage":"main","highspeed":"yes","bridge":"yes","status":"operational","color":"#E54848","dataOrigin":"datum-2026-08-01","sourceKey":"way:631439072"}},{"type":"Feature","geometry":{"type":"LineString","coordinates":[[112.2015521,23.8554884],[112.2007889,23.8560517],[112.1834931,23.8688163]]},"properties":{"key":"way:631439073@detail:448_95","osmType":"way","osmId":631439073,"sourceRegion":"guangdong","featureType":"infrastructure","railClass":"highspeed","mode":"rail","name":"贵广客专线","nameEn":"Guiguang Passenger Line","ref":"3044","usage":"main","highspeed":"yes","tunnel":"yes","status":"operational","color":"#E54848","dataOrigin":"datum-2026-08-01","sourceKey":"way:631439073"}},{"type":"Feature","geometry":{"type":"LineString","coordinates":[[112.2059821,23.8522215],[112.2015521,23.8554884]]},"properties":{"key":"way:631439074@detail:448_95","osmType":"way","osmId":631439074,"sourceRegion":"guangdong","featureType":"infrastructure","railClass":"highspeed","mode":"rail","name":"贵广客专线","nameEn":"Guiguang Passenger Line","ref":"3044","usage":"main","highspeed":"yes","tunnel":"yes","status":"operational","color":"#E54848","dataOrigin":"datum-2026-08-01","sourceKey":"way:631439074"}},{"type":"Feature","geometry":{"type":"LineString","coordinates":[[112.2200753,23.8424706],[112.2059821,23.8522215]]},"properties":{"key":"way:631439075@detail:448_95","osmType":"way","osmId":631439075,"sourceRegion":"guangdong","featureType":"infrastructure","railClass":"highspeed","mode":"rail","name":"贵广客专线","nameEn":"Guiguang Passenger Line","ref":"3044","usage":"main","highspeed":"yes","tunnel":"yes","status":"operational","color":"#E54848","dataOrigin":"datum-2026-08-01","sourceKey":"way:631439075"}},{"type":"Feature","geometry":{"type":"LineString","coordinates":[[112.2203391,23.8422741],[112.2200753,23.8424706]]},"properties":{"key":"way:631439076@detail:448_95","osmType":"way","osmId":631439076,"sourceRegion":"guangdong","featureType":"infrastructure","railClass":"highspeed","mode":"rail","name":"贵广客专线","nameEn":"Guiguang Passenger Line","ref":"3044","usage":"main","highspeed":"yes","status":"operational","color":"#E54848","dataOrigin":"datum-2026-08-01","sourceKey":"way:631439076"}},{"type":"Feature","geometry":{"type":"LineString","coordinates":[[112.2244725,23.8395786],[112.2203391,23.8422741]]},"properties":{"key":"way:631439077@detail:448_95","osmType":"way","osmId":631439077,"sourceRegion":"guangdong","featureType":"infrastructure","railClass":"highspeed","mode":"rail","name":"贵广客专线","nameEn":"Guiguang Passenger Line","ref":"3044","usage":"main","highspeed":"yes","tunnel":"yes","status":"operational","color":"#E54848","dataOrigin":"datum-2026-08-01","sourceKey":"way:631439077"}},{"type":"Feature","geometry":{"type":"LineString","coordinates":[[112.2248379,23.8393574],[112.2244725,23.8395786]]},"properties":{"key":"way:631439078@detail:448_95","osmType":"way","osmId":631439078,"sourceRegion":"guangdong","featureType":"infrastructure","railClass":"highspeed","mode":"rail","name":"贵广客专线","nameEn":"Guiguang Passenger Line","ref":"3044","usage":"main","highspeed":"yes","status":"operational","color":"#E54848","dataOrigin":"datum-2026-08-01","sourceKey":"way:631439078"}},{"type":"Feature","geometry":{"type":"LineString","coordinates":[[112.2362215,23.8326284],[112.2248379,23.8393574]]},"properties":{"key":"way:631439079@detail:448_95","osmType":"way","osmId":631439079,"sourceRegion":"guangdong","featureType":"infrastructure","railClass":"highspeed","mode":"rail","name":"贵广客专线","nameEn":"Guiguang Passenger Line","ref":"3044","usage":"main","highspeed":"yes","tunnel":"yes","status":"operational","color":"#E54848","dataOrigin":"datum-2026-08-01","sourceKey":"way:631439079"}},{"type":"Feature","geometry":{"type":"LineString","coordinates":[[112.25,23.822539555755693],[112.2479362,23.8236944],[112.2435775,23.82719]]},"properties":{"key":"way:631439080@detail:448_95","osmType":"way","osmId":631439080,"sourceRegion":"guangdong","featureType":"infrastructure","railClass":"highspeed","mode":"rail","name":"贵广客专线","nameEn":"Guiguang Passenger Line","ref":"3044","usage":"main","highspeed":"yes","tunnel":"yes","status":"operational","color":"#E54848","dataOrigin":"datum-2026-08-01","sourceKey":"way:631439080"}},{"type":"Feature","geometry":{"type":"LineString","coordinates":[[112.1017017,23.9329175],[112.100677,23.9335778],[112.0978327,23.9355857],[112.0942562,23.9381143],[112.0904341,23.9412148]]},"properties":{"key":"way:667519011@detail:448_95","osmType":"way","osmId":667519011,"sourceRegion":"guangdong","featureType":"infrastructure","railClass":"highspeed","mode":"rail","name":"贵广客专线","nameEn":"Guiguang Passenger Line","ref":"3044","usage":"main","highspeed":"yes","status":"operational","color":"#E54848","dataOrigin":"datum-2026-08-01","sourceKey":"way:667519011"}},{"type":"Feature","geometry":{"type":"LineString","coordinates":[[112.0904808,23.9412611],[112.0943002,23.9381628],[112.0978748,23.9356355],[112.1007179,23.9336285],[112.1017382,23.932971]]},"properties":{"key":"way:667519014@detail:448_95","osmType":"way","osmId":667519014,"sourceRegion":"guangdong","featureType":"infrastructure","railClass":"highspeed","mode":"rail","name":"贵广客专线","nameEn":"Guiguang Passenger Line","ref":"3044","usage":"main","highspeed":"yes","status":"operational","color":"#E54848","dataOrigin":"datum-2026-08-01","sourceKey":"way:667519014"}},{"type":"Feature","geometry":{"type":"LineString","coordinates":[[112.1351756,23.9125334],[112.1376427,23.9102852],[112.1383669,23.9094957]]},"properties":{"key":"way:667519015@detail:448_95","osmType":"way","osmId":667519015,"sourceRegion":"guangdong","featureType":"infrastructure","railClass":"highspeed","mode":"rail","name":"贵广客专线","nameEn":"Guiguang Passenger Line","ref":"3044","usage":"main","highspeed":"yes","status":"operational","color":"#E54848","dataOrigin":"datum-2026-08-01","sourceKey":"way:667519015"}},{"type":"Feature","geometry":{"type":"LineString","coordinates":[[112.1383156,23.9094536],[112.1375921,23.9102423],[112.1351293,23.9124868]]},"properties":{"key":"way:667519016@detail:448_95","osmType":"way","osmId":667519016,"sourceRegion":"guangdong","featureType":"infrastructure","railClass":"highspeed","mode":"rail","name":"贵广客专线","nameEn":"Guiguang Passenger Line","ref":"3044","usage":"main","highspeed":"yes","status":"operational","color":"#E54848","dataOrigin":"datum-2026-08-01","sourceKey":"way:667519016"}},{"type":"Feature","geometry":{"type":"LineString","coordinates":[[112.1472725,23.9011518],[112.1458782,23.9022684],[112.142645,23.9053399]]},"properties":{"key":"way:1253117973@detail:448_95","osmType":"way","osmId":1253117973,"sourceRegion":"guangdong","featureType":"infrastructure","railClass":"highspeed","mode":"rail","name":"贵广客专线","nameEn":"Guiguang Passenger Line","ref":"3044","usage":"main","highspeed":"yes","status":"operational","color":"#E54848","dataOrigin":"datum-2026-08-01","sourceKey":"way:1253117973"}},{"type":"Feature","geometry":{"type":"LineString","coordinates":[[112.1603836,23.8886676],[112.1590612,23.8899203],[112.1582643,23.8906752],[112.1564317,23.892411]]},"properties":{"key":"way:1253117974@detail:448_95","osmType":"way","osmId":1253117974,"sourceRegion":"guangdong","featureType":"infrastructure","railClass":"highspeed","mode":"rail","name":"贵广客专线","nameEn":"Guiguang Passenger Line","ref":"3044","usage":"main","highspeed":"yes","bridge":"yes","status":"operational","color":"#E54848","dataOrigin":"datum-2026-08-01","sourceKey":"way:1253117974"}},{"type":"Feature","geometry":{"type":"LineString","coordinates":[[112.1498185,23.8987401],[112.1502919,23.8982898],[112.1564609,23.8924399]]},"properties":{"key":"way:1253117975@detail:448_95","osmType":"way","osmId":1253117975,"sourceRegion":"guangdong","featureType":"infrastructure","railClass":"highspeed","mode":"rail","name":"贵广客专线","nameEn":"Guiguang Passenger Line","ref":"3044","usage":"main","highspeed":"yes","status":"operational","color":"#E54848","dataOrigin":"datum-2026-08-01","sourceKey":"way:1253117975"}},{"type":"Feature","geometry":{"type":"LineString","coordinates":[[112.1564609,23.8924399],[112.1582926,23.890703],[112.160021,23.8890642],[112.1604096,23.8886957]]},"properties":{"key":"way:1253117976@detail:448_95","osmType":"way","osmId":1253117976,"sourceRegion":"guangdong","featureType":"infrastructure","railClass":"highspeed","mode":"rail","name":"贵广客专线","nameEn":"Guiguang Passenger Line","ref":"3044","usage":"main","highspeed":"yes","bridge":"yes","status":"operational","color":"#E54848","dataOrigin":"datum-2026-08-01","sourceKey":"way:1253117976"}},{"type":"Feature","geometry":{"type":"LineString","coordinates":[[112.1426946,23.9053836],[112.1459278,23.9023121],[112.1473032,23.9011799]]},"properties":{"key":"way:1253117978@detail:448_95","osmType":"way","osmId":1253117978,"sourceRegion":"guangdong","featureType":"infrastructure","railClass":"highspeed","mode":"rail","name":"贵广客专线","nameEn":"Guiguang Passenger Line","ref":"3044","usage":"main","highspeed":"yes","status":"operational","color":"#E54848","dataOrigin":"datum-2026-08-01","sourceKey":"way:1253117978"}},{"type":"Feature","geometry":{"type":"LineString","coordinates":[[112.1473032,23.9011799],[112.1498185,23.8987401]]},"properties":{"key":"way:1253117979@detail:448_95","osmType":"way","osmId":1253117979,"sourceRegion":"guangdong","featureType":"infrastructure","railClass":"highspeed","mode":"rail","name":"贵广客专线","nameEn":"Guiguang Passenger Line","ref":"3044","usage":"main","highspeed":"yes","bridge":"yes","status":"operational","color":"#E54848","dataOrigin":"datum-2026-08-01","sourceKey":"way:1253117979"}},{"type":"Feature","geometry":{"type":"LineString","coordinates":[[112.1564317,23.892411],[112.1502602,23.8982589],[112.1497865,23.8987094]]},"properties":{"key":"way:1253117980@detail:448_95","osmType":"way","osmId":1253117980,"sourceRegion":"guangdong","featureType":"infrastructure","railClass":"highspeed","mode":"rail","name":"贵广客专线","nameEn":"Guiguang Passenger Line","ref":"3044","usage":"main","highspeed":"yes","status":"operational","color":"#E54848","dataOrigin":"datum-2026-08-01","sourceKey":"way:1253117980"}},{"type":"Feature","geometry":{"type":"LineString","coordinates":[[112.1497865,23.8987094],[112.1472725,23.9011518]]},"properties":{"key":"way:1253117981@detail:448_95","osmType":"way","osmId":1253117981,"sourceRegion":"guangdong","featureType":"infrastructure","railClass":"highspeed","mode":"rail","name":"贵广客专线","nameEn":"Guiguang Passenger Line","ref":"3044","usage":"main","highspeed":"yes","bridge":"yes","status":"operational","color":"#E54848","dataOrigin":"datum-2026-08-01","sourceKey":"way:1253117981"}},{"type":"Feature","geometry":{"type":"LineString","coordinates":[[112.1582643,23.8906752],[112.1576449,23.891212],[112.1567219,23.8920592],[112.1563922,23.8923715]]},"properties":{"key":"way:1253117983@detail:448_95","osmType":"way","osmId":1253117983,"sourceRegion":"guangdong","featureType":"infrastructure","railClass":"minor","mode":"rail","name":"未命名","service":"siding","highspeed":"yes","bridge":"yes","status":"operational","color":"#52636F","dataOrigin":"datum-2026-08-01","sourceKey":"way:1253117983"}},{"type":"Feature","geometry":{"type":"LineString","coordinates":[[112.1565001,23.8924799],[112.1570286,23.8919817],[112.1577867,23.891258],[112.1582926,23.890703]]},"properties":{"key":"way:1253117984@detail:448_95","osmType":"way","osmId":1253117984,"sourceRegion":"guangdong","featureType":"infrastructure","railClass":"minor","mode":"rail","name":"未命名","service":"siding","highspeed":"yes","bridge":"yes","status":"operational","color":"#52636F","dataOrigin":"datum-2026-08-01","sourceKey":"way:1253117984"}},{"type":"Feature","geometry":{"type":"LineString","coordinates":[[112.1563683,23.8923535],[112.1544565,23.8939445],[112.1524428,23.8958697],[112.1515983,23.8968272],[112.1512873,23.8972075]]},"properties":{"key":"way:1253117985@detail:448_95","osmType":"way","osmId":1253117985,"sourceRegion":"guangdong","featureType":"infrastructure","railClass":"minor","mode":"rail","name":"未命名","service":"siding","highspeed":"yes","status":"operational","color":"#52636F","dataOrigin":"datum-2026-08-01","sourceKey":"way:1253117985"}},{"type":"Feature","geometry":{"type":"LineString","coordinates":[[112.1513895,23.8972975],[112.1535502,23.8955209],[112.1551039,23.894065],[112.156542,23.8925084]]},"properties":{"key":"way:1253117986@detail:448_95","osmType":"way","osmId":1253117986,"sourceRegion":"guangdong","featureType":"infrastructure","railClass":"minor","mode":"rail","name":"未命名","service":"siding","highspeed":"yes","status":"operational","color":"#52636F","dataOrigin":"datum-2026-08-01","sourceKey":"way:1253117986"}},{"type":"Feature","geometry":{"type":"LineString","coordinates":[[112.1484289,23.8994304],[112.1507547,23.8974795],[112.1512087,23.8971226],[112.1515983,23.8968272]]},"properties":{"key":"way:1253117989@detail:448_95","osmType":"way","osmId":1253117989,"sourceRegion":"guangdong","featureType":"infrastructure","railClass":"minor","mode":"rail","name":"未命名","service":"yard","highspeed":"yes","status":"operational","color":"#52636F","dataOrigin":"datum-2026-08-01","sourceKey":"way:1253117989"}},{"type":"Feature","geometry":{"type":"LineString","coordinates":[[112.1512087,23.8971226],[112.1516398,23.8966906]]},"properties":{"key":"way:1253117990@detail:448_95","osmType":"way","osmId":1253117990,"sourceRegion":"guangdong","featureType":"infrastructure","railClass":"minor","mode":"rail","name":"未命名","service":"yard","highspeed":"yes","status":"operational","color":"#52636F","dataOrigin":"datum-2026-08-01","sourceKey":"way:1253117990"}},{"type":"Feature","geometry":{"type":"LineString","coordinates":[[112.1496373,23.8982889],[112.1507547,23.8974795]]},"properties":{"key":"way:1253117991@detail:448_95","osmType":"way","osmId":1253117991,"sourceRegion":"guangdong","featureType":"infrastructure","railClass":"minor","mode":"rail","name":"未命名","service":"yard","highspeed":"yes","status":"operational","color":"#52636F","dataOrigin":"datum-2026-08-01","sourceKey":"way:1253117991"}},{"type":"Feature","geometry":{"type":"LineString","coordinates":[[112.1812596,23.8706509],[112.1811645,23.8707315]]},"properties":{"key":"way:1275225157@detail:448_95","osmType":"way","osmId":1275225157,"sourceRegion":"guangdong","featureType":"infrastructure","railClass":"highspeed","mode":"rail","name":"贵广客专线","nameEn":"Guiguang Passenger Line","ref":"3044","usage":"main","highspeed":"yes","status":"operational","color":"#E54848","dataOrigin":"datum-2026-08-01","sourceKey":"way:1275225157"}},{"type":"Feature","geometry":{"type":"LineString","coordinates":[[112.1813052,23.8706981],[112.1835353,23.8688664]]},"properties":{"key":"way:1275225158@detail:448_95","osmType":"way","osmId":1275225158,"sourceRegion":"guangdong","featureType":"infrastructure","railClass":"highspeed","mode":"rail","name":"贵广客专线","nameEn":"Guiguang Passenger Line","ref":"3044","usage":"main","highspeed":"yes","bridge":"yes","status":"operational","color":"#E54848","dataOrigin":"datum-2026-08-01","sourceKey":"way:1275225158"}},{"type":"Feature","geometry":{"type":"LineString","coordinates":[[112.1812179,23.8707721],[112.1813052,23.8706981]]},"properties":{"key":"way:1275225159@detail:448_95","osmType":"way","osmId":1275225159,"sourceRegion":"guangdong","featureType":"infrastructure","railClass":"highspeed","mode":"rail","name":"贵广客专线","nameEn":"Guiguang Passenger Line","ref":"3044","usage":"main","highspeed":"yes","status":"operational","color":"#E54848","dataOrigin":"datum-2026-08-01","sourceKey":"way:1275225159"}},{"type":"Feature","geometry":{"type":"LineString","coordinates":[[112.1811645,23.8707315],[112.1804328,23.8713519]]},"properties":{"key":"way:1275225160@detail:448_95","osmType":"way","osmId":1275225160,"sourceRegion":"guangdong","featureType":"infrastructure","railClass":"highspeed","mode":"rail","name":"贵广客专线","nameEn":"Guiguang Passenger Line","ref":"3044","usage":"main","highspeed":"yes","tunnel":"yes","status":"operational","color":"#E54848","dataOrigin":"datum-2026-08-01","sourceKey":"way:1275225160"}},{"type":"Feature","geometry":{"type":"LineString","coordinates":[[112.1779969,23.8736127],[112.1793886,23.8723517],[112.1804869,23.8713893]]},"properties":{"key":"way:1275225161@detail:448_95","osmType":"way","osmId":1275225161,"sourceRegion":"guangdong","featureType":"infrastructure","railClass":"highspeed","mode":"rail","name":"贵广客专线","nameEn":"Guiguang Passenger Line","ref":"3044","usage":"main","highspeed":"yes","bridge":"yes","status":"operational","color":"#E54848","dataOrigin":"datum-2026-08-01","sourceKey":"way:1275225161"}},{"type":"Feature","geometry":{"type":"LineString","coordinates":[[112.1774646,23.874095],[112.1779969,23.8736127]]},"properties":{"key":"way:1275225162@detail:448_95","osmType":"way","osmId":1275225162,"sourceRegion":"guangdong","featureType":"infrastructure","railClass":"highspeed","mode":"rail","name":"贵广客专线","nameEn":"Guiguang Passenger Line","ref":"3044","usage":"main","highspeed":"yes","status":"operational","color":"#E54848","dataOrigin":"datum-2026-08-01","sourceKey":"way:1275225162"}},{"type":"Feature","geometry":{"type":"LineString","coordinates":[[112.177412,23.8740541],[112.1758332,23.8754846],[112.1721682,23.8784764]]},"properties":{"key":"way:1275225163@detail:448_95","osmType":"way","osmId":1275225163,"sourceRegion":"guangdong","featureType":"infrastructure","railClass":"highspeed","mode":"rail","name":"贵广客专线","nameEn":"Guiguang Passenger Line","ref":"3044","usage":"main","highspeed":"yes","bridge":"yes","status":"operational","color":"#E54848","dataOrigin":"datum-2026-08-01","sourceKey":"way:1275225163"}},{"type":"Feature","geometry":{"type":"LineString","coordinates":[[112.1779482,23.8735683],[112.177412,23.8740541]]},"properties":{"key":"way:1275225164@detail:448_95","osmType":"way","osmId":1275225164,"sourceRegion":"guangdong","featureType":"infrastructure","railClass":"highspeed","mode":"rail","name":"贵广客专线","nameEn":"Guiguang Passenger Line","ref":"3044","usage":"main","highspeed":"yes","status":"operational","color":"#E54848","dataOrigin":"datum-2026-08-01","sourceKey":"way:1275225164"}},{"type":"Feature","geometry":{"type":"LineString","coordinates":[[112.1718615,23.8788111],[112.1722195,23.8785189]]},"properties":{"key":"way:1275225165@detail:448_95","osmType":"way","osmId":1275225165,"sourceRegion":"guangdong","featureType":"infrastructure","railClass":"highspeed","mode":"rail","name":"贵广客专线","nameEn":"Guiguang Passenger Line","ref":"3044","usage":"main","highspeed":"yes","status":"operational","color":"#E54848","dataOrigin":"datum-2026-08-01","sourceKey":"way:1275225165"}},{"type":"Feature","geometry":{"type":"LineString","coordinates":[[112.1699613,23.8803624],[112.1718615,23.8788111]]},"properties":{"key":"way:1275225166@detail:448_95","osmType":"way","osmId":1275225166,"sourceRegion":"guangdong","featureType":"infrastructure","railClass":"highspeed","mode":"rail","name":"贵广客专线","nameEn":"Guiguang Passenger Line","ref":"3044","usage":"main","highspeed":"yes","tunnel":"yes","status":"operational","color":"#E54848","dataOrigin":"datum-2026-08-01","sourceKey":"way:1275225166"}},{"type":"Feature","geometry":{"type":"LineString","coordinates":[[112.1718108,23.8787682],[112.1699071,23.8803222]]},"properties":{"key":"way:1275225167@detail:448_95","osmType":"way","osmId":1275225167,"sourceRegion":"guangdong","featureType":"infrastructure","railClass":"highspeed","mode":"rail","name":"贵广客专线","nameEn":"Guiguang Passenger Line","ref":"3044","usage":"main","highspeed":"yes","tunnel":"yes","status":"operational","color":"#E54848","dataOrigin":"datum-2026-08-01","sourceKey":"way:1275225167"}},{"type":"Feature","geometry":{"type":"LineString","coordinates":[[112.1721682,23.8784764],[112.1718108,23.8787682]]},"properties":{"key":"way:1275225168@detail:448_95","osmType":"way","osmId":1275225168,"sourceRegion":"guangdong","featureType":"infrastructure","railClass":"highspeed","mode":"rail","name":"贵广客专线","nameEn":"Guiguang Passenger Line","ref":"3044","usage":"main","highspeed":"yes","status":"operational","color":"#E54848","dataOrigin":"datum-2026-08-01","sourceKey":"way:1275225168"}},{"type":"Feature","geometry":{"type":"LineString","coordinates":[[112.1697283,23.8804682],[112.1668428,23.8828236]]},"properties":{"key":"way:1275225169@detail:448_95","osmType":"way","osmId":1275225169,"sourceRegion":"guangdong","featureType":"infrastructure","railClass":"highspeed","mode":"rail","name":"贵广客专线","nameEn":"Guiguang Passenger Line","ref":"3044","usage":"main","highspeed":"yes","bridge":"yes","status":"operational","color":"#E54848","dataOrigin":"datum-2026-08-01","sourceKey":"way:1275225169"}},{"type":"Feature","geometry":{"type":"LineString","coordinates":[[112.1699071,23.8803222],[112.1697283,23.8804682]]},"properties":{"key":"way:1275225170@detail:448_95","osmType":"way","osmId":1275225170,"sourceRegion":"guangdong","featureType":"infrastructure","railClass":"highspeed","mode":"rail","name":"贵广客专线","nameEn":"Guiguang Passenger Line","ref":"3044","usage":"main","highspeed":"yes","status":"operational","color":"#E54848","dataOrigin":"datum-2026-08-01","sourceKey":"way:1275225170"}},{"type":"Feature","geometry":{"type":"LineString","coordinates":[[112.1697722,23.8805207],[112.1699613,23.8803624]]},"properties":{"key":"way:1275225171@detail:448_95","osmType":"way","osmId":1275225171,"sourceRegion":"guangdong","featureType":"infrastructure","railClass":"highspeed","mode":"rail","name":"贵广客专线","nameEn":"Guiguang Passenger Line","ref":"3044","usage":"main","highspeed":"yes","status":"operational","color":"#E54848","dataOrigin":"datum-2026-08-01","sourceKey":"way:1275225171"}},{"type":"Feature","geometry":{"type":"LineString","coordinates":[[112.1668932,23.8828668],[112.1697722,23.8805207]]},"properties":{"key":"way:1275225172@detail:448_95","osmType":"way","osmId":1275225172,"sourceRegion":"guangdong","featureType":"infrastructure","railClass":"highspeed","mode":"rail","name":"贵广客专线","nameEn":"Guiguang Passenger Line","ref":"3044","usage":"main","highspeed":"yes","bridge":"yes","status":"operational","color":"#E54848","dataOrigin":"datum-2026-08-01","sourceKey":"way:1275225172"}},{"type":"Feature","geometry":{"type":"LineString","coordinates":[[112.1663288,23.8833276],[112.1668932,23.8828668]]},"properties":{"key":"way:1275225173@detail:448_95","osmType":"way","osmId":1275225173,"sourceRegion":"guangdong","featureType":"infrastructure","railClass":"highspeed","mode":"rail","name":"贵广客专线","nameEn":"Guiguang Passenger Line","ref":"3044","usage":"main","highspeed":"yes","status":"operational","color":"#E54848","dataOrigin":"datum-2026-08-01","sourceKey":"way:1275225173"}},{"type":"Feature","geometry":{"type":"LineString","coordinates":[[112.1662843,23.8832794],[112.1647554,23.8845274]]},"properties":{"key":"way:1275225174@detail:448_95","osmType":"way","osmId":1275225174,"sourceRegion":"guangdong","featureType":"infrastructure","railClass":"highspeed","mode":"rail","name":"贵广客专线","nameEn":"Guiguang Passenger Line","ref":"3044","usage":"main","highspeed":"yes","bridge":"yes","status":"operational","color":"#E54848","dataOrigin":"datum-2026-08-01","sourceKey":"way:1275225174"}},{"type":"Feature","geometry":{"type":"LineString","coordinates":[[112.1648057,23.8845708],[112.1663288,23.8833276]]},"properties":{"key":"way:1275225175@detail:448_95","osmType":"way","osmId":1275225175,"sourceRegion":"guangdong","featureType":"infrastructure","railClass":"highspeed","mode":"rail","name":"贵广客专线","nameEn":"Guiguang Passenger Line","ref":"3044","usage":"main","highspeed":"yes","bridge":"yes","status":"operational","color":"#E54848","dataOrigin":"datum-2026-08-01","sourceKey":"way:1275225175"}},{"type":"Feature","geometry":{"type":"LineString","coordinates":[[112.1668428,23.8828236],[112.1662843,23.8832794]]},"properties":{"key":"way:1275225176@detail:448_95","osmType":"way","osmId":1275225176,"sourceRegion":"guangdong","featureType":"infrastructure","railClass":"highspeed","mode":"rail","name":"贵广客专线","nameEn":"Guiguang Passenger Line","ref":"3044","usage":"main","highspeed":"yes","status":"operational","color":"#E54848","dataOrigin":"datum-2026-08-01","sourceKey":"way:1275225176"}},{"type":"Feature","geometry":{"type":"LineString","coordinates":[[112.1647554,23.8845274],[112.1637412,23.8855087]]},"properties":{"key":"way:1275225177@detail:448_95","osmType":"way","osmId":1275225177,"sourceRegion":"guangdong","featureType":"infrastructure","railClass":"highspeed","mode":"rail","name":"贵广客专线","nameEn":"Guiguang Passenger Line","ref":"3044","usage":"main","highspeed":"yes","status":"operational","color":"#E54848","dataOrigin":"datum-2026-08-01","sourceKey":"way:1275225177"}},{"type":"Feature","geometry":{"type":"LineString","coordinates":[[112.1637889,23.8855542],[112.1648057,23.8845708]]},"properties":{"key":"way:1275225178@detail:448_95","osmType":"way","osmId":1275225178,"sourceRegion":"guangdong","featureType":"infrastructure","railClass":"highspeed","mode":"rail","name":"贵广客专线","nameEn":"Guiguang Passenger Line","ref":"3044","usage":"main","highspeed":"yes","status":"operational","color":"#E54848","dataOrigin":"datum-2026-08-01","sourceKey":"way:1275225178"}},{"type":"Feature","geometry":{"type":"LineString","coordinates":[[112.1607592,23.8883586],[112.1610169,23.8881201],[112.1637889,23.8855542]]},"properties":{"key":"way:1275225179@detail:448_95","osmType":"way","osmId":1275225179,"sourceRegion":"guangdong","featureType":"infrastructure","railClass":"highspeed","mode":"rail","name":"贵广客专线","nameEn":"Guiguang Passenger Line","ref":"3044","usage":"main","highspeed":"yes","bridge":"yes","status":"operational","color":"#E54848","dataOrigin":"datum-2026-08-01","sourceKey":"way:1275225179"}},{"type":"Feature","geometry":{"type":"LineString","coordinates":[[112.1637412,23.8855087],[112.1609847,23.8880917],[112.1607234,23.8883366]]},"properties":{"key":"way:1275225180@detail:448_95","osmType":"way","osmId":1275225180,"sourceRegion":"guangdong","featureType":"infrastructure","railClass":"highspeed","mode":"rail","name":"贵广客专线","nameEn":"Guiguang Passenger Line","ref":"3044","usage":"main","highspeed":"yes","bridge":"yes","status":"operational","color":"#E54848","dataOrigin":"datum-2026-08-01","sourceKey":"way:1275225180"}},{"type":"Feature","geometry":{"type":"LineString","coordinates":[[112.1607234,23.8883366],[112.1603836,23.8886676]]},"properties":{"key":"way:1275225181@detail:448_95","osmType":"way","osmId":1275225181,"sourceRegion":"guangdong","featureType":"infrastructure","railClass":"highspeed","mode":"rail","name":"贵广客专线","nameEn":"Guiguang Passenger Line","ref":"3044","usage":"main","highspeed":"yes","status":"operational","color":"#E54848","dataOrigin":"datum-2026-08-01","sourceKey":"way:1275225181"}},{"type":"Feature","geometry":{"type":"LineString","coordinates":[[112.1604096,23.8886957],[112.1607592,23.8883586]]},"properties":{"key":"way:1275225182@detail:448_95","osmType":"way","osmId":1275225182,"sourceRegion":"guangdong","featureType":"infrastructure","railClass":"highspeed","mode":"rail","name":"贵广客专线","nameEn":"Guiguang Passenger Line","ref":"3044","usage":"main","highspeed":"yes","status":"operational","color":"#E54848","dataOrigin":"datum-2026-08-01","sourceKey":"way:1275225182"}},{"type":"Feature","geometry":{"type":"LineString","coordinates":[[112.1567219,23.8920592],[112.1563683,23.8923535]]},"properties":{"key":"way:1275225183@detail:448_95","osmType":"way","osmId":1275225183,"sourceRegion":"guangdong","featureType":"infrastructure","railClass":"minor","mode":"rail","name":"未命名","service":"siding","highspeed":"yes","bridge":"yes","status":"operational","color":"#52636F","dataOrigin":"datum-2026-08-01","sourceKey":"way:1275225183"}},{"type":"Feature","geometry":{"type":"LineString","coordinates":[[112.1563922,23.8923715],[112.1512873,23.8972075],[112.1502602,23.8982589]]},"properties":{"key":"way:1275225184@detail:448_95","osmType":"way","osmId":1275225184,"sourceRegion":"guangdong","featureType":"infrastructure","railClass":"minor","mode":"rail","name":"未命名","service":"siding","highspeed":"yes","status":"operational","color":"#52636F","dataOrigin":"datum-2026-08-01","sourceKey":"way:1275225184"}},{"type":"Feature","geometry":{"type":"LineString","coordinates":[[112.1502919,23.8982898],[112.1513895,23.8972975],[112.1565001,23.8924799]]},"properties":{"key":"way:1275225185@detail:448_95","osmType":"way","osmId":1275225185,"sourceRegion":"guangdong","featureType":"infrastructure","railClass":"minor","mode":"rail","name":"未命名","service":"siding","highspeed":"yes","status":"operational","color":"#52636F","dataOrigin":"datum-2026-08-01","sourceKey":"way:1275225185"}},{"type":"Feature","geometry":{"type":"LineString","coordinates":[[112.156542,23.8925084],[112.1570286,23.8919817]]},"properties":{"key":"way:1275225186@detail:448_95","osmType":"way","osmId":1275225186,"sourceRegion":"guangdong","featureType":"infrastructure","railClass":"minor","mode":"rail","name":"未命名","service":"siding","highspeed":"yes","bridge":"yes","status":"operational","color":"#52636F","dataOrigin":"datum-2026-08-01","sourceKey":"way:1275225186"}},{"type":"Feature","geometry":{"type":"LineString","coordinates":[[112.1590612,23.8899203],[112.160021,23.8890642]]},"properties":{"key":"way:1275225187@detail:448_95","osmType":"way","osmId":1275225187,"sourceRegion":"guangdong","featureType":"infrastructure","railClass":"minor","mode":"rail","name":"未命名","service":"crossover","highspeed":"yes","bridge":"yes","status":"operational","color":"#52636F","dataOrigin":"datum-2026-08-01","sourceKey":"way:1275225187"}},{"type":"Feature","geometry":{"type":"LineString","coordinates":[[112.2413477,23.8288527],[112.2380179,23.8313053],[112.2362215,23.8326284]]},"properties":{"key":"way:1299915569@detail:448_95","osmType":"way","osmId":1299915569,"sourceRegion":"guangdong","featureType":"infrastructure","railClass":"highspeed","mode":"rail","name":"贵广客专线","nameEn":"Guiguang Passenger Line","ref":"3044","usage":"main","highspeed":"yes","bridge":"yes","status":"operational","color":"#E54848","dataOrigin":"datum-2026-08-01","sourceKey":"way:1299915569"}},{"type":"Feature","geometry":{"type":"LineString","coordinates":[[112.2362673,23.8326798],[112.2380233,23.831389],[112.2413891,23.8289148]]},"properties":{"key":"way:1299915570@detail:448_95","osmType":"way","osmId":1299915570,"sourceRegion":"guangdong","featureType":"infrastructure","railClass":"highspeed","mode":"rail","name":"贵广客专线","nameEn":"Guiguang Passenger Line","ref":"3044","usage":"main","highspeed":"yes","bridge":"yes","status":"operational","color":"#E54848","dataOrigin":"datum-2026-08-01","sourceKey":"way:1299915570"}},{"type":"Feature","geometry":{"type":"LineString","coordinates":[[112.2413891,23.8289148],[112.2429034,23.8277826],[112.2436222,23.8272379]]},"properties":{"key":"way:1299915571@detail:448_95","osmType":"way","osmId":1299915571,"sourceRegion":"guangdong","featureType":"infrastructure","railClass":"highspeed","mode":"rail","name":"贵广客专线","nameEn":"Guiguang Passenger Line","ref":"3044","usage":"main","highspeed":"yes","tunnel":"yes","status":"operational","color":"#E54848","dataOrigin":"datum-2026-08-01","sourceKey":"way:1299915571"}},{"type":"Feature","geometry":{"type":"LineString","coordinates":[[112.2435775,23.82719],[112.2428604,23.8277334],[112.2413477,23.8288527]]},"properties":{"key":"way:1299915572@detail:448_95","osmType":"way","osmId":1299915572,"sourceRegion":"guangdong","featureType":"infrastructure","railClass":"highspeed","mode":"rail","name":"贵广客专线","nameEn":"Guiguang Passenger Line","ref":"3044","usage":"main","highspeed":"yes","tunnel":"yes","status":"operational","color":"#E54848","dataOrigin":"datum-2026-08-01","sourceKey":"way:1299915572"}}]}