{"type":"FeatureCollection","features":[{"type":"Feature","geometry":{"type":"LineString","coordinates":[[112.0,24.019966796245132],[112.0012856,24.0188596],[112.0028803,24.0173356],[112.0060403,24.0141076]]},"properties":{"key":"way:316056735@detail:448_96","osmType":"way","osmId":316056735,"sourceRegion":"guangdong","featureType":"infrastructure","railClass":"highspeed","mode":"rail","name":"贵广客专线","nameEn":"Guiguang Passenger Line","ref":"3044","usage":"main","highspeed":"yes","bridge":"viaduct","status":"operational","color":"#E54848","dataOrigin":"datum-2026-08-01","sourceKey":"way:316056735"}},{"type":"Feature","geometry":{"type":"LineString","coordinates":[[112.0077854,24.0123232],[112.0097672,24.0102968]]},"properties":{"key":"way:316056736@detail:448_96","osmType":"way","osmId":316056736,"sourceRegion":"guangdong","featureType":"infrastructure","railClass":"highspeed","mode":"rail","name":"贵广客专线","nameEn":"Guiguang Passenger Line","ref":"3044","usage":"main","highspeed":"yes","status":"operational","color":"#E54848","dataOrigin":"datum-2026-08-01","sourceKey":"way:316056736"}},{"type":"Feature","geometry":{"type":"LineString","coordinates":[[112.0060403,24.0141076],[112.0072853,24.0128299]]},"properties":{"key":"way:316056737@detail:448_96","osmType":"way","osmId":316056737,"sourceRegion":"guangdong","featureType":"infrastructure","railClass":"highspeed","mode":"rail","name":"贵广客专线","nameEn":"Guiguang Passenger Line","ref":"3044","usage":"main","highspeed":"yes","status":"operational","color":"#E54848","dataOrigin":"datum-2026-08-01","sourceKey":"way:316056737"}},{"type":"Feature","geometry":{"type":"LineString","coordinates":[[112.0072853,24.0128299],[112.0077854,24.0123232]]},"properties":{"key":"way:316056740@detail:448_96","osmType":"way","osmId":316056740,"sourceRegion":"guangdong","featureType":"infrastructure","railClass":"highspeed","mode":"rail","name":"贵广客专线","nameEn":"Guiguang Passenger Line","ref":"3044","usage":"main","highspeed":"yes","bridge":"viaduct","status":"operational","color":"#E54848","dataOrigin":"datum-2026-08-01","sourceKey":"way:316056740"}},{"type":"Feature","geometry":{"type":"LineString","coordinates":[[112.0107109,24.009333],[112.013897,24.00608]]},"properties":{"key":"way:316056743@detail:448_96","osmType":"way","osmId":316056743,"sourceRegion":"guangdong","featureType":"infrastructure","railClass":"highspeed","mode":"rail","name":"贵广客专线","nameEn":"Guiguang Passenger Line","ref":"3044","usage":"main","highspeed":"yes","status":"operational","color":"#E54848","dataOrigin":"datum-2026-08-01","sourceKey":"way:316056743"}},{"type":"Feature","geometry":{"type":"LineString","coordinates":[[112.0097672,24.0102968],[112.0107109,24.009333]]},"properties":{"key":"way:316056778@detail:448_96","osmType":"way","osmId":316056778,"sourceRegion":"guangdong","featureType":"infrastructure","railClass":"highspeed","mode":"rail","name":"贵广客专线","nameEn":"Guiguang Passenger Line","ref":"3044","usage":"main","highspeed":"yes","bridge":"viaduct","status":"operational","color":"#E54848","dataOrigin":"datum-2026-08-01","sourceKey":"way:316056778"}},{"type":"Feature","geometry":{"type":"LineString","coordinates":[[112.013897,24.00608],[112.0149568,24.0049979],[112.0176422,24.002247],[112.01967111947599,24.0]]},"properties":{"key":"way:316056794@detail:448_96","osmType":"way","osmId":316056794,"sourceRegion":"guangdong","featureType":"infrastructure","railClass":"highspeed","mode":"rail","name":"贵广客专线","nameEn":"Guiguang Passenger Line","ref":"3044","usage":"main","highspeed":"yes","bridge":"viaduct","status":"operational","color":"#E54848","dataOrigin":"datum-2026-08-01","sourceKey":"way:316056794"}},{"type":"Feature","geometry":{"type":"LineString","coordinates":[[112.0059889,24.0140657],[112.0028297,24.0172929],[112.0012371,24.018815],[112.0,24.01988037805905]]},"properties":{"key":"way:631438863@detail:448_96","osmType":"way","osmId":631438863,"sourceRegion":"guangdong","featureType":"infrastructure","railClass":"highspeed","mode":"rail","name":"贵广客专线","nameEn":"Guiguang Passenger Line","ref":"3044","usage":"main","highspeed":"yes","bridge":"viaduct","status":"operational","color":"#E54848","dataOrigin":"datum-2026-08-01","sourceKey":"way:631438863"}},{"type":"Feature","geometry":{"type":"LineString","coordinates":[[112.007234,24.0127879],[112.0059889,24.0140657]]},"properties":{"key":"way:631438870@detail:448_96","osmType":"way","osmId":631438870,"sourceRegion":"guangdong","featureType":"infrastructure","railClass":"highspeed","mode":"rail","name":"贵广客专线","nameEn":"Guiguang Passenger Line","ref":"3044","usage":"main","highspeed":"yes","status":"operational","color":"#E54848","dataOrigin":"datum-2026-08-01","sourceKey":"way:631438870"}},{"type":"Feature","geometry":{"type":"LineString","coordinates":[[112.0077341,24.0122812],[112.007234,24.0127879]]},"properties":{"key":"way:631438875@detail:448_96","osmType":"way","osmId":631438875,"sourceRegion":"guangdong","featureType":"infrastructure","railClass":"highspeed","mode":"rail","name":"贵广客专线","nameEn":"Guiguang Passenger Line","ref":"3044","usage":"main","highspeed":"yes","bridge":"viaduct","status":"operational","color":"#E54848","dataOrigin":"datum-2026-08-01","sourceKey":"way:631438875"}},{"type":"Feature","geometry":{"type":"LineString","coordinates":[[112.0097159,24.0102549],[112.0077341,24.0122812]]},"properties":{"key":"way:631438881@detail:448_96","osmType":"way","osmId":631438881,"sourceRegion":"guangdong","featureType":"infrastructure","railClass":"highspeed","mode":"rail","name":"贵广客专线","nameEn":"Guiguang Passenger Line","ref":"3044","usage":"main","highspeed":"yes","status":"operational","color":"#E54848","dataOrigin":"datum-2026-08-01","sourceKey":"way:631438881"}},{"type":"Feature","geometry":{"type":"LineString","coordinates":[[112.0106596,24.0092911],[112.0097159,24.0102549]]},"properties":{"key":"way:631438886@detail:448_96","osmType":"way","osmId":631438886,"sourceRegion":"guangdong","featureType":"infrastructure","railClass":"highspeed","mode":"rail","name":"贵广客专线","nameEn":"Guiguang Passenger Line","ref":"3044","usage":"main","highspeed":"yes","bridge":"viaduct","status":"operational","color":"#E54848","dataOrigin":"datum-2026-08-01","sourceKey":"way:631438886"}},{"type":"Feature","geometry":{"type":"LineString","coordinates":[[112.0138457,24.0060381],[112.0106596,24.0092911]]},"properties":{"key":"way:631438892@detail:448_96","osmType":"way","osmId":631438892,"sourceRegion":"guangdong","featureType":"infrastructure","railClass":"highspeed","mode":"rail","name":"贵广客专线","nameEn":"Guiguang Passenger Line","ref":"3044","usage":"main","highspeed":"yes","status":"operational","color":"#E54848","dataOrigin":"datum-2026-08-01","sourceKey":"way:631438892"}},{"type":"Feature","geometry":{"type":"LineString","coordinates":[[112.0195817935776,24.0],[112.0175899,24.002206],[112.0149054,24.004956],[112.0138457,24.0060381]]},"properties":{"key":"way:631438898@detail:448_96","osmType":"way","osmId":631438898,"sourceRegion":"guangdong","featureType":"infrastructure","railClass":"highspeed","mode":"rail","name":"贵广客专线","nameEn":"Guiguang Passenger Line","ref":"3044","usage":"main","highspeed":"yes","bridge":"viaduct","status":"operational","color":"#E54848","dataOrigin":"datum-2026-08-01","sourceKey":"way:631438898"}}]}