{"type":"FeatureCollection","features":[{"type":"Feature","geometry":{"type":"Point","coordinates":[112.2403918,22.0860164]},"properties":{"key":"node:9192805738","osmType":"node","osmId":9192805738,"sourceRegion":"guangdong","featureType":"station","railClass":"minor","mode":"station","name":"大槐","nameEn":"Dahuai","status":"operational","color":"#52636F","dataOrigin":"datum-2026-08-01","sourceKey":"node:9192805738","stationGroup":"大槐","hasOperationalRail":true,"hasConstructionRail":false}},{"type":"Feature","geometry":{"type":"LineString","coordinates":[[112.2040021,22.0267934],[112.2031438,22.0255004],[112.2026288,22.0247545],[112.2014701,22.0234317],[112.2003651,22.0222779],[112.1987772,22.020796],[112.1973503,22.0195726]]},"properties":{"key":"way:570573119@detail:448_88","osmType":"way","osmId":570573119,"sourceRegion":"guangdong","featureType":"infrastructure","railClass":"highspeed","mode":"rail","name":"深湛线","nameEn":"Shenzhen-Zhanjiang Railway","ref":"3071","operator":"中国铁路广州局集团有限公司","usage":"main","highspeed":"yes","tunnel":"yes","status":"operational","color":"#E54848","dataOrigin":"datum-2026-08-01","sourceKey":"way:570573119"}},{"type":"Feature","geometry":{"type":"LineString","coordinates":[[112.25,22.10230536281071],[112.2495675,22.1017145],[112.2480547,22.0994282],[112.247223,22.0981579],[112.2467525,22.09734],[112.2459791,22.0960587],[112.2451616,22.0946312],[112.2434201,22.0917838],[112.2432853,22.091538],[112.2428738,22.0908258],[112.2427509,22.090606],[112.2419426,22.0892173],[112.2405682,22.0869119],[112.2394688,22.0850609],[112.2385195,22.0834627],[112.2368889,22.0806871],[112.2364673,22.0799863],[112.2361918,22.0795422],[112.2347611,22.0771295]]},"properties":{"key":"way:570573120@detail:448_88","osmType":"way","osmId":570573120,"sourceRegion":"guangdong","featureType":"infrastructure","railClass":"highspeed","mode":"rail","name":"深湛线","nameEn":"Shenzhen-Zhanjiang Railway","ref":"3071","operator":"中国铁路广州局集团有限公司","usage":"main","highspeed":"yes","status":"operational","color":"#E54848","dataOrigin":"datum-2026-08-01","sourceKey":"way:570573120"}},{"type":"Feature","geometry":{"type":"LineString","coordinates":[[112.25,22.102384800895628],[112.2495271,22.1017387],[112.2480131,22.0994505],[112.2471827,22.0981892],[112.2466408,22.0972545],[112.2459582,22.0961103],[112.2458423,22.0959125],[112.2451079,22.0946449],[112.243783,22.0924629],[112.2433752,22.0917914],[112.243023,22.0911938],[112.2428398,22.0908606],[112.2427091,22.0906246],[112.2421189,22.0896073],[112.2418894,22.0892315],[112.2410769,22.0878388],[112.2405242,22.0869315],[112.2394801,22.0851826],[112.2384814,22.0834903],[112.2377509,22.082243],[112.2371239,22.0811836],[112.2367793,22.0806165],[112.2367092,22.0805011],[112.2364155,22.0799953],[112.2361527,22.079566],[112.2346775,22.0771473]]},"properties":{"key":"way:627789198@detail:448_88","osmType":"way","osmId":627789198,"sourceRegion":"guangdong","featureType":"infrastructure","railClass":"highspeed","mode":"rail","name":"深湛线","nameEn":"Shenzhen-Zhanjiang Railway","ref":"3071","operator":"中国铁路广州局集团有限公司","usage":"main","highspeed":"yes","status":"operational","color":"#E54848","dataOrigin":"datum-2026-08-01","sourceKey":"way:627789198"}},{"type":"Feature","geometry":{"type":"LineString","coordinates":[[112.2039605,22.0268157],[112.2031031,22.0255241],[112.2025898,22.0247806],[112.2014334,22.0234606],[112.20033,22.0223084],[112.1987438,22.0208281],[112.1973179,22.0196056]]},"properties":{"key":"way:627789203@detail:448_88","osmType":"way","osmId":627789203,"sourceRegion":"guangdong","featureType":"infrastructure","railClass":"highspeed","mode":"rail","name":"深湛线","nameEn":"Shenzhen-Zhanjiang Railway","ref":"3071","operator":"中国铁路广州局集团有限公司","usage":"main","highspeed":"yes","tunnel":"yes","status":"operational","color":"#E54848","dataOrigin":"datum-2026-08-01","sourceKey":"way:627789203"}},{"type":"Feature","geometry":{"type":"LineString","coordinates":[[112.1973503,22.0195726],[112.1952259,22.0178121],[112.1931231,22.0161212],[112.1898723,22.0134456],[112.1891191,22.0127991]]},"properties":{"key":"way:958441653@detail:448_88","osmType":"way","osmId":958441653,"sourceRegion":"guangdong","featureType":"infrastructure","railClass":"highspeed","mode":"rail","name":"深湛线","nameEn":"Shenzhen-Zhanjiang Railway","ref":"3071","operator":"中国铁路广州局集团有限公司","usage":"main","highspeed":"yes","status":"operational","color":"#E54848","dataOrigin":"datum-2026-08-01","sourceKey":"way:958441653"}},{"type":"Feature","geometry":{"type":"LineString","coordinates":[[112.1797857,22.0062367],[112.1775955,22.0049038]]},"properties":{"key":"way:958441654@detail:448_88","osmType":"way","osmId":958441654,"sourceRegion":"guangdong","featureType":"infrastructure","railClass":"highspeed","mode":"rail","name":"深湛线","nameEn":"Shenzhen-Zhanjiang Railway","ref":"3071","operator":"中国铁路广州局集团有限公司","usage":"main","highspeed":"yes","bridge":"yes","status":"operational","color":"#E54848","dataOrigin":"datum-2026-08-01","sourceKey":"way:958441654"}},{"type":"Feature","geometry":{"type":"LineString","coordinates":[[112.1973179,22.0196056],[112.1951941,22.0178456],[112.1930914,22.0161547],[112.1898404,22.013479],[112.1890444,22.0128445]]},"properties":{"key":"way:958441655@detail:448_88","osmType":"way","osmId":958441655,"sourceRegion":"guangdong","featureType":"infrastructure","railClass":"highspeed","mode":"rail","name":"深湛线","nameEn":"Shenzhen-Zhanjiang Railway","ref":"3071","operator":"中国铁路广州局集团有限公司","usage":"main","highspeed":"yes","status":"operational","color":"#E54848","dataOrigin":"datum-2026-08-01","sourceKey":"way:958441655"}},{"type":"Feature","geometry":{"type":"LineString","coordinates":[[112.1797463,22.0062834],[112.1775465,22.0049513]]},"properties":{"key":"way:958441656@detail:448_88","osmType":"way","osmId":958441656,"sourceRegion":"guangdong","featureType":"infrastructure","railClass":"highspeed","mode":"rail","name":"深湛线","nameEn":"Shenzhen-Zhanjiang Railway","ref":"3071","operator":"中国铁路广州局集团有限公司","usage":"main","highspeed":"yes","bridge":"yes","status":"operational","color":"#E54848","dataOrigin":"datum-2026-08-01","sourceKey":"way:958441656"}},{"type":"Feature","geometry":{"type":"LineString","coordinates":[[112.1854412,22.0099045],[112.1839285,22.0088601],[112.1827912,22.0081439],[112.1807635,22.0068309],[112.1797857,22.0062367]]},"properties":{"key":"way:958441657@detail:448_88","osmType":"way","osmId":958441657,"sourceRegion":"guangdong","featureType":"infrastructure","railClass":"highspeed","mode":"rail","name":"深湛线","nameEn":"Shenzhen-Zhanjiang Railway","ref":"3071","operator":"中国铁路广州局集团有限公司","usage":"main","highspeed":"yes","status":"operational","color":"#E54848","dataOrigin":"datum-2026-08-01","sourceKey":"way:958441657"}},{"type":"Feature","geometry":{"type":"LineString","coordinates":[[112.1891191,22.0127991],[112.1854412,22.0099045]]},"properties":{"key":"way:958441658@detail:448_88","osmType":"way","osmId":958441658,"sourceRegion":"guangdong","featureType":"infrastructure","railClass":"highspeed","mode":"rail","name":"深湛线","nameEn":"Shenzhen-Zhanjiang Railway","ref":"3071","operator":"中国铁路广州局集团有限公司","usage":"main","highspeed":"yes","bridge":"yes","status":"operational","color":"#E54848","dataOrigin":"datum-2026-08-01","sourceKey":"way:958441658"}},{"type":"Feature","geometry":{"type":"LineString","coordinates":[[112.1853817,22.0099477],[112.1839006,22.0088964],[112.1827639,22.0081806],[112.1807363,22.0068677],[112.1797463,22.0062834]]},"properties":{"key":"way:958441659@detail:448_88","osmType":"way","osmId":958441659,"sourceRegion":"guangdong","featureType":"infrastructure","railClass":"highspeed","mode":"rail","name":"深湛线","nameEn":"Shenzhen-Zhanjiang Railway","ref":"3071","operator":"中国铁路广州局集团有限公司","usage":"main","highspeed":"yes","status":"operational","color":"#E54848","dataOrigin":"datum-2026-08-01","sourceKey":"way:958441659"}},{"type":"Feature","geometry":{"type":"LineString","coordinates":[[112.1890444,22.0128445],[112.1853817,22.0099477]]},"properties":{"key":"way:958441660@detail:448_88","osmType":"way","osmId":958441660,"sourceRegion":"guangdong","featureType":"infrastructure","railClass":"highspeed","mode":"rail","name":"深湛线","nameEn":"Shenzhen-Zhanjiang Railway","ref":"3071","operator":"中国铁路广州局集团有限公司","usage":"main","highspeed":"yes","bridge":"yes","status":"operational","color":"#E54848","dataOrigin":"datum-2026-08-01","sourceKey":"way:958441660"}},{"type":"Feature","geometry":{"type":"LineString","coordinates":[[112.2051405,22.0287742],[112.2040021,22.0267934]]},"properties":{"key":"way:958441661@detail:448_88","osmType":"way","osmId":958441661,"sourceRegion":"guangdong","featureType":"infrastructure","railClass":"highspeed","mode":"rail","name":"深湛线","nameEn":"Shenzhen-Zhanjiang Railway","ref":"3071","operator":"中国铁路广州局集团有限公司","usage":"main","highspeed":"yes","status":"operational","color":"#E54848","dataOrigin":"datum-2026-08-01","sourceKey":"way:958441661"}},{"type":"Feature","geometry":{"type":"LineString","coordinates":[[112.2118583,22.041177],[112.2111033,22.0398051],[112.2106035,22.0388647],[112.2102625,22.0382523],[112.2096377,22.0371098],[112.2089979,22.0358801],[112.2072477,22.0326834],[112.2053416,22.029138],[112.2051405,22.0287742]]},"properties":{"key":"way:958441662@detail:448_88","osmType":"way","osmId":958441662,"sourceRegion":"guangdong","featureType":"infrastructure","railClass":"highspeed","mode":"rail","name":"深湛线","nameEn":"Shenzhen-Zhanjiang Railway","ref":"3071","operator":"中国铁路广州局集团有限公司","usage":"main","highspeed":"yes","bridge":"yes","status":"operational","color":"#E54848","dataOrigin":"datum-2026-08-01","sourceKey":"way:958441662"}},{"type":"Feature","geometry":{"type":"LineString","coordinates":[[112.2050932,22.028799],[112.2049646,22.028565],[112.2039605,22.0268157]]},"properties":{"key":"way:958441663@detail:448_88","osmType":"way","osmId":958441663,"sourceRegion":"guangdong","featureType":"infrastructure","railClass":"highspeed","mode":"rail","name":"深湛线","nameEn":"Shenzhen-Zhanjiang Railway","ref":"3071","operator":"中国铁路广州局集团有限公司","usage":"main","highspeed":"yes","status":"operational","color":"#E54848","dataOrigin":"datum-2026-08-01","sourceKey":"way:958441663"}},{"type":"Feature","geometry":{"type":"LineString","coordinates":[[112.2118105,22.0411873],[112.2115995,22.0408169],[112.2110953,22.0398927],[112.2106042,22.0389736],[112.2101037,22.0380649],[112.2095936,22.0371294],[112.2089459,22.0359222],[112.2079861,22.0341512],[112.2072322,22.0327557],[112.2067295,22.0318649],[112.2058376,22.0302067],[112.2054902,22.0295352],[112.2050932,22.028799]]},"properties":{"key":"way:958441664@detail:448_88","osmType":"way","osmId":958441664,"sourceRegion":"guangdong","featureType":"infrastructure","railClass":"highspeed","mode":"rail","name":"深湛线","nameEn":"Shenzhen-Zhanjiang Railway","ref":"3071","operator":"中国铁路广州局集团有限公司","usage":"main","highspeed":"yes","bridge":"yes","status":"operational","color":"#E54848","dataOrigin":"datum-2026-08-01","sourceKey":"way:958441664"}},{"type":"Feature","geometry":{"type":"LineString","coordinates":[[112.1775465,22.0049513],[112.1746098,22.0030577],[112.1728384,22.0018633],[112.1714198,22.0008767],[112.17042021750626,22.0]]},"properties":{"key":"way:1426185893@detail:448_88","osmType":"way","osmId":1426185893,"sourceRegion":"guangdong","featureType":"infrastructure","railClass":"highspeed","mode":"rail","name":"深湛线","nameEn":"Shenzhen-Zhanjiang Railway","ref":"3071","operator":"中国铁路广州局集团有限公司","usage":"main","highspeed":"yes","status":"operational","color":"#E54848","dataOrigin":"datum-2026-08-01","sourceKey":"way:1426185893"}},{"type":"Feature","geometry":{"type":"LineString","coordinates":[[112.1775955,22.0049038],[112.1746373,22.0030211],[112.172867,22.0018274],[112.1714508,22.0008426],[112.17049016218856,22.0]]},"properties":{"key":"way:1426185894@detail:448_88","osmType":"way","osmId":1426185894,"sourceRegion":"guangdong","featureType":"infrastructure","railClass":"highspeed","mode":"rail","name":"深湛线","nameEn":"Shenzhen-Zhanjiang Railway","ref":"3071","operator":"中国铁路广州局集团有限公司","usage":"main","highspeed":"yes","status":"operational","color":"#E54848","dataOrigin":"datum-2026-08-01","sourceKey":"way:1426185894"}},{"type":"Feature","geometry":{"type":"LineString","coordinates":[[112.2327244,22.0740386],[112.231718,22.0725616],[112.2299061,22.0703061],[112.2280607,22.0680591],[112.2266762,22.0663284],[112.2252602,22.0644892],[112.2243154,22.063345],[112.2236057,22.0623286],[112.2225964,22.0607463],[112.2215871,22.0590744],[112.2209,22.0577908],[112.218132,22.0527098],[112.2161413,22.0491344],[112.2123965,22.0422732],[112.2118105,22.0411873]]},"properties":{"key":"way:1473278774@detail:448_88","osmType":"way","osmId":1473278774,"sourceRegion":"guangdong","featureType":"infrastructure","railClass":"highspeed","mode":"rail","name":"深湛线","nameEn":"Shenzhen-Zhanjiang Railway","ref":"3071","operator":"中国铁路广州局集团有限公司","usage":"main","highspeed":"yes","status":"operational","color":"#E54848","dataOrigin":"datum-2026-08-01","sourceKey":"way:1473278774"}},{"type":"Feature","geometry":{"type":"LineString","coordinates":[[112.2346775,22.0771473],[112.2327244,22.0740386]]},"properties":{"key":"way:1473278775@detail:448_88","osmType":"way","osmId":1473278775,"sourceRegion":"guangdong","featureType":"infrastructure","railClass":"highspeed","mode":"rail","name":"深湛线","nameEn":"Shenzhen-Zhanjiang Railway","ref":"3071","operator":"中国铁路广州局集团有限公司","usage":"main","highspeed":"yes","bridge":"yes","status":"operational","color":"#E54848","dataOrigin":"datum-2026-08-01","sourceKey":"way:1473278775"}},{"type":"Feature","geometry":{"type":"LineString","coordinates":[[112.2327677,22.0740206],[112.2317576,22.0725363],[112.2299445,22.0702793],[112.2280991,22.0680323],[112.2267151,22.0663022],[112.2252989,22.0644627],[112.2243547,22.0633193],[112.2236466,22.0623051],[112.2226381,22.0607241],[112.2216296,22.0590536],[112.220943,22.0577709],[112.2181749,22.0526897],[112.2161745,22.0491038],[112.2144356,22.0458515],[112.2135662,22.0442947],[112.2118583,22.041177]]},"properties":{"key":"way:1473278776@detail:448_88","osmType":"way","osmId":1473278776,"sourceRegion":"guangdong","featureType":"infrastructure","railClass":"highspeed","mode":"rail","name":"深湛线","nameEn":"Shenzhen-Zhanjiang Railway","ref":"3071","operator":"中国铁路广州局集团有限公司","usage":"main","highspeed":"yes","status":"operational","color":"#E54848","dataOrigin":"datum-2026-08-01","sourceKey":"way:1473278776"}},{"type":"Feature","geometry":{"type":"LineString","coordinates":[[112.2347611,22.0771295],[112.2327677,22.0740206]]},"properties":{"key":"way:1473278777@detail:448_88","osmType":"way","osmId":1473278777,"sourceRegion":"guangdong","featureType":"infrastructure","railClass":"highspeed","mode":"rail","name":"深湛线","nameEn":"Shenzhen-Zhanjiang Railway","ref":"3071","operator":"中国铁路广州局集团有限公司","usage":"main","highspeed":"yes","bridge":"yes","status":"operational","color":"#E54848","dataOrigin":"datum-2026-08-01","sourceKey":"way:1473278777"}},{"type":"Feature","geometry":{"type":"LineString","coordinates":[[112.2385195,22.0834627],[112.2387672,22.083794],[112.2389558,22.0840674],[112.2394345,22.0849011],[112.2396409,22.0852604],[112.2398376,22.0855707],[112.240392,22.0865068],[112.2406496,22.0869429],[112.2408601,22.0872871],[112.2410528,22.087629],[112.2415599,22.0884741],[112.2417794,22.0888303],[112.2420177,22.0892149],[112.2422828,22.0896536],[112.2426009,22.0902189],[112.2428552,22.0906927],[112.2429479,22.0908598],[112.2430129,22.0909867],[112.2431332,22.0912335],[112.2432853,22.091538]]},"properties":{"key":"way:1483751304@detail:448_88","osmType":"way","osmId":1483751304,"sourceRegion":"guangdong","featureType":"infrastructure","railClass":"minor","mode":"rail","name":"未命名","service":"siding","status":"operational","color":"#52636F","dataOrigin":"datum-2026-08-01","sourceKey":"way:1483751304"}},{"type":"Feature","geometry":{"type":"LineString","coordinates":[[112.2440091,22.0929382],[112.2434222,22.0919879]]},"properties":{"key":"way:1483751305@detail:448_88","osmType":"way","osmId":1483751305,"sourceRegion":"guangdong","featureType":"infrastructure","railClass":"minor","mode":"rail","name":"未命名","service":"siding","status":"operational","color":"#52636F","dataOrigin":"datum-2026-08-01","sourceKey":"way:1483751305"}},{"type":"Feature","geometry":{"type":"LineString","coordinates":[[112.2434222,22.0919879],[112.2432751,22.0917584],[112.2431306,22.0915032],[112.2430084,22.0912881],[112.242973,22.0912258],[112.242812,22.090948],[112.2426352,22.090621],[112.2424759,22.0903246],[112.2422446,22.0899229],[112.2417438,22.0890784],[112.2416025,22.0888412],[112.2409767,22.0877966],[112.2406752,22.0872955],[112.24048,22.0869851],[112.2403107,22.0867001],[112.2399077,22.0859958],[112.23928,22.0849572],[112.239006,22.0844577],[112.2387512,22.0840342],[112.2384881,22.0836042],[112.238203,22.0831319],[112.2379918,22.0827602],[112.2379469,22.0826813],[112.2377503,22.0823751],[112.2376168,22.0821672],[112.2372933,22.0816188],[112.2369903,22.0810962],[112.2366322,22.0804884],[112.236574,22.0803942],[112.2352977,22.0783255],[112.2346114,22.0771568]]},"properties":{"key":"way:1483751306@detail:448_88","osmType":"way","osmId":1483751306,"sourceRegion":"guangdong","featureType":"infrastructure","railClass":"minor","mode":"rail","name":"未命名","service":"siding","status":"operational","color":"#52636F","dataOrigin":"datum-2026-08-01","sourceKey":"way:1483751306"}},{"type":"Feature","geometry":{"type":"LineString","coordinates":[[112.2430084,22.0912881],[112.2428588,22.0910763],[112.2426391,22.0907076],[112.2423854,22.0902746],[112.2421699,22.0899055],[112.2418205,22.0892984],[112.2416313,22.0889852],[112.2414236,22.0886406],[112.241202,22.0882773],[112.240783,22.0875704],[112.2404488,22.0870069],[112.2401153,22.0864593],[112.2396931,22.0857318],[112.2392747,22.0850314],[112.2390728,22.0846717],[112.2388169,22.084245],[112.238696,22.0840341],[112.2385365,22.0837151],[112.2384881,22.0836042]]},"properties":{"key":"way:1483751307@detail:448_88","osmType":"way","osmId":1483751307,"sourceRegion":"guangdong","featureType":"infrastructure","railClass":"minor","mode":"rail","name":"未命名","service":"siding","status":"operational","color":"#52636F","dataOrigin":"datum-2026-08-01","sourceKey":"way:1483751307"}},{"type":"Feature","geometry":{"type":"LineString","coordinates":[[112.236574,22.0803942],[112.2367793,22.0806165]]},"properties":{"key":"way:1483751308@detail:448_88","osmType":"way","osmId":1483751308,"sourceRegion":"guangdong","featureType":"infrastructure","railClass":"minor","mode":"rail","name":"未命名","service":"crossover","status":"operational","color":"#52636F","dataOrigin":"datum-2026-08-01","sourceKey":"way:1483751308"}},{"type":"Feature","geometry":{"type":"LineString","coordinates":[[112.2377509,22.082243],[112.2379918,22.0827602]]},"properties":{"key":"way:1483751309@detail:448_88","osmType":"way","osmId":1483751309,"sourceRegion":"guangdong","featureType":"infrastructure","railClass":"minor","mode":"rail","name":"未命名","service":"crossover","status":"operational","color":"#52636F","dataOrigin":"datum-2026-08-01","sourceKey":"way:1483751309"}},{"type":"Feature","geometry":{"type":"LineString","coordinates":[[112.243783,22.0924629],[112.2434222,22.0919879]]},"properties":{"key":"way:1483812428@detail:448_88","osmType":"way","osmId":1483812428,"sourceRegion":"guangdong","featureType":"infrastructure","railClass":"minor","mode":"rail","name":"未命名","service":"crossover","status":"operational","color":"#52636F","dataOrigin":"datum-2026-08-01","sourceKey":"way:1483812428"}},{"type":"Feature","geometry":{"type":"LineString","coordinates":[[112.2377503,22.0823751],[112.2380303,22.0830107]]},"properties":{"key":"way:1536144864@detail:448_88","osmType":"way","osmId":1536144864,"sourceRegion":"guangdong","featureType":"infrastructure","railClass":"minor","mode":"rail","name":"未命名","service":"siding","highspeed":"yes","status":"operational","color":"#52636F","dataOrigin":"datum-2026-08-01","sourceKey":"way:1536144864"}}]}