{"type":"FeatureCollection","features":[{"type":"Feature","geometry":{"type":"Point","coordinates":[112.2231776,22.491743]},"properties":{"key":"node:9944071260","osmType":"node","osmId":9944071260,"sourceRegion":"guangdong","featureType":"station","railClass":"minor","mode":"station","name":"梅溪古镇","nameEn":"Mui Kai Old Town","status":"operational","color":"#52636F","dataOrigin":"datum-2026-08-01","sourceKey":"node:9944071260","stationGroup":"梅溪古镇","hasOperationalRail":true,"hasConstructionRail":false}},{"type":"Feature","geometry":{"type":"Point","coordinates":[112.2232274,22.4917851]},"properties":{"key":"node:9944112929","osmType":"node","osmId":9944112929,"sourceRegion":"guangdong","featureType":"station","railClass":"minor","mode":"stop","name":"梅溪古镇","nameEn":"Mui Kai Old Town","status":"operational","color":"#52636F","dataOrigin":"datum-2026-08-01","sourceKey":"node:9944112929","stationGroup":"梅溪古镇","hasOperationalRail":true,"hasConstructionRail":false}},{"type":"Feature","geometry":{"type":"Point","coordinates":[112.2231471,22.4916804]},"properties":{"key":"node:9944112932","osmType":"node","osmId":9944112932,"sourceRegion":"guangdong","featureType":"station","railClass":"minor","mode":"stop","name":"梅溪古镇","nameEn":"Mui Kai Old Town","status":"operational","color":"#52636F","dataOrigin":"datum-2026-08-01","sourceKey":"node:9944112932","stationGroup":"梅溪古镇","hasOperationalRail":true,"hasConstructionRail":false}},{"type":"Feature","geometry":{"type":"Point","coordinates":[112.229402,22.4898013]},"properties":{"key":"node:9944113270","osmType":"node","osmId":9944113270,"sourceRegion":"guangdong","featureType":"station","railClass":"minor","mode":"station","name":"南药园","nameEn":"Nam Yeak Yuen","status":"operational","color":"#52636F","dataOrigin":"datum-2026-08-01","sourceKey":"node:9944113270","stationGroup":"南药园","hasOperationalRail":true,"hasConstructionRail":false}},{"type":"Feature","geometry":{"type":"Point","coordinates":[112.229437,22.4897987]},"properties":{"key":"node:9944113271","osmType":"node","osmId":9944113271,"sourceRegion":"guangdong","featureType":"station","railClass":"minor","mode":"stop","name":"南药园","nameEn":"Nam Yeak Yuen","status":"operational","color":"#52636F","dataOrigin":"datum-2026-08-01","sourceKey":"node:9944113271","stationGroup":"南药园","hasOperationalRail":true,"hasConstructionRail":false}},{"type":"Feature","geometry":{"type":"LineString","coordinates":[[112.2230347,22.4880409],[112.2230813,22.4881763],[112.2230455,22.4884573],[112.2230598,22.4884902],[112.2230795,22.4885233],[112.2234174,22.4886455]]},"properties":{"key":"way:668839324@detail:448_89","osmType":"way","osmId":668839324,"sourceRegion":"guangdong","featureType":"infrastructure","railClass":"minor","mode":"preserved","name":"滑道","status":"operational","color":"#52636F","dataOrigin":"datum-2026-08-01","sourceKey":"way:668839324"}},{"type":"Feature","geometry":{"type":"LineString","coordinates":[[112.0662814,22.4061814],[112.04812,22.3867356],[112.0375968,22.3756279],[112.0225932,22.3597894]]},"properties":{"key":"way:1052867805@detail:448_89","osmType":"way","osmId":1052867805,"sourceRegion":"guangdong","featureType":"infrastructure","railClass":"highspeed","mode":"rail","name":"广湛高速线","nameEn":"Guangzhou-Zhanjiang Railway","usage":"main","highspeed":"yes","tunnel":"yes","status":"operational","color":"#E54848","dataOrigin":"datum-2026-08-01","sourceKey":"way:1052867805"}},{"type":"Feature","geometry":{"type":"LineString","coordinates":[[112.1006403,22.4514441],[112.1004385,22.4511706]]},"properties":{"key":"way:1052867808@detail:448_89","osmType":"way","osmId":1052867808,"sourceRegion":"guangdong","featureType":"infrastructure","railClass":"highspeed","mode":"rail","name":"广湛高速线","nameEn":"Guangzhou-Zhanjiang Railway","usage":"main","highspeed":"yes","status":"operational","color":"#E54848","dataOrigin":"datum-2026-08-01","sourceKey":"way:1052867808"}},{"type":"Feature","geometry":{"type":"LineString","coordinates":[[112.1027731,22.4543105],[112.1006403,22.4514441]]},"properties":{"key":"way:1052867809@detail:448_89","osmType":"way","osmId":1052867809,"sourceRegion":"guangdong","featureType":"infrastructure","railClass":"highspeed","mode":"rail","name":"广湛高速线","nameEn":"Guangzhou-Zhanjiang Railway","usage":"main","highspeed":"yes","tunnel":"yes","status":"operational","color":"#E54848","dataOrigin":"datum-2026-08-01","sourceKey":"way:1052867809"}},{"type":"Feature","geometry":{"type":"LineString","coordinates":[[112.1030137,22.4546155],[112.1027731,22.4543105]]},"properties":{"key":"way:1052867810@detail:448_89","osmType":"way","osmId":1052867810,"sourceRegion":"guangdong","featureType":"infrastructure","railClass":"highspeed","mode":"rail","name":"广湛高速线","nameEn":"Guangzhou-Zhanjiang Railway","usage":"main","highspeed":"yes","status":"operational","color":"#E54848","dataOrigin":"datum-2026-08-01","sourceKey":"way:1052867810"}},{"type":"Feature","geometry":{"type":"LineString","coordinates":[[112.1037587,22.4555693],[112.1030137,22.4546155]]},"properties":{"key":"way:1052867811@detail:448_89","osmType":"way","osmId":1052867811,"sourceRegion":"guangdong","featureType":"infrastructure","railClass":"highspeed","mode":"rail","name":"广湛高速线","nameEn":"Guangzhou-Zhanjiang Railway","usage":"main","highspeed":"yes","tunnel":"yes","status":"operational","color":"#E54848","dataOrigin":"datum-2026-08-01","sourceKey":"way:1052867811"}},{"type":"Feature","geometry":{"type":"LineString","coordinates":[[112.1043166,22.4562913],[112.1037587,22.4555693]]},"properties":{"key":"way:1052867812@detail:448_89","osmType":"way","osmId":1052867812,"sourceRegion":"guangdong","featureType":"infrastructure","railClass":"highspeed","mode":"rail","name":"广湛高速线","nameEn":"Guangzhou-Zhanjiang Railway","usage":"main","highspeed":"yes","bridge":"yes","status":"operational","color":"#E54848","dataOrigin":"datum-2026-08-01","sourceKey":"way:1052867812"}},{"type":"Feature","geometry":{"type":"LineString","coordinates":[[112.106733,22.4599739],[112.1057418,22.4583657],[112.1052837,22.4576642],[112.1048046,22.4569663]]},"properties":{"key":"way:1052867813@detail:448_89","osmType":"way","osmId":1052867813,"sourceRegion":"guangdong","featureType":"infrastructure","railClass":"highspeed","mode":"rail","name":"广湛高速线","nameEn":"Guangzhou-Zhanjiang Railway","usage":"main","highspeed":"yes","bridge":"yes","status":"operational","color":"#E54848","dataOrigin":"datum-2026-08-01","sourceKey":"way:1052867813"}},{"type":"Feature","geometry":{"type":"LineString","coordinates":[[112.1072412,22.4608234],[112.106733,22.4599739]]},"properties":{"key":"way:1052867814@detail:448_89","osmType":"way","osmId":1052867814,"sourceRegion":"guangdong","featureType":"infrastructure","railClass":"highspeed","mode":"rail","name":"广湛高速线","nameEn":"Guangzhou-Zhanjiang Railway","usage":"main","highspeed":"yes","status":"operational","color":"#E54848","dataOrigin":"datum-2026-08-01","sourceKey":"way:1052867814"}},{"type":"Feature","geometry":{"type":"LineString","coordinates":[[112.0196078,22.3564147],[112.0175855,22.3540981],[112.015483,22.3516318],[112.0133564,22.3490412],[112.0062663,22.3401482],[112.0038534,22.3370155],[112.0017908,22.3342366],[112.0,22.331752366993253]]},"properties":{"key":"way:1052867817@detail:448_89","osmType":"way","osmId":1052867817,"sourceRegion":"guangdong","featureType":"infrastructure","railClass":"highspeed","mode":"rail","name":"广湛高速线","nameEn":"Guangzhou-Zhanjiang Railway","usage":"main","highspeed":"yes","tunnel":"yes","status":"operational","color":"#E54848","dataOrigin":"datum-2026-08-01","sourceKey":"way:1052867817"}},{"type":"Feature","geometry":{"type":"LineString","coordinates":[[112.0225932,22.3597894],[112.0196078,22.3564147]]},"properties":{"key":"way:1052867818@detail:448_89","osmType":"way","osmId":1052867818,"sourceRegion":"guangdong","featureType":"infrastructure","railClass":"highspeed","mode":"rail","name":"广湛高速线","nameEn":"Guangzhou-Zhanjiang Railway","usage":"main","highspeed":"yes","bridge":"yes","status":"operational","color":"#E54848","dataOrigin":"datum-2026-08-01","sourceKey":"way:1052867818"}},{"type":"Feature","geometry":{"type":"LineString","coordinates":[[112.1004385,22.4511706],[112.0720646,22.4132772],[112.0710106,22.4119103],[112.0698897,22.4104824],[112.0686825,22.4089819]]},"properties":{"key":"way:1052867819@detail:448_89","osmType":"way","osmId":1052867819,"sourceRegion":"guangdong","featureType":"infrastructure","railClass":"highspeed","mode":"rail","name":"广湛高速线","nameEn":"Guangzhou-Zhanjiang Railway","usage":"main","highspeed":"yes","tunnel":"yes","status":"operational","color":"#E54848","dataOrigin":"datum-2026-08-01","sourceKey":"way:1052867819"}},{"type":"Feature","geometry":{"type":"LineString","coordinates":[[112.0686825,22.4089819],[112.0662814,22.4061814]]},"properties":{"key":"way:1052867820@detail:448_89","osmType":"way","osmId":1052867820,"sourceRegion":"guangdong","featureType":"infrastructure","railClass":"highspeed","mode":"rail","name":"广湛高速线","nameEn":"Guangzhou-Zhanjiang Railway","usage":"main","highspeed":"yes","bridge":"yes","status":"operational","color":"#E54848","dataOrigin":"datum-2026-08-01","sourceKey":"way:1052867820"}},{"type":"Feature","geometry":{"type":"LineString","coordinates":[[112.110727,22.4668791],[112.1072412,22.4608234]]},"properties":{"key":"way:1052867821@detail:448_89","osmType":"way","osmId":1052867821,"sourceRegion":"guangdong","featureType":"infrastructure","railClass":"highspeed","mode":"rail","name":"广湛高速线","nameEn":"Guangzhou-Zhanjiang Railway","usage":"main","highspeed":"yes","bridge":"yes","status":"operational","color":"#E54848","dataOrigin":"datum-2026-08-01","sourceKey":"way:1052867821"}},{"type":"Feature","geometry":{"type":"LineString","coordinates":[[112.2233657,22.4916594],[112.2233328,22.4916705],[112.2233117,22.4916814],[112.2233016,22.4916913],[112.2232919,22.4917018],[112.2232842,22.4917114],[112.2232782,22.4917222],[112.2232339,22.4918006],[112.2232101,22.4918118],[112.2231937,22.4918136]]},"properties":{"key":"way:1085250418@detail:448_89","osmType":"way","osmId":1085250418,"sourceRegion":"guangdong","featureType":"infrastructure","railClass":"minor","mode":"narrow_gauge","name":"未命名","usage":"tourism","service":"siding","status":"operational","color":"#52636F","dataOrigin":"datum-2026-08-01","sourceKey":"way:1085250418"}},{"type":"Feature","geometry":{"type":"MultiLineString","coordinates":[[[112.2233657,22.4916594],[112.2233375,22.4916594],[112.223304,22.4916742]],[[112.223304,22.4916742],[112.2232892,22.4916854],[112.2232812,22.4916941],[112.2232684,22.4917083],[112.2232577,22.4917294],[112.2232463,22.4917535],[112.2232413,22.4917664],[112.2232274,22.4917851],[112.2232074,22.4917981],[112.2231838,22.4918041],[112.2231594,22.4918023],[112.2231372,22.4917929],[112.2231198,22.491777],[112.2231093,22.4917565],[112.223107,22.491734],[112.2231132,22.4917121],[112.2231271,22.4916935],[112.2231471,22.4916804],[112.2231707,22.4916744],[112.2231954,22.4916733],[112.2232172,22.4916792],[112.2232473,22.4916863],[112.2232601,22.4916863],[112.2232762,22.4916817],[112.223304,22.4916742]]]},"properties":{"key":"way:1085250419@detail:448_89","osmType":"way","osmId":1085250419,"sourceRegion":"guangdong","featureType":"infrastructure","railClass":"minor","mode":"narrow_gauge","name":"未命名","usage":"tourism","service":"yard","status":"operational","color":"#52636F","dataOrigin":"datum-2026-08-01","sourceKey":"way:1085250419"}},{"type":"Feature","geometry":{"type":"LineString","coordinates":[[112.2270544,22.4904413],[112.2270116,22.4904549],[112.2269877,22.4904721],[112.2269305,22.4905586],[112.2268905,22.4905788],[112.226749,22.490657],[112.2267081,22.4906673],[112.2266676,22.4906741],[112.2265739,22.4906786],[112.226545,22.4906843]]},"properties":{"key":"way:1085250421@detail:448_89","osmType":"way","osmId":1085250421,"sourceRegion":"guangdong","featureType":"infrastructure","railClass":"minor","mode":"narrow_gauge","name":"天露山小火车铁路","usage":"tourism","status":"operational","color":"#52636F","dataOrigin":"datum-2026-08-01","sourceKey":"way:1085250421"}},{"type":"Feature","geometry":{"type":"LineString","coordinates":[[112.226545,22.4906843],[112.226526,22.4906885],[112.2264925,22.4907034],[112.2264563,22.4907282],[112.2262873,22.4908124],[112.2262135,22.4908248],[112.2261465,22.49081],[112.2259922,22.4907344],[112.2259386,22.4907121],[112.2258916,22.4907022],[112.2258192,22.4907071],[112.2257414,22.4907369],[112.2255296,22.4908546],[112.2253136,22.4909661],[112.225256,22.491028],[112.2252265,22.4910962],[112.225142,22.4913651],[112.2251111,22.4914035],[112.2250816,22.4914233],[112.2250575,22.4914382],[112.2250119,22.4914481],[112.2249971,22.4914493],[112.2249502,22.4914431],[112.2248,22.491344],[112.2246954,22.4912474],[112.2246525,22.4912288],[112.2246015,22.4912226],[112.2245398,22.4912238],[112.2241549,22.4913044],[112.2241013,22.4913217],[112.2240114,22.4914258],[112.2239001,22.4915615],[112.2238733,22.4915763],[112.2238485,22.4915825],[112.223823,22.4915813],[112.2238029,22.4915708],[112.2237023,22.4915218],[112.2236554,22.491507],[112.2236285,22.4915107],[112.2236104,22.4915224],[112.2235923,22.4915497],[112.2235494,22.4916563],[112.2235273,22.4916755],[112.2235025,22.4916804],[112.2234663,22.4916786],[112.2233657,22.4916594]]},"properties":{"key":"way:1085250422@detail:448_89","osmType":"way","osmId":1085250422,"sourceRegion":"guangdong","featureType":"infrastructure","railClass":"minor","mode":"narrow_gauge","name":"天露山小火车铁路","usage":"tourism","status":"operational","color":"#52636F","dataOrigin":"datum-2026-08-01","sourceKey":"way:1085250422"}},{"type":"Feature","geometry":{"type":"LineString","coordinates":[[112.2270785,22.4904296],[112.2270544,22.4904413],[112.2270329,22.4904519],[112.2270034,22.4904828],[112.2269444,22.4905721],[112.2269002,22.4905944],[112.2267567,22.4906737],[112.2267124,22.4906848],[112.2266681,22.4906922],[112.2265773,22.4906833],[112.226545,22.4906843]]},"properties":{"key":"way:1085250423@detail:448_89","osmType":"way","osmId":1085250423,"sourceRegion":"guangdong","featureType":"infrastructure","railClass":"minor","mode":"narrow_gauge","name":"未命名","usage":"tourism","status":"operational","color":"#52636F","dataOrigin":"datum-2026-08-01","sourceKey":"way:1085250423"}},{"type":"Feature","geometry":{"type":"LineString","coordinates":[[112.2292264,22.4911054],[112.2292042,22.4910838],[112.2291727,22.4910528],[112.2291452,22.4910318],[112.229123,22.4910169],[112.2290969,22.4910119],[112.2290634,22.4910082],[112.2290225,22.4910206],[112.2289735,22.4910466],[112.2289575,22.4910559]]},"properties":{"key":"way:1085250424@detail:448_89","osmType":"way","osmId":1085250424,"sourceRegion":"guangdong","featureType":"infrastructure","railClass":"minor","mode":"narrow_gauge","name":"未命名","usage":"tourism","tunnel":"yes","status":"operational","color":"#52636F","dataOrigin":"datum-2026-08-01","sourceKey":"way:1085250424"}},{"type":"Feature","geometry":{"type":"LineString","coordinates":[[112.2293986,22.4913552],[112.2293276,22.4912059],[112.2292645,22.4911427],[112.2292264,22.4911054]]},"properties":{"key":"way:1085250425@detail:448_89","osmType":"way","osmId":1085250425,"sourceRegion":"guangdong","featureType":"infrastructure","railClass":"minor","mode":"narrow_gauge","name":"未命名","usage":"tourism","status":"operational","color":"#52636F","dataOrigin":"datum-2026-08-01","sourceKey":"way:1085250425"}},{"type":"Feature","geometry":{"type":"LineString","coordinates":[[112.2296293,22.4913651],[112.2296052,22.4914146],[112.2295804,22.4914475],[112.2295723,22.4914543],[112.2295307,22.4914642],[112.2295066,22.4914599],[112.2294758,22.4914444],[112.2294436,22.4914196],[112.2293986,22.4913552]]},"properties":{"key":"way:1085250429@detail:448_89","osmType":"way","osmId":1085250429,"sourceRegion":"guangdong","featureType":"infrastructure","railClass":"minor","mode":"narrow_gauge","name":"未命名","usage":"tourism","bridge":"yes","status":"operational","color":"#52636F","dataOrigin":"datum-2026-08-01","sourceKey":"way:1085250429"}},{"type":"Feature","geometry":{"type":"LineString","coordinates":[[112.2302388,22.4913874],[112.2301074,22.491313],[112.2300162,22.4912777],[112.2299378,22.491256],[112.2298694,22.4912474],[112.2297862,22.4912579],[112.2297037,22.4912814],[112.2296568,22.4913198],[112.2296293,22.4913651]]},"properties":{"key":"way:1085250430@detail:448_89","osmType":"way","osmId":1085250430,"sourceRegion":"guangdong","featureType":"infrastructure","railClass":"minor","mode":"narrow_gauge","name":"未命名","usage":"tourism","status":"operational","color":"#52636F","dataOrigin":"datum-2026-08-01","sourceKey":"way:1085250430"}},{"type":"Feature","geometry":{"type":"LineString","coordinates":[[112.2305158,22.4914636],[112.2303957,22.4914419],[112.2302388,22.4913874]]},"properties":{"key":"way:1085250431@detail:448_89","osmType":"way","osmId":1085250431,"sourceRegion":"guangdong","featureType":"infrastructure","railClass":"minor","mode":"narrow_gauge","name":"未命名","usage":"tourism","status":"operational","color":"#52636F","dataOrigin":"datum-2026-08-01","sourceKey":"way:1085250431"}},{"type":"Feature","geometry":{"type":"LineString","coordinates":[[112.2305125,22.4914859],[112.23039,22.4914637],[112.2303474,22.4914523],[112.2302388,22.4913874]]},"properties":{"key":"way:1085250432@detail:448_89","osmType":"way","osmId":1085250432,"sourceRegion":"guangdong","featureType":"infrastructure","railClass":"minor","mode":"narrow_gauge","name":"天露山小火车铁路","usage":"tourism","status":"operational","color":"#52636F","dataOrigin":"datum-2026-08-01","sourceKey":"way:1085250432"}},{"type":"Feature","geometry":{"type":"LineString","coordinates":[[112.2289575,22.4910559],[112.2289024,22.4910875],[112.2288723,22.491085],[112.2288394,22.4910745],[112.2288213,22.4910429],[112.2287442,22.4908955],[112.2286999,22.4908112],[112.2286785,22.4907232],[112.2286651,22.4906873],[112.2286463,22.4906613],[112.2286248,22.4906414],[112.2283941,22.4904754],[112.2283593,22.4904593],[112.2283164,22.4904457],[112.2282694,22.4904258],[112.2282238,22.4904085],[112.2281796,22.4903626],[112.228146,22.4903304],[112.2281165,22.4903081],[112.2280844,22.4903007],[112.2280361,22.4902945],[112.2279878,22.4902945],[112.2279261,22.4902809],[112.2278671,22.4902598],[112.2278027,22.4902363],[112.2277665,22.4902338],[112.2277263,22.4902462],[112.227674,22.4902796],[112.227395,22.4903887],[112.2273253,22.490406],[112.2271456,22.4904184],[112.2270785,22.4904296]]},"properties":{"key":"way:1085250433@detail:448_89","osmType":"way","osmId":1085250433,"sourceRegion":"guangdong","featureType":"infrastructure","railClass":"minor","mode":"narrow_gauge","name":"未命名","usage":"tourism","status":"operational","color":"#52636F","dataOrigin":"datum-2026-08-01","sourceKey":"way:1085250433"}},{"type":"Feature","geometry":{"type":"LineString","coordinates":[[112.2303334,22.4911272],[112.2303884,22.4911612],[112.2306599,22.4912688]]},"properties":{"key":"way:1085250438@detail:448_89","osmType":"way","osmId":1085250438,"sourceRegion":"guangdong","featureType":"infrastructure","railClass":"minor","mode":"narrow_gauge","name":"天露山小火车铁路","usage":"tourism","status":"operational","color":"#52636F","dataOrigin":"datum-2026-08-01","sourceKey":"way:1085250438"}},{"type":"Feature","geometry":{"type":"LineString","coordinates":[[112.2303334,22.4911272],[112.2303979,22.4911406],[112.2306698,22.4912482]]},"properties":{"key":"way:1085250439@detail:448_89","osmType":"way","osmId":1085250439,"sourceRegion":"guangdong","featureType":"infrastructure","railClass":"minor","mode":"narrow_gauge","name":"天露山小火车铁路","usage":"tourism","status":"operational","color":"#52636F","dataOrigin":"datum-2026-08-01","sourceKey":"way:1085250439"}},{"type":"Feature","geometry":{"type":"LineString","coordinates":[[112.2306698,22.4912482],[112.2307293,22.4912718],[112.2307661,22.4912977],[112.2307891,22.491332],[112.2307923,22.4913787],[112.2307872,22.4914056],[112.230764,22.4914493],[112.2307404,22.4914635],[112.2307024,22.4914838],[112.2306692,22.4914928],[112.2306225,22.4914941],[112.2305125,22.4914859]]},"properties":{"key":"way:1085250440@detail:448_89","osmType":"way","osmId":1085250440,"sourceRegion":"guangdong","featureType":"infrastructure","railClass":"minor","mode":"narrow_gauge","name":"天露山小火车铁路","usage":"tourism","bridge":"yes","status":"operational","color":"#52636F","dataOrigin":"datum-2026-08-01","sourceKey":"way:1085250440"}},{"type":"Feature","geometry":{"type":"LineString","coordinates":[[112.2306599,22.4912688],[112.2307169,22.4912913],[112.2307478,22.491313],[112.2307652,22.4913391],[112.2307679,22.4913775],[112.2307639,22.4913985],[112.2307451,22.4914338],[112.2307277,22.4914444],[112.2306928,22.491463],[112.2306653,22.4914704],[112.2306231,22.4914716],[112.2305158,22.4914636]]},"properties":{"key":"way:1085250441@detail:448_89","osmType":"way","osmId":1085250441,"sourceRegion":"guangdong","featureType":"infrastructure","railClass":"minor","mode":"narrow_gauge","name":"天露山小火车铁路","usage":"tourism","bridge":"yes","status":"operational","color":"#52636F","dataOrigin":"datum-2026-08-01","sourceKey":"way:1085250441"}},{"type":"Feature","geometry":{"type":"LineString","coordinates":[[112.229555,22.4898856],[112.2295881,22.4898755],[112.2297373,22.4898348],[112.2297889,22.4898342],[112.2298526,22.4898527],[112.2298922,22.4898812],[112.2299143,22.4899234],[112.2299163,22.4899729],[112.2298922,22.4900262],[112.2297393,22.4901867],[112.229695,22.4902078],[112.2296253,22.4902301],[112.2295421,22.4902412],[112.2294871,22.4902573],[112.2294375,22.4902908],[112.229412,22.4903267],[112.2294094,22.4903763],[112.2294335,22.4904345],[112.2294697,22.4904704],[112.2296669,22.4905758],[112.2297071,22.4906303],[112.2297379,22.490691],[112.2300531,22.4909946],[112.2301778,22.4910714],[112.2303334,22.4911272]]},"properties":{"key":"way:1085250442@detail:448_89","osmType":"way","osmId":1085250442,"sourceRegion":"guangdong","featureType":"infrastructure","railClass":"minor","mode":"narrow_gauge","name":"天露山小火车铁路","usage":"tourism","status":"operational","color":"#52636F","dataOrigin":"datum-2026-08-01","sourceKey":"way:1085250442"}},{"type":"Feature","geometry":{"type":"LineString","coordinates":[[112.229555,22.4898856],[112.2294422,22.4899203],[112.2294147,22.4899243],[112.2293369,22.4899237],[112.2292934,22.4899147],[112.2292578,22.4898896],[112.2292384,22.4898571],[112.2292344,22.4898283],[112.2292367,22.4897939],[112.2292541,22.4897598],[112.229283,22.4897412],[112.2293111,22.4897288],[112.2293393,22.4897282],[112.2293789,22.4897369],[112.2294047,22.4897527],[112.2294245,22.4897765],[112.229437,22.4897987],[112.2294657,22.489849],[112.2294952,22.489872],[112.2295317,22.4898843],[112.229555,22.4898856]]},"properties":{"key":"way:1085250455@detail:448_89","osmType":"way","osmId":1085250455,"sourceRegion":"guangdong","featureType":"infrastructure","railClass":"minor","mode":"narrow_gauge","name":"未命名","usage":"tourism","service":"yard","status":"operational","color":"#52636F","dataOrigin":"datum-2026-08-01","sourceKey":"way:1085250455"}},{"type":"Feature","geometry":{"type":"LineString","coordinates":[[112.2210909,22.4912019],[112.221117,22.4912088],[112.2211415,22.4912062],[112.2211615,22.4911934],[112.2211831,22.4911704],[112.2212101,22.4911293],[112.2212126,22.4910998],[112.2211906,22.4909936],[112.2211974,22.4909679],[112.2212111,22.4909493],[112.2212357,22.4909351],[112.2215091,22.4908641],[112.221557,22.4908443],[112.2215687,22.4908256],[112.2215743,22.4907969],[112.2215752,22.490787],[112.2215665,22.490765],[112.2215617,22.4907579],[112.2215441,22.4907435],[112.2215244,22.4907402],[112.2215008,22.4907386],[112.2214755,22.4907418],[112.2214447,22.4907553],[112.2211556,22.4909369],[112.2210921,22.4909594],[112.2210746,22.4909665],[112.2210026,22.490993],[112.2209422,22.4909995],[112.2208438,22.4910045],[112.220781,22.4909931],[112.2207071,22.4909784],[112.2206437,22.490957],[112.2205864,22.4909343],[112.2205347,22.4909089],[112.2204735,22.4908661],[112.2204039,22.4908038],[112.2203501,22.4907561],[112.2202971,22.4907329],[112.2201799,22.4906971],[112.2201238,22.4906801],[112.2200872,22.4906617],[112.2200002,22.4906152],[112.2199146,22.4905538],[112.2198756,22.4905148],[112.2198433,22.4904779],[112.2198175,22.490455],[112.2198077,22.4904252],[112.2198107,22.4904044],[112.219812,22.4903793],[112.2198118,22.4903504],[112.2197931,22.4903306],[112.2197613,22.490315],[112.219729,22.4903191],[112.2196971,22.4903303],[112.2196795,22.4903537],[112.2196762,22.4903792],[112.2196821,22.4904028]]},"properties":{"key":"way:1100789654@detail:448_89","osmType":"way","osmId":1100789654,"sourceRegion":"guangdong","featureType":"infrastructure","railClass":"minor","mode":"preserved","name":"玻璃漂流滑道","bridge":"yes","status":"operational","color":"#52636F","dataOrigin":"datum-2026-08-01","sourceKey":"way:1100789654"}},{"type":"Feature","geometry":{"type":"LineString","coordinates":[[112.2196821,22.4904028],[112.2196989,22.4904202],[112.2197203,22.4904318],[112.2197459,22.4904358],[112.2197659,22.4904287],[112.2197934,22.4904058],[112.2198049,22.4903842],[112.2198098,22.4903367],[112.2198016,22.4903229],[112.2197811,22.4903116],[112.2197017,22.4902836],[112.2196597,22.4902738],[112.2195771,22.4902655],[112.2193954,22.490242],[112.2193492,22.4902323],[112.2192241,22.4901655]]},"properties":{"key":"way:1210478674@detail:448_89","osmType":"way","osmId":1210478674,"sourceRegion":"guangdong","featureType":"infrastructure","railClass":"minor","mode":"preserved","name":"玻璃漂流滑道","status":"operational","color":"#52636F","dataOrigin":"datum-2026-08-01","sourceKey":"way:1210478674"}},{"type":"Feature","geometry":{"type":"LineString","coordinates":[[112.2229044,22.4908335],[112.2228802,22.4908365],[112.2228664,22.4908338],[112.2227773,22.4907408],[112.2227642,22.4907324],[112.2227483,22.4907245],[112.2226414,22.4907172],[112.2226281,22.4907178],[112.2226128,22.4907183],[112.2225339,22.4907361],[112.2225103,22.4907461],[112.2224862,22.4907529],[112.2224433,22.4907577],[112.2223056,22.4907633],[112.2222774,22.4907683],[112.2220169,22.4908315],[112.2219959,22.4908336],[112.2218727,22.4908702],[112.2218353,22.4908818],[112.2217953,22.4908971],[112.2216822,22.4909504],[112.2216088,22.490978],[112.221561,22.490991],[112.2214339,22.4910099],[112.2213016,22.4910303],[112.2212365,22.4910452],[112.2211914,22.4910586],[112.2211418,22.491077],[112.221111,22.4910906],[112.2210839,22.4911068],[112.2210706,22.4911235],[112.2210606,22.4911449],[112.221057,22.4911628],[112.2210584,22.4911744],[112.221064,22.4911857],[112.2210753,22.4911953],[112.2210909,22.4912019]]},"properties":{"key":"way:1210478675@detail:448_89","osmType":"way","osmId":1210478675,"sourceRegion":"guangdong","featureType":"infrastructure","railClass":"minor","mode":"preserved","name":"玻璃漂流滑道","status":"operational","color":"#52636F","dataOrigin":"datum-2026-08-01","sourceKey":"way:1210478675"}},{"type":"Feature","geometry":{"type":"LineString","coordinates":[[112.111742,22.4686258],[112.110727,22.4668791]]},"properties":{"key":"way:1249436754@detail:448_89","osmType":"way","osmId":1249436754,"sourceRegion":"guangdong","featureType":"infrastructure","railClass":"highspeed","mode":"rail","name":"广湛高速线","nameEn":"Guangzhou-Zhanjiang Railway","usage":"main","highspeed":"yes","tunnel":"yes","status":"operational","color":"#E54848","dataOrigin":"datum-2026-08-01","sourceKey":"way:1249436754"}},{"type":"Feature","geometry":{"type":"LineString","coordinates":[[112.13477933361368,22.5],[112.1346652,22.4997894]]},"properties":{"key":"way:1249436755@detail:448_89","osmType":"way","osmId":1249436755,"sourceRegion":"guangdong","featureType":"infrastructure","railClass":"highspeed","mode":"rail","name":"广湛高速线","nameEn":"Guangzhou-Zhanjiang Railway","usage":"main","highspeed":"yes","status":"operational","color":"#E54848","dataOrigin":"datum-2026-08-01","sourceKey":"way:1249436755"}},{"type":"Feature","geometry":{"type":"LineString","coordinates":[[112.1346652,22.4997894],[112.1339358,22.4984963],[112.133282,22.497396],[112.1324987,22.496167],[112.1315319,22.4947767]]},"properties":{"key":"way:1249436756@detail:448_89","osmType":"way","osmId":1249436756,"sourceRegion":"guangdong","featureType":"infrastructure","railClass":"highspeed","mode":"rail","name":"广湛高速线","nameEn":"Guangzhou-Zhanjiang Railway","usage":"main","highspeed":"yes","bridge":"yes","status":"operational","color":"#E54848","dataOrigin":"datum-2026-08-01","sourceKey":"way:1249436756"}},{"type":"Feature","geometry":{"type":"LineString","coordinates":[[112.1315319,22.4947767],[112.1306781,22.4935665],[112.1296701,22.4922331],[112.1289164,22.4912833]]},"properties":{"key":"way:1249436757@detail:448_89","osmType":"way","osmId":1249436757,"sourceRegion":"guangdong","featureType":"infrastructure","railClass":"highspeed","mode":"rail","name":"广湛高速线","nameEn":"Guangzhou-Zhanjiang Railway","usage":"main","highspeed":"yes","status":"operational","color":"#E54848","dataOrigin":"datum-2026-08-01","sourceKey":"way:1249436757"}},{"type":"Feature","geometry":{"type":"LineString","coordinates":[[112.1289164,22.4912833],[112.1202979,22.4811816]]},"properties":{"key":"way:1249436759@detail:448_89","osmType":"way","osmId":1249436759,"sourceRegion":"guangdong","featureType":"infrastructure","railClass":"highspeed","mode":"rail","name":"广湛高速线","nameEn":"Guangzhou-Zhanjiang Railway","usage":"main","highspeed":"yes","tunnel":"yes","status":"operational","color":"#E54848","dataOrigin":"datum-2026-08-01","sourceKey":"way:1249436759"}},{"type":"Feature","geometry":{"type":"LineString","coordinates":[[112.1202979,22.4811816],[112.1173803,22.4775452]]},"properties":{"key":"way:1249436760@detail:448_89","osmType":"way","osmId":1249436760,"sourceRegion":"guangdong","featureType":"infrastructure","railClass":"highspeed","mode":"rail","name":"广湛高速线","nameEn":"Guangzhou-Zhanjiang Railway","usage":"main","highspeed":"yes","bridge":"yes","status":"operational","color":"#E54848","dataOrigin":"datum-2026-08-01","sourceKey":"way:1249436760"}},{"type":"Feature","geometry":{"type":"LineString","coordinates":[[112.1173803,22.4775452],[112.115418,22.474761]]},"properties":{"key":"way:1249436761@detail:448_89","osmType":"way","osmId":1249436761,"sourceRegion":"guangdong","featureType":"infrastructure","railClass":"highspeed","mode":"rail","name":"广湛高速线","nameEn":"Guangzhou-Zhanjiang Railway","usage":"main","highspeed":"yes","tunnel":"yes","status":"operational","color":"#E54848","dataOrigin":"datum-2026-08-01","sourceKey":"way:1249436761"}},{"type":"Feature","geometry":{"type":"LineString","coordinates":[[112.115418,22.474761],[112.1142934,22.4729974]]},"properties":{"key":"way:1249436762@detail:448_89","osmType":"way","osmId":1249436762,"sourceRegion":"guangdong","featureType":"infrastructure","railClass":"highspeed","mode":"rail","name":"广湛高速线","nameEn":"Guangzhou-Zhanjiang Railway","usage":"main","highspeed":"yes","bridge":"yes","status":"operational","color":"#E54848","dataOrigin":"datum-2026-08-01","sourceKey":"way:1249436762"}},{"type":"Feature","geometry":{"type":"LineString","coordinates":[[112.1142934,22.4729974],[112.1134023,22.4715355]]},"properties":{"key":"way:1249436763@detail:448_89","osmType":"way","osmId":1249436763,"sourceRegion":"guangdong","featureType":"infrastructure","railClass":"highspeed","mode":"rail","name":"广湛高速线","nameEn":"Guangzhou-Zhanjiang Railway","usage":"main","highspeed":"yes","status":"operational","color":"#E54848","dataOrigin":"datum-2026-08-01","sourceKey":"way:1249436763"}},{"type":"Feature","geometry":{"type":"LineString","coordinates":[[112.1134023,22.4715355],[112.1126399,22.4701994],[112.111742,22.4686258]]},"properties":{"key":"way:1249436764@detail:448_89","osmType":"way","osmId":1249436764,"sourceRegion":"guangdong","featureType":"infrastructure","railClass":"highspeed","mode":"rail","name":"广湛高速线","nameEn":"Guangzhou-Zhanjiang Railway","usage":"main","highspeed":"yes","bridge":"yes","status":"operational","color":"#E54848","dataOrigin":"datum-2026-08-01","sourceKey":"way:1249436764"}},{"type":"Feature","geometry":{"type":"LineString","coordinates":[[112.1048046,22.4569663],[112.1043166,22.4562913]]},"properties":{"key":"way:1249436765@detail:448_89","osmType":"way","osmId":1249436765,"sourceRegion":"guangdong","featureType":"infrastructure","railClass":"highspeed","mode":"rail","name":"广湛高速线","nameEn":"Guangzhou-Zhanjiang Railway","usage":"main","highspeed":"yes","status":"operational","color":"#E54848","dataOrigin":"datum-2026-08-01","sourceKey":"way:1249436765"}},{"type":"Feature","geometry":{"type":"LineString","coordinates":[[112.0195667,22.3564456],[112.0175441,22.3541287],[112.0154411,22.3516618],[112.013314,22.3490706],[112.0062234,22.340177],[112.00381,22.3370436],[112.0017469,22.3342641],[112.0,22.331840686236724]]},"properties":{"key":"way:1462282113@detail:448_89","osmType":"way","osmId":1462282113,"sourceRegion":"guangdong","featureType":"infrastructure","railClass":"highspeed","mode":"rail","name":"广湛高速线","nameEn":"Guangzhou-Zhanjiang Railway","usage":"main","highspeed":"yes","tunnel":"yes","status":"operational","color":"#E54848","dataOrigin":"datum-2026-08-01","sourceKey":"way:1462282113"}},{"type":"Feature","geometry":{"type":"LineString","coordinates":[[112.1288742,22.4913129],[112.1202558,22.4812114]]},"properties":{"key":"way:1462282114@detail:448_89","osmType":"way","osmId":1462282114,"sourceRegion":"guangdong","featureType":"infrastructure","railClass":"highspeed","mode":"rail","name":"广湛高速线","nameEn":"Guangzhou-Zhanjiang Railway","usage":"main","highspeed":"yes","tunnel":"yes","status":"operational","color":"#E54848","dataOrigin":"datum-2026-08-01","sourceKey":"way:1462282114"}},{"type":"Feature","geometry":{"type":"LineString","coordinates":[[112.1029708,22.4546443],[112.1027298,22.4543388]]},"properties":{"key":"way:1462282115@detail:448_89","osmType":"way","osmId":1462282115,"sourceRegion":"guangdong","featureType":"infrastructure","railClass":"highspeed","mode":"rail","name":"广湛高速线","nameEn":"Guangzhou-Zhanjiang Railway","usage":"main","highspeed":"yes","status":"operational","color":"#E54848","dataOrigin":"datum-2026-08-01","sourceKey":"way:1462282115"}},{"type":"Feature","geometry":{"type":"LineString","coordinates":[[112.1106803,22.4669022],[112.1071946,22.4608468]]},"properties":{"key":"way:1462282119@detail:448_89","osmType":"way","osmId":1462282119,"sourceRegion":"guangdong","featureType":"infrastructure","railClass":"highspeed","mode":"rail","name":"广湛高速线","nameEn":"Guangzhou-Zhanjiang Railway","usage":"main","highspeed":"yes","bridge":"yes","status":"operational","color":"#E54848","dataOrigin":"datum-2026-08-01","sourceKey":"way:1462282119"}},{"type":"Feature","geometry":{"type":"LineString","coordinates":[[112.1142475,22.4730219],[112.1133558,22.4715589]]},"properties":{"key":"way:1462282120@detail:448_89","osmType":"way","osmId":1462282120,"sourceRegion":"guangdong","featureType":"infrastructure","railClass":"highspeed","mode":"rail","name":"广湛高速线","nameEn":"Guangzhou-Zhanjiang Railway","usage":"main","highspeed":"yes","status":"operational","color":"#E54848","dataOrigin":"datum-2026-08-01","sourceKey":"way:1462282120"}},{"type":"Feature","geometry":{"type":"LineString","coordinates":[[112.1071946,22.4608468],[112.1066868,22.4599979]]},"properties":{"key":"way:1462282121@detail:448_89","osmType":"way","osmId":1462282121,"sourceRegion":"guangdong","featureType":"infrastructure","railClass":"highspeed","mode":"rail","name":"广湛高速线","nameEn":"Guangzhou-Zhanjiang Railway","usage":"main","highspeed":"yes","status":"operational","color":"#E54848","dataOrigin":"datum-2026-08-01","sourceKey":"way:1462282121"}},{"type":"Feature","geometry":{"type":"LineString","coordinates":[[112.0225527,22.3598211],[112.0195667,22.3564456]]},"properties":{"key":"way:1462282123@detail:448_89","osmType":"way","osmId":1462282123,"sourceRegion":"guangdong","featureType":"infrastructure","railClass":"highspeed","mode":"rail","name":"广湛高速线","nameEn":"Guangzhou-Zhanjiang Railway","usage":"main","highspeed":"yes","bridge":"yes","status":"operational","color":"#E54848","dataOrigin":"datum-2026-08-01","sourceKey":"way:1462282123"}},{"type":"Feature","geometry":{"type":"LineString","coordinates":[[112.1037156,22.4555979],[112.1029708,22.4546443]]},"properties":{"key":"way:1462282124@detail:448_89","osmType":"way","osmId":1462282124,"sourceRegion":"guangdong","featureType":"infrastructure","railClass":"highspeed","mode":"rail","name":"广湛高速线","nameEn":"Guangzhou-Zhanjiang Railway","usage":"main","highspeed":"yes","tunnel":"yes","status":"operational","color":"#E54848","dataOrigin":"datum-2026-08-01","sourceKey":"way:1462282124"}},{"type":"Feature","geometry":{"type":"LineString","coordinates":[[112.0662406,22.4062126],[112.04808,22.3867678],[112.0375569,22.3756602],[112.0225527,22.3598211]]},"properties":{"key":"way:1462282125@detail:448_89","osmType":"way","osmId":1462282125,"sourceRegion":"guangdong","featureType":"infrastructure","railClass":"highspeed","mode":"rail","name":"广湛高速线","nameEn":"Guangzhou-Zhanjiang Railway","usage":"main","highspeed":"yes","tunnel":"yes","status":"operational","color":"#E54848","dataOrigin":"datum-2026-08-01","sourceKey":"way:1462282125"}},{"type":"Feature","geometry":{"type":"LineString","coordinates":[[112.134618,22.4998117],[112.1338891,22.4985194],[112.1332359,22.4974202],[112.1324535,22.4961927],[112.1314874,22.4948033]]},"properties":{"key":"way:1462282127@detail:448_89","osmType":"way","osmId":1462282127,"sourceRegion":"guangdong","featureType":"infrastructure","railClass":"highspeed","mode":"rail","name":"广湛高速线","nameEn":"Guangzhou-Zhanjiang Railway","usage":"main","highspeed":"yes","bridge":"yes","status":"operational","color":"#E54848","dataOrigin":"datum-2026-08-01","sourceKey":"way:1462282127"}},{"type":"Feature","geometry":{"type":"LineString","coordinates":[[112.1202558,22.4812114],[112.1173368,22.4775732]]},"properties":{"key":"way:1462282130@detail:448_89","osmType":"way","osmId":1462282130,"sourceRegion":"guangdong","featureType":"infrastructure","railClass":"highspeed","mode":"rail","name":"广湛高速线","nameEn":"Guangzhou-Zhanjiang Railway","usage":"main","highspeed":"yes","bridge":"yes","status":"operational","color":"#E54848","dataOrigin":"datum-2026-08-01","sourceKey":"way:1462282130"}},{"type":"Feature","geometry":{"type":"LineString","coordinates":[[112.1003948,22.4511983],[112.0720212,22.4133054],[112.0709676,22.4119389],[112.069847,22.4105114],[112.0686405,22.4090117]]},"properties":{"key":"way:1462282131@detail:448_89","osmType":"way","osmId":1462282131,"sourceRegion":"guangdong","featureType":"infrastructure","railClass":"highspeed","mode":"rail","name":"广湛高速线","nameEn":"Guangzhou-Zhanjiang Railway","usage":"main","highspeed":"yes","tunnel":"yes","status":"operational","color":"#E54848","dataOrigin":"datum-2026-08-01","sourceKey":"way:1462282131"}},{"type":"Feature","geometry":{"type":"LineString","coordinates":[[112.1133558,22.4715589],[112.1126026,22.470239],[112.1116952,22.4686488]]},"properties":{"key":"way:1462282133@detail:448_89","osmType":"way","osmId":1462282133,"sourceRegion":"guangdong","featureType":"infrastructure","railClass":"highspeed","mode":"rail","name":"广湛高速线","nameEn":"Guangzhou-Zhanjiang Railway","usage":"main","highspeed":"yes","bridge":"yes","status":"operational","color":"#E54848","dataOrigin":"datum-2026-08-01","sourceKey":"way:1462282133"}},{"type":"Feature","geometry":{"type":"LineString","coordinates":[[112.1314874,22.4948033],[112.1306342,22.4935939],[112.129627,22.4922616],[112.1288742,22.4913129]]},"properties":{"key":"way:1462282135@detail:448_89","osmType":"way","osmId":1462282135,"sourceRegion":"guangdong","featureType":"infrastructure","railClass":"highspeed","mode":"rail","name":"广湛高速线","nameEn":"Guangzhou-Zhanjiang Railway","usage":"main","highspeed":"yes","status":"operational","color":"#E54848","dataOrigin":"datum-2026-08-01","sourceKey":"way:1462282135"}},{"type":"Feature","geometry":{"type":"LineString","coordinates":[[112.1005966,22.4514718],[112.1003948,22.4511983]]},"properties":{"key":"way:1462282136@detail:448_89","osmType":"way","osmId":1462282136,"sourceRegion":"guangdong","featureType":"infrastructure","railClass":"highspeed","mode":"rail","name":"广湛高速线","nameEn":"Guangzhou-Zhanjiang Railway","usage":"main","highspeed":"yes","status":"operational","color":"#E54848","dataOrigin":"datum-2026-08-01","sourceKey":"way:1462282136"}},{"type":"Feature","geometry":{"type":"LineString","coordinates":[[112.1173368,22.4775732],[112.1153729,22.4747868]]},"properties":{"key":"way:1462282138@detail:448_89","osmType":"way","osmId":1462282138,"sourceRegion":"guangdong","featureType":"infrastructure","railClass":"highspeed","mode":"rail","name":"广湛高速线","nameEn":"Guangzhou-Zhanjiang Railway","usage":"main","highspeed":"yes","tunnel":"yes","status":"operational","color":"#E54848","dataOrigin":"datum-2026-08-01","sourceKey":"way:1462282138"}},{"type":"Feature","geometry":{"type":"LineString","coordinates":[[112.104273,22.4563191],[112.1037156,22.4555979]]},"properties":{"key":"way:1462282139@detail:448_89","osmType":"way","osmId":1462282139,"sourceRegion":"guangdong","featureType":"infrastructure","railClass":"highspeed","mode":"rail","name":"广湛高速线","nameEn":"Guangzhou-Zhanjiang Railway","usage":"main","highspeed":"yes","bridge":"yes","status":"operational","color":"#E54848","dataOrigin":"datum-2026-08-01","sourceKey":"way:1462282139"}},{"type":"Feature","geometry":{"type":"LineString","coordinates":[[112.1116952,22.4686488],[112.1106803,22.4669022]]},"properties":{"key":"way:1462282140@detail:448_89","osmType":"way","osmId":1462282140,"sourceRegion":"guangdong","featureType":"infrastructure","railClass":"highspeed","mode":"rail","name":"广湛高速线","nameEn":"Guangzhou-Zhanjiang Railway","usage":"main","highspeed":"yes","tunnel":"yes","status":"operational","color":"#E54848","dataOrigin":"datum-2026-08-01","sourceKey":"way:1462282140"}},{"type":"Feature","geometry":{"type":"LineString","coordinates":[[112.1047602,22.456993],[112.104273,22.4563191]]},"properties":{"key":"way:1462282141@detail:448_89","osmType":"way","osmId":1462282141,"sourceRegion":"guangdong","featureType":"infrastructure","railClass":"highspeed","mode":"rail","name":"广湛高速线","nameEn":"Guangzhou-Zhanjiang Railway","usage":"main","highspeed":"yes","status":"operational","color":"#E54848","dataOrigin":"datum-2026-08-01","sourceKey":"way:1462282141"}},{"type":"Feature","geometry":{"type":"LineString","coordinates":[[112.1027298,22.4543388],[112.1005966,22.4514718]]},"properties":{"key":"way:1462282143@detail:448_89","osmType":"way","osmId":1462282143,"sourceRegion":"guangdong","featureType":"infrastructure","railClass":"highspeed","mode":"rail","name":"广湛高速线","nameEn":"Guangzhou-Zhanjiang Railway","usage":"main","highspeed":"yes","tunnel":"yes","status":"operational","color":"#E54848","dataOrigin":"datum-2026-08-01","sourceKey":"way:1462282143"}},{"type":"Feature","geometry":{"type":"LineString","coordinates":[[112.0686405,22.4090117],[112.0662406,22.4062126]]},"properties":{"key":"way:1462282144@detail:448_89","osmType":"way","osmId":1462282144,"sourceRegion":"guangdong","featureType":"infrastructure","railClass":"highspeed","mode":"rail","name":"广湛高速线","nameEn":"Guangzhou-Zhanjiang Railway","usage":"main","highspeed":"yes","bridge":"yes","status":"operational","color":"#E54848","dataOrigin":"datum-2026-08-01","sourceKey":"way:1462282144"}},{"type":"Feature","geometry":{"type":"LineString","coordinates":[[112.1153729,22.4747868],[112.1142475,22.4730219]]},"properties":{"key":"way:1462282145@detail:448_89","osmType":"way","osmId":1462282145,"sourceRegion":"guangdong","featureType":"infrastructure","railClass":"highspeed","mode":"rail","name":"广湛高速线","nameEn":"Guangzhou-Zhanjiang Railway","usage":"main","highspeed":"yes","bridge":"yes","status":"operational","color":"#E54848","dataOrigin":"datum-2026-08-01","sourceKey":"way:1462282145"}},{"type":"Feature","geometry":{"type":"LineString","coordinates":[[112.1066868,22.4599979],[112.1056961,22.4583905],[112.1052386,22.45769],[112.1047602,22.456993]]},"properties":{"key":"way:1462282146@detail:448_89","osmType":"way","osmId":1462282146,"sourceRegion":"guangdong","featureType":"infrastructure","railClass":"highspeed","mode":"rail","name":"广湛高速线","nameEn":"Guangzhou-Zhanjiang Railway","usage":"main","highspeed":"yes","bridge":"yes","status":"operational","color":"#E54848","dataOrigin":"datum-2026-08-01","sourceKey":"way:1462282146"}},{"type":"Feature","geometry":{"type":"LineString","coordinates":[[112.13472004919987,22.5],[112.134618,22.4998117]]},"properties":{"key":"way:1462282241@detail:448_89","osmType":"way","osmId":1462282241,"sourceRegion":"guangdong","featureType":"infrastructure","railClass":"highspeed","mode":"rail","name":"广湛高速线","nameEn":"Guangzhou-Zhanjiang Railway","usage":"main","highspeed":"yes","status":"operational","color":"#E54848","dataOrigin":"datum-2026-08-01","sourceKey":"way:1462282241"}}]}