{"type":"FeatureCollection","features":[{"type":"Feature","geometry":{"type":"LineString","coordinates":[[112.4955992,22.7824009],[112.5,22.78372336299558]]},"properties":{"key":"way:1391311351@detail:449_91","osmType":"way","osmId":1391311351,"sourceRegion":"foshan","featureType":"infrastructure","railClass":"highspeed","mode":"rail","name":"广湛高速线","nameEn":"Guangzhou-Zhanjiang Railway","usage":"main","highspeed":"yes","tunnel":"yes","status":"operational","color":"#E54848","sourceKey":"way:1391311351"}},{"type":"Feature","geometry":{"type":"LineString","coordinates":[[112.5,22.81712634208819],[112.4925564,22.8182451]]},"properties":{"key":"way:1391317907@detail:449_91","osmType":"way","osmId":1391317907,"sourceRegion":"foshan","featureType":"infrastructure","railClass":"construction","mode":"construction","name":"南珠高速线","nameEn":"Nanning-Zhuhai Highspeed Railway","usage":"main","highspeed":"yes","status":"construction","color":"#397F9D","sourceKey":"way:1391317907"}},{"type":"Feature","geometry":{"type":"LineString","coordinates":[[112.4955831,22.7824475],[112.5,22.783774727735867]]},"properties":{"key":"way:1462282240@detail:449_91","osmType":"way","osmId":1462282240,"sourceRegion":"foshan","featureType":"infrastructure","railClass":"highspeed","mode":"rail","name":"广湛高速线","nameEn":"Guangzhou-Zhanjiang Railway","usage":"main","highspeed":"yes","tunnel":"yes","status":"operational","color":"#E54848","sourceKey":"way:1462282240"}},{"type":"Feature","geometry":{"type":"LineString","coordinates":[[112.5,22.81721738252988],[112.4925717,22.8183338]]},"properties":{"key":"way:1509798754@detail:449_91","osmType":"way","osmId":1509798754,"sourceRegion":"foshan","featureType":"infrastructure","railClass":"construction","mode":"construction","name":"南珠高速线","nameEn":"Nanning-Zhuhai Highspeed Railway","usage":"main","highspeed":"yes","status":"construction","color":"#397F9D","sourceKey":"way:1509798754"}},{"type":"Feature","geometry":{"type":"Point","coordinates":[112.2916487,22.8901321]},"properties":{"key":"node:5652914672","osmType":"node","osmId":5652914672,"sourceRegion":"guangdong","featureType":"station","railClass":"minor","mode":"station","name":"腰古","nameEn":"Yaogu","status":"operational","color":"#52636F","dataOrigin":"datum-2026-08-01","sourceKey":"node:5652914672","stationGroup":"腰古","hasOperationalRail":true,"hasConstructionRail":false}},{"type":"Feature","geometry":{"type":"Point","coordinates":[112.4032496,22.9542655]},"properties":{"key":"node:8440342290","osmType":"node","osmId":8440342290,"sourceRegion":"guangdong","featureType":"station","railClass":"minor","mode":"station","name":"新桥镇","nameEn":"Xinqiaozhen","status":"operational","color":"#52636F","dataOrigin":"datum-2026-08-01","sourceKey":"node:8440342290","stationGroup":"新桥镇","hasOperationalRail":true,"hasConstructionRail":false}},{"type":"Feature","geometry":{"type":"LineString","coordinates":[[112.25,22.851034266619767],[112.2504525,22.8509975]]},"properties":{"key":"way:48995138@detail:449_91","osmType":"way","osmId":48995138,"sourceRegion":"guangdong","featureType":"infrastructure","railClass":"national","mode":"rail","name":"广茂线","nameEn":"Guangmao Line","ref":"0708","operator":"中国铁路广州局集团有限公司","usage":"main","status":"operational","color":"#E54848","dataOrigin":"datum-2026-08-01","sourceKey":"way:48995138"}},{"type":"Feature","geometry":{"type":"LineString","coordinates":[[112.3581184,22.9215754],[112.36338,22.923111],[112.371193,22.926658],[112.373876,22.92792],[112.374721,22.928381],[112.375316,22.928801],[112.37585,22.929274],[112.3763966,22.9299225]]},"properties":{"key":"way:151362692@detail:449_91","osmType":"way","osmId":151362692,"sourceRegion":"guangdong","featureType":"infrastructure","railClass":"national","mode":"rail","name":"广茂线","nameEn":"Guangmao Line","ref":"0708","operator":"中国铁路广州局集团有限公司","usage":"main","status":"operational","color":"#E54848","dataOrigin":"datum-2026-08-01","sourceKey":"way:151362692"}},{"type":"Feature","geometry":{"type":"LineString","coordinates":[[112.3021844,22.9005148],[112.3019162,22.9000009],[112.3017874,22.8996352],[112.3016962,22.8991287],[112.3016292,22.8978463],[112.3015675,22.8973348],[112.3014522,22.896937],[112.300913,22.8957683],[112.3006931,22.8952099],[112.3005295,22.8945353],[112.3002961,22.8939225],[112.3000038,22.8933666],[112.2998777,22.8931294],[112.2996819,22.8928403],[112.2994244,22.8925413],[112.2990543,22.8922769],[112.2986627,22.8920693],[112.2980084,22.8919157],[112.2971472,22.8917135]]},"properties":{"key":"way:331818230@detail:449_91","osmType":"way","osmId":331818230,"sourceRegion":"guangdong","featureType":"infrastructure","railClass":"minor","mode":"rail","name":"未命名","service":"spur","status":"operational","color":"#52636F","dataOrigin":"datum-2026-08-01","sourceKey":"way:331818230"}},{"type":"Feature","geometry":{"type":"LineString","coordinates":[[112.2602725,22.851562],[112.2608756,22.8517228],[112.2617367,22.8520059],[112.2625636,22.852338],[112.2660068,22.8538914],[112.2705749,22.8560641],[112.2715634,22.8564806],[112.273875,22.8575916],[112.2771068,22.8590911],[112.278112,22.8596469],[112.278854,22.860181],[112.279441,22.86083],[112.2797,22.861181],[112.280018,22.861726],[112.28034,22.862521],[112.280486,22.863121],[112.280541,22.863743],[112.280461,22.864751],[112.279789,22.868746],[112.279668,22.869734],[112.279711,22.871325],[112.27997,22.873253],[112.2799847,22.874253],[112.2799736,22.8747821],[112.2798068,22.8755975],[112.279603,22.876166],[112.2784145,22.87915]]},"properties":{"key":"way:448525465@detail:449_91","osmType":"way","osmId":448525465,"sourceRegion":"guangdong","featureType":"infrastructure","railClass":"national","mode":"rail","name":"广茂线","nameEn":"Guangmao Line","ref":"0708","operator":"中国铁路广州局集团有限公司","usage":"main","status":"operational","color":"#E54848","dataOrigin":"datum-2026-08-01","sourceKey":"way:448525465"}},{"type":"Feature","geometry":{"type":"LineString","coordinates":[[112.2775951,22.8912926],[112.2774443,22.8913167],[112.2769908,22.8914256],[112.27659,22.8915109],[112.2762937,22.8916199],[112.2706613,22.89419],[112.2672537,22.8957086],[112.2639492,22.8979845],[112.2635512,22.8981717],[112.2631332,22.898309],[112.2628704,22.8983843],[112.2623169,22.8984848],[112.2616939,22.8985367],[112.260793,22.898542],[112.2573437,22.8981566],[112.2563696,22.8982268],[112.2554876,22.8984876],[112.2536043,22.8993408],[112.2521486,22.8999684],[112.2513163,22.900154],[112.2505706,22.9001689],[112.25,22.90013267082132]]},"properties":{"key":"way:494398674@detail:449_91","osmType":"way","osmId":494398674,"sourceRegion":"guangdong","featureType":"infrastructure","railClass":"national","mode":"rail","name":"云浮支线","nameEn":"Yunfu Branch Railway","ref":"0709","usage":"branch","status":"operational","color":"#E54848","dataOrigin":"datum-2026-08-01","sourceKey":"way:494398674"}},{"type":"Feature","geometry":{"type":"LineString","coordinates":[[112.2810879,22.8906685],[112.2794846,22.8911769],[112.2775951,22.8912926]]},"properties":{"key":"way:494398740@detail:449_91","osmType":"way","osmId":494398740,"sourceRegion":"guangdong","featureType":"infrastructure","railClass":"national","mode":"rail","name":"云浮支线","nameEn":"Yunfu Branch Railway","ref":"0709","usage":"branch","tunnel":"yes","status":"operational","color":"#E54848","dataOrigin":"datum-2026-08-01","sourceKey":"way:494398740"}},{"type":"Feature","geometry":{"type":"LineString","coordinates":[[112.3024231,22.9008261],[112.3021844,22.9005148]]},"properties":{"key":"way:592238708@detail:449_91","osmType":"way","osmId":592238708,"sourceRegion":"guangdong","featureType":"infrastructure","railClass":"minor","mode":"rail","name":"未命名","service":"spur","bridge":"yes","status":"operational","color":"#52636F","dataOrigin":"datum-2026-08-01","sourceKey":"way:592238708"}},{"type":"Feature","geometry":{"type":"LineString","coordinates":[[112.3063096,22.9039689],[112.3034209,22.9017378],[112.3027101,22.9011275],[112.3024231,22.9008261]]},"properties":{"key":"way:592238709@detail:449_91","osmType":"way","osmId":592238709,"sourceRegion":"guangdong","featureType":"infrastructure","railClass":"minor","mode":"rail","name":"未命名","service":"spur","status":"operational","color":"#52636F","dataOrigin":"datum-2026-08-01","sourceKey":"way:592238709"}},{"type":"Feature","geometry":{"type":"LineString","coordinates":[[112.2876188,22.8895016],[112.2880518,22.8896601],[112.2906911,22.8902877],[112.2912216,22.8903394]]},"properties":{"key":"way:592238710@detail:449_91","osmType":"way","osmId":592238710,"sourceRegion":"guangdong","featureType":"infrastructure","railClass":"minor","mode":"rail","name":"未命名","service":"siding","status":"operational","color":"#52636F","dataOrigin":"datum-2026-08-01","sourceKey":"way:592238710"}},{"type":"Feature","geometry":{"type":"LineString","coordinates":[[112.2871104,22.8893834],[112.2868061,22.8892493]]},"properties":{"key":"way:592238711@detail:449_91","osmType":"way","osmId":592238711,"sourceRegion":"guangdong","featureType":"infrastructure","railClass":"minor","mode":"rail","name":"未命名","service":"crossover","status":"operational","color":"#52636F","dataOrigin":"datum-2026-08-01","sourceKey":"way:592238711"}},{"type":"Feature","geometry":{"type":"LineString","coordinates":[[112.2958811,22.8913507],[112.2954091,22.8913132],[112.2912216,22.8903394],[112.2876188,22.8895016],[112.2871104,22.8893834],[112.2848761,22.8888768]]},"properties":{"key":"way:592238712@detail:449_91","osmType":"way","osmId":592238712,"sourceRegion":"guangdong","featureType":"infrastructure","railClass":"minor","mode":"rail","name":"未命名","service":"siding","status":"operational","color":"#52636F","dataOrigin":"datum-2026-08-01","sourceKey":"way:592238712"}},{"type":"Feature","geometry":{"type":"LineString","coordinates":[[112.2970249,22.8915539],[112.2967433,22.8915193],[112.296495,22.8914928]]},"properties":{"key":"way:592238713@detail:449_91","osmType":"way","osmId":592238713,"sourceRegion":"guangdong","featureType":"infrastructure","railClass":"minor","mode":"rail","name":"未命名","service":"crossover","status":"operational","color":"#52636F","dataOrigin":"datum-2026-08-01","sourceKey":"way:592238713"}},{"type":"Feature","geometry":{"type":"LineString","coordinates":[[112.2970155,22.8916134],[112.2967433,22.8915193],[112.296506,22.8914374]]},"properties":{"key":"way:592238714@detail:449_91","osmType":"way","osmId":592238714,"sourceRegion":"guangdong","featureType":"infrastructure","railClass":"minor","mode":"rail","name":"未命名","service":"crossover","status":"operational","color":"#52636F","dataOrigin":"datum-2026-08-01","sourceKey":"way:592238714"}},{"type":"Feature","geometry":{"type":"LineString","coordinates":[[112.297512,22.8917283],[112.2980084,22.8919157]]},"properties":{"key":"way:592238715@detail:449_91","osmType":"way","osmId":592238715,"sourceRegion":"guangdong","featureType":"infrastructure","railClass":"minor","mode":"rail","name":"未命名","service":"crossover","status":"operational","color":"#52636F","dataOrigin":"datum-2026-08-01","sourceKey":"way:592238715"}},{"type":"Feature","geometry":{"type":"LineString","coordinates":[[112.2995532,22.8921929],[112.297512,22.8917283],[112.2970155,22.8916134],[112.296495,22.8914928],[112.2958811,22.8913507],[112.2868061,22.8892493],[112.2861046,22.8890868],[112.2856647,22.8889855]]},"properties":{"key":"way:592238716@detail:449_91","osmType":"way","osmId":592238716,"sourceRegion":"guangdong","featureType":"infrastructure","railClass":"national","mode":"rail","name":"未命名","status":"operational","color":"#E54848","dataOrigin":"datum-2026-08-01","sourceKey":"way:592238716"}},{"type":"Feature","geometry":{"type":"LineString","coordinates":[[112.2868904,22.8892129],[112.2873411,22.8892697],[112.2954574,22.8911452],[112.2958213,22.8912796]]},"properties":{"key":"way:592238717@detail:449_91","osmType":"way","osmId":592238717,"sourceRegion":"guangdong","featureType":"infrastructure","railClass":"minor","mode":"rail","name":"未命名","service":"siding","status":"operational","color":"#52636F","dataOrigin":"datum-2026-08-01","sourceKey":"way:592238717"}},{"type":"Feature","geometry":{"type":"LineString","coordinates":[[112.2841081,22.8888029],[112.2837556,22.8888464],[112.283216,22.889007],[112.2828121,22.8892153],[112.2825572,22.8893955],[112.2820683,22.8898501]]},"properties":{"key":"way:592238718@detail:449_91","osmType":"way","osmId":592238718,"sourceRegion":"guangdong","featureType":"infrastructure","railClass":"national","mode":"rail","name":"云浮支线","nameEn":"Yunfu Branch Railway","ref":"0709","usage":"branch","status":"operational","color":"#E54848","dataOrigin":"datum-2026-08-01","sourceKey":"way:592238718"}},{"type":"Feature","geometry":{"type":"LineString","coordinates":[[112.2842458,22.8887928],[112.2841081,22.8888029]]},"properties":{"key":"way:592238719@detail:449_91","osmType":"way","osmId":592238719,"sourceRegion":"guangdong","featureType":"infrastructure","railClass":"national","mode":"rail","name":"云浮支线","nameEn":"Yunfu Branch Railway","ref":"0709","usage":"branch","bridge":"yes","status":"operational","color":"#E54848","dataOrigin":"datum-2026-08-01","sourceKey":"way:592238719"}},{"type":"Feature","geometry":{"type":"LineString","coordinates":[[112.2842412,22.8885658],[112.2846204,22.8886843],[112.2856728,22.8889292],[112.2861106,22.8890324],[112.2868904,22.8892129],[112.2958213,22.8912796],[112.296506,22.8914374],[112.2970249,22.8915539],[112.3008293,22.8924188],[112.3016453,22.8926549],[112.3024173,22.8929311],[112.3032242,22.8934045],[112.3041319,22.8941144]]},"properties":{"key":"way:592238720@detail:449_91","osmType":"way","osmId":592238720,"sourceRegion":"guangdong","featureType":"infrastructure","railClass":"national","mode":"rail","name":"广茂线","nameEn":"Guangmao Line","ref":"0708","operator":"中国铁路广州局集团有限公司","usage":"main","status":"operational","color":"#E54848","dataOrigin":"datum-2026-08-01","sourceKey":"way:592238720"}},{"type":"Feature","geometry":{"type":"LineString","coordinates":[[112.2840822,22.888516],[112.2842412,22.8885658]]},"properties":{"key":"way:592238721@detail:449_91","osmType":"way","osmId":592238721,"sourceRegion":"guangdong","featureType":"infrastructure","railClass":"national","mode":"rail","name":"广茂线","nameEn":"Guangmao Line","ref":"0708","operator":"中国铁路广州局集团有限公司","usage":"main","bridge":"yes","status":"operational","color":"#E54848","dataOrigin":"datum-2026-08-01","sourceKey":"way:592238721"}},{"type":"Feature","geometry":{"type":"LineString","coordinates":[[112.2861046,22.8890868],[112.2858867,22.8890089],[112.2856728,22.8889292]]},"properties":{"key":"way:592238722@detail:449_91","osmType":"way","osmId":592238722,"sourceRegion":"guangdong","featureType":"infrastructure","railClass":"minor","mode":"rail","name":"未命名","service":"crossover","status":"operational","color":"#52636F","dataOrigin":"datum-2026-08-01","sourceKey":"way:592238722"}},{"type":"Feature","geometry":{"type":"LineString","coordinates":[[112.2856647,22.8889855],[112.2858867,22.8890089],[112.2861106,22.8890324]]},"properties":{"key":"way:592238723@detail:449_91","osmType":"way","osmId":592238723,"sourceRegion":"guangdong","featureType":"infrastructure","railClass":"minor","mode":"rail","name":"未命名","service":"crossover","status":"operational","color":"#52636F","dataOrigin":"datum-2026-08-01","sourceKey":"way:592238723"}},{"type":"Feature","geometry":{"type":"LineString","coordinates":[[112.2856647,22.8889855],[112.2850934,22.8888546],[112.2845998,22.8887928],[112.2842458,22.8887928]]},"properties":{"key":"way:656197585@detail:449_91","osmType":"way","osmId":656197585,"sourceRegion":"guangdong","featureType":"infrastructure","railClass":"national","mode":"rail","name":"云浮支线","nameEn":"Yunfu Branch Railway","ref":"0709","usage":"branch","status":"operational","color":"#E54848","dataOrigin":"datum-2026-08-01","sourceKey":"way:656197585"}},{"type":"Feature","geometry":{"type":"LineString","coordinates":[[112.2541038,22.8507823],[112.2548606,22.8508032],[112.2562024,22.8509084]]},"properties":{"key":"way:711493859@detail:449_91","osmType":"way","osmId":711493859,"sourceRegion":"guangdong","featureType":"infrastructure","railClass":"national","mode":"rail","name":"广茂线","nameEn":"Guangmao Line","ref":"0708","operator":"中国铁路广州局集团有限公司","usage":"main","status":"operational","color":"#E54848","dataOrigin":"datum-2026-08-01","sourceKey":"way:711493859"}},{"type":"Feature","geometry":{"type":"LineString","coordinates":[[112.2562024,22.8509084],[112.2568093,22.8509922],[112.2578259,22.8511356],[112.2581968,22.8511851],[112.2602725,22.851562]]},"properties":{"key":"way:711493860@detail:449_91","osmType":"way","osmId":711493860,"sourceRegion":"guangdong","featureType":"infrastructure","railClass":"national","mode":"rail","name":"广茂线","nameEn":"Guangmao Line","ref":"0708","operator":"中国铁路广州局集团有限公司","usage":"main","tunnel":"yes","status":"operational","color":"#E54848","dataOrigin":"datum-2026-08-01","sourceKey":"way:711493860"}},{"type":"Feature","geometry":{"type":"LineString","coordinates":[[112.2504525,22.8509975],[112.2525069,22.8508213],[112.2541038,22.8507823]]},"properties":{"key":"way:711493861@detail:449_91","osmType":"way","osmId":711493861,"sourceRegion":"guangdong","featureType":"infrastructure","railClass":"national","mode":"rail","name":"广茂线","nameEn":"Guangmao Line","ref":"0708","operator":"中国铁路广州局集团有限公司","usage":"main","tunnel":"yes","status":"operational","color":"#E54848","dataOrigin":"datum-2026-08-01","sourceKey":"way:711493861"}},{"type":"Feature","geometry":{"type":"LineString","coordinates":[[112.4243453,22.9846887],[112.4245342,22.9852355]]},"properties":{"key":"way:754799899@detail:449_91","osmType":"way","osmId":754799899,"sourceRegion":"guangdong","featureType":"infrastructure","railClass":"national","mode":"rail","name":"广茂线","nameEn":"Guangmao Line","ref":"0708","operator":"中国铁路广州局集团有限公司","usage":"main","bridge":"yes","status":"operational","color":"#E54848","dataOrigin":"datum-2026-08-01","sourceKey":"way:754799899"}},{"type":"Feature","geometry":{"type":"LineString","coordinates":[[112.4245342,22.9852355],[112.4266549,22.9913502],[112.4278526,22.9949543],[112.4283122,22.9965533],[112.4285016,22.9973277],[112.4285945,22.998236],[112.4285875,22.9988585],[112.428523,22.999728],[112.42849634949495,23.0]]},"properties":{"key":"way:754799900@detail:449_91","osmType":"way","osmId":754799900,"sourceRegion":"guangdong","featureType":"infrastructure","railClass":"national","mode":"rail","name":"广茂线","nameEn":"Guangmao Line","ref":"0708","operator":"中国铁路广州局集团有限公司","usage":"main","status":"operational","color":"#E54848","dataOrigin":"datum-2026-08-01","sourceKey":"way:754799900"}},{"type":"Feature","geometry":{"type":"LineString","coordinates":[[112.3325954,22.9110624],[112.3346329,22.9121415],[112.335646,22.912678],[112.3367819,22.9131796],[112.3388205,22.9140797]]},"properties":{"key":"way:760719144@detail:449_91","osmType":"way","osmId":760719144,"sourceRegion":"guangdong","featureType":"infrastructure","railClass":"national","mode":"rail","name":"广茂线","nameEn":"Guangmao Line","ref":"0708","operator":"中国铁路广州局集团有限公司","usage":"main","status":"operational","color":"#E54848","dataOrigin":"datum-2026-08-01","sourceKey":"way:760719144"}},{"type":"Feature","geometry":{"type":"LineString","coordinates":[[112.3323075,22.9109044],[112.3325954,22.9110624]]},"properties":{"key":"way:760719145@detail:449_91","osmType":"way","osmId":760719145,"sourceRegion":"guangdong","featureType":"infrastructure","railClass":"national","mode":"rail","name":"广茂线","nameEn":"Guangmao Line","ref":"0708","operator":"中国铁路广州局集团有限公司","usage":"main","bridge":"yes","status":"operational","color":"#E54848","dataOrigin":"datum-2026-08-01","sourceKey":"way:760719145"}},{"type":"Feature","geometry":{"type":"LineString","coordinates":[[112.3984531,22.950176],[112.4012924,22.952652],[112.4016263,22.9529432],[112.402868,22.954026],[112.4080118,22.9585602],[112.4083842,22.9588903],[112.4086849,22.9591568],[112.415299,22.965019],[112.4162553,22.9660057],[112.416653,22.966493],[112.4174763,22.9674836],[112.418456,22.968854],[112.419383,22.970303],[112.419488,22.9705252],[112.419898,22.971393],[112.4199999,22.9716149],[112.4202251,22.9722711],[112.4203328,22.9725851],[112.4208897,22.9742105],[112.4228383,22.9801191],[112.4243453,22.9846887]]},"properties":{"key":"way:777089952@detail:449_91","osmType":"way","osmId":777089952,"sourceRegion":"guangdong","featureType":"infrastructure","railClass":"national","mode":"rail","name":"广茂线","nameEn":"Guangmao Line","ref":"0708","operator":"中国铁路广州局集团有限公司","usage":"main","status":"operational","color":"#E54848","dataOrigin":"datum-2026-08-01","sourceKey":"way:777089952"}},{"type":"Feature","geometry":{"type":"LineString","coordinates":[[112.3850919,22.9399337],[112.3853927,22.9400965]]},"properties":{"key":"way:777089953@detail:449_91","osmType":"way","osmId":777089953,"sourceRegion":"guangdong","featureType":"infrastructure","railClass":"national","mode":"rail","name":"广茂线","nameEn":"Guangmao Line","ref":"0708","operator":"中国铁路广州局集团有限公司","usage":"main","bridge":"yes","status":"operational","color":"#E54848","dataOrigin":"datum-2026-08-01","sourceKey":"way:777089953"}},{"type":"Feature","geometry":{"type":"LineString","coordinates":[[112.3044355,22.8943716],[112.307396,22.896831],[112.307993,22.897266],[112.309833,22.898756],[112.315466,22.903423],[112.316375,22.904043],[112.317534,22.904668],[112.320779,22.905948],[112.327486,22.908346],[112.328336,22.908701],[112.3323075,22.9109044]]},"properties":{"key":"way:833859977@detail:449_91","osmType":"way","osmId":833859977,"sourceRegion":"guangdong","featureType":"infrastructure","railClass":"national","mode":"rail","name":"广茂线","nameEn":"Guangmao Line","ref":"0708","operator":"中国铁路广州局集团有限公司","usage":"main","status":"operational","color":"#E54848","dataOrigin":"datum-2026-08-01","sourceKey":"way:833859977"}},{"type":"Feature","geometry":{"type":"LineString","coordinates":[[112.3041319,22.8941144],[112.3044355,22.8943716]]},"properties":{"key":"way:833859978@detail:449_91","osmType":"way","osmId":833859978,"sourceRegion":"guangdong","featureType":"infrastructure","railClass":"national","mode":"rail","name":"广茂线","nameEn":"Guangmao Line","ref":"0708","operator":"中国铁路广州局集团有限公司","usage":"main","bridge":"yes","status":"operational","color":"#E54848","dataOrigin":"datum-2026-08-01","sourceKey":"way:833859978"}},{"type":"Feature","geometry":{"type":"LineString","coordinates":[[112.2818798,22.8900625],[112.2814509,22.8904434],[112.2810879,22.8906685]]},"properties":{"key":"way:834181181@detail:449_91","osmType":"way","osmId":834181181,"sourceRegion":"guangdong","featureType":"infrastructure","railClass":"national","mode":"rail","name":"云浮支线","nameEn":"Yunfu Branch Railway","ref":"0709","usage":"branch","status":"operational","color":"#E54848","dataOrigin":"datum-2026-08-01","sourceKey":"way:834181181"}},{"type":"Feature","geometry":{"type":"LineString","coordinates":[[112.2820683,22.8898501],[112.2818798,22.8900625]]},"properties":{"key":"way:834181182@detail:449_91","osmType":"way","osmId":834181182,"sourceRegion":"guangdong","featureType":"infrastructure","railClass":"national","mode":"rail","name":"云浮支线","nameEn":"Yunfu Branch Railway","ref":"0709","usage":"branch","bridge":"yes","status":"operational","color":"#E54848","dataOrigin":"datum-2026-08-01","sourceKey":"way:834181182"}},{"type":"Feature","geometry":{"type":"LineString","coordinates":[[112.2791523,22.8851834],[112.279553,22.885576],[112.280884,22.886623],[112.2815749,22.8870991],[112.2816396,22.8871436],[112.282839,22.88797],[112.283635,22.888353],[112.2840822,22.888516]]},"properties":{"key":"way:1060165445@detail:449_91","osmType":"way","osmId":1060165445,"sourceRegion":"guangdong","featureType":"infrastructure","railClass":"national","mode":"rail","name":"广茂线","nameEn":"Guangmao Line","ref":"0708","operator":"中国铁路广州局集团有限公司","usage":"main","status":"operational","color":"#E54848","dataOrigin":"datum-2026-08-01","sourceKey":"way:1060165445"}},{"type":"Feature","geometry":{"type":"LineString","coordinates":[[112.2788367,22.8848347],[112.2791523,22.8851834]]},"properties":{"key":"way:1060165446@detail:449_91","osmType":"way","osmId":1060165446,"sourceRegion":"guangdong","featureType":"infrastructure","railClass":"national","mode":"rail","name":"广茂线","nameEn":"Guangmao Line","ref":"0708","operator":"中国铁路广州局集团有限公司","usage":"main","bridge":"yes","status":"operational","color":"#E54848","dataOrigin":"datum-2026-08-01","sourceKey":"way:1060165446"}},{"type":"Feature","geometry":{"type":"LineString","coordinates":[[112.4086849,22.9591568],[112.4083089,22.9587727],[112.4078498,22.9583493],[112.4052596,22.9560845],[112.4045543,22.9554618],[112.4032603,22.9543193],[112.4019665,22.9531841],[112.4017367,22.9529798]]},"properties":{"key":"way:1060165463@detail:449_91","osmType":"way","osmId":1060165463,"sourceRegion":"guangdong","featureType":"infrastructure","railClass":"minor","mode":"rail","name":"未命名","usage":"main","service":"yard","status":"operational","color":"#52636F","dataOrigin":"datum-2026-08-01","sourceKey":"way:1060165463"}},{"type":"Feature","geometry":{"type":"LineString","coordinates":[[112.4045543,22.9554618],[112.4042888,22.9551639],[112.404097,22.9549615],[112.403736,22.954569],[112.4035589,22.9543956],[112.402632,22.9535851],[112.4024798,22.9534663],[112.4023277,22.9533702],[112.4021848,22.9532953],[112.4020428,22.9532055],[112.4017367,22.9529798],[112.4012924,22.952652]]},"properties":{"key":"way:1060165464@detail:449_91","osmType":"way","osmId":1060165464,"sourceRegion":"guangdong","featureType":"infrastructure","railClass":"minor","mode":"rail","name":"未命名","usage":"main","service":"yard","status":"operational","color":"#52636F","dataOrigin":"datum-2026-08-01","sourceKey":"way:1060165464"}},{"type":"Feature","geometry":{"type":"LineString","coordinates":[[112.4083842,22.9588903],[112.4079069,22.9585402],[112.4076898,22.9583734],[112.4075453,22.9582478],[112.4062526,22.957109],[112.4042394,22.9553489],[112.402156,22.9534903],[112.402038,22.9533701],[112.4016263,22.9529432]]},"properties":{"key":"way:1060165465@detail:449_91","osmType":"way","osmId":1060165465,"sourceRegion":"guangdong","featureType":"infrastructure","railClass":"minor","mode":"rail","name":"未命名","usage":"main","service":"yard","status":"operational","color":"#52636F","dataOrigin":"datum-2026-08-01","sourceKey":"way:1060165465"}},{"type":"Feature","geometry":{"type":"LineString","coordinates":[[112.4190423,22.7525958],[112.4237815,22.7550672]]},"properties":{"key":"way:1085237524@detail:449_91","osmType":"way","osmId":1085237524,"sourceRegion":"guangdong","featureType":"infrastructure","railClass":"highspeed","mode":"rail","name":"广湛高速线","nameEn":"Guangzhou-Zhanjiang Railway","usage":"main","highspeed":"yes","bridge":"yes","status":"operational","color":"#E54848","dataOrigin":"datum-2026-08-01","sourceKey":"way:1085237524"}},{"type":"Feature","geometry":{"type":"LineString","coordinates":[[112.2783736,22.8792528],[112.278031,22.880113],[112.277816,22.881073],[112.27778,22.882076],[112.27785,22.882656],[112.278048,22.883406],[112.278384,22.884151],[112.278706,22.884676],[112.2788367,22.8848347]]},"properties":{"key":"way:1215524970@detail:449_91","osmType":"way","osmId":1215524970,"sourceRegion":"guangdong","featureType":"infrastructure","railClass":"national","mode":"rail","name":"广茂线","nameEn":"Guangmao Line","ref":"0708","operator":"中国铁路广州局集团有限公司","usage":"main","status":"operational","color":"#E54848","dataOrigin":"datum-2026-08-01","sourceKey":"way:1215524970"}},{"type":"Feature","geometry":{"type":"LineString","coordinates":[[112.2784145,22.87915],[112.2783736,22.8792528]]},"properties":{"key":"way:1215524971@detail:449_91","osmType":"way","osmId":1215524971,"sourceRegion":"guangdong","featureType":"infrastructure","railClass":"national","mode":"rail","name":"广茂线","nameEn":"Guangmao Line","ref":"0708","operator":"中国铁路广州局集团有限公司","usage":"main","bridge":"yes","status":"operational","color":"#E54848","dataOrigin":"datum-2026-08-01","sourceKey":"way:1215524971"}},{"type":"Feature","geometry":{"type":"LineString","coordinates":[[112.3853927,22.9400965],[112.386086,22.940468],[112.388573,22.941568],[112.389616,22.942275],[112.390518,22.943099],[112.392993,22.945845],[112.39338,22.946198],[112.393955,22.946683],[112.396418,22.948523],[112.398402,22.9501314]]},"properties":{"key":"way:1278544188@detail:449_91","osmType":"way","osmId":1278544188,"sourceRegion":"guangdong","featureType":"infrastructure","railClass":"national","mode":"rail","name":"广茂线","nameEn":"Guangmao Line","ref":"0708","operator":"中国铁路广州局集团有限公司","usage":"main","status":"operational","color":"#E54848","dataOrigin":"datum-2026-08-01","sourceKey":"way:1278544188"}},{"type":"Feature","geometry":{"type":"LineString","coordinates":[[112.398402,22.9501314],[112.3984531,22.950176]]},"properties":{"key":"way:1278544189@detail:449_91","osmType":"way","osmId":1278544189,"sourceRegion":"guangdong","featureType":"infrastructure","railClass":"national","mode":"rail","name":"广茂线","nameEn":"Guangmao Line","ref":"0708","operator":"中国铁路广州局集团有限公司","usage":"main","bridge":"yes","status":"operational","color":"#E54848","dataOrigin":"datum-2026-08-01","sourceKey":"way:1278544189"}},{"type":"Feature","geometry":{"type":"LineString","coordinates":[[112.3772011,22.9311211],[112.3774585,22.9319384],[112.377641,22.932964],[112.377806,22.933864],[112.377991,22.934538],[112.378508,22.935586],[112.379086,22.936348],[112.379424,22.936686],[112.380219,22.937285],[112.382159,22.938393],[112.3850919,22.9399337]]},"properties":{"key":"way:1316383669@detail:449_91","osmType":"way","osmId":1316383669,"sourceRegion":"guangdong","featureType":"infrastructure","railClass":"national","mode":"rail","name":"广茂线","nameEn":"Guangmao Line","ref":"0708","operator":"中国铁路广州局集团有限公司","usage":"main","status":"operational","color":"#E54848","dataOrigin":"datum-2026-08-01","sourceKey":"way:1316383669"}},{"type":"Feature","geometry":{"type":"LineString","coordinates":[[112.3763966,22.9299225],[112.376783,22.930381],[112.3772011,22.9311211]]},"properties":{"key":"way:1316383670@detail:449_91","osmType":"way","osmId":1316383670,"sourceRegion":"guangdong","featureType":"infrastructure","railClass":"national","mode":"rail","name":"广茂线","nameEn":"Guangmao Line","ref":"0708","operator":"中国铁路广州局集团有限公司","usage":"main","tunnel":"yes","status":"operational","color":"#E54848","dataOrigin":"datum-2026-08-01","sourceKey":"way:1316383670"}},{"type":"Feature","geometry":{"type":"LineString","coordinates":[[112.4595269,22.7707727],[112.4617761,22.7716853]]},"properties":{"key":"way:1341241422@detail:449_91","osmType":"way","osmId":1341241422,"sourceRegion":"guangdong","featureType":"infrastructure","railClass":"highspeed","mode":"rail","name":"广湛高速线","nameEn":"Guangzhou-Zhanjiang Railway","usage":"main","highspeed":"yes","status":"operational","color":"#E54848","dataOrigin":"datum-2026-08-01","sourceKey":"way:1341241422"}},{"type":"Feature","geometry":{"type":"LineString","coordinates":[[112.477578,22.7771422],[112.4814489,22.7782172]]},"properties":{"key":"way:1341241423@detail:449_91","osmType":"way","osmId":1341241423,"sourceRegion":"guangdong","featureType":"infrastructure","railClass":"highspeed","mode":"rail","name":"广湛高速线","nameEn":"Guangzhou-Zhanjiang Railway","usage":"main","highspeed":"yes","tunnel":"yes","status":"operational","color":"#E54848","dataOrigin":"datum-2026-08-01","sourceKey":"way:1341241423"}},{"type":"Feature","geometry":{"type":"LineString","coordinates":[[112.4286242,22.7575956],[112.4409693,22.7632055]]},"properties":{"key":"way:1341241425@detail:449_91","osmType":"way","osmId":1341241425,"sourceRegion":"guangdong","featureType":"infrastructure","railClass":"highspeed","mode":"rail","name":"广湛高速线","nameEn":"Guangzhou-Zhanjiang Railway","usage":"main","highspeed":"yes","tunnel":"yes","status":"operational","color":"#E54848","dataOrigin":"datum-2026-08-01","sourceKey":"way:1341241425"}},{"type":"Feature","geometry":{"type":"LineString","coordinates":[[112.4475245,22.8296641],[112.4519191,22.8279357],[112.4572468,22.826058]]},"properties":{"key":"way:1356123882@detail:449_91","osmType":"way","osmId":1356123882,"sourceRegion":"guangdong","featureType":"infrastructure","railClass":"construction","mode":"construction","name":"南珠高速线","nameEn":"Nanning-Zhuhai Highspeed Railway","usage":"main","highspeed":"yes","status":"construction","color":"#397F9D","dataOrigin":"datum-2026-08-01","sourceKey":"way:1356123882"}},{"type":"Feature","geometry":{"type":"LineString","coordinates":[[112.446502,22.8301209],[112.4425947,22.8319097],[112.4373712,22.8345333],[112.435102,22.8358567],[112.433231,22.8372388]]},"properties":{"key":"way:1356123887@detail:449_91","osmType":"way","osmId":1356123887,"sourceRegion":"guangdong","featureType":"infrastructure","railClass":"construction","mode":"construction","name":"南珠高速线","nameEn":"Nanning-Zhuhai Highspeed Railway","usage":"main","highspeed":"yes","status":"construction","color":"#397F9D","dataOrigin":"datum-2026-08-01","sourceKey":"way:1356123887"}},{"type":"Feature","geometry":{"type":"LineString","coordinates":[[112.4028483,22.8568045],[112.4073417,22.8545855],[112.4092698,22.8535914]]},"properties":{"key":"way:1356123893@detail:449_91","osmType":"way","osmId":1356123893,"sourceRegion":"guangdong","featureType":"infrastructure","railClass":"construction","mode":"construction","name":"南珠高速线","nameEn":"Nanning-Zhuhai Highspeed Railway","usage":"main","highspeed":"yes","status":"construction","color":"#397F9D","dataOrigin":"datum-2026-08-01","sourceKey":"way:1356123893"}},{"type":"Feature","geometry":{"type":"LineString","coordinates":[[112.433231,22.8372388],[112.4249555,22.8428402],[112.4235172,22.8438422],[112.4179224,22.8479439],[112.4168125,22.8487789],[112.4102693,22.853071],[112.4092698,22.8535914]]},"properties":{"key":"way:1356123894@detail:449_91","osmType":"way","osmId":1356123894,"sourceRegion":"guangdong","featureType":"infrastructure","railClass":"construction","mode":"construction","name":"南珠高速线","nameEn":"Nanning-Zhuhai Highspeed Railway","usage":"main","highspeed":"yes","status":"construction","color":"#397F9D","dataOrigin":"datum-2026-08-01","sourceKey":"way:1356123894"}},{"type":"Feature","geometry":{"type":"LineString","coordinates":[[112.3681068,22.8767772],[112.3642596,22.8789178]]},"properties":{"key":"way:1356123895@detail:449_91","osmType":"way","osmId":1356123895,"sourceRegion":"guangdong","featureType":"infrastructure","railClass":"construction","mode":"construction","name":"南珠高速线","nameEn":"Nanning-Zhuhai Highspeed Railway","usage":"main","highspeed":"yes","status":"construction","color":"#397F9D","dataOrigin":"datum-2026-08-01","sourceKey":"way:1356123895"}},{"type":"Feature","geometry":{"type":"LineString","coordinates":[[112.4572468,22.826058],[112.4651848,22.8233016],[112.4698093,22.8220187],[112.4753475,22.8208641],[112.4870929,22.8190264],[112.4925564,22.8182451]]},"properties":{"key":"way:1356123897@detail:449_91","osmType":"way","osmId":1356123897,"sourceRegion":"guangdong","featureType":"infrastructure","railClass":"construction","mode":"construction","name":"南珠高速线","nameEn":"Nanning-Zhuhai Highspeed Railway","usage":"main","highspeed":"yes","status":"construction","color":"#397F9D","dataOrigin":"datum-2026-08-01","sourceKey":"way:1356123897"}},{"type":"Feature","geometry":{"type":"LineString","coordinates":[[112.3302587,22.8971429],[112.3337692,22.8952215],[112.3388146,22.8921374],[112.342922,22.889642],[112.3481764,22.8865671],[112.3531546,22.8840235],[112.3572482,22.8820312]]},"properties":{"key":"way:1356123901@detail:449_91","osmType":"way","osmId":1356123901,"sourceRegion":"guangdong","featureType":"infrastructure","railClass":"construction","mode":"construction","name":"南珠高速线","nameEn":"Nanning-Zhuhai Highspeed Railway","usage":"main","highspeed":"yes","status":"construction","color":"#397F9D","dataOrigin":"datum-2026-08-01","sourceKey":"way:1356123901"}},{"type":"Feature","geometry":{"type":"LineString","coordinates":[[112.3180378,22.9043151],[112.3155899,22.9055898]]},"properties":{"key":"way:1356123913@detail:449_91","osmType":"way","osmId":1356123913,"sourceRegion":"guangdong","featureType":"infrastructure","railClass":"construction","mode":"construction","name":"南珠高速线","nameEn":"Nanning-Zhuhai Highspeed Railway","usage":"main","highspeed":"yes","status":"construction","color":"#397F9D","dataOrigin":"datum-2026-08-01","sourceKey":"way:1356123913"}},{"type":"Feature","geometry":{"type":"LineString","coordinates":[[112.3681068,22.8767772],[112.3716035,22.8747985]]},"properties":{"key":"way:1356123914@detail:449_91","osmType":"way","osmId":1356123914,"sourceRegion":"guangdong","featureType":"infrastructure","railClass":"construction","mode":"construction","name":"南珠高速线","nameEn":"Nanning-Zhuhai Highspeed Railway","usage":"main","highspeed":"yes","status":"construction","color":"#397F9D","dataOrigin":"datum-2026-08-01","sourceKey":"way:1356123914"}},{"type":"Feature","geometry":{"type":"LineString","coordinates":[[112.2612073,22.9224601],[112.258585,22.9236406]]},"properties":{"key":"way:1360346833@detail:449_91","osmType":"way","osmId":1360346833,"sourceRegion":"guangdong","featureType":"infrastructure","railClass":"construction","mode":"construction","name":"南珠高速线","nameEn":"Nanning-Zhuhai Highspeed Railway","usage":"main","highspeed":"yes","status":"construction","color":"#397F9D","dataOrigin":"datum-2026-08-01","sourceKey":"way:1360346833"}},{"type":"Feature","geometry":{"type":"LineString","coordinates":[[112.3155899,22.9055898],[112.3124379,22.9069035],[112.308155,22.9083723],[112.2629007,22.9218357],[112.2612073,22.9224601]]},"properties":{"key":"way:1360346834@detail:449_91","osmType":"way","osmId":1360346834,"sourceRegion":"guangdong","featureType":"infrastructure","railClass":"construction","mode":"construction","name":"南珠高速线","nameEn":"Nanning-Zhuhai Highspeed Railway","usage":"main","highspeed":"yes","status":"construction","color":"#397F9D","dataOrigin":"datum-2026-08-01","sourceKey":"way:1360346834"}},{"type":"Feature","geometry":{"type":"LineString","coordinates":[[112.258585,22.9236406],[112.25783,22.9239805],[112.2548111,22.9253876],[112.2517619,22.9268691],[112.25,22.927737479412507]]},"properties":{"key":"way:1360346835@detail:449_91","osmType":"way","osmId":1360346835,"sourceRegion":"guangdong","featureType":"infrastructure","railClass":"construction","mode":"construction","name":"南珠高速线","nameEn":"Nanning-Zhuhai Highspeed Railway","usage":"main","highspeed":"yes","status":"construction","color":"#397F9D","dataOrigin":"datum-2026-08-01","sourceKey":"way:1360346835"}},{"type":"Feature","geometry":{"type":"LineString","coordinates":[[112.3642596,22.8789178],[112.3572482,22.8820312]]},"properties":{"key":"way:1372219428@detail:449_91","osmType":"way","osmId":1372219428,"sourceRegion":"guangdong","featureType":"infrastructure","railClass":"construction","mode":"construction","name":"南珠高速线","nameEn":"Nanning-Zhuhai Highspeed Railway","usage":"main","highspeed":"yes","status":"construction","color":"#397F9D","dataOrigin":"datum-2026-08-01","sourceKey":"way:1372219428"}},{"type":"Feature","geometry":{"type":"LineString","coordinates":[[112.3180378,22.9043151],[112.3302587,22.8971429]]},"properties":{"key":"way:1376334143@detail:449_91","osmType":"way","osmId":1376334143,"sourceRegion":"guangdong","featureType":"infrastructure","railClass":"construction","mode":"construction","name":"南珠高速线","nameEn":"Nanning-Zhuhai Highspeed Railway","usage":"main","highspeed":"yes","status":"construction","color":"#397F9D","dataOrigin":"datum-2026-08-01","sourceKey":"way:1376334143"}},{"type":"Feature","geometry":{"type":"LineString","coordinates":[[112.3388205,22.9140797],[112.3392681,22.9143525],[112.3411642,22.9155081],[112.341566,22.915753],[112.342476,22.916201],[112.343443,22.916476],[112.34598,22.916771],[112.346725,22.916911],[112.347204,22.917053],[112.348116,22.917453],[112.351596,22.919375],[112.352751,22.919896],[112.3541648,22.9203259]]},"properties":{"key":"way:1383085099@detail:449_91","osmType":"way","osmId":1383085099,"sourceRegion":"guangdong","featureType":"infrastructure","railClass":"national","mode":"rail","name":"广茂线","nameEn":"Guangmao Line","ref":"0708","operator":"中国铁路广州局集团有限公司","usage":"main","status":"operational","color":"#E54848","dataOrigin":"datum-2026-08-01","sourceKey":"way:1383085099"}},{"type":"Feature","geometry":{"type":"LineString","coordinates":[[112.3541648,22.9203259],[112.3546778,22.9205094],[112.3581184,22.9215754]]},"properties":{"key":"way:1383085100@detail:449_91","osmType":"way","osmId":1383085100,"sourceRegion":"guangdong","featureType":"infrastructure","railClass":"national","mode":"rail","name":"广茂线","nameEn":"Guangmao Line","ref":"0708","operator":"中国铁路广州局集团有限公司","usage":"main","bridge":"yes","status":"operational","color":"#E54848","dataOrigin":"datum-2026-08-01","sourceKey":"way:1383085100"}},{"type":"Feature","geometry":{"type":"LineString","coordinates":[[112.4814489,22.7782172],[112.4928693,22.7816183]]},"properties":{"key":"way:1391311349@detail:449_91","osmType":"way","osmId":1391311349,"sourceRegion":"guangdong","featureType":"infrastructure","railClass":"highspeed","mode":"rail","name":"广湛高速线","nameEn":"Guangzhou-Zhanjiang Railway","usage":"main","highspeed":"yes","bridge":"yes","status":"operational","color":"#E54848","dataOrigin":"datum-2026-08-01","sourceKey":"way:1391311349"}},{"type":"Feature","geometry":{"type":"LineString","coordinates":[[112.4928693,22.7816183],[112.4955992,22.7824009]]},"properties":{"key":"way:1391311350@detail:449_91","osmType":"way","osmId":1391311350,"sourceRegion":"guangdong","featureType":"infrastructure","railClass":"highspeed","mode":"rail","name":"广湛高速线","nameEn":"Guangzhou-Zhanjiang Railway","usage":"main","highspeed":"yes","status":"operational","color":"#E54848","dataOrigin":"datum-2026-08-01","sourceKey":"way:1391311350"}},{"type":"Feature","geometry":{"type":"LineString","coordinates":[[112.4276313,22.7570747],[112.4286242,22.7575956]]},"properties":{"key":"way:1431621802@detail:449_91","osmType":"way","osmId":1431621802,"sourceRegion":"guangdong","featureType":"infrastructure","railClass":"highspeed","mode":"rail","name":"广湛高速线","nameEn":"Guangzhou-Zhanjiang Railway","usage":"main","highspeed":"yes","bridge":"yes","status":"operational","color":"#E54848","dataOrigin":"datum-2026-08-01","sourceKey":"way:1431621802"}},{"type":"Feature","geometry":{"type":"LineString","coordinates":[[112.41406447853282,22.75],[112.4152649,22.750626]]},"properties":{"key":"way:1431621805@detail:449_91","osmType":"way","osmId":1431621805,"sourceRegion":"guangdong","featureType":"infrastructure","railClass":"highspeed","mode":"rail","name":"广湛高速线","nameEn":"Guangzhou-Zhanjiang Railway","usage":"main","highspeed":"yes","tunnel":"yes","status":"operational","color":"#E54848","dataOrigin":"datum-2026-08-01","sourceKey":"way:1431621805"}},{"type":"Feature","geometry":{"type":"LineString","coordinates":[[112.4152649,22.750626],[112.4181458,22.7521283]]},"properties":{"key":"way:1431621806@detail:449_91","osmType":"way","osmId":1431621806,"sourceRegion":"guangdong","featureType":"infrastructure","railClass":"highspeed","mode":"rail","name":"广湛高速线","nameEn":"Guangzhou-Zhanjiang Railway","usage":"main","highspeed":"yes","bridge":"yes","status":"operational","color":"#E54848","dataOrigin":"datum-2026-08-01","sourceKey":"way:1431621806"}},{"type":"Feature","geometry":{"type":"LineString","coordinates":[[112.4181458,22.7521283],[112.4190423,22.7525958]]},"properties":{"key":"way:1431621807@detail:449_91","osmType":"way","osmId":1431621807,"sourceRegion":"guangdong","featureType":"infrastructure","railClass":"highspeed","mode":"rail","name":"广湛高速线","nameEn":"Guangzhou-Zhanjiang Railway","usage":"main","highspeed":"yes","status":"operational","color":"#E54848","dataOrigin":"datum-2026-08-01","sourceKey":"way:1431621807"}},{"type":"Feature","geometry":{"type":"LineString","coordinates":[[112.4237815,22.7550672],[112.4276313,22.7570747]]},"properties":{"key":"way:1431621808@detail:449_91","osmType":"way","osmId":1431621808,"sourceRegion":"guangdong","featureType":"infrastructure","railClass":"highspeed","mode":"rail","name":"广湛高速线","nameEn":"Guangzhou-Zhanjiang Railway","usage":"main","highspeed":"yes","tunnel":"yes","status":"operational","color":"#E54848","dataOrigin":"datum-2026-08-01","sourceKey":"way:1431621808"}},{"type":"Feature","geometry":{"type":"LineString","coordinates":[[112.4409693,22.7632055],[112.4423646,22.7638094]]},"properties":{"key":"way:1431621809@detail:449_91","osmType":"way","osmId":1431621809,"sourceRegion":"guangdong","featureType":"infrastructure","railClass":"highspeed","mode":"rail","name":"广湛高速线","nameEn":"Guangzhou-Zhanjiang Railway","usage":"main","highspeed":"yes","bridge":"yes","status":"operational","color":"#E54848","dataOrigin":"datum-2026-08-01","sourceKey":"way:1431621809"}},{"type":"Feature","geometry":{"type":"LineString","coordinates":[[112.4617761,22.7716853],[112.4654456,22.7731764],[112.4686031,22.7744079],[112.4710084,22.7752246],[112.4742717,22.7762279],[112.477578,22.7771422]]},"properties":{"key":"way:1431621810@detail:449_91","osmType":"way","osmId":1431621810,"sourceRegion":"guangdong","featureType":"infrastructure","railClass":"highspeed","mode":"rail","name":"广湛高速线","nameEn":"Guangzhou-Zhanjiang Railway","usage":"main","highspeed":"yes","bridge":"yes","status":"operational","color":"#E54848","dataOrigin":"datum-2026-08-01","sourceKey":"way:1431621810"}},{"type":"Feature","geometry":{"type":"LineString","coordinates":[[112.4423646,22.7638094],[112.4436125,22.7643157]]},"properties":{"key":"way:1431621811@detail:449_91","osmType":"way","osmId":1431621811,"sourceRegion":"guangdong","featureType":"infrastructure","railClass":"highspeed","mode":"rail","name":"广湛高速线","nameEn":"Guangzhou-Zhanjiang Railway","usage":"main","highspeed":"yes","status":"operational","color":"#E54848","dataOrigin":"datum-2026-08-01","sourceKey":"way:1431621811"}},{"type":"Feature","geometry":{"type":"LineString","coordinates":[[112.4436125,22.7643157],[112.4498303,22.7668385]]},"properties":{"key":"way:1431621812@detail:449_91","osmType":"way","osmId":1431621812,"sourceRegion":"guangdong","featureType":"infrastructure","railClass":"highspeed","mode":"rail","name":"广湛高速线","nameEn":"Guangzhou-Zhanjiang Railway","usage":"main","highspeed":"yes","bridge":"yes","status":"operational","color":"#E54848","dataOrigin":"datum-2026-08-01","sourceKey":"way:1431621812"}},{"type":"Feature","geometry":{"type":"LineString","coordinates":[[112.4498303,22.7668385],[112.4517607,22.7676217]]},"properties":{"key":"way:1431621813@detail:449_91","osmType":"way","osmId":1431621813,"sourceRegion":"guangdong","featureType":"infrastructure","railClass":"highspeed","mode":"rail","name":"广湛高速线","nameEn":"Guangzhou-Zhanjiang Railway","usage":"main","highspeed":"yes","status":"operational","color":"#E54848","dataOrigin":"datum-2026-08-01","sourceKey":"way:1431621813"}},{"type":"Feature","geometry":{"type":"LineString","coordinates":[[112.4517607,22.7676217],[112.4560314,22.7693545]]},"properties":{"key":"way:1431621814@detail:449_91","osmType":"way","osmId":1431621814,"sourceRegion":"guangdong","featureType":"infrastructure","railClass":"highspeed","mode":"rail","name":"广湛高速线","nameEn":"Guangzhou-Zhanjiang Railway","usage":"main","highspeed":"yes","bridge":"yes","status":"operational","color":"#E54848","dataOrigin":"datum-2026-08-01","sourceKey":"way:1431621814"}},{"type":"Feature","geometry":{"type":"LineString","coordinates":[[112.4560314,22.7693545],[112.457977,22.7701439]]},"properties":{"key":"way:1431621815@detail:449_91","osmType":"way","osmId":1431621815,"sourceRegion":"guangdong","featureType":"infrastructure","railClass":"highspeed","mode":"rail","name":"广湛高速线","nameEn":"Guangzhou-Zhanjiang Railway","usage":"main","highspeed":"yes","status":"operational","color":"#E54848","dataOrigin":"datum-2026-08-01","sourceKey":"way:1431621815"}},{"type":"Feature","geometry":{"type":"LineString","coordinates":[[112.457977,22.7701439],[112.4595269,22.7707727]]},"properties":{"key":"way:1431621816@detail:449_91","osmType":"way","osmId":1431621816,"sourceRegion":"guangdong","featureType":"infrastructure","railClass":"highspeed","mode":"rail","name":"广湛高速线","nameEn":"Guangzhou-Zhanjiang Railway","usage":"main","highspeed":"yes","bridge":"yes","status":"operational","color":"#E54848","dataOrigin":"datum-2026-08-01","sourceKey":"way:1431621816"}},{"type":"Feature","geometry":{"type":"LineString","coordinates":[[112.4475245,22.8296641],[112.446502,22.8301209]]},"properties":{"key":"way:1442800403@detail:449_91","osmType":"way","osmId":1442800403,"sourceRegion":"guangdong","featureType":"infrastructure","railClass":"construction","mode":"construction","name":"南珠高速线","nameEn":"Nanning-Zhuhai Highspeed Railway","usage":"main","highspeed":"yes","status":"construction","color":"#397F9D","dataOrigin":"datum-2026-08-01","sourceKey":"way:1442800403"}},{"type":"Feature","geometry":{"type":"LineString","coordinates":[[112.4028483,22.8568045],[112.3982238,22.8590096],[112.3873753,22.8641823],[112.3731702,22.8737968],[112.3716035,22.8747985]]},"properties":{"key":"way:1442800404@detail:449_91","osmType":"way","osmId":1442800404,"sourceRegion":"guangdong","featureType":"infrastructure","railClass":"construction","mode":"construction","name":"南珠高速线","nameEn":"Nanning-Zhuhai Highspeed Railway","usage":"main","highspeed":"yes","status":"construction","color":"#397F9D","dataOrigin":"datum-2026-08-01","sourceKey":"way:1442800404"}},{"type":"Feature","geometry":{"type":"LineString","coordinates":[[112.4285994,22.7576388],[112.4409463,22.7632495]]},"properties":{"key":"way:1462282184@detail:449_91","osmType":"way","osmId":1462282184,"sourceRegion":"guangdong","featureType":"infrastructure","railClass":"highspeed","mode":"rail","name":"广湛高速线","nameEn":"Guangzhou-Zhanjiang Railway","usage":"main","highspeed":"yes","tunnel":"yes","status":"operational","color":"#E54848","dataOrigin":"datum-2026-08-01","sourceKey":"way:1462282184"}},{"type":"Feature","geometry":{"type":"LineString","coordinates":[[112.4181197,22.7521708],[112.4190162,22.7526383]]},"properties":{"key":"way:1462282189@detail:449_91","osmType":"way","osmId":1462282189,"sourceRegion":"guangdong","featureType":"infrastructure","railClass":"highspeed","mode":"rail","name":"广湛高速线","nameEn":"Guangzhou-Zhanjiang Railway","usage":"main","highspeed":"yes","status":"operational","color":"#E54848","dataOrigin":"datum-2026-08-01","sourceKey":"way:1462282189"}},{"type":"Feature","geometry":{"type":"LineString","coordinates":[[112.4190162,22.7526383],[112.4237554,22.7551097]]},"properties":{"key":"way:1462282195@detail:449_91","osmType":"way","osmId":1462282195,"sourceRegion":"guangdong","featureType":"infrastructure","railClass":"highspeed","mode":"rail","name":"广湛高速线","nameEn":"Guangzhou-Zhanjiang Railway","usage":"main","highspeed":"yes","bridge":"yes","status":"operational","color":"#E54848","dataOrigin":"datum-2026-08-01","sourceKey":"way:1462282195"}},{"type":"Feature","geometry":{"type":"LineString","coordinates":[[112.4237554,22.7551097],[112.4276052,22.7571172]]},"properties":{"key":"way:1462282200@detail:449_91","osmType":"way","osmId":1462282200,"sourceRegion":"guangdong","featureType":"infrastructure","railClass":"highspeed","mode":"rail","name":"广湛高速线","nameEn":"Guangzhou-Zhanjiang Railway","usage":"main","highspeed":"yes","tunnel":"yes","status":"operational","color":"#E54848","dataOrigin":"datum-2026-08-01","sourceKey":"way:1462282200"}},{"type":"Feature","geometry":{"type":"LineString","coordinates":[[112.41395688027028,22.75],[112.4152388,22.7506685]]},"properties":{"key":"way:1462282204@detail:449_91","osmType":"way","osmId":1462282204,"sourceRegion":"guangdong","featureType":"infrastructure","railClass":"highspeed","mode":"rail","name":"广湛高速线","nameEn":"Guangzhou-Zhanjiang Railway","usage":"main","highspeed":"yes","tunnel":"yes","status":"operational","color":"#E54848","dataOrigin":"datum-2026-08-01","sourceKey":"way:1462282204"}},{"type":"Feature","geometry":{"type":"LineString","coordinates":[[112.4276052,22.7571172],[112.4285994,22.7576388]]},"properties":{"key":"way:1462282207@detail:449_91","osmType":"way","osmId":1462282207,"sourceRegion":"guangdong","featureType":"infrastructure","railClass":"highspeed","mode":"rail","name":"广湛高速线","nameEn":"Guangzhou-Zhanjiang Railway","usage":"main","highspeed":"yes","bridge":"yes","status":"operational","color":"#E54848","dataOrigin":"datum-2026-08-01","sourceKey":"way:1462282207"}},{"type":"Feature","geometry":{"type":"LineString","coordinates":[[112.4152388,22.7506685],[112.4181197,22.7521708]]},"properties":{"key":"way:1462282210@detail:449_91","osmType":"way","osmId":1462282210,"sourceRegion":"guangdong","featureType":"infrastructure","railClass":"highspeed","mode":"rail","name":"广湛高速线","nameEn":"Guangzhou-Zhanjiang Railway","usage":"main","highspeed":"yes","bridge":"yes","status":"operational","color":"#E54848","dataOrigin":"datum-2026-08-01","sourceKey":"way:1462282210"}},{"type":"Feature","geometry":{"type":"LineString","coordinates":[[112.4617548,22.77173],[112.4654246,22.7732213],[112.4685836,22.7744534],[112.4709909,22.7752707],[112.4742557,22.7762745],[112.4775627,22.777189]]},"properties":{"key":"way:1462282211@detail:449_91","osmType":"way","osmId":1462282211,"sourceRegion":"guangdong","featureType":"infrastructure","railClass":"highspeed","mode":"rail","name":"广湛高速线","nameEn":"Guangzhou-Zhanjiang Railway","usage":"main","highspeed":"yes","bridge":"yes","status":"operational","color":"#E54848","dataOrigin":"datum-2026-08-01","sourceKey":"way:1462282211"}},{"type":"Feature","geometry":{"type":"LineString","coordinates":[[112.4595056,22.7708174],[112.4617548,22.77173]]},"properties":{"key":"way:1462282212@detail:449_91","osmType":"way","osmId":1462282212,"sourceRegion":"guangdong","featureType":"infrastructure","railClass":"highspeed","mode":"rail","name":"广湛高速线","nameEn":"Guangzhou-Zhanjiang Railway","usage":"main","highspeed":"yes","status":"operational","color":"#E54848","dataOrigin":"datum-2026-08-01","sourceKey":"way:1462282212"}},{"type":"Feature","geometry":{"type":"LineString","coordinates":[[112.4517394,22.7676664],[112.4560101,22.7693992]]},"properties":{"key":"way:1462282213@detail:449_91","osmType":"way","osmId":1462282213,"sourceRegion":"guangdong","featureType":"infrastructure","railClass":"highspeed","mode":"rail","name":"广湛高速线","nameEn":"Guangzhou-Zhanjiang Railway","usage":"main","highspeed":"yes","bridge":"yes","status":"operational","color":"#E54848","dataOrigin":"datum-2026-08-01","sourceKey":"way:1462282213"}},{"type":"Feature","geometry":{"type":"LineString","coordinates":[[112.4814331,22.7782639],[112.4928533,22.7816649]]},"properties":{"key":"way:1462282214@detail:449_91","osmType":"way","osmId":1462282214,"sourceRegion":"guangdong","featureType":"infrastructure","railClass":"highspeed","mode":"rail","name":"广湛高速线","nameEn":"Guangzhou-Zhanjiang Railway","usage":"main","highspeed":"yes","bridge":"yes","status":"operational","color":"#E54848","dataOrigin":"datum-2026-08-01","sourceKey":"way:1462282214"}},{"type":"Feature","geometry":{"type":"LineString","coordinates":[[112.4423427,22.7638539],[112.4435912,22.7643604]]},"properties":{"key":"way:1462282215@detail:449_91","osmType":"way","osmId":1462282215,"sourceRegion":"guangdong","featureType":"infrastructure","railClass":"highspeed","mode":"rail","name":"广湛高速线","nameEn":"Guangzhou-Zhanjiang Railway","usage":"main","highspeed":"yes","status":"operational","color":"#E54848","dataOrigin":"datum-2026-08-01","sourceKey":"way:1462282215"}},{"type":"Feature","geometry":{"type":"LineString","coordinates":[[112.4775627,22.777189],[112.4814331,22.7782639]]},"properties":{"key":"way:1462282216@detail:449_91","osmType":"way","osmId":1462282216,"sourceRegion":"guangdong","featureType":"infrastructure","railClass":"highspeed","mode":"rail","name":"广湛高速线","nameEn":"Guangzhou-Zhanjiang Railway","usage":"main","highspeed":"yes","tunnel":"yes","status":"operational","color":"#E54848","dataOrigin":"datum-2026-08-01","sourceKey":"way:1462282216"}},{"type":"Feature","geometry":{"type":"LineString","coordinates":[[112.4560101,22.7693992],[112.4579557,22.7701886]]},"properties":{"key":"way:1462282217@detail:449_91","osmType":"way","osmId":1462282217,"sourceRegion":"guangdong","featureType":"infrastructure","railClass":"highspeed","mode":"rail","name":"广湛高速线","nameEn":"Guangzhou-Zhanjiang Railway","usage":"main","highspeed":"yes","status":"operational","color":"#E54848","dataOrigin":"datum-2026-08-01","sourceKey":"way:1462282217"}},{"type":"Feature","geometry":{"type":"LineString","coordinates":[[112.4928533,22.7816649],[112.4955831,22.7824475]]},"properties":{"key":"way:1462282218@detail:449_91","osmType":"way","osmId":1462282218,"sourceRegion":"guangdong","featureType":"infrastructure","railClass":"highspeed","mode":"rail","name":"广湛高速线","nameEn":"Guangzhou-Zhanjiang Railway","usage":"main","highspeed":"yes","status":"operational","color":"#E54848","dataOrigin":"datum-2026-08-01","sourceKey":"way:1462282218"}},{"type":"Feature","geometry":{"type":"LineString","coordinates":[[112.4435912,22.7643604],[112.449809,22.7668832]]},"properties":{"key":"way:1462282219@detail:449_91","osmType":"way","osmId":1462282219,"sourceRegion":"guangdong","featureType":"infrastructure","railClass":"highspeed","mode":"rail","name":"广湛高速线","nameEn":"Guangzhou-Zhanjiang Railway","usage":"main","highspeed":"yes","bridge":"yes","status":"operational","color":"#E54848","dataOrigin":"datum-2026-08-01","sourceKey":"way:1462282219"}},{"type":"Feature","geometry":{"type":"LineString","coordinates":[[112.4579557,22.7701886],[112.4595056,22.7708174]]},"properties":{"key":"way:1462282220@detail:449_91","osmType":"way","osmId":1462282220,"sourceRegion":"guangdong","featureType":"infrastructure","railClass":"highspeed","mode":"rail","name":"广湛高速线","nameEn":"Guangzhou-Zhanjiang Railway","usage":"main","highspeed":"yes","bridge":"yes","status":"operational","color":"#E54848","dataOrigin":"datum-2026-08-01","sourceKey":"way:1462282220"}},{"type":"Feature","geometry":{"type":"LineString","coordinates":[[112.449809,22.7668832],[112.4517394,22.7676664]]},"properties":{"key":"way:1462282221@detail:449_91","osmType":"way","osmId":1462282221,"sourceRegion":"guangdong","featureType":"infrastructure","railClass":"highspeed","mode":"rail","name":"广湛高速线","nameEn":"Guangzhou-Zhanjiang Railway","usage":"main","highspeed":"yes","status":"operational","color":"#E54848","dataOrigin":"datum-2026-08-01","sourceKey":"way:1462282221"}},{"type":"Feature","geometry":{"type":"LineString","coordinates":[[112.4409463,22.7632495],[112.4423427,22.7638539]]},"properties":{"key":"way:1462282222@detail:449_91","osmType":"way","osmId":1462282222,"sourceRegion":"guangdong","featureType":"infrastructure","railClass":"highspeed","mode":"rail","name":"广湛高速线","nameEn":"Guangzhou-Zhanjiang Railway","usage":"main","highspeed":"yes","bridge":"yes","status":"operational","color":"#E54848","dataOrigin":"datum-2026-08-01","sourceKey":"way:1462282222"}},{"type":"Feature","geometry":{"type":"LineString","coordinates":[[112.4572814,22.826142],[112.4652161,22.8233867],[112.4698341,22.8221056],[112.4753664,22.8209523],[112.4871085,22.8191151],[112.4925717,22.8183338]]},"properties":{"key":"way:1509798755@detail:449_91","osmType":"way","osmId":1509798755,"sourceRegion":"guangdong","featureType":"infrastructure","railClass":"construction","mode":"construction","name":"南珠高速线","nameEn":"Nanning-Zhuhai Highspeed Railway","usage":"main","highspeed":"yes","status":"construction","color":"#397F9D","dataOrigin":"datum-2026-08-01","sourceKey":"way:1509798755"}},{"type":"Feature","geometry":{"type":"LineString","coordinates":[[112.4465449,22.8302016],[112.4426397,22.8319894],[112.4374206,22.8346108],[112.4351587,22.8359299],[112.4332904,22.8373101]]},"properties":{"key":"way:1509798756@detail:449_91","osmType":"way","osmId":1509798756,"sourceRegion":"guangdong","featureType":"infrastructure","railClass":"construction","mode":"construction","name":"南珠高速线","nameEn":"Nanning-Zhuhai Highspeed Railway","usage":"main","highspeed":"yes","status":"construction","color":"#397F9D","dataOrigin":"datum-2026-08-01","sourceKey":"way:1509798756"}},{"type":"Feature","geometry":{"type":"LineString","coordinates":[[112.4475649,22.8297459],[112.4465449,22.8302016]]},"properties":{"key":"way:1509798757@detail:449_91","osmType":"way","osmId":1509798757,"sourceRegion":"guangdong","featureType":"infrastructure","railClass":"construction","mode":"construction","name":"南珠高速线","nameEn":"Nanning-Zhuhai Highspeed Railway","usage":"main","highspeed":"yes","status":"construction","color":"#397F9D","dataOrigin":"datum-2026-08-01","sourceKey":"way:1509798757"}},{"type":"Feature","geometry":{"type":"LineString","coordinates":[[112.4475649,22.8297459],[112.4519556,22.828019],[112.4572814,22.826142]]},"properties":{"key":"way:1509798758@detail:449_91","osmType":"way","osmId":1509798758,"sourceRegion":"guangdong","featureType":"infrastructure","railClass":"construction","mode":"construction","name":"南珠高速线","nameEn":"Nanning-Zhuhai Highspeed Railway","usage":"main","highspeed":"yes","status":"construction","color":"#397F9D","dataOrigin":"datum-2026-08-01","sourceKey":"way:1509798758"}},{"type":"Feature","geometry":{"type":"LineString","coordinates":[[112.3681575,22.8768539],[112.3716568,22.8748737]]},"properties":{"key":"way:1509798759@detail:449_91","osmType":"way","osmId":1509798759,"sourceRegion":"guangdong","featureType":"infrastructure","railClass":"construction","mode":"construction","name":"南珠高速线","nameEn":"Nanning-Zhuhai Highspeed Railway","usage":"main","highspeed":"yes","status":"construction","color":"#397F9D","dataOrigin":"datum-2026-08-01","sourceKey":"way:1509798759"}},{"type":"Feature","geometry":{"type":"LineString","coordinates":[[112.4028937,22.856884],[112.4073885,22.8546643],[112.4093176,22.8536697]]},"properties":{"key":"way:1509798760@detail:449_91","osmType":"way","osmId":1509798760,"sourceRegion":"guangdong","featureType":"infrastructure","railClass":"construction","mode":"construction","name":"南珠高速线","nameEn":"Nanning-Zhuhai Highspeed Railway","usage":"main","highspeed":"yes","status":"construction","color":"#397F9D","dataOrigin":"datum-2026-08-01","sourceKey":"way:1509798760"}},{"type":"Feature","geometry":{"type":"LineString","coordinates":[[112.3643061,22.8789969],[112.3572921,22.8821114]]},"properties":{"key":"way:1509798761@detail:449_91","osmType":"way","osmId":1509798761,"sourceRegion":"guangdong","featureType":"infrastructure","railClass":"construction","mode":"construction","name":"南珠高速线","nameEn":"Nanning-Zhuhai Highspeed Railway","usage":"main","highspeed":"yes","status":"construction","color":"#397F9D","dataOrigin":"datum-2026-08-01","sourceKey":"way:1509798761"}},{"type":"Feature","geometry":{"type":"LineString","coordinates":[[112.3681575,22.8768539],[112.3643061,22.8789969]]},"properties":{"key":"way:1509798762@detail:449_91","osmType":"way","osmId":1509798762,"sourceRegion":"guangdong","featureType":"infrastructure","railClass":"construction","mode":"construction","name":"南珠高速线","nameEn":"Nanning-Zhuhai Highspeed Railway","usage":"main","highspeed":"yes","status":"construction","color":"#397F9D","dataOrigin":"datum-2026-08-01","sourceKey":"way:1509798762"}},{"type":"Feature","geometry":{"type":"LineString","coordinates":[[112.4028937,22.856884],[112.3982686,22.8590894],[112.3874269,22.8642588],[112.3732268,22.8738699],[112.3716568,22.8748737]]},"properties":{"key":"way:1509798763@detail:449_91","osmType":"way","osmId":1509798763,"sourceRegion":"guangdong","featureType":"infrastructure","railClass":"construction","mode":"construction","name":"南珠高速线","nameEn":"Nanning-Zhuhai Highspeed Railway","usage":"main","highspeed":"yes","status":"construction","color":"#397F9D","dataOrigin":"datum-2026-08-01","sourceKey":"way:1509798763"}},{"type":"Feature","geometry":{"type":"LineString","coordinates":[[112.4332904,22.8373101],[112.4250137,22.8429122],[112.4235769,22.8439132],[112.4179836,22.8480138],[112.4168716,22.8488504],[112.4103217,22.8531469],[112.4093176,22.8536697]]},"properties":{"key":"way:1509798764@detail:449_91","osmType":"way","osmId":1509798764,"sourceRegion":"guangdong","featureType":"infrastructure","railClass":"construction","mode":"construction","name":"南珠高速线","nameEn":"Nanning-Zhuhai Highspeed Railway","usage":"main","highspeed":"yes","status":"construction","color":"#397F9D","dataOrigin":"datum-2026-08-01","sourceKey":"way:1509798764"}},{"type":"Feature","geometry":{"type":"LineString","coordinates":[[112.2586278,22.9237213],[112.2578734,22.9240609],[112.2548558,22.9254674],[112.2518076,22.9269484],[112.25,22.927839296110648]]},"properties":{"key":"way:1509798821@detail:449_91","osmType":"way","osmId":1509798821,"sourceRegion":"guangdong","featureType":"infrastructure","railClass":"construction","mode":"construction","name":"南珠高速线","nameEn":"Nanning-Zhuhai Highspeed Railway","usage":"main","highspeed":"yes","status":"construction","color":"#397F9D","dataOrigin":"datum-2026-08-01","sourceKey":"way:1509798821"}},{"type":"Feature","geometry":{"type":"LineString","coordinates":[[112.318088,22.9043921],[112.3156341,22.9056699]]},"properties":{"key":"way:1509798822@detail:449_91","osmType":"way","osmId":1509798822,"sourceRegion":"guangdong","featureType":"infrastructure","railClass":"construction","mode":"construction","name":"南珠高速线","nameEn":"Nanning-Zhuhai Highspeed Railway","usage":"main","highspeed":"yes","status":"construction","color":"#397F9D","dataOrigin":"datum-2026-08-01","sourceKey":"way:1509798822"}},{"type":"Feature","geometry":{"type":"LineString","coordinates":[[112.3156341,22.9056699],[112.312475,22.9069866],[112.308187,22.9084571],[112.2629338,22.9219202],[112.2612469,22.9225422]]},"properties":{"key":"way:1509798823@detail:449_91","osmType":"way","osmId":1509798823,"sourceRegion":"guangdong","featureType":"infrastructure","railClass":"construction","mode":"construction","name":"南珠高速线","nameEn":"Nanning-Zhuhai Highspeed Railway","usage":"main","highspeed":"yes","status":"construction","color":"#397F9D","dataOrigin":"datum-2026-08-01","sourceKey":"way:1509798823"}},{"type":"Feature","geometry":{"type":"LineString","coordinates":[[112.2612469,22.9225422],[112.2586278,22.9237213]]},"properties":{"key":"way:1509798826@detail:449_91","osmType":"way","osmId":1509798826,"sourceRegion":"guangdong","featureType":"infrastructure","railClass":"construction","mode":"construction","name":"南珠高速线","nameEn":"Nanning-Zhuhai Highspeed Railway","usage":"main","highspeed":"yes","status":"construction","color":"#397F9D","dataOrigin":"datum-2026-08-01","sourceKey":"way:1509798826"}},{"type":"Feature","geometry":{"type":"LineString","coordinates":[[112.3303098,22.8972194],[112.3338211,22.8952976],[112.3388684,22.8922123],[112.342975,22.8897174],[112.3482262,22.8866443],[112.353201,22.8841025],[112.3572921,22.8821114]]},"properties":{"key":"way:1509798827@detail:449_91","osmType":"way","osmId":1509798827,"sourceRegion":"guangdong","featureType":"infrastructure","railClass":"construction","mode":"construction","name":"南珠高速线","nameEn":"Nanning-Zhuhai Highspeed Railway","usage":"main","highspeed":"yes","status":"construction","color":"#397F9D","dataOrigin":"datum-2026-08-01","sourceKey":"way:1509798827"}},{"type":"Feature","geometry":{"type":"LineString","coordinates":[[112.318088,22.9043921],[112.3303098,22.8972194]]},"properties":{"key":"way:1509798829@detail:449_91","osmType":"way","osmId":1509798829,"sourceRegion":"guangdong","featureType":"infrastructure","railClass":"construction","mode":"construction","name":"南珠高速线","nameEn":"Nanning-Zhuhai Highspeed Railway","usage":"main","highspeed":"yes","status":"construction","color":"#397F9D","dataOrigin":"datum-2026-08-01","sourceKey":"way:1509798829"}}]}