{"type":"FeatureCollection","features":[{"type":"Feature","geometry":{"type":"LineString","coordinates":[[112.2668894,23.8102697],[112.2673947,23.8098555]]},"properties":{"key":"way:316056752@detail:449_95","osmType":"way","osmId":316056752,"sourceRegion":"guangdong","featureType":"infrastructure","railClass":"highspeed","mode":"rail","name":"贵广客专线","nameEn":"Guiguang Passenger Line","ref":"3044","usage":"main","highspeed":"yes","status":"operational","color":"#E54848","dataOrigin":"datum-2026-08-01","sourceKey":"way:316056752"}},{"type":"Feature","geometry":{"type":"LineString","coordinates":[[112.2563486,23.8187309],[112.2579799,23.8176038]]},"properties":{"key":"way:316056760@detail:449_95","osmType":"way","osmId":316056760,"sourceRegion":"guangdong","featureType":"infrastructure","railClass":"highspeed","mode":"rail","name":"贵广客专线","nameEn":"Guiguang Passenger Line","ref":"3044","usage":"main","highspeed":"yes","status":"operational","color":"#E54848","dataOrigin":"datum-2026-08-01","sourceKey":"way:316056760"}},{"type":"Feature","geometry":{"type":"LineString","coordinates":[[112.2745025,23.8048862],[112.2807149,23.8018137]]},"properties":{"key":"way:316056770@detail:449_95","osmType":"way","osmId":316056770,"sourceRegion":"guangdong","featureType":"infrastructure","railClass":"highspeed","mode":"rail","name":"贵广客专线","nameEn":"Guiguang Passenger Line","ref":"3044","usage":"main","highspeed":"yes","tunnel":"yes","status":"operational","color":"#E54848","dataOrigin":"datum-2026-08-01","sourceKey":"way:316056770"}},{"type":"Feature","geometry":{"type":"LineString","coordinates":[[112.2917833,23.7958491],[112.2945127,23.7942325]]},"properties":{"key":"way:316056776@detail:449_95","osmType":"way","osmId":316056776,"sourceRegion":"guangdong","featureType":"infrastructure","railClass":"highspeed","mode":"rail","name":"贵广客专线","nameEn":"Guiguang Passenger Line","ref":"3044","usage":"main","highspeed":"yes","bridge":"yes","status":"operational","color":"#E54848","dataOrigin":"datum-2026-08-01","sourceKey":"way:316056776"}},{"type":"Feature","geometry":{"type":"LineString","coordinates":[[112.2579799,23.8176038],[112.2582435,23.8174216],[112.2668894,23.8102697]]},"properties":{"key":"way:316056786@detail:449_95","osmType":"way","osmId":316056786,"sourceRegion":"guangdong","featureType":"infrastructure","railClass":"highspeed","mode":"rail","name":"贵广客专线","nameEn":"Guiguang Passenger Line","ref":"3044","usage":"main","highspeed":"yes","tunnel":"yes","status":"operational","color":"#E54848","dataOrigin":"datum-2026-08-01","sourceKey":"way:316056786"}},{"type":"Feature","geometry":{"type":"LineString","coordinates":[[112.2807149,23.8018137],[112.2819948,23.801162]]},"properties":{"key":"way:316056787@detail:449_95","osmType":"way","osmId":316056787,"sourceRegion":"guangdong","featureType":"infrastructure","railClass":"highspeed","mode":"rail","name":"贵广客专线","nameEn":"Guiguang Passenger Line","ref":"3044","usage":"main","highspeed":"yes","status":"operational","color":"#E54848","dataOrigin":"datum-2026-08-01","sourceKey":"way:316056787"}},{"type":"Feature","geometry":{"type":"LineString","coordinates":[[112.2713126,23.8069073],[112.2740626,23.8051267]]},"properties":{"key":"way:316056789@detail:449_95","osmType":"way","osmId":316056789,"sourceRegion":"guangdong","featureType":"infrastructure","railClass":"highspeed","mode":"rail","name":"贵广客专线","nameEn":"Guiguang Passenger Line","ref":"3044","usage":"main","highspeed":"yes","tunnel":"yes","status":"operational","color":"#E54848","dataOrigin":"datum-2026-08-01","sourceKey":"way:316056789"}},{"type":"Feature","geometry":{"type":"LineString","coordinates":[[112.2673947,23.8098555],[112.2689166,23.8086328],[112.2711262,23.8070375]]},"properties":{"key":"way:316056791@detail:449_95","osmType":"way","osmId":316056791,"sourceRegion":"guangdong","featureType":"infrastructure","railClass":"highspeed","mode":"rail","name":"贵广客专线","nameEn":"Guiguang Passenger Line","ref":"3044","usage":"main","highspeed":"yes","tunnel":"yes","status":"operational","color":"#E54848","dataOrigin":"datum-2026-08-01","sourceKey":"way:316056791"}},{"type":"Feature","geometry":{"type":"LineString","coordinates":[[112.2945127,23.7942325],[112.2993103,23.7914473]]},"properties":{"key":"way:316056793@detail:449_95","osmType":"way","osmId":316056793,"sourceRegion":"guangdong","featureType":"infrastructure","railClass":"highspeed","mode":"rail","name":"贵广客专线","nameEn":"Guiguang Passenger Line","ref":"3044","usage":"main","highspeed":"yes","tunnel":"yes","status":"operational","color":"#E54848","dataOrigin":"datum-2026-08-01","sourceKey":"way:316056793"}},{"type":"Feature","geometry":{"type":"LineString","coordinates":[[112.3251319,23.7545739],[112.3254028,23.753862]]},"properties":{"key":"way:342308707@detail:449_95","osmType":"way","osmId":342308707,"sourceRegion":"guangdong","featureType":"infrastructure","railClass":"highspeed","mode":"rail","name":"贵广客专线","nameEn":"Guiguang Passenger Line","ref":"3044","usage":"main","highspeed":"yes","status":"operational","color":"#E54848","dataOrigin":"datum-2026-08-01","sourceKey":"way:342308707"}},{"type":"Feature","geometry":{"type":"LineString","coordinates":[[112.3254028,23.753862],[112.32684012513658,23.75]]},"properties":{"key":"way:342308708@detail:449_95","osmType":"way","osmId":342308708,"sourceRegion":"guangdong","featureType":"infrastructure","railClass":"highspeed","mode":"rail","name":"贵广客专线","nameEn":"Guiguang Passenger Line","ref":"3044","usage":"main","highspeed":"yes","tunnel":"yes","status":"operational","color":"#E54848","dataOrigin":"datum-2026-08-01","sourceKey":"way:342308708"}},{"type":"Feature","geometry":{"type":"LineString","coordinates":[[112.324118,23.75724],[112.3251319,23.7545739]]},"properties":{"key":"way:342308709@detail:449_95","osmType":"way","osmId":342308709,"sourceRegion":"guangdong","featureType":"infrastructure","railClass":"highspeed","mode":"rail","name":"贵广客专线","nameEn":"Guiguang Passenger Line","ref":"3044","usage":"main","highspeed":"yes","tunnel":"yes","status":"operational","color":"#E54848","dataOrigin":"datum-2026-08-01","sourceKey":"way:342308709"}},{"type":"Feature","geometry":{"type":"LineString","coordinates":[[112.3237425,23.7582146],[112.324118,23.75724]]},"properties":{"key":"way:342308710@detail:449_95","osmType":"way","osmId":342308710,"sourceRegion":"guangdong","featureType":"infrastructure","railClass":"highspeed","mode":"rail","name":"贵广客专线","nameEn":"Guiguang Passenger Line","ref":"3044","usage":"main","highspeed":"yes","status":"operational","color":"#E54848","dataOrigin":"datum-2026-08-01","sourceKey":"way:342308710"}},{"type":"Feature","geometry":{"type":"LineString","coordinates":[[112.3207498,23.7663659],[112.3237425,23.7582146]]},"properties":{"key":"way:342308711@detail:449_95","osmType":"way","osmId":342308711,"sourceRegion":"guangdong","featureType":"infrastructure","railClass":"highspeed","mode":"rail","name":"贵广客专线","nameEn":"Guiguang Passenger Line","ref":"3044","usage":"main","highspeed":"yes","tunnel":"yes","status":"operational","color":"#E54848","dataOrigin":"datum-2026-08-01","sourceKey":"way:342308711"}},{"type":"Feature","geometry":{"type":"LineString","coordinates":[[112.3205461,23.766868],[112.3206266,23.7666696]]},"properties":{"key":"way:342308712@detail:449_95","osmType":"way","osmId":342308712,"sourceRegion":"guangdong","featureType":"infrastructure","railClass":"highspeed","mode":"rail","name":"贵广客专线","nameEn":"Guiguang Passenger Line","ref":"3044","usage":"main","highspeed":"yes","status":"operational","color":"#E54848","dataOrigin":"datum-2026-08-01","sourceKey":"way:342308712"}},{"type":"Feature","geometry":{"type":"LineString","coordinates":[[112.3181608,23.7717797],[112.3183754,23.7713231]]},"properties":{"key":"way:342308713@detail:449_95","osmType":"way","osmId":342308713,"sourceRegion":"guangdong","featureType":"infrastructure","railClass":"highspeed","mode":"rail","name":"贵广客专线","nameEn":"Guiguang Passenger Line","ref":"3044","usage":"main","highspeed":"yes","status":"operational","color":"#E54848","dataOrigin":"datum-2026-08-01","sourceKey":"way:342308713"}},{"type":"Feature","geometry":{"type":"LineString","coordinates":[[112.3183754,23.7713231],[112.3205461,23.766868]]},"properties":{"key":"way:342308714@detail:449_95","osmType":"way","osmId":342308714,"sourceRegion":"guangdong","featureType":"infrastructure","railClass":"highspeed","mode":"rail","name":"贵广客专线","nameEn":"Guiguang Passenger Line","ref":"3044","usage":"main","highspeed":"yes","tunnel":"yes","status":"operational","color":"#E54848","dataOrigin":"datum-2026-08-01","sourceKey":"way:342308714"}},{"type":"Feature","geometry":{"type":"LineString","coordinates":[[112.3143454,23.7780317],[112.3181608,23.7717797]]},"properties":{"key":"way:342308715@detail:449_95","osmType":"way","osmId":342308715,"sourceRegion":"guangdong","featureType":"infrastructure","railClass":"highspeed","mode":"rail","name":"贵广客专线","nameEn":"Guiguang Passenger Line","ref":"3044","usage":"main","highspeed":"yes","tunnel":"yes","status":"operational","color":"#E54848","dataOrigin":"datum-2026-08-01","sourceKey":"way:342308715"}},{"type":"Feature","geometry":{"type":"LineString","coordinates":[[112.3096555,23.7833037],[112.3131792,23.7795348]]},"properties":{"key":"way:342308716@detail:449_95","osmType":"way","osmId":342308716,"sourceRegion":"guangdong","featureType":"infrastructure","railClass":"highspeed","mode":"rail","name":"贵广客专线","nameEn":"Guiguang Passenger Line","ref":"3044","usage":"main","highspeed":"yes","tunnel":"yes","status":"operational","color":"#E54848","dataOrigin":"datum-2026-08-01","sourceKey":"way:342308716"}},{"type":"Feature","geometry":{"type":"LineString","coordinates":[[112.3076573,23.7852182],[112.3096555,23.7833037]]},"properties":{"key":"way:342308718@detail:449_95","osmType":"way","osmId":342308718,"sourceRegion":"guangdong","featureType":"infrastructure","railClass":"highspeed","mode":"rail","name":"贵广客专线","nameEn":"Guiguang Passenger Line","ref":"3044","usage":"main","highspeed":"yes","status":"operational","color":"#E54848","dataOrigin":"datum-2026-08-01","sourceKey":"way:342308718"}},{"type":"Feature","geometry":{"type":"LineString","coordinates":[[112.3059192,23.7867276],[112.3076573,23.7852182]]},"properties":{"key":"way:342308719@detail:449_95","osmType":"way","osmId":342308719,"sourceRegion":"guangdong","featureType":"infrastructure","railClass":"highspeed","mode":"rail","name":"贵广客专线","nameEn":"Guiguang Passenger Line","ref":"3044","usage":"main","highspeed":"yes","tunnel":"yes","status":"operational","color":"#E54848","dataOrigin":"datum-2026-08-01","sourceKey":"way:342308719"}},{"type":"Feature","geometry":{"type":"LineString","coordinates":[[112.3027408,23.7891623],[112.3059192,23.7867276]]},"properties":{"key":"way:342308720@detail:449_95","osmType":"way","osmId":342308720,"sourceRegion":"guangdong","featureType":"infrastructure","railClass":"highspeed","mode":"rail","name":"贵广客专线","nameEn":"Guiguang Passenger Line","ref":"3044","usage":"main","highspeed":"yes","status":"operational","color":"#E54848","dataOrigin":"datum-2026-08-01","sourceKey":"way:342308720"}},{"type":"Feature","geometry":{"type":"LineString","coordinates":[[112.3017833,23.7898593],[112.3027408,23.7891623]]},"properties":{"key":"way:342308721@detail:449_95","osmType":"way","osmId":342308721,"sourceRegion":"guangdong","featureType":"infrastructure","railClass":"highspeed","mode":"rail","name":"贵广客专线","nameEn":"Guiguang Passenger Line","ref":"3044","usage":"main","highspeed":"yes","tunnel":"yes","status":"operational","color":"#E54848","dataOrigin":"datum-2026-08-01","sourceKey":"way:342308721"}},{"type":"Feature","geometry":{"type":"LineString","coordinates":[[112.3011073,23.7903232],[112.3017833,23.7898593]]},"properties":{"key":"way:342308722@detail:449_95","osmType":"way","osmId":342308722,"sourceRegion":"guangdong","featureType":"infrastructure","railClass":"highspeed","mode":"rail","name":"贵广客专线","nameEn":"Guiguang Passenger Line","ref":"3044","usage":"main","highspeed":"yes","status":"operational","color":"#E54848","dataOrigin":"datum-2026-08-01","sourceKey":"way:342308722"}},{"type":"Feature","geometry":{"type":"LineString","coordinates":[[112.2996294,23.7912681],[112.3011073,23.7903232]]},"properties":{"key":"way:342308723@detail:449_95","osmType":"way","osmId":342308723,"sourceRegion":"guangdong","featureType":"infrastructure","railClass":"highspeed","mode":"rail","name":"贵广客专线","nameEn":"Guiguang Passenger Line","ref":"3044","usage":"main","highspeed":"yes","tunnel":"yes","status":"operational","color":"#E54848","dataOrigin":"datum-2026-08-01","sourceKey":"way:342308723"}},{"type":"Feature","geometry":{"type":"LineString","coordinates":[[112.2819948,23.801162],[112.2917833,23.7958491]]},"properties":{"key":"way:342309015@detail:449_95","osmType":"way","osmId":342309015,"sourceRegion":"guangdong","featureType":"infrastructure","railClass":"highspeed","mode":"rail","name":"贵广客专线","nameEn":"Guiguang Passenger Line","ref":"3044","usage":"main","highspeed":"yes","tunnel":"yes","status":"operational","color":"#E54848","dataOrigin":"datum-2026-08-01","sourceKey":"way:342309015"}},{"type":"Feature","geometry":{"type":"LineString","coordinates":[[112.2740626,23.8051267],[112.2745025,23.8048862]]},"properties":{"key":"way:342309016@detail:449_95","osmType":"way","osmId":342309016,"sourceRegion":"guangdong","featureType":"infrastructure","railClass":"highspeed","mode":"rail","name":"贵广客专线","nameEn":"Guiguang Passenger Line","ref":"3044","usage":"main","highspeed":"yes","status":"operational","color":"#E54848","dataOrigin":"datum-2026-08-01","sourceKey":"way:342309016"}},{"type":"Feature","geometry":{"type":"LineString","coordinates":[[112.2711262,23.8070375],[112.2713126,23.8069073]]},"properties":{"key":"way:342309020@detail:449_95","osmType":"way","osmId":342309020,"sourceRegion":"guangdong","featureType":"infrastructure","railClass":"highspeed","mode":"rail","name":"贵广客专线","nameEn":"Guiguang Passenger Line","ref":"3044","usage":"main","highspeed":"yes","status":"operational","color":"#E54848","dataOrigin":"datum-2026-08-01","sourceKey":"way:342309020"}},{"type":"Feature","geometry":{"type":"LineString","coordinates":[[112.2539756,23.8202793],[112.2563486,23.8187309]]},"properties":{"key":"way:342309024@detail:449_95","osmType":"way","osmId":342309024,"sourceRegion":"guangdong","featureType":"infrastructure","railClass":"highspeed","mode":"rail","name":"贵广客专线","nameEn":"Guiguang Passenger Line","ref":"3044","usage":"main","highspeed":"yes","tunnel":"yes","status":"operational","color":"#E54848","dataOrigin":"datum-2026-08-01","sourceKey":"way:342309024"}},{"type":"Feature","geometry":{"type":"LineString","coordinates":[[112.2520927,23.8214424],[112.2537932,23.820402]]},"properties":{"key":"way:342309028@detail:449_95","osmType":"way","osmId":342309028,"sourceRegion":"guangdong","featureType":"infrastructure","railClass":"highspeed","mode":"rail","name":"贵广客专线","nameEn":"Guiguang Passenger Line","ref":"3044","usage":"main","highspeed":"yes","tunnel":"yes","status":"operational","color":"#E54848","dataOrigin":"datum-2026-08-01","sourceKey":"way:342309028"}},{"type":"Feature","geometry":{"type":"LineString","coordinates":[[112.2537932,23.820402],[112.2539756,23.8202793]]},"properties":{"key":"way:342309033@detail:449_95","osmType":"way","osmId":342309033,"sourceRegion":"guangdong","featureType":"infrastructure","railClass":"highspeed","mode":"rail","name":"贵广客专线","nameEn":"Guiguang Passenger Line","ref":"3044","usage":"main","highspeed":"yes","status":"operational","color":"#E54848","dataOrigin":"datum-2026-08-01","sourceKey":"way:342309033"}},{"type":"Feature","geometry":{"type":"LineString","coordinates":[[112.25,23.822613406883733],[112.2520927,23.8214424]]},"properties":{"key":"way:342310507@detail:449_95","osmType":"way","osmId":342310507,"sourceRegion":"guangdong","featureType":"infrastructure","railClass":"highspeed","mode":"rail","name":"贵广客专线","nameEn":"Guiguang Passenger Line","ref":"3044","usage":"main","highspeed":"yes","tunnel":"yes","status":"operational","color":"#E54848","dataOrigin":"datum-2026-08-01","sourceKey":"way:342310507"}},{"type":"Feature","geometry":{"type":"LineString","coordinates":[[112.2993103,23.7914473],[112.2996294,23.7912681]]},"properties":{"key":"way:590555921@detail:449_95","osmType":"way","osmId":590555921,"sourceRegion":"guangdong","featureType":"infrastructure","railClass":"highspeed","mode":"rail","name":"贵广客专线","nameEn":"Guiguang Passenger Line","ref":"3044","usage":"main","highspeed":"yes","status":"operational","color":"#E54848","dataOrigin":"datum-2026-08-01","sourceKey":"way:590555921"}},{"type":"Feature","geometry":{"type":"LineString","coordinates":[[112.2520556,23.8213893],[112.25,23.822539555755693]]},"properties":{"key":"way:631439080@detail:449_95","osmType":"way","osmId":631439080,"sourceRegion":"guangdong","featureType":"infrastructure","railClass":"highspeed","mode":"rail","name":"贵广客专线","nameEn":"Guiguang Passenger Line","ref":"3044","usage":"main","highspeed":"yes","tunnel":"yes","status":"operational","color":"#E54848","dataOrigin":"datum-2026-08-01","sourceKey":"way:631439080"}},{"type":"Feature","geometry":{"type":"LineString","coordinates":[[112.2537536,23.8203504],[112.2520556,23.8213893]]},"properties":{"key":"way:631439081@detail:449_95","osmType":"way","osmId":631439081,"sourceRegion":"guangdong","featureType":"infrastructure","railClass":"highspeed","mode":"rail","name":"贵广客专线","nameEn":"Guiguang Passenger Line","ref":"3044","usage":"main","highspeed":"yes","tunnel":"yes","status":"operational","color":"#E54848","dataOrigin":"datum-2026-08-01","sourceKey":"way:631439081"}},{"type":"Feature","geometry":{"type":"LineString","coordinates":[[112.2539352,23.8202283],[112.2537536,23.8203504]]},"properties":{"key":"way:631439082@detail:449_95","osmType":"way","osmId":631439082,"sourceRegion":"guangdong","featureType":"infrastructure","railClass":"highspeed","mode":"rail","name":"贵广客专线","nameEn":"Guiguang Passenger Line","ref":"3044","usage":"main","highspeed":"yes","status":"operational","color":"#E54848","dataOrigin":"datum-2026-08-01","sourceKey":"way:631439082"}},{"type":"Feature","geometry":{"type":"LineString","coordinates":[[112.2563078,23.8186801],[112.2539352,23.8202283]]},"properties":{"key":"way:631439083@detail:449_95","osmType":"way","osmId":631439083,"sourceRegion":"guangdong","featureType":"infrastructure","railClass":"highspeed","mode":"rail","name":"贵广客专线","nameEn":"Guiguang Passenger Line","ref":"3044","usage":"main","highspeed":"yes","tunnel":"yes","status":"operational","color":"#E54848","dataOrigin":"datum-2026-08-01","sourceKey":"way:631439083"}},{"type":"Feature","geometry":{"type":"LineString","coordinates":[[112.2579384,23.8175535],[112.2563078,23.8186801]]},"properties":{"key":"way:631439084@detail:449_95","osmType":"way","osmId":631439084,"sourceRegion":"guangdong","featureType":"infrastructure","railClass":"highspeed","mode":"rail","name":"贵广客专线","nameEn":"Guiguang Passenger Line","ref":"3044","usage":"main","highspeed":"yes","status":"operational","color":"#E54848","dataOrigin":"datum-2026-08-01","sourceKey":"way:631439084"}},{"type":"Feature","geometry":{"type":"LineString","coordinates":[[112.2668433,23.8102229],[112.2581996,23.817373],[112.2579384,23.8175535]]},"properties":{"key":"way:631439085@detail:449_95","osmType":"way","osmId":631439085,"sourceRegion":"guangdong","featureType":"infrastructure","railClass":"highspeed","mode":"rail","name":"贵广客专线","nameEn":"Guiguang Passenger Line","ref":"3044","usage":"main","highspeed":"yes","tunnel":"yes","status":"operational","color":"#E54848","dataOrigin":"datum-2026-08-01","sourceKey":"way:631439085"}},{"type":"Feature","geometry":{"type":"LineString","coordinates":[[112.267349,23.8098084],[112.2668433,23.8102229]]},"properties":{"key":"way:631439086@detail:449_95","osmType":"way","osmId":631439086,"sourceRegion":"guangdong","featureType":"infrastructure","railClass":"highspeed","mode":"rail","name":"贵广客专线","nameEn":"Guiguang Passenger Line","ref":"3044","usage":"main","highspeed":"yes","status":"operational","color":"#E54848","dataOrigin":"datum-2026-08-01","sourceKey":"way:631439086"}},{"type":"Feature","geometry":{"type":"LineString","coordinates":[[112.271084,23.8069877],[112.2688725,23.8085844],[112.267349,23.8098084]]},"properties":{"key":"way:631439087@detail:449_95","osmType":"way","osmId":631439087,"sourceRegion":"guangdong","featureType":"infrastructure","railClass":"highspeed","mode":"rail","name":"贵广客专线","nameEn":"Guiguang Passenger Line","ref":"3044","usage":"main","highspeed":"yes","tunnel":"yes","status":"operational","color":"#E54848","dataOrigin":"datum-2026-08-01","sourceKey":"way:631439087"}},{"type":"Feature","geometry":{"type":"LineString","coordinates":[[112.2712718,23.8068565],[112.271084,23.8069877]]},"properties":{"key":"way:631439088@detail:449_95","osmType":"way","osmId":631439088,"sourceRegion":"guangdong","featureType":"infrastructure","railClass":"highspeed","mode":"rail","name":"贵广客专线","nameEn":"Guiguang Passenger Line","ref":"3044","usage":"main","highspeed":"yes","status":"operational","color":"#E54848","dataOrigin":"datum-2026-08-01","sourceKey":"way:631439088"}},{"type":"Feature","geometry":{"type":"LineString","coordinates":[[112.274025,23.8050739],[112.2712718,23.8068565]]},"properties":{"key":"way:631439089@detail:449_95","osmType":"way","osmId":631439089,"sourceRegion":"guangdong","featureType":"infrastructure","railClass":"highspeed","mode":"rail","name":"贵广客专线","nameEn":"Guiguang Passenger Line","ref":"3044","usage":"main","highspeed":"yes","tunnel":"yes","status":"operational","color":"#E54848","dataOrigin":"datum-2026-08-01","sourceKey":"way:631439089"}},{"type":"Feature","geometry":{"type":"LineString","coordinates":[[112.2744684,23.8048314],[112.274025,23.8050739]]},"properties":{"key":"way:631439090@detail:449_95","osmType":"way","osmId":631439090,"sourceRegion":"guangdong","featureType":"infrastructure","railClass":"highspeed","mode":"rail","name":"贵广客专线","nameEn":"Guiguang Passenger Line","ref":"3044","usage":"main","highspeed":"yes","status":"operational","color":"#E54848","dataOrigin":"datum-2026-08-01","sourceKey":"way:631439090"}},{"type":"Feature","geometry":{"type":"LineString","coordinates":[[112.2806818,23.8017585],[112.2744684,23.8048314]]},"properties":{"key":"way:631439093@detail:449_95","osmType":"way","osmId":631439093,"sourceRegion":"guangdong","featureType":"infrastructure","railClass":"highspeed","mode":"rail","name":"贵广客专线","nameEn":"Guiguang Passenger Line","ref":"3044","usage":"main","highspeed":"yes","tunnel":"yes","status":"operational","color":"#E54848","dataOrigin":"datum-2026-08-01","sourceKey":"way:631439093"}},{"type":"Feature","geometry":{"type":"LineString","coordinates":[[112.2819605,23.8011074],[112.2806818,23.8017585]]},"properties":{"key":"way:631439095@detail:449_95","osmType":"way","osmId":631439095,"sourceRegion":"guangdong","featureType":"infrastructure","railClass":"highspeed","mode":"rail","name":"贵广客专线","nameEn":"Guiguang Passenger Line","ref":"3044","usage":"main","highspeed":"yes","status":"operational","color":"#E54848","dataOrigin":"datum-2026-08-01","sourceKey":"way:631439095"}},{"type":"Feature","geometry":{"type":"LineString","coordinates":[[112.291747,23.7957955],[112.2819605,23.8011074]]},"properties":{"key":"way:631439096@detail:449_95","osmType":"way","osmId":631439096,"sourceRegion":"guangdong","featureType":"infrastructure","railClass":"highspeed","mode":"rail","name":"贵广客专线","nameEn":"Guiguang Passenger Line","ref":"3044","usage":"main","highspeed":"yes","tunnel":"yes","status":"operational","color":"#E54848","dataOrigin":"datum-2026-08-01","sourceKey":"way:631439096"}},{"type":"Feature","geometry":{"type":"LineString","coordinates":[[112.2944755,23.7941794],[112.291747,23.7957955]]},"properties":{"key":"way:631439097@detail:449_95","osmType":"way","osmId":631439097,"sourceRegion":"guangdong","featureType":"infrastructure","railClass":"highspeed","mode":"rail","name":"贵广客专线","nameEn":"Guiguang Passenger Line","ref":"3044","usage":"main","highspeed":"yes","bridge":"yes","status":"operational","color":"#E54848","dataOrigin":"datum-2026-08-01","sourceKey":"way:631439097"}},{"type":"Feature","geometry":{"type":"LineString","coordinates":[[112.2992738,23.7913938],[112.2944755,23.7941794]]},"properties":{"key":"way:631439098@detail:449_95","osmType":"way","osmId":631439098,"sourceRegion":"guangdong","featureType":"infrastructure","railClass":"highspeed","mode":"rail","name":"贵广客专线","nameEn":"Guiguang Passenger Line","ref":"3044","usage":"main","highspeed":"yes","tunnel":"yes","status":"operational","color":"#E54848","dataOrigin":"datum-2026-08-01","sourceKey":"way:631439098"}},{"type":"Feature","geometry":{"type":"LineString","coordinates":[[112.2995916,23.7912154],[112.2992738,23.7913938]]},"properties":{"key":"way:631439099@detail:449_95","osmType":"way","osmId":631439099,"sourceRegion":"guangdong","featureType":"infrastructure","railClass":"highspeed","mode":"rail","name":"贵广客专线","nameEn":"Guiguang Passenger Line","ref":"3044","usage":"main","highspeed":"yes","status":"operational","color":"#E54848","dataOrigin":"datum-2026-08-01","sourceKey":"way:631439099"}},{"type":"Feature","geometry":{"type":"LineString","coordinates":[[112.3010669,23.7902722],[112.2995916,23.7912154]]},"properties":{"key":"way:631439100@detail:449_95","osmType":"way","osmId":631439100,"sourceRegion":"guangdong","featureType":"infrastructure","railClass":"highspeed","mode":"rail","name":"贵广客专线","nameEn":"Guiguang Passenger Line","ref":"3044","usage":"main","highspeed":"yes","tunnel":"yes","status":"operational","color":"#E54848","dataOrigin":"datum-2026-08-01","sourceKey":"way:631439100"}},{"type":"Feature","geometry":{"type":"LineString","coordinates":[[112.3017412,23.7898094],[112.3010669,23.7902722]]},"properties":{"key":"way:631439101@detail:449_95","osmType":"way","osmId":631439101,"sourceRegion":"guangdong","featureType":"infrastructure","railClass":"highspeed","mode":"rail","name":"贵广客专线","nameEn":"Guiguang Passenger Line","ref":"3044","usage":"main","highspeed":"yes","status":"operational","color":"#E54848","dataOrigin":"datum-2026-08-01","sourceKey":"way:631439101"}},{"type":"Feature","geometry":{"type":"LineString","coordinates":[[112.3026973,23.7891135],[112.3017412,23.7898094]]},"properties":{"key":"way:631439102@detail:449_95","osmType":"way","osmId":631439102,"sourceRegion":"guangdong","featureType":"infrastructure","railClass":"highspeed","mode":"rail","name":"贵广客专线","nameEn":"Guiguang Passenger Line","ref":"3044","usage":"main","highspeed":"yes","tunnel":"yes","status":"operational","color":"#E54848","dataOrigin":"datum-2026-08-01","sourceKey":"way:631439102"}},{"type":"Feature","geometry":{"type":"LineString","coordinates":[[112.3058734,23.7866805],[112.3026973,23.7891135]]},"properties":{"key":"way:631439103@detail:449_95","osmType":"way","osmId":631439103,"sourceRegion":"guangdong","featureType":"infrastructure","railClass":"highspeed","mode":"rail","name":"贵广客专线","nameEn":"Guiguang Passenger Line","ref":"3044","usage":"main","highspeed":"yes","status":"operational","color":"#E54848","dataOrigin":"datum-2026-08-01","sourceKey":"way:631439103"}},{"type":"Feature","geometry":{"type":"LineString","coordinates":[[112.3076087,23.7851736],[112.3058734,23.7866805]]},"properties":{"key":"way:631439104@detail:449_95","osmType":"way","osmId":631439104,"sourceRegion":"guangdong","featureType":"infrastructure","railClass":"highspeed","mode":"rail","name":"贵广客专线","nameEn":"Guiguang Passenger Line","ref":"3044","usage":"main","highspeed":"yes","tunnel":"yes","status":"operational","color":"#E54848","dataOrigin":"datum-2026-08-01","sourceKey":"way:631439104"}},{"type":"Feature","geometry":{"type":"LineString","coordinates":[[112.3096038,23.783262],[112.3076087,23.7851736]]},"properties":{"key":"way:631439105@detail:449_95","osmType":"way","osmId":631439105,"sourceRegion":"guangdong","featureType":"infrastructure","railClass":"highspeed","mode":"rail","name":"贵广客专线","nameEn":"Guiguang Passenger Line","ref":"3044","usage":"main","highspeed":"yes","status":"operational","color":"#E54848","dataOrigin":"datum-2026-08-01","sourceKey":"way:631439105"}},{"type":"Feature","geometry":{"type":"LineString","coordinates":[[112.3131174,23.7795051],[112.3096038,23.783262]]},"properties":{"key":"way:631439106@detail:449_95","osmType":"way","osmId":631439106,"sourceRegion":"guangdong","featureType":"infrastructure","railClass":"highspeed","mode":"rail","name":"贵广客专线","nameEn":"Guiguang Passenger Line","ref":"3044","usage":"main","highspeed":"yes","tunnel":"yes","status":"operational","color":"#E54848","dataOrigin":"datum-2026-08-01","sourceKey":"way:631439106"}},{"type":"Feature","geometry":{"type":"LineString","coordinates":[[112.3180992,23.7717513],[112.3142736,23.7779811]]},"properties":{"key":"way:631439108@detail:449_95","osmType":"way","osmId":631439108,"sourceRegion":"guangdong","featureType":"infrastructure","railClass":"highspeed","mode":"rail","name":"贵广客专线","nameEn":"Guiguang Passenger Line","ref":"3044","usage":"main","highspeed":"yes","tunnel":"yes","status":"operational","color":"#E54848","dataOrigin":"datum-2026-08-01","sourceKey":"way:631439108"}},{"type":"Feature","geometry":{"type":"LineString","coordinates":[[112.3183121,23.7712982],[112.3180992,23.7717513]]},"properties":{"key":"way:631439109@detail:449_95","osmType":"way","osmId":631439109,"sourceRegion":"guangdong","featureType":"infrastructure","railClass":"highspeed","mode":"rail","name":"贵广客专线","nameEn":"Guiguang Passenger Line","ref":"3044","usage":"main","highspeed":"yes","status":"operational","color":"#E54848","dataOrigin":"datum-2026-08-01","sourceKey":"way:631439109"}},{"type":"Feature","geometry":{"type":"LineString","coordinates":[[112.3204877,23.7668399],[112.3183121,23.7712982]]},"properties":{"key":"way:631439110@detail:449_95","osmType":"way","osmId":631439110,"sourceRegion":"guangdong","featureType":"infrastructure","railClass":"highspeed","mode":"rail","name":"贵广客专线","nameEn":"Guiguang Passenger Line","ref":"3044","usage":"main","highspeed":"yes","tunnel":"yes","status":"operational","color":"#E54848","dataOrigin":"datum-2026-08-01","sourceKey":"way:631439110"}},{"type":"Feature","geometry":{"type":"LineString","coordinates":[[112.320687,23.7663421],[112.3205925,23.766574]]},"properties":{"key":"way:631439111@detail:449_95","osmType":"way","osmId":631439111,"sourceRegion":"guangdong","featureType":"infrastructure","railClass":"highspeed","mode":"rail","name":"贵广客专线","nameEn":"Guiguang Passenger Line","ref":"3044","usage":"main","highspeed":"yes","status":"operational","color":"#E54848","dataOrigin":"datum-2026-08-01","sourceKey":"way:631439111"}},{"type":"Feature","geometry":{"type":"LineString","coordinates":[[112.3236775,23.7581938],[112.320687,23.7663421]]},"properties":{"key":"way:631439112@detail:449_95","osmType":"way","osmId":631439112,"sourceRegion":"guangdong","featureType":"infrastructure","railClass":"highspeed","mode":"rail","name":"贵广客专线","nameEn":"Guiguang Passenger Line","ref":"3044","usage":"main","highspeed":"yes","tunnel":"yes","status":"operational","color":"#E54848","dataOrigin":"datum-2026-08-01","sourceKey":"way:631439112"}},{"type":"Feature","geometry":{"type":"LineString","coordinates":[[112.324053,23.7572192],[112.3236775,23.7581938]]},"properties":{"key":"way:631439113@detail:449_95","osmType":"way","osmId":631439113,"sourceRegion":"guangdong","featureType":"infrastructure","railClass":"highspeed","mode":"rail","name":"贵广客专线","nameEn":"Guiguang Passenger Line","ref":"3044","usage":"main","highspeed":"yes","status":"operational","color":"#E54848","dataOrigin":"datum-2026-08-01","sourceKey":"way:631439113"}},{"type":"Feature","geometry":{"type":"LineString","coordinates":[[112.3250669,23.7545532],[112.324053,23.7572192]]},"properties":{"key":"way:631439114@detail:449_95","osmType":"way","osmId":631439114,"sourceRegion":"guangdong","featureType":"infrastructure","railClass":"highspeed","mode":"rail","name":"贵广客专线","nameEn":"Guiguang Passenger Line","ref":"3044","usage":"main","highspeed":"yes","tunnel":"yes","status":"operational","color":"#E54848","dataOrigin":"datum-2026-08-01","sourceKey":"way:631439114"}},{"type":"Feature","geometry":{"type":"LineString","coordinates":[[112.3253377,23.7538415],[112.3250669,23.7545532]]},"properties":{"key":"way:631439115@detail:449_95","osmType":"way","osmId":631439115,"sourceRegion":"guangdong","featureType":"infrastructure","railClass":"highspeed","mode":"rail","name":"贵广客专线","nameEn":"Guiguang Passenger Line","ref":"3044","usage":"main","highspeed":"yes","status":"operational","color":"#E54848","dataOrigin":"datum-2026-08-01","sourceKey":"way:631439115"}},{"type":"Feature","geometry":{"type":"LineString","coordinates":[[112.32676739848185,23.75],[112.3253377,23.7538415]]},"properties":{"key":"way:631439116@detail:449_95","osmType":"way","osmId":631439116,"sourceRegion":"guangdong","featureType":"infrastructure","railClass":"highspeed","mode":"rail","name":"贵广客专线","nameEn":"Guiguang Passenger Line","ref":"3044","usage":"main","highspeed":"yes","tunnel":"yes","status":"operational","color":"#E54848","dataOrigin":"datum-2026-08-01","sourceKey":"way:631439116"}},{"type":"Feature","geometry":{"type":"LineString","coordinates":[[112.3131792,23.7795348],[112.3143454,23.7780317]]},"properties":{"key":"way:1302633548@detail:449_95","osmType":"way","osmId":1302633548,"sourceRegion":"guangdong","featureType":"infrastructure","railClass":"highspeed","mode":"rail","name":"贵广客专线","nameEn":"Guiguang Passenger Line","ref":"3044","usage":"main","highspeed":"yes","bridge":"yes","status":"operational","color":"#E54848","dataOrigin":"datum-2026-08-01","sourceKey":"way:1302633548"}},{"type":"Feature","geometry":{"type":"LineString","coordinates":[[112.3142736,23.7779811],[112.3131174,23.7795051]]},"properties":{"key":"way:1302633549@detail:449_95","osmType":"way","osmId":1302633549,"sourceRegion":"guangdong","featureType":"infrastructure","railClass":"highspeed","mode":"rail","name":"贵广客专线","nameEn":"Guiguang Passenger Line","ref":"3044","usage":"main","highspeed":"yes","bridge":"yes","status":"operational","color":"#E54848","dataOrigin":"datum-2026-08-01","sourceKey":"way:1302633549"}},{"type":"Feature","geometry":{"type":"LineString","coordinates":[[112.3206652,23.7665745],[112.3207498,23.7663659]]},"properties":{"key":"way:1332091490@detail:449_95","osmType":"way","osmId":1332091490,"sourceRegion":"guangdong","featureType":"infrastructure","railClass":"highspeed","mode":"rail","name":"贵广客专线","nameEn":"Guiguang Passenger Line","ref":"3044","usage":"main","highspeed":"yes","status":"operational","color":"#E54848","dataOrigin":"datum-2026-08-01","sourceKey":"way:1332091490"}},{"type":"Feature","geometry":{"type":"LineString","coordinates":[[112.3206266,23.7666696],[112.3206652,23.7665745]]},"properties":{"key":"way:1332091491@detail:449_95","osmType":"way","osmId":1332091491,"sourceRegion":"guangdong","featureType":"infrastructure","railClass":"highspeed","mode":"rail","name":"贵广客专线","nameEn":"Guiguang Passenger Line","ref":"3044","usage":"main","highspeed":"yes","bridge":"yes","status":"operational","color":"#E54848","dataOrigin":"datum-2026-08-01","sourceKey":"way:1332091491"}},{"type":"Feature","geometry":{"type":"LineString","coordinates":[[112.3205582,23.7666638],[112.3204877,23.7668399]]},"properties":{"key":"way:1332091492@detail:449_95","osmType":"way","osmId":1332091492,"sourceRegion":"guangdong","featureType":"infrastructure","railClass":"highspeed","mode":"rail","name":"贵广客专线","nameEn":"Guiguang Passenger Line","ref":"3044","usage":"main","highspeed":"yes","status":"operational","color":"#E54848","dataOrigin":"datum-2026-08-01","sourceKey":"way:1332091492"}},{"type":"Feature","geometry":{"type":"LineString","coordinates":[[112.3205925,23.766574],[112.3205582,23.7666638]]},"properties":{"key":"way:1332091493@detail:449_95","osmType":"way","osmId":1332091493,"sourceRegion":"guangdong","featureType":"infrastructure","railClass":"highspeed","mode":"rail","name":"贵广客专线","nameEn":"Guiguang Passenger Line","ref":"3044","usage":"main","highspeed":"yes","bridge":"yes","status":"operational","color":"#E54848","dataOrigin":"datum-2026-08-01","sourceKey":"way:1332091493"}}]}