{"type":"FeatureCollection","features":[{"type":"Feature","geometry":{"type":"Point","coordinates":[112.4209761,23.5876168]},"properties":{"key":"node:3676379819","osmType":"node","osmId":3676379819,"sourceRegion":"guangdong","featureType":"station","railClass":"minor","mode":"station","name":"广宁","nameEn":"Guangning","operator":"中国铁路广州局集团有限公司","status":"operational","color":"#52636F","dataOrigin":"datum-2026-08-01","sourceKey":"node:3676379819","stationGroup":"广宁","hasOperationalRail":true,"hasConstructionRail":false}},{"type":"Feature","geometry":{"type":"LineString","coordinates":[[112.428217,23.5555655],[112.4282884,23.5554077],[112.4286848,23.5545385]]},"properties":{"key":"way:260637319@detail:449_94","osmType":"way","osmId":260637319,"sourceRegion":"guangdong","featureType":"infrastructure","railClass":"highspeed","mode":"rail","name":"贵广客专线","nameEn":"Guiguang Passenger Line","ref":"3044","usage":"main","highspeed":"yes","status":"operational","color":"#E54848","dataOrigin":"datum-2026-08-01","sourceKey":"way:260637319"}},{"type":"Feature","geometry":{"type":"LineString","coordinates":[[112.4231467,23.5717607],[112.4232143,23.5712642],[112.4233012,23.5706977],[112.4233697,23.5703102],[112.4234407,23.5699427],[112.4235466,23.5694693],[112.4236815,23.5689124],[112.4238178,23.5683864],[112.4251505,23.5633492],[112.4253123,23.5627511],[112.425502,23.562083],[112.425649,23.5615985],[112.4257876,23.5611816],[112.425899,23.5608638],[112.4260352,23.5604977]]},"properties":{"key":"way:260637322@detail:449_94","osmType":"way","osmId":260637322,"sourceRegion":"guangdong","featureType":"infrastructure","railClass":"highspeed","mode":"rail","name":"贵广客专线","nameEn":"Guiguang Passenger Line","ref":"3044","usage":"main","highspeed":"yes","tunnel":"yes","status":"operational","color":"#E54848","dataOrigin":"datum-2026-08-01","sourceKey":"way:260637322"}},{"type":"Feature","geometry":{"type":"LineString","coordinates":[[112.4331556,23.5433239],[112.4330474,23.5437178],[112.4329739,23.5439842],[112.432903,23.5442347],[112.4328312,23.544479],[112.4327645,23.5447051],[112.4327001,23.5449211],[112.4326026,23.5452225],[112.4324602,23.5456451],[112.4322514,23.5462404],[112.4320969,23.5466624],[112.4319566,23.5470414],[112.4318031,23.5474589],[112.4316831,23.5477786],[112.4316107,23.5479641],[112.4315098,23.5482198],[112.4313339,23.548644],[112.4310712,23.5492594],[112.4307771,23.5499216],[112.4306471,23.5502102],[112.4304584,23.5506252]]},"properties":{"key":"way:260637326@detail:449_94","osmType":"way","osmId":260637326,"sourceRegion":"guangdong","featureType":"infrastructure","railClass":"highspeed","mode":"rail","name":"贵广客专线","nameEn":"Guiguang Passenger Line","ref":"3044","usage":"main","highspeed":"yes","tunnel":"yes","status":"operational","color":"#E54848","dataOrigin":"datum-2026-08-01","sourceKey":"way:260637326"}},{"type":"Feature","geometry":{"type":"LineString","coordinates":[[112.4342469,23.538549],[112.4342758,23.5383993],[112.4343007,23.538267],[112.4343288,23.5381108],[112.4343532,23.5379649],[112.4343722,23.5378491],[112.4344,23.5376776],[112.4344252,23.5375056],[112.4344497,23.5373392],[112.4346432,23.5359508]]},"properties":{"key":"way:260637331@detail:449_94","osmType":"way","osmId":260637331,"sourceRegion":"guangdong","featureType":"infrastructure","railClass":"highspeed","mode":"rail","name":"贵广客专线","nameEn":"Guiguang Passenger Line","ref":"3044","usage":"main","highspeed":"yes","bridge":"yes","status":"operational","color":"#E54848","dataOrigin":"datum-2026-08-01","sourceKey":"way:260637331"}},{"type":"Feature","geometry":{"type":"LineString","coordinates":[[112.415989,23.6127051],[112.4166745,23.6109813],[112.4172807,23.6092757],[112.4178278,23.6075503],[112.4183106,23.6057955],[112.4186969,23.6040407],[112.4190187,23.602276],[112.4195484,23.5987007]]},"properties":{"key":"way:260637337@detail:449_94","osmType":"way","osmId":260637337,"sourceRegion":"guangdong","featureType":"infrastructure","railClass":"highspeed","mode":"rail","name":"贵广客专线","nameEn":"Guiguang Passenger Line","ref":"3044","usage":"main","highspeed":"yes","tunnel":"yes","status":"operational","color":"#E54848","dataOrigin":"datum-2026-08-01","sourceKey":"way:260637337"}},{"type":"Feature","geometry":{"type":"LineString","coordinates":[[112.415863,23.6130098],[112.415989,23.6127051]]},"properties":{"key":"way:342306928@detail:449_94","osmType":"way","osmId":342306928,"sourceRegion":"guangdong","featureType":"infrastructure","railClass":"highspeed","mode":"rail","name":"贵广客专线","nameEn":"Guiguang Passenger Line","ref":"3044","usage":"main","highspeed":"yes","status":"operational","color":"#E54848","dataOrigin":"datum-2026-08-01","sourceKey":"way:342306928"}},{"type":"Feature","geometry":{"type":"LineString","coordinates":[[112.4147606,23.6153962],[112.4150705,23.6147611],[112.4154514,23.6139403],[112.415863,23.6130098]]},"properties":{"key":"way:342306929@detail:449_94","osmType":"way","osmId":342306929,"sourceRegion":"guangdong","featureType":"infrastructure","railClass":"highspeed","mode":"rail","name":"贵广客专线","nameEn":"Guiguang Passenger Line","ref":"3044","usage":"main","highspeed":"yes","tunnel":"yes","status":"operational","color":"#E54848","dataOrigin":"datum-2026-08-01","sourceKey":"way:342306929"}},{"type":"Feature","geometry":{"type":"LineString","coordinates":[[112.4043912,23.6292464],[112.4055299,23.6281273],[112.4065867,23.6270363],[112.4076784,23.6258272],[112.4081946,23.6252262],[112.4087834,23.6245224],[112.4093413,23.623822],[112.4098702,23.6231198],[112.4113369,23.6211385]]},"properties":{"key":"way:342306933@detail:449_94","osmType":"way","osmId":342306933,"sourceRegion":"guangdong","featureType":"infrastructure","railClass":"highspeed","mode":"rail","name":"贵广客专线","nameEn":"Guiguang Passenger Line","ref":"3044","usage":"main","highspeed":"yes","bridge":"yes","status":"operational","color":"#E54848","dataOrigin":"datum-2026-08-01","sourceKey":"way:342306933"}},{"type":"Feature","geometry":{"type":"LineString","coordinates":[[112.4017895,23.6315686],[112.4034953,23.6300942],[112.4043912,23.6292464]]},"properties":{"key":"way:342306936@detail:449_94","osmType":"way","osmId":342306936,"sourceRegion":"guangdong","featureType":"infrastructure","railClass":"highspeed","mode":"rail","name":"贵广客专线","nameEn":"Guiguang Passenger Line","ref":"3044","usage":"main","highspeed":"yes","status":"operational","color":"#E54848","dataOrigin":"datum-2026-08-01","sourceKey":"way:342306936"}},{"type":"Feature","geometry":{"type":"LineString","coordinates":[[112.3989195,23.6337482],[112.4017895,23.6315686]]},"properties":{"key":"way:342306940@detail:449_94","osmType":"way","osmId":342306940,"sourceRegion":"guangdong","featureType":"infrastructure","railClass":"highspeed","mode":"rail","name":"贵广客专线","nameEn":"Guiguang Passenger Line","ref":"3044","usage":"main","highspeed":"yes","tunnel":"yes","status":"operational","color":"#E54848","dataOrigin":"datum-2026-08-01","sourceKey":"way:342306940"}},{"type":"Feature","geometry":{"type":"LineString","coordinates":[[112.398383,23.6341462],[112.3989195,23.6337482]]},"properties":{"key":"way:342306943@detail:449_94","osmType":"way","osmId":342306943,"sourceRegion":"guangdong","featureType":"infrastructure","railClass":"highspeed","mode":"rail","name":"贵广客专线","nameEn":"Guiguang Passenger Line","ref":"3044","usage":"main","highspeed":"yes","status":"operational","color":"#E54848","dataOrigin":"datum-2026-08-01","sourceKey":"way:342306943"}},{"type":"Feature","geometry":{"type":"LineString","coordinates":[[112.3768558,23.6522276],[112.398383,23.6341462]]},"properties":{"key":"way:342306944@detail:449_94","osmType":"way","osmId":342306944,"sourceRegion":"guangdong","featureType":"infrastructure","railClass":"highspeed","mode":"rail","name":"贵广客专线","nameEn":"Guiguang Passenger Line","ref":"3044","usage":"main","highspeed":"yes","tunnel":"yes","status":"operational","color":"#E54848","dataOrigin":"datum-2026-08-01","sourceKey":"way:342306944"}},{"type":"Feature","geometry":{"type":"LineString","coordinates":[[112.3761074,23.6531414],[112.3768558,23.6522276]]},"properties":{"key":"way:342306945@detail:449_94","osmType":"way","osmId":342306945,"sourceRegion":"guangdong","featureType":"infrastructure","railClass":"highspeed","mode":"rail","name":"贵广客专线","nameEn":"Guiguang Passenger Line","ref":"3044","usage":"main","highspeed":"yes","status":"operational","color":"#E54848","dataOrigin":"datum-2026-08-01","sourceKey":"way:342306945"}},{"type":"Feature","geometry":{"type":"LineString","coordinates":[[112.3511091,23.6944845],[112.3761074,23.6531414]]},"properties":{"key":"way:342308689@detail:449_94","osmType":"way","osmId":342308689,"sourceRegion":"guangdong","featureType":"infrastructure","railClass":"highspeed","mode":"rail","name":"贵广客专线","nameEn":"Guiguang Passenger Line","ref":"3044","usage":"main","highspeed":"yes","tunnel":"yes","status":"operational","color":"#E54848","dataOrigin":"datum-2026-08-01","sourceKey":"way:342308689"}},{"type":"Feature","geometry":{"type":"LineString","coordinates":[[112.3501279,23.6980867],[112.3511091,23.6944845]]},"properties":{"key":"way:342308690@detail:449_94","osmType":"way","osmId":342308690,"sourceRegion":"guangdong","featureType":"infrastructure","railClass":"highspeed","mode":"rail","name":"贵广客专线","nameEn":"Guiguang Passenger Line","ref":"3044","usage":"main","highspeed":"yes","status":"operational","color":"#E54848","dataOrigin":"datum-2026-08-01","sourceKey":"way:342308690"}},{"type":"Feature","geometry":{"type":"LineString","coordinates":[[112.3452914,23.7133755],[112.3488216,23.7037649]]},"properties":{"key":"way:342308691@detail:449_94","osmType":"way","osmId":342308691,"sourceRegion":"guangdong","featureType":"infrastructure","railClass":"highspeed","mode":"rail","name":"贵广客专线","nameEn":"Guiguang Passenger Line","ref":"3044","usage":"main","highspeed":"yes","tunnel":"yes","status":"operational","color":"#E54848","dataOrigin":"datum-2026-08-01","sourceKey":"way:342308691"}},{"type":"Feature","geometry":{"type":"LineString","coordinates":[[112.3442748,23.7154211],[112.3452914,23.7133755]]},"properties":{"key":"way:342308692@detail:449_94","osmType":"way","osmId":342308692,"sourceRegion":"guangdong","featureType":"infrastructure","railClass":"highspeed","mode":"rail","name":"贵广客专线","nameEn":"Guiguang Passenger Line","ref":"3044","usage":"main","highspeed":"yes","status":"operational","color":"#E54848","dataOrigin":"datum-2026-08-01","sourceKey":"way:342308692"}},{"type":"Feature","geometry":{"type":"LineString","coordinates":[[112.3435405,23.7168927],[112.3436945,23.7165911]]},"properties":{"key":"way:342308693@detail:449_94","osmType":"way","osmId":342308693,"sourceRegion":"guangdong","featureType":"infrastructure","railClass":"highspeed","mode":"rail","name":"贵广客专线","nameEn":"Guiguang Passenger Line","ref":"3044","usage":"main","highspeed":"yes","status":"operational","color":"#E54848","dataOrigin":"datum-2026-08-01","sourceKey":"way:342308693"}},{"type":"Feature","geometry":{"type":"LineString","coordinates":[[112.3436945,23.7165911],[112.3442748,23.7154211]]},"properties":{"key":"way:342308694@detail:449_94","osmType":"way","osmId":342308694,"sourceRegion":"guangdong","featureType":"infrastructure","railClass":"highspeed","mode":"rail","name":"贵广客专线","nameEn":"Guiguang Passenger Line","ref":"3044","usage":"main","highspeed":"yes","tunnel":"yes","status":"operational","color":"#E54848","dataOrigin":"datum-2026-08-01","sourceKey":"way:342308694"}},{"type":"Feature","geometry":{"type":"LineString","coordinates":[[112.3429632,23.717927],[112.3435405,23.7168927]]},"properties":{"key":"way:342308695@detail:449_94","osmType":"way","osmId":342308695,"sourceRegion":"guangdong","featureType":"infrastructure","railClass":"highspeed","mode":"rail","name":"贵广客专线","nameEn":"Guiguang Passenger Line","ref":"3044","usage":"main","highspeed":"yes","tunnel":"yes","status":"operational","color":"#E54848","dataOrigin":"datum-2026-08-01","sourceKey":"way:342308695"}},{"type":"Feature","geometry":{"type":"LineString","coordinates":[[112.3426643,23.7184436],[112.3429632,23.717927]]},"properties":{"key":"way:342308696@detail:449_94","osmType":"way","osmId":342308696,"sourceRegion":"guangdong","featureType":"infrastructure","railClass":"highspeed","mode":"rail","name":"贵广客专线","nameEn":"Guiguang Passenger Line","ref":"3044","usage":"main","highspeed":"yes","status":"operational","color":"#E54848","dataOrigin":"datum-2026-08-01","sourceKey":"way:342308696"}},{"type":"Feature","geometry":{"type":"LineString","coordinates":[[112.3377828,23.7269367],[112.3426643,23.7184436]]},"properties":{"key":"way:342308699@detail:449_94","osmType":"way","osmId":342308699,"sourceRegion":"guangdong","featureType":"infrastructure","railClass":"highspeed","mode":"rail","name":"贵广客专线","nameEn":"Guiguang Passenger Line","ref":"3044","usage":"main","highspeed":"yes","tunnel":"yes","status":"operational","color":"#E54848","dataOrigin":"datum-2026-08-01","sourceKey":"way:342308699"}},{"type":"Feature","geometry":{"type":"LineString","coordinates":[[112.3367053,23.7288584],[112.3377828,23.7269367]]},"properties":{"key":"way:342308700@detail:449_94","osmType":"way","osmId":342308700,"sourceRegion":"guangdong","featureType":"infrastructure","railClass":"highspeed","mode":"rail","name":"贵广客专线","nameEn":"Guiguang Passenger Line","ref":"3044","usage":"main","highspeed":"yes","bridge":"yes","status":"operational","color":"#E54848","dataOrigin":"datum-2026-08-01","sourceKey":"way:342308700"}},{"type":"Feature","geometry":{"type":"LineString","coordinates":[[112.3345223,23.7325387],[112.3365608,23.7290685],[112.3367053,23.7288584]]},"properties":{"key":"way:342308701@detail:449_94","osmType":"way","osmId":342308701,"sourceRegion":"guangdong","featureType":"infrastructure","railClass":"highspeed","mode":"rail","name":"贵广客专线","nameEn":"Guiguang Passenger Line","ref":"3044","usage":"main","highspeed":"yes","status":"operational","color":"#E54848","dataOrigin":"datum-2026-08-01","sourceKey":"way:342308701"}},{"type":"Feature","geometry":{"type":"LineString","coordinates":[[112.3328459,23.7355932],[112.3330283,23.7352101]]},"properties":{"key":"way:342308702@detail:449_94","osmType":"way","osmId":342308702,"sourceRegion":"guangdong","featureType":"infrastructure","railClass":"highspeed","mode":"rail","name":"贵广客专线","nameEn":"Guiguang Passenger Line","ref":"3044","usage":"main","highspeed":"yes","status":"operational","color":"#E54848","dataOrigin":"datum-2026-08-01","sourceKey":"way:342308702"}},{"type":"Feature","geometry":{"type":"LineString","coordinates":[[112.3330283,23.7352101],[112.3345223,23.7325387]]},"properties":{"key":"way:342308703@detail:449_94","osmType":"way","osmId":342308703,"sourceRegion":"guangdong","featureType":"infrastructure","railClass":"highspeed","mode":"rail","name":"贵广客专线","nameEn":"Guiguang Passenger Line","ref":"3044","usage":"main","highspeed":"yes","tunnel":"yes","status":"operational","color":"#E54848","dataOrigin":"datum-2026-08-01","sourceKey":"way:342308703"}},{"type":"Feature","geometry":{"type":"LineString","coordinates":[[112.3305258,23.7405553],[112.3328459,23.7355932]]},"properties":{"key":"way:342308704@detail:449_94","osmType":"way","osmId":342308704,"sourceRegion":"guangdong","featureType":"infrastructure","railClass":"highspeed","mode":"rail","name":"贵广客专线","nameEn":"Guiguang Passenger Line","ref":"3044","usage":"main","highspeed":"yes","tunnel":"yes","status":"operational","color":"#E54848","dataOrigin":"datum-2026-08-01","sourceKey":"way:342308704"}},{"type":"Feature","geometry":{"type":"LineString","coordinates":[[112.3300859,23.7416159],[112.3303944,23.7411347],[112.3305258,23.7405553]]},"properties":{"key":"way:342308705@detail:449_94","osmType":"way","osmId":342308705,"sourceRegion":"guangdong","featureType":"infrastructure","railClass":"highspeed","mode":"rail","name":"贵广客专线","nameEn":"Guiguang Passenger Line","ref":"3044","usage":"main","highspeed":"yes","status":"operational","color":"#E54848","dataOrigin":"datum-2026-08-01","sourceKey":"way:342308705"}},{"type":"Feature","geometry":{"type":"LineString","coordinates":[[112.3296648,23.7427257],[112.3300859,23.7416159]]},"properties":{"key":"way:342308706@detail:449_94","osmType":"way","osmId":342308706,"sourceRegion":"guangdong","featureType":"infrastructure","railClass":"highspeed","mode":"rail","name":"贵广客专线","nameEn":"Guiguang Passenger Line","ref":"3044","usage":"main","highspeed":"yes","tunnel":"yes","status":"operational","color":"#E54848","dataOrigin":"datum-2026-08-01","sourceKey":"way:342308706"}},{"type":"Feature","geometry":{"type":"LineString","coordinates":[[112.32684012513658,23.75],[112.3288021,23.7447283],[112.3292303,23.7438403],[112.3296648,23.7427257]]},"properties":{"key":"way:342308708@detail:449_94","osmType":"way","osmId":342308708,"sourceRegion":"guangdong","featureType":"infrastructure","railClass":"highspeed","mode":"rail","name":"贵广客专线","nameEn":"Guiguang Passenger Line","ref":"3044","usage":"main","highspeed":"yes","tunnel":"yes","status":"operational","color":"#E54848","dataOrigin":"datum-2026-08-01","sourceKey":"way:342308708"}},{"type":"Feature","geometry":{"type":"LineString","coordinates":[[112.4409534,23.5128816],[112.4413535,23.5116835],[112.4415358,23.5111262],[112.4416698,23.5106896],[112.4419189,23.509811],[112.4423623,23.5081903],[112.4425515,23.5074196],[112.4426877,23.5068883],[112.4427609,23.5065599],[112.4429539,23.5056424],[112.4438116,23.5007507],[112.44396270363701,23.5]]},"properties":{"key":"way:436988169@detail:449_94","osmType":"way","osmId":436988169,"sourceRegion":"guangdong","featureType":"infrastructure","railClass":"highspeed","mode":"rail","name":"贵广客专线","nameEn":"Guiguang Passenger Line","ref":"3044","usage":"main","highspeed":"yes","bridge":"yes","status":"operational","color":"#E54848","dataOrigin":"datum-2026-08-01","sourceKey":"way:436988169"}},{"type":"Feature","geometry":{"type":"LineString","coordinates":[[112.4202677,23.5931811],[112.4214299,23.5844272]]},"properties":{"key":"way:580157745@detail:449_94","osmType":"way","osmId":580157745,"sourceRegion":"guangdong","featureType":"infrastructure","railClass":"highspeed","mode":"rail","name":"贵广客专线","nameEn":"Guiguang Passenger Line","ref":"3044","usage":"main","highspeed":"yes","bridge":"yes","status":"operational","color":"#E54848","dataOrigin":"datum-2026-08-01","sourceKey":"way:580157745"}},{"type":"Feature","geometry":{"type":"LineString","coordinates":[[112.421363,23.5844176],[112.4202057,23.5931716]]},"properties":{"key":"way:580157746@detail:449_94","osmType":"way","osmId":580157746,"sourceRegion":"guangdong","featureType":"infrastructure","railClass":"highspeed","mode":"rail","name":"贵广客专线","nameEn":"Guiguang Passenger Line","ref":"3044","usage":"main","highspeed":"yes","bridge":"yes","status":"operational","color":"#E54848","dataOrigin":"datum-2026-08-01","sourceKey":"way:580157746"}},{"type":"Feature","geometry":{"type":"LineString","coordinates":[[112.4202057,23.5931716],[112.4197335,23.5968401],[112.4195657,23.5979568]]},"properties":{"key":"way:580157747@detail:449_94","osmType":"way","osmId":580157747,"sourceRegion":"guangdong","featureType":"infrastructure","railClass":"highspeed","mode":"rail","name":"贵广客专线","nameEn":"Guiguang Passenger Line","ref":"3044","usage":"main","highspeed":"yes","status":"operational","color":"#E54848","dataOrigin":"datum-2026-08-01","sourceKey":"way:580157747"}},{"type":"Feature","geometry":{"type":"LineString","coordinates":[[112.4196363,23.5979607],[112.4197966,23.5968465],[112.4199708,23.5955553],[112.4200197,23.595176],[112.4202677,23.5931811]]},"properties":{"key":"way:580157748@detail:449_94","osmType":"way","osmId":580157748,"sourceRegion":"guangdong","featureType":"infrastructure","railClass":"highspeed","mode":"rail","name":"贵广客专线","nameEn":"Guiguang Passenger Line","ref":"3044","usage":"main","highspeed":"yes","status":"operational","color":"#E54848","dataOrigin":"datum-2026-08-01","sourceKey":"way:580157748"}},{"type":"Feature","geometry":{"type":"LineString","coordinates":[[112.4214606,23.5836786],[112.4213958,23.5840313],[112.4213667,23.5841798],[112.4213495,23.5842661],[112.4213224,23.5844163]]},"properties":{"key":"way:580348473@detail:449_94","osmType":"way","osmId":580348473,"sourceRegion":"guangdong","featureType":"infrastructure","railClass":"minor","mode":"rail","name":"未命名","service":"siding","status":"operational","color":"#52636F","dataOrigin":"datum-2026-08-01","sourceKey":"way:580348473"}},{"type":"Feature","geometry":{"type":"LineString","coordinates":[[112.4198344,23.5970991],[112.4201323,23.5947875],[112.4202719,23.5936555]]},"properties":{"key":"way:580348475@detail:449_94","osmType":"way","osmId":580348475,"sourceRegion":"guangdong","featureType":"infrastructure","railClass":"minor","mode":"rail","name":"未命名","service":"yard","status":"operational","color":"#52636F","dataOrigin":"datum-2026-08-01","sourceKey":"way:580348475"}},{"type":"Feature","geometry":{"type":"LineString","coordinates":[[112.4214693,23.5844337],[112.4214757,23.5843482],[112.4214827,23.5842314],[112.4215222,23.5836814]]},"properties":{"key":"way:580349996@detail:449_94","osmType":"way","osmId":580349996,"sourceRegion":"guangdong","featureType":"infrastructure","railClass":"minor","mode":"rail","name":"未命名","service":"siding","status":"operational","color":"#52636F","dataOrigin":"datum-2026-08-01","sourceKey":"way:580349996"}},{"type":"Feature","geometry":{"type":"LineString","coordinates":[[112.4213224,23.5844163],[112.4212768,23.5846762],[112.4212488,23.5848398],[112.4212228,23.5850163],[112.4212016,23.5851694],[112.4211779,23.5853526],[112.4205507,23.5901001],[112.4204846,23.5905832],[112.4204186,23.5910695],[112.4203499,23.5915826],[112.4203218,23.5918193],[112.4202942,23.5920868],[112.4202561,23.5924743],[112.4202327,23.5927512],[112.4202179,23.5929638],[112.4202057,23.5931716]]},"properties":{"key":"way:580349997@detail:449_94","osmType":"way","osmId":580349997,"sourceRegion":"guangdong","featureType":"infrastructure","railClass":"minor","mode":"rail","name":"未命名","service":"siding","bridge":"yes","status":"operational","color":"#52636F","dataOrigin":"datum-2026-08-01","sourceKey":"way:580349997"}},{"type":"Feature","geometry":{"type":"LineString","coordinates":[[112.4203328,23.5931866],[112.420592,23.5911933],[112.4206865,23.5904647],[112.4207306,23.5901302],[112.4207709,23.5898327],[112.4213615,23.5853765],[112.421383,23.5852193],[112.4214088,23.5850304],[112.4214283,23.5848631],[112.421447,23.58468],[112.4214637,23.5845022],[112.4214693,23.5844337]]},"properties":{"key":"way:580355323@detail:449_94","osmType":"way","osmId":580355323,"sourceRegion":"guangdong","featureType":"infrastructure","railClass":"minor","mode":"rail","name":"未命名","service":"siding","bridge":"yes","status":"operational","color":"#52636F","dataOrigin":"datum-2026-08-01","sourceKey":"way:580355323"}},{"type":"Feature","geometry":{"type":"LineString","coordinates":[[112.4200197,23.595176],[112.4202719,23.5936555]]},"properties":{"key":"way:580355326@detail:449_94","osmType":"way","osmId":580355326,"sourceRegion":"guangdong","featureType":"infrastructure","railClass":"minor","mode":"rail","name":"未命名","service":"siding","status":"operational","color":"#52636F","dataOrigin":"datum-2026-08-01","sourceKey":"way:580355326"}},{"type":"Feature","geometry":{"type":"LineString","coordinates":[[112.4202719,23.5936555],[112.4203328,23.5931866]]},"properties":{"key":"way:580355328@detail:449_94","osmType":"way","osmId":580355328,"sourceRegion":"guangdong","featureType":"infrastructure","railClass":"minor","mode":"rail","name":"未命名","service":"siding","status":"operational","color":"#52636F","dataOrigin":"datum-2026-08-01","sourceKey":"way:580355328"}},{"type":"Feature","geometry":{"type":"LineString","coordinates":[[112.4202988,23.5939745],[112.4202848,23.5940844],[112.4202605,23.5942489],[112.4202336,23.5943965],[112.4201965,23.5945608],[112.4201323,23.5947875]]},"properties":{"key":"way:580355330@detail:449_94","osmType":"way","osmId":580355330,"sourceRegion":"guangdong","featureType":"infrastructure","railClass":"minor","mode":"rail","name":"未命名","service":"yard","status":"operational","color":"#52636F","dataOrigin":"datum-2026-08-01","sourceKey":"way:580355330"}},{"type":"Feature","geometry":{"type":"LineString","coordinates":[[112.4214299,23.5844272],[112.4215222,23.5836814],[112.4215319,23.5836061]]},"properties":{"key":"way:580465247@detail:449_94","osmType":"way","osmId":580465247,"sourceRegion":"guangdong","featureType":"infrastructure","railClass":"highspeed","mode":"rail","name":"贵广客专线","nameEn":"Guiguang Passenger Line","ref":"3044","usage":"main","highspeed":"yes","status":"operational","color":"#E54848","dataOrigin":"datum-2026-08-01","sourceKey":"way:580465247"}},{"type":"Feature","geometry":{"type":"LineString","coordinates":[[112.4215319,23.5836061],[112.4215742,23.5832907],[112.421671,23.5826121],[112.4217379,23.5821427],[112.4218441,23.5813501],[112.421866,23.5812025],[112.4219083,23.5808866]]},"properties":{"key":"way:580465248@detail:449_94","osmType":"way","osmId":580465248,"sourceRegion":"guangdong","featureType":"infrastructure","railClass":"highspeed","mode":"rail","name":"贵广客专线","nameEn":"Guiguang Passenger Line","ref":"3044","usage":"main","highspeed":"yes","bridge":"yes","status":"operational","color":"#E54848","dataOrigin":"datum-2026-08-01","sourceKey":"way:580465248"}},{"type":"Feature","geometry":{"type":"LineString","coordinates":[[112.4221892,23.5785936],[112.4223508,23.5774094]]},"properties":{"key":"way:580465249@detail:449_94","osmType":"way","osmId":580465249,"sourceRegion":"guangdong","featureType":"infrastructure","railClass":"highspeed","mode":"rail","name":"贵广客专线","nameEn":"Guiguang Passenger Line","ref":"3044","usage":"main","highspeed":"yes","status":"operational","color":"#E54848","dataOrigin":"datum-2026-08-01","sourceKey":"way:580465249"}},{"type":"Feature","geometry":{"type":"LineString","coordinates":[[112.4214694,23.5836051],[112.4214606,23.5836786],[112.421363,23.5844176]]},"properties":{"key":"way:580465250@detail:449_94","osmType":"way","osmId":580465250,"sourceRegion":"guangdong","featureType":"infrastructure","railClass":"highspeed","mode":"rail","name":"贵广客专线","nameEn":"Guiguang Passenger Line","ref":"3044","usage":"main","highspeed":"yes","status":"operational","color":"#E54848","dataOrigin":"datum-2026-08-01","sourceKey":"way:580465250"}},{"type":"Feature","geometry":{"type":"LineString","coordinates":[[112.4221423,23.5785904],[112.4220548,23.5792541],[112.4220345,23.5794084]]},"properties":{"key":"way:580465251@detail:449_94","osmType":"way","osmId":580465251,"sourceRegion":"guangdong","featureType":"infrastructure","railClass":"highspeed","mode":"rail","name":"贵广客专线","nameEn":"Guiguang Passenger Line","ref":"3044","usage":"main","highspeed":"yes","bridge":"yes","status":"operational","color":"#E54848","dataOrigin":"datum-2026-08-01","sourceKey":"way:580465251"}},{"type":"Feature","geometry":{"type":"LineString","coordinates":[[112.4219083,23.5808866],[112.4220888,23.5794132]]},"properties":{"key":"way:580465252@detail:449_94","osmType":"way","osmId":580465252,"sourceRegion":"guangdong","featureType":"infrastructure","railClass":"highspeed","mode":"rail","name":"贵广客专线","nameEn":"Guiguang Passenger Line","ref":"3044","usage":"main","highspeed":"yes","status":"operational","color":"#E54848","dataOrigin":"datum-2026-08-01","sourceKey":"way:580465252"}},{"type":"Feature","geometry":{"type":"LineString","coordinates":[[112.4218441,23.5808799],[112.4218383,23.5809254],[112.4217761,23.5813686],[112.4216726,23.5821473],[112.4215291,23.5831642],[112.4214694,23.5836051]]},"properties":{"key":"way:580465253@detail:449_94","osmType":"way","osmId":580465253,"sourceRegion":"guangdong","featureType":"infrastructure","railClass":"highspeed","mode":"rail","name":"贵广客专线","nameEn":"Guiguang Passenger Line","ref":"3044","usage":"main","highspeed":"yes","bridge":"yes","status":"operational","color":"#E54848","dataOrigin":"datum-2026-08-01","sourceKey":"way:580465253"}},{"type":"Feature","geometry":{"type":"LineString","coordinates":[[112.4220345,23.5794084],[112.4219281,23.5802164],[112.4218441,23.5808799]]},"properties":{"key":"way:580465254@detail:449_94","osmType":"way","osmId":580465254,"sourceRegion":"guangdong","featureType":"infrastructure","railClass":"highspeed","mode":"rail","name":"贵广客专线","nameEn":"Guiguang Passenger Line","ref":"3044","usage":"main","highspeed":"yes","status":"operational","color":"#E54848","dataOrigin":"datum-2026-08-01","sourceKey":"way:580465254"}},{"type":"Feature","geometry":{"type":"LineString","coordinates":[[112.4220888,23.5794132],[112.4221892,23.5785936]]},"properties":{"key":"way:580465255@detail:449_94","osmType":"way","osmId":580465255,"sourceRegion":"guangdong","featureType":"infrastructure","railClass":"highspeed","mode":"rail","name":"贵广客专线","nameEn":"Guiguang Passenger Line","ref":"3044","usage":"main","highspeed":"yes","bridge":"yes","status":"operational","color":"#E54848","dataOrigin":"datum-2026-08-01","sourceKey":"way:580465255"}},{"type":"Feature","geometry":{"type":"LineString","coordinates":[[112.4224052,23.5770052],[112.4225209,23.5761405]]},"properties":{"key":"way:580465256@detail:449_94","osmType":"way","osmId":580465256,"sourceRegion":"guangdong","featureType":"infrastructure","railClass":"highspeed","mode":"rail","name":"贵广客专线","nameEn":"Guiguang Passenger Line","ref":"3044","usage":"main","highspeed":"yes","status":"operational","color":"#E54848","dataOrigin":"datum-2026-08-01","sourceKey":"way:580465256"}},{"type":"Feature","geometry":{"type":"LineString","coordinates":[[112.4223564,23.577001],[112.4223028,23.5774045]]},"properties":{"key":"way:580465257@detail:449_94","osmType":"way","osmId":580465257,"sourceRegion":"guangdong","featureType":"infrastructure","railClass":"highspeed","mode":"rail","name":"贵广客专线","nameEn":"Guiguang Passenger Line","ref":"3044","usage":"main","highspeed":"yes","bridge":"yes","status":"operational","color":"#E54848","dataOrigin":"datum-2026-08-01","sourceKey":"way:580465257"}},{"type":"Feature","geometry":{"type":"LineString","coordinates":[[112.4223028,23.5774045],[112.4221423,23.5785904]]},"properties":{"key":"way:580465258@detail:449_94","osmType":"way","osmId":580465258,"sourceRegion":"guangdong","featureType":"infrastructure","railClass":"highspeed","mode":"rail","name":"贵广客专线","nameEn":"Guiguang Passenger Line","ref":"3044","usage":"main","highspeed":"yes","status":"operational","color":"#E54848","dataOrigin":"datum-2026-08-01","sourceKey":"way:580465258"}},{"type":"Feature","geometry":{"type":"LineString","coordinates":[[112.4223508,23.5774094],[112.4224052,23.5770052]]},"properties":{"key":"way:580465259@detail:449_94","osmType":"way","osmId":580465259,"sourceRegion":"guangdong","featureType":"infrastructure","railClass":"highspeed","mode":"rail","name":"贵广客专线","nameEn":"Guiguang Passenger Line","ref":"3044","usage":"main","highspeed":"yes","bridge":"yes","status":"operational","color":"#E54848","dataOrigin":"datum-2026-08-01","sourceKey":"way:580465259"}},{"type":"Feature","geometry":{"type":"LineString","coordinates":[[112.4225209,23.5761405],[112.4229501,23.5730905]]},"properties":{"key":"way:580468018@detail:449_94","osmType":"way","osmId":580468018,"sourceRegion":"guangdong","featureType":"infrastructure","railClass":"highspeed","mode":"rail","name":"贵广客专线","nameEn":"Guiguang Passenger Line","ref":"3044","usage":"main","highspeed":"yes","tunnel":"yes","status":"operational","color":"#E54848","dataOrigin":"datum-2026-08-01","sourceKey":"way:580468018"}},{"type":"Feature","geometry":{"type":"LineString","coordinates":[[112.4229501,23.5730905],[112.4231467,23.5717607]]},"properties":{"key":"way:580468019@detail:449_94","osmType":"way","osmId":580468019,"sourceRegion":"guangdong","featureType":"infrastructure","railClass":"highspeed","mode":"rail","name":"贵广客专线","nameEn":"Guiguang Passenger Line","ref":"3044","usage":"main","highspeed":"yes","bridge":"yes","status":"operational","color":"#E54848","dataOrigin":"datum-2026-08-01","sourceKey":"way:580468019"}},{"type":"Feature","geometry":{"type":"LineString","coordinates":[[112.4224711,23.5761361],[112.4223564,23.577001]]},"properties":{"key":"way:580468020@detail:449_94","osmType":"way","osmId":580468020,"sourceRegion":"guangdong","featureType":"infrastructure","railClass":"highspeed","mode":"rail","name":"贵广客专线","nameEn":"Guiguang Passenger Line","ref":"3044","usage":"main","highspeed":"yes","status":"operational","color":"#E54848","dataOrigin":"datum-2026-08-01","sourceKey":"way:580468020"}},{"type":"Feature","geometry":{"type":"LineString","coordinates":[[112.4230916,23.571754],[112.4229007,23.5730855]]},"properties":{"key":"way:580468021@detail:449_94","osmType":"way","osmId":580468021,"sourceRegion":"guangdong","featureType":"infrastructure","railClass":"highspeed","mode":"rail","name":"贵广客专线","nameEn":"Guiguang Passenger Line","ref":"3044","usage":"main","highspeed":"yes","bridge":"yes","status":"operational","color":"#E54848","dataOrigin":"datum-2026-08-01","sourceKey":"way:580468021"}},{"type":"Feature","geometry":{"type":"LineString","coordinates":[[112.4229007,23.5730855],[112.4224711,23.5761361]]},"properties":{"key":"way:580468022@detail:449_94","osmType":"way","osmId":580468022,"sourceRegion":"guangdong","featureType":"infrastructure","railClass":"highspeed","mode":"rail","name":"贵广客专线","nameEn":"Guiguang Passenger Line","ref":"3044","usage":"main","highspeed":"yes","tunnel":"yes","status":"operational","color":"#E54848","dataOrigin":"datum-2026-08-01","sourceKey":"way:580468022"}},{"type":"Feature","geometry":{"type":"LineString","coordinates":[[112.425992,23.5604778],[112.4258481,23.5608466],[112.4257664,23.5610693],[112.4256895,23.561291],[112.4256246,23.5614809],[112.425548,23.561728],[112.4254575,23.5620258],[112.4253841,23.5622747],[112.4252965,23.5625807],[112.4252235,23.5628327],[112.4251469,23.5631091],[112.423769,23.5683176],[112.4237029,23.5685703],[112.4236014,23.5689801],[112.4235253,23.5693052],[112.4234586,23.5696013],[112.4233829,23.5699456],[112.4233337,23.5701994],[112.4232921,23.5704256],[112.4232481,23.5706853],[112.423211,23.5709264],[112.4231608,23.5712549],[112.4230916,23.571754]]},"properties":{"key":"way:580474813@detail:449_94","osmType":"way","osmId":580474813,"sourceRegion":"guangdong","featureType":"infrastructure","railClass":"highspeed","mode":"rail","name":"贵广客专线","nameEn":"Guiguang Passenger Line","ref":"3044","usage":"main","highspeed":"yes","tunnel":"yes","status":"operational","color":"#E54848","dataOrigin":"datum-2026-08-01","sourceKey":"way:580474813"}},{"type":"Feature","geometry":{"type":"LineString","coordinates":[[112.4265127,23.559267],[112.4265384,23.5592006],[112.4265848,23.5590831],[112.4266443,23.5589445]]},"properties":{"key":"way:580474817@detail:449_94","osmType":"way","osmId":580474817,"sourceRegion":"guangdong","featureType":"infrastructure","railClass":"highspeed","mode":"rail","name":"贵广客专线","nameEn":"Guiguang Passenger Line","ref":"3044","usage":"main","highspeed":"yes","status":"operational","color":"#E54848","dataOrigin":"datum-2026-08-01","sourceKey":"way:580474817"}},{"type":"Feature","geometry":{"type":"LineString","coordinates":[[112.4266443,23.5589445],[112.4278719,23.5563128]]},"properties":{"key":"way:580474821@detail:449_94","osmType":"way","osmId":580474821,"sourceRegion":"guangdong","featureType":"infrastructure","railClass":"highspeed","mode":"rail","name":"贵广客专线","nameEn":"Guiguang Passenger Line","ref":"3044","usage":"main","highspeed":"yes","tunnel":"yes","status":"operational","color":"#E54848","dataOrigin":"datum-2026-08-01","sourceKey":"way:580474821"}},{"type":"Feature","geometry":{"type":"LineString","coordinates":[[112.4278284,23.5562944],[112.426605,23.5589296]]},"properties":{"key":"way:580474825@detail:449_94","osmType":"way","osmId":580474825,"sourceRegion":"guangdong","featureType":"infrastructure","railClass":"highspeed","mode":"rail","name":"贵广客专线","nameEn":"Guiguang Passenger Line","ref":"3044","usage":"main","highspeed":"yes","tunnel":"yes","status":"operational","color":"#E54848","dataOrigin":"datum-2026-08-01","sourceKey":"way:580474825"}},{"type":"Feature","geometry":{"type":"LineString","coordinates":[[112.426605,23.5589296],[112.4265456,23.5590727],[112.4264902,23.5592122]]},"properties":{"key":"way:580474829@detail:449_94","osmType":"way","osmId":580474829,"sourceRegion":"guangdong","featureType":"infrastructure","railClass":"highspeed","mode":"rail","name":"贵广客专线","nameEn":"Guiguang Passenger Line","ref":"3044","usage":"main","highspeed":"yes","status":"operational","color":"#E54848","dataOrigin":"datum-2026-08-01","sourceKey":"way:580474829"}},{"type":"Feature","geometry":{"type":"LineString","coordinates":[[112.4264902,23.5592122],[112.4262482,23.5598269]]},"properties":{"key":"way:580474831@detail:449_94","osmType":"way","osmId":580474831,"sourceRegion":"guangdong","featureType":"infrastructure","railClass":"highspeed","mode":"rail","name":"贵广客专线","nameEn":"Guiguang Passenger Line","ref":"3044","usage":"main","highspeed":"yes","bridge":"yes","status":"operational","color":"#E54848","dataOrigin":"datum-2026-08-01","sourceKey":"way:580474831"}},{"type":"Feature","geometry":{"type":"LineString","coordinates":[[112.4262877,23.559847],[112.4265127,23.559267]]},"properties":{"key":"way:580474834@detail:449_94","osmType":"way","osmId":580474834,"sourceRegion":"guangdong","featureType":"infrastructure","railClass":"highspeed","mode":"rail","name":"贵广客专线","nameEn":"Guiguang Passenger Line","ref":"3044","usage":"main","highspeed":"yes","bridge":"yes","status":"operational","color":"#E54848","dataOrigin":"datum-2026-08-01","sourceKey":"way:580474834"}},{"type":"Feature","geometry":{"type":"LineString","coordinates":[[112.4260352,23.5604977],[112.4262877,23.559847]]},"properties":{"key":"way:580474839@detail:449_94","osmType":"way","osmId":580474839,"sourceRegion":"guangdong","featureType":"infrastructure","railClass":"highspeed","mode":"rail","name":"贵广客专线","nameEn":"Guiguang Passenger Line","ref":"3044","usage":"main","highspeed":"yes","status":"operational","color":"#E54848","dataOrigin":"datum-2026-08-01","sourceKey":"way:580474839"}},{"type":"Feature","geometry":{"type":"LineString","coordinates":[[112.4262482,23.5598269],[112.425992,23.5604778]]},"properties":{"key":"way:580474841@detail:449_94","osmType":"way","osmId":580474841,"sourceRegion":"guangdong","featureType":"infrastructure","railClass":"highspeed","mode":"rail","name":"贵广客专线","nameEn":"Guiguang Passenger Line","ref":"3044","usage":"main","highspeed":"yes","status":"operational","color":"#E54848","dataOrigin":"datum-2026-08-01","sourceKey":"way:580474841"}},{"type":"Feature","geometry":{"type":"LineString","coordinates":[[112.4280441,23.5559369],[112.4281376,23.5557371],[112.428217,23.5555655]]},"properties":{"key":"way:580479181@detail:449_94","osmType":"way","osmId":580479181,"sourceRegion":"guangdong","featureType":"infrastructure","railClass":"highspeed","mode":"rail","name":"贵广客专线","nameEn":"Guiguang Passenger Line","ref":"3044","usage":"main","highspeed":"yes","bridge":"yes","status":"operational","color":"#E54848","dataOrigin":"datum-2026-08-01","sourceKey":"way:580479181"}},{"type":"Feature","geometry":{"type":"LineString","coordinates":[[112.4286374,23.5545152],[112.4283287,23.5551842],[112.4281696,23.5555434]]},"properties":{"key":"way:580479185@detail:449_94","osmType":"way","osmId":580479185,"sourceRegion":"guangdong","featureType":"infrastructure","railClass":"highspeed","mode":"rail","name":"贵广客专线","nameEn":"Guiguang Passenger Line","ref":"3044","usage":"main","highspeed":"yes","status":"operational","color":"#E54848","dataOrigin":"datum-2026-08-01","sourceKey":"way:580479185"}},{"type":"Feature","geometry":{"type":"LineString","coordinates":[[112.4281696,23.5555434],[112.4279998,23.5559203]]},"properties":{"key":"way:580479188@detail:449_94","osmType":"way","osmId":580479188,"sourceRegion":"guangdong","featureType":"infrastructure","railClass":"highspeed","mode":"rail","name":"贵广客专线","nameEn":"Guiguang Passenger Line","ref":"3044","usage":"main","highspeed":"yes","bridge":"yes","status":"operational","color":"#E54848","dataOrigin":"datum-2026-08-01","sourceKey":"way:580479188"}},{"type":"Feature","geometry":{"type":"LineString","coordinates":[[112.4279998,23.5559203],[112.4278284,23.5562944]]},"properties":{"key":"way:580479191@detail:449_94","osmType":"way","osmId":580479191,"sourceRegion":"guangdong","featureType":"infrastructure","railClass":"highspeed","mode":"rail","name":"贵广客专线","nameEn":"Guiguang Passenger Line","ref":"3044","usage":"main","highspeed":"yes","status":"operational","color":"#E54848","dataOrigin":"datum-2026-08-01","sourceKey":"way:580479191"}},{"type":"Feature","geometry":{"type":"LineString","coordinates":[[112.4278719,23.5563128],[112.4280441,23.5559369]]},"properties":{"key":"way:580479194@detail:449_94","osmType":"way","osmId":580479194,"sourceRegion":"guangdong","featureType":"infrastructure","railClass":"highspeed","mode":"rail","name":"贵广客专线","nameEn":"Guiguang Passenger Line","ref":"3044","usage":"main","highspeed":"yes","status":"operational","color":"#E54848","dataOrigin":"datum-2026-08-01","sourceKey":"way:580479194"}},{"type":"Feature","geometry":{"type":"LineString","coordinates":[[112.4286848,23.5545385],[112.4292231,23.5533904],[112.4293143,23.553189],[112.4294173,23.5529586],[112.4295258,23.5527213],[112.429647,23.5524548],[112.4299726,23.5517266],[112.4302129,23.551186],[112.4304584,23.5506252]]},"properties":{"key":"way:580479197@detail:449_94","osmType":"way","osmId":580479197,"sourceRegion":"guangdong","featureType":"infrastructure","railClass":"highspeed","mode":"rail","name":"贵广客专线","nameEn":"Guiguang Passenger Line","ref":"3044","usage":"main","highspeed":"yes","bridge":"yes","status":"operational","color":"#E54848","dataOrigin":"datum-2026-08-01","sourceKey":"way:580479197"}},{"type":"Feature","geometry":{"type":"LineString","coordinates":[[112.4304077,23.5506084],[112.4302239,23.5510355],[112.4300323,23.5514677],[112.4298464,23.5518881],[112.4293709,23.5529397],[112.4292624,23.5531812],[112.4291591,23.5534093],[112.4286374,23.5545152]]},"properties":{"key":"way:580479202@detail:449_94","osmType":"way","osmId":580479202,"sourceRegion":"guangdong","featureType":"infrastructure","railClass":"highspeed","mode":"rail","name":"贵广客专线","nameEn":"Guiguang Passenger Line","ref":"3044","usage":"main","highspeed":"yes","bridge":"yes","status":"operational","color":"#E54848","dataOrigin":"datum-2026-08-01","sourceKey":"way:580479202"}},{"type":"Feature","geometry":{"type":"LineString","coordinates":[[112.4331556,23.5433239],[112.4333291,23.5426914]]},"properties":{"key":"way:580484655@detail:449_94","osmType":"way","osmId":580484655,"sourceRegion":"guangdong","featureType":"infrastructure","railClass":"highspeed","mode":"rail","name":"贵广客专线","nameEn":"Guiguang Passenger Line","ref":"3044","usage":"main","highspeed":"yes","bridge":"yes","status":"operational","color":"#E54848","dataOrigin":"datum-2026-08-01","sourceKey":"way:580484655"}},{"type":"Feature","geometry":{"type":"LineString","coordinates":[[112.4334471,23.5422616],[112.4334933,23.5420784],[112.4335515,23.541851],[112.4335969,23.5416712],[112.4336382,23.5414858],[112.4336959,23.5412169],[112.4342469,23.538549]]},"properties":{"key":"way:580484656@detail:449_94","osmType":"way","osmId":580484656,"sourceRegion":"guangdong","featureType":"infrastructure","railClass":"highspeed","mode":"rail","name":"贵广客专线","nameEn":"Guiguang Passenger Line","ref":"3044","usage":"main","highspeed":"yes","tunnel":"yes","status":"operational","color":"#E54848","dataOrigin":"datum-2026-08-01","sourceKey":"way:580484656"}},{"type":"Feature","geometry":{"type":"LineString","coordinates":[[112.4333291,23.5426914],[112.4334471,23.5422616]]},"properties":{"key":"way:580484657@detail:449_94","osmType":"way","osmId":580484657,"sourceRegion":"guangdong","featureType":"infrastructure","railClass":"highspeed","mode":"rail","name":"贵广客专线","nameEn":"Guiguang Passenger Line","ref":"3044","usage":"main","highspeed":"yes","status":"operational","color":"#E54848","dataOrigin":"datum-2026-08-01","sourceKey":"way:580484657"}},{"type":"Feature","geometry":{"type":"LineString","coordinates":[[112.4332813,23.5426825],[112.4331089,23.5433146]]},"properties":{"key":"way:580484658@detail:449_94","osmType":"way","osmId":580484658,"sourceRegion":"guangdong","featureType":"infrastructure","railClass":"highspeed","mode":"rail","name":"贵广客专线","nameEn":"Guiguang Passenger Line","ref":"3044","usage":"main","highspeed":"yes","bridge":"yes","status":"operational","color":"#E54848","dataOrigin":"datum-2026-08-01","sourceKey":"way:580484658"}},{"type":"Feature","geometry":{"type":"LineString","coordinates":[[112.4331089,23.5433146],[112.4329999,23.5437105],[112.4328938,23.5440909],[112.4327958,23.5444281],[112.4326934,23.5447675],[112.4325819,23.5451242],[112.432518,23.5453189],[112.4324304,23.54558],[112.4323199,23.5459032],[112.4321799,23.5462948],[112.4320147,23.5467468],[112.4318711,23.5471332],[112.4317563,23.5474402],[112.4316554,23.5477031],[112.4315644,23.5479392],[112.4314499,23.5482234],[112.431331,23.548506],[112.4312255,23.5487577],[112.4311063,23.5490404],[112.4309946,23.5492979],[112.430901,23.5495114],[112.4307924,23.5497569],[112.4306887,23.5499884],[112.430596,23.5501905],[112.4304077,23.5506084]]},"properties":{"key":"way:580484659@detail:449_94","osmType":"way","osmId":580484659,"sourceRegion":"guangdong","featureType":"infrastructure","railClass":"highspeed","mode":"rail","name":"贵广客专线","nameEn":"Guiguang Passenger Line","ref":"3044","usage":"main","highspeed":"yes","tunnel":"yes","status":"operational","color":"#E54848","dataOrigin":"datum-2026-08-01","sourceKey":"way:580484659"}},{"type":"Feature","geometry":{"type":"LineString","coordinates":[[112.4342,23.5385403],[112.4336165,23.5413385],[112.433567,23.5415679],[112.4335345,23.5417118],[112.4334911,23.5418831],[112.4334426,23.5420705],[112.4333955,23.5422488]]},"properties":{"key":"way:580487307@detail:449_94","osmType":"way","osmId":580487307,"sourceRegion":"guangdong","featureType":"infrastructure","railClass":"highspeed","mode":"rail","name":"贵广客专线","nameEn":"Guiguang Passenger Line","ref":"3044","usage":"main","highspeed":"yes","tunnel":"yes","status":"operational","color":"#E54848","dataOrigin":"datum-2026-08-01","sourceKey":"way:580487307"}},{"type":"Feature","geometry":{"type":"LineString","coordinates":[[112.4333955,23.5422488],[112.4332813,23.5426825]]},"properties":{"key":"way:580487312@detail:449_94","osmType":"way","osmId":580487312,"sourceRegion":"guangdong","featureType":"infrastructure","railClass":"highspeed","mode":"rail","name":"贵广客专线","nameEn":"Guiguang Passenger Line","ref":"3044","usage":"main","highspeed":"yes","status":"operational","color":"#E54848","dataOrigin":"datum-2026-08-01","sourceKey":"way:580487312"}},{"type":"Feature","geometry":{"type":"LineString","coordinates":[[112.4346432,23.5359508],[112.4346779,23.5357031],[112.4347053,23.535504],[112.4347373,23.5352573],[112.4347542,23.5351308]]},"properties":{"key":"way:580487317@detail:449_94","osmType":"way","osmId":580487317,"sourceRegion":"guangdong","featureType":"infrastructure","railClass":"highspeed","mode":"rail","name":"贵广客专线","nameEn":"Guiguang Passenger Line","ref":"3044","usage":"main","highspeed":"yes","status":"operational","color":"#E54848","dataOrigin":"datum-2026-08-01","sourceKey":"way:580487317"}},{"type":"Feature","geometry":{"type":"LineString","coordinates":[[112.4345965,23.5359452],[112.4343543,23.5376389],[112.4343184,23.5378787],[112.43429,23.5380516],[112.4342586,23.5382408],[112.4342291,23.5383979],[112.4342,23.5385403]]},"properties":{"key":"way:580487323@detail:449_94","osmType":"way","osmId":580487323,"sourceRegion":"guangdong","featureType":"infrastructure","railClass":"highspeed","mode":"rail","name":"贵广客专线","nameEn":"Guiguang Passenger Line","ref":"3044","usage":"main","highspeed":"yes","bridge":"yes","status":"operational","color":"#E54848","dataOrigin":"datum-2026-08-01","sourceKey":"way:580487323"}},{"type":"Feature","geometry":{"type":"LineString","coordinates":[[112.4347542,23.5351308],[112.4348719,23.5341779]]},"properties":{"key":"way:580491386@detail:449_94","osmType":"way","osmId":580491386,"sourceRegion":"guangdong","featureType":"infrastructure","railClass":"highspeed","mode":"rail","name":"贵广客专线","nameEn":"Guiguang Passenger Line","ref":"3044","usage":"main","highspeed":"yes","bridge":"yes","status":"operational","color":"#E54848","dataOrigin":"datum-2026-08-01","sourceKey":"way:580491386"}},{"type":"Feature","geometry":{"type":"LineString","coordinates":[[112.4349182,23.5338024],[112.4350845,23.5325104]]},"properties":{"key":"way:580491391@detail:449_94","osmType":"way","osmId":580491391,"sourceRegion":"guangdong","featureType":"infrastructure","railClass":"highspeed","mode":"rail","name":"贵广客专线","nameEn":"Guiguang Passenger Line","ref":"3044","usage":"main","highspeed":"yes","tunnel":"yes","status":"operational","color":"#E54848","dataOrigin":"datum-2026-08-01","sourceKey":"way:580491391"}},{"type":"Feature","geometry":{"type":"LineString","coordinates":[[112.4348719,23.5341779],[112.4349182,23.5338024]]},"properties":{"key":"way:580491394@detail:449_94","osmType":"way","osmId":580491394,"sourceRegion":"guangdong","featureType":"infrastructure","railClass":"highspeed","mode":"rail","name":"贵广客专线","nameEn":"Guiguang Passenger Line","ref":"3044","usage":"main","highspeed":"yes","status":"operational","color":"#E54848","dataOrigin":"datum-2026-08-01","sourceKey":"way:580491394"}},{"type":"Feature","geometry":{"type":"LineString","coordinates":[[112.4347047,23.5351272],[112.434661,23.535469],[112.4346382,23.5356478],[112.4345965,23.5359452]]},"properties":{"key":"way:580491398@detail:449_94","osmType":"way","osmId":580491398,"sourceRegion":"guangdong","featureType":"infrastructure","railClass":"highspeed","mode":"rail","name":"贵广客专线","nameEn":"Guiguang Passenger Line","ref":"3044","usage":"main","highspeed":"yes","status":"operational","color":"#E54848","dataOrigin":"datum-2026-08-01","sourceKey":"way:580491398"}},{"type":"Feature","geometry":{"type":"LineString","coordinates":[[112.4348222,23.5341744],[112.4347047,23.5351272]]},"properties":{"key":"way:580491401@detail:449_94","osmType":"way","osmId":580491401,"sourceRegion":"guangdong","featureType":"infrastructure","railClass":"highspeed","mode":"rail","name":"贵广客专线","nameEn":"Guiguang Passenger Line","ref":"3044","usage":"main","highspeed":"yes","bridge":"yes","status":"operational","color":"#E54848","dataOrigin":"datum-2026-08-01","sourceKey":"way:580491401"}},{"type":"Feature","geometry":{"type":"LineString","coordinates":[[112.4348694,23.5338027],[112.4348222,23.5341744]]},"properties":{"key":"way:580491404@detail:449_94","osmType":"way","osmId":580491404,"sourceRegion":"guangdong","featureType":"infrastructure","railClass":"highspeed","mode":"rail","name":"贵广客专线","nameEn":"Guiguang Passenger Line","ref":"3044","usage":"main","highspeed":"yes","status":"operational","color":"#E54848","dataOrigin":"datum-2026-08-01","sourceKey":"way:580491404"}},{"type":"Feature","geometry":{"type":"LineString","coordinates":[[112.4350845,23.5325104],[112.4351413,23.5321527],[112.435203,23.5317189],[112.4353152,23.5309347],[112.4353946,23.5303995],[112.4354547,23.5300343],[112.4355543,23.5294901],[112.4356654,23.5289115],[112.436049,23.5270634],[112.4361761,23.526497],[112.4362786,23.5261095],[112.4363759,23.5257535],[112.4365293,23.5252095],[112.4366567,23.5247889],[112.4367341,23.5245322],[112.4368644,23.5240873],[112.4369644,23.5237539],[112.4370571,23.5234695],[112.4371653,23.5231393],[112.4373574,23.5225754],[112.437543,23.5220254],[112.4379331,23.5209018],[112.4380038,23.5207106],[112.438079,23.5205111],[112.4381508,23.5203245],[112.4383723,23.5197465],[112.4384753,23.5194784],[112.438587,23.5191837],[112.4387427,23.5187758],[112.4392334,23.5175237]]},"properties":{"key":"way:580494557@detail:449_94","osmType":"way","osmId":580494557,"sourceRegion":"guangdong","featureType":"infrastructure","railClass":"highspeed","mode":"rail","name":"贵广客专线","nameEn":"Guiguang Passenger Line","ref":"3044","usage":"main","highspeed":"yes","bridge":"yes","status":"operational","color":"#E54848","dataOrigin":"datum-2026-08-01","sourceKey":"way:580494557"}},{"type":"Feature","geometry":{"type":"LineString","coordinates":[[112.4350408,23.532502],[112.4348694,23.5338027]]},"properties":{"key":"way:580494558@detail:449_94","osmType":"way","osmId":580494558,"sourceRegion":"guangdong","featureType":"infrastructure","railClass":"highspeed","mode":"rail","name":"贵广客专线","nameEn":"Guiguang Passenger Line","ref":"3044","usage":"main","highspeed":"yes","tunnel":"yes","status":"operational","color":"#E54848","dataOrigin":"datum-2026-08-01","sourceKey":"way:580494558"}},{"type":"Feature","geometry":{"type":"LineString","coordinates":[[112.4392334,23.5175237],[112.4399969,23.5154808]]},"properties":{"key":"way:580798035@detail:449_94","osmType":"way","osmId":580798035,"sourceRegion":"guangdong","featureType":"infrastructure","railClass":"highspeed","mode":"rail","name":"贵广客专线","nameEn":"Guiguang Passenger Line","ref":"3044","usage":"main","highspeed":"yes","status":"operational","color":"#E54848","dataOrigin":"datum-2026-08-01","sourceKey":"way:580798035"}},{"type":"Feature","geometry":{"type":"LineString","coordinates":[[112.4391828,23.5175062],[112.4388685,23.5183072],[112.4387331,23.518655],[112.4385641,23.5190921],[112.4383996,23.5195176],[112.4380705,23.5203795],[112.4379911,23.5205985],[112.4379153,23.5208036],[112.4378223,23.5210675],[112.4376044,23.5217067],[112.4374195,23.5222321],[112.4372493,23.5227294],[112.4371146,23.5231327],[112.4369885,23.5235088],[112.4368594,23.5239149],[112.4366627,23.5245891],[112.436553,23.5249509],[112.4364858,23.5251716],[112.4364327,23.5253679],[112.4363654,23.5255983],[112.4362557,23.5260007],[112.4361761,23.5263155],[112.4361248,23.5265199],[112.4360487,23.5268541],[112.4359266,23.5274269],[112.4356824,23.5286178],[112.4355673,23.529184],[112.4355258,23.5294059],[112.435478,23.5296611],[112.4354284,23.5299255],[112.4353895,23.5301527],[112.4353155,23.5306275],[112.4352297,23.5312336],[112.435154,23.5317416],[112.4350801,23.5322433],[112.4350408,23.532502]]},"properties":{"key":"way:580798036@detail:449_94","osmType":"way","osmId":580798036,"sourceRegion":"guangdong","featureType":"infrastructure","railClass":"highspeed","mode":"rail","name":"贵广客专线","nameEn":"Guiguang Passenger Line","ref":"3044","usage":"main","highspeed":"yes","bridge":"yes","status":"operational","color":"#E54848","dataOrigin":"datum-2026-08-01","sourceKey":"way:580798036"}},{"type":"Feature","geometry":{"type":"LineString","coordinates":[[112.4399969,23.5154808],[112.4403556,23.5145306]]},"properties":{"key":"way:580804128@detail:449_94","osmType":"way","osmId":580804128,"sourceRegion":"guangdong","featureType":"infrastructure","railClass":"highspeed","mode":"rail","name":"贵广客专线","nameEn":"Guiguang Passenger Line","ref":"3044","usage":"main","highspeed":"yes","bridge":"yes","status":"operational","color":"#E54848","dataOrigin":"datum-2026-08-01","sourceKey":"way:580804128"}},{"type":"Feature","geometry":{"type":"LineString","coordinates":[[112.4403053,23.5145162],[112.4399503,23.5154668]]},"properties":{"key":"way:580804130@detail:449_94","osmType":"way","osmId":580804130,"sourceRegion":"guangdong","featureType":"infrastructure","railClass":"highspeed","mode":"rail","name":"贵广客专线","nameEn":"Guiguang Passenger Line","ref":"3044","usage":"main","highspeed":"yes","bridge":"yes","status":"operational","color":"#E54848","dataOrigin":"datum-2026-08-01","sourceKey":"way:580804130"}},{"type":"Feature","geometry":{"type":"LineString","coordinates":[[112.4399503,23.5154668],[112.4391828,23.5175062]]},"properties":{"key":"way:580804131@detail:449_94","osmType":"way","osmId":580804131,"sourceRegion":"guangdong","featureType":"infrastructure","railClass":"highspeed","mode":"rail","name":"贵广客专线","nameEn":"Guiguang Passenger Line","ref":"3044","usage":"main","highspeed":"yes","status":"operational","color":"#E54848","dataOrigin":"datum-2026-08-01","sourceKey":"way:580804131"}},{"type":"Feature","geometry":{"type":"LineString","coordinates":[[112.4403556,23.5145306],[112.4409534,23.5128816]]},"properties":{"key":"way:580804132@detail:449_94","osmType":"way","osmId":580804132,"sourceRegion":"guangdong","featureType":"infrastructure","railClass":"highspeed","mode":"rail","name":"贵广客专线","nameEn":"Guiguang Passenger Line","ref":"3044","usage":"main","highspeed":"yes","status":"operational","color":"#E54848","dataOrigin":"datum-2026-08-01","sourceKey":"way:580804132"}},{"type":"Feature","geometry":{"type":"LineString","coordinates":[[112.4408776,23.5128637],[112.4403501,23.5143963],[112.4403053,23.5145162]]},"properties":{"key":"way:580804133@detail:449_94","osmType":"way","osmId":580804133,"sourceRegion":"guangdong","featureType":"infrastructure","railClass":"highspeed","mode":"rail","name":"贵广客专线","nameEn":"Guiguang Passenger Line","ref":"3044","usage":"main","highspeed":"yes","status":"operational","color":"#E54848","dataOrigin":"datum-2026-08-01","sourceKey":"way:580804133"}},{"type":"Feature","geometry":{"type":"LineString","coordinates":[[112.44390237928806,23.5],[112.44375,23.5007338],[112.4431435,23.5042123],[112.4427175,23.5063673],[112.4420925,23.5089184],[112.4416677,23.5104498],[112.4414595,23.5111431],[112.4411451,23.5120765],[112.4408776,23.5128637]]},"properties":{"key":"way:582968559@detail:449_94","osmType":"way","osmId":582968559,"sourceRegion":"guangdong","featureType":"infrastructure","railClass":"highspeed","mode":"rail","name":"贵广客专线","nameEn":"Guiguang Passenger Line","ref":"3044","usage":"main","highspeed":"yes","bridge":"yes","status":"operational","color":"#E54848","dataOrigin":"datum-2026-08-01","sourceKey":"way:582968559"}},{"type":"Feature","geometry":{"type":"LineString","coordinates":[[112.3295998,23.7427048],[112.3291663,23.7438169],[112.3287379,23.7447054],[112.32676739848185,23.75]]},"properties":{"key":"way:631439116@detail:449_94","osmType":"way","osmId":631439116,"sourceRegion":"guangdong","featureType":"infrastructure","railClass":"highspeed","mode":"rail","name":"贵广客专线","nameEn":"Guiguang Passenger Line","ref":"3044","usage":"main","highspeed":"yes","tunnel":"yes","status":"operational","color":"#E54848","dataOrigin":"datum-2026-08-01","sourceKey":"way:631439116"}},{"type":"Feature","geometry":{"type":"LineString","coordinates":[[112.3300231,23.7415894],[112.3295998,23.7427048]]},"properties":{"key":"way:631439117@detail:449_94","osmType":"way","osmId":631439117,"sourceRegion":"guangdong","featureType":"infrastructure","railClass":"highspeed","mode":"rail","name":"贵广客专线","nameEn":"Guiguang Passenger Line","ref":"3044","usage":"main","highspeed":"yes","tunnel":"yes","status":"operational","color":"#E54848","dataOrigin":"datum-2026-08-01","sourceKey":"way:631439117"}},{"type":"Feature","geometry":{"type":"LineString","coordinates":[[112.3304598,23.7405363],[112.3303293,23.7411117],[112.3300231,23.7415894]]},"properties":{"key":"way:631439118@detail:449_94","osmType":"way","osmId":631439118,"sourceRegion":"guangdong","featureType":"infrastructure","railClass":"highspeed","mode":"rail","name":"贵广客专线","nameEn":"Guiguang Passenger Line","ref":"3044","usage":"main","highspeed":"yes","status":"operational","color":"#E54848","dataOrigin":"datum-2026-08-01","sourceKey":"way:631439118"}},{"type":"Feature","geometry":{"type":"LineString","coordinates":[[112.3327827,23.7355682],[112.3304598,23.7405363]]},"properties":{"key":"way:631439119@detail:449_94","osmType":"way","osmId":631439119,"sourceRegion":"guangdong","featureType":"infrastructure","railClass":"highspeed","mode":"rail","name":"贵广客专线","nameEn":"Guiguang Passenger Line","ref":"3044","usage":"main","highspeed":"yes","tunnel":"yes","status":"operational","color":"#E54848","dataOrigin":"datum-2026-08-01","sourceKey":"way:631439119"}},{"type":"Feature","geometry":{"type":"LineString","coordinates":[[112.332966,23.7351831],[112.3327827,23.7355682]]},"properties":{"key":"way:631439120@detail:449_94","osmType":"way","osmId":631439120,"sourceRegion":"guangdong","featureType":"infrastructure","railClass":"highspeed","mode":"rail","name":"贵广客专线","nameEn":"Guiguang Passenger Line","ref":"3044","usage":"main","highspeed":"yes","status":"operational","color":"#E54848","dataOrigin":"datum-2026-08-01","sourceKey":"way:631439120"}},{"type":"Feature","geometry":{"type":"LineString","coordinates":[[112.334461,23.7325099],[112.332966,23.7351831]]},"properties":{"key":"way:631439121@detail:449_94","osmType":"way","osmId":631439121,"sourceRegion":"guangdong","featureType":"infrastructure","railClass":"highspeed","mode":"rail","name":"贵广客专线","nameEn":"Guiguang Passenger Line","ref":"3044","usage":"main","highspeed":"yes","tunnel":"yes","status":"operational","color":"#E54848","dataOrigin":"datum-2026-08-01","sourceKey":"way:631439121"}},{"type":"Feature","geometry":{"type":"LineString","coordinates":[[112.3366272,23.7288311],[112.336503,23.7290468],[112.334461,23.7325099]]},"properties":{"key":"way:631439122@detail:449_94","osmType":"way","osmId":631439122,"sourceRegion":"guangdong","featureType":"infrastructure","railClass":"highspeed","mode":"rail","name":"贵广客专线","nameEn":"Guiguang Passenger Line","ref":"3044","usage":"main","highspeed":"yes","status":"operational","color":"#E54848","dataOrigin":"datum-2026-08-01","sourceKey":"way:631439122"}},{"type":"Feature","geometry":{"type":"LineString","coordinates":[[112.3377147,23.7269125],[112.3376363,23.7270386],[112.3366272,23.7288311]]},"properties":{"key":"way:631439123@detail:449_94","osmType":"way","osmId":631439123,"sourceRegion":"guangdong","featureType":"infrastructure","railClass":"highspeed","mode":"rail","name":"贵广客专线","nameEn":"Guiguang Passenger Line","ref":"3044","usage":"main","highspeed":"yes","bridge":"yes","status":"operational","color":"#E54848","dataOrigin":"datum-2026-08-01","sourceKey":"way:631439123"}},{"type":"Feature","geometry":{"type":"LineString","coordinates":[[112.3425959,23.7184268],[112.3377147,23.7269125]]},"properties":{"key":"way:631439124@detail:449_94","osmType":"way","osmId":631439124,"sourceRegion":"guangdong","featureType":"infrastructure","railClass":"highspeed","mode":"rail","name":"贵广客专线","nameEn":"Guiguang Passenger Line","ref":"3044","usage":"main","highspeed":"yes","tunnel":"yes","status":"operational","color":"#E54848","dataOrigin":"datum-2026-08-01","sourceKey":"way:631439124"}},{"type":"Feature","geometry":{"type":"LineString","coordinates":[[112.3428815,23.7179049],[112.3425959,23.7184268]]},"properties":{"key":"way:631439125@detail:449_94","osmType":"way","osmId":631439125,"sourceRegion":"guangdong","featureType":"infrastructure","railClass":"highspeed","mode":"rail","name":"贵广客专线","nameEn":"Guiguang Passenger Line","ref":"3044","usage":"main","highspeed":"yes","status":"operational","color":"#E54848","dataOrigin":"datum-2026-08-01","sourceKey":"way:631439125"}},{"type":"Feature","geometry":{"type":"LineString","coordinates":[[112.3434685,23.7168521],[112.3428815,23.7179049]]},"properties":{"key":"way:631439126@detail:449_94","osmType":"way","osmId":631439126,"sourceRegion":"guangdong","featureType":"infrastructure","railClass":"highspeed","mode":"rail","name":"贵广客专线","nameEn":"Guiguang Passenger Line","ref":"3044","usage":"main","highspeed":"yes","tunnel":"yes","status":"operational","color":"#E54848","dataOrigin":"datum-2026-08-01","sourceKey":"way:631439126"}},{"type":"Feature","geometry":{"type":"LineString","coordinates":[[112.3436327,23.7165411],[112.3434685,23.7168521]]},"properties":{"key":"way:631439127@detail:449_94","osmType":"way","osmId":631439127,"sourceRegion":"guangdong","featureType":"infrastructure","railClass":"highspeed","mode":"rail","name":"贵广客专线","nameEn":"Guiguang Passenger Line","ref":"3044","usage":"main","highspeed":"yes","status":"operational","color":"#E54848","dataOrigin":"datum-2026-08-01","sourceKey":"way:631439127"}},{"type":"Feature","geometry":{"type":"LineString","coordinates":[[112.3442129,23.7153934],[112.3436327,23.7165411]]},"properties":{"key":"way:631439128@detail:449_94","osmType":"way","osmId":631439128,"sourceRegion":"guangdong","featureType":"infrastructure","railClass":"highspeed","mode":"rail","name":"贵广客专线","nameEn":"Guiguang Passenger Line","ref":"3044","usage":"main","highspeed":"yes","tunnel":"yes","status":"operational","color":"#E54848","dataOrigin":"datum-2026-08-01","sourceKey":"way:631439128"}},{"type":"Feature","geometry":{"type":"LineString","coordinates":[[112.3452272,23.7133524],[112.3442129,23.7153934]]},"properties":{"key":"way:631439129@detail:449_94","osmType":"way","osmId":631439129,"sourceRegion":"guangdong","featureType":"infrastructure","railClass":"highspeed","mode":"rail","name":"贵广客专线","nameEn":"Guiguang Passenger Line","ref":"3044","usage":"main","highspeed":"yes","status":"operational","color":"#E54848","dataOrigin":"datum-2026-08-01","sourceKey":"way:631439129"}},{"type":"Feature","geometry":{"type":"LineString","coordinates":[[112.3487462,23.7037427],[112.3452272,23.7133524]]},"properties":{"key":"way:631439130@detail:449_94","osmType":"way","osmId":631439130,"sourceRegion":"guangdong","featureType":"infrastructure","railClass":"highspeed","mode":"rail","name":"贵广客专线","nameEn":"Guiguang Passenger Line","ref":"3044","usage":"main","highspeed":"yes","tunnel":"yes","status":"operational","color":"#E54848","dataOrigin":"datum-2026-08-01","sourceKey":"way:631439130"}},{"type":"Feature","geometry":{"type":"LineString","coordinates":[[112.3510445,23.6944612],[112.3500608,23.6980723]]},"properties":{"key":"way:631439131@detail:449_94","osmType":"way","osmId":631439131,"sourceRegion":"guangdong","featureType":"infrastructure","railClass":"highspeed","mode":"rail","name":"贵广客专线","nameEn":"Guiguang Passenger Line","ref":"3044","usage":"main","highspeed":"yes","status":"operational","color":"#E54848","dataOrigin":"datum-2026-08-01","sourceKey":"way:631439131"}},{"type":"Feature","geometry":{"type":"LineString","coordinates":[[112.3760309,23.6531042],[112.3510445,23.6944612]]},"properties":{"key":"way:631439132@detail:449_94","osmType":"way","osmId":631439132,"sourceRegion":"guangdong","featureType":"infrastructure","railClass":"highspeed","mode":"rail","name":"贵广客专线","nameEn":"Guiguang Passenger Line","ref":"3044","usage":"main","highspeed":"yes","tunnel":"yes","status":"operational","color":"#E54848","dataOrigin":"datum-2026-08-01","sourceKey":"way:631439132"}},{"type":"Feature","geometry":{"type":"LineString","coordinates":[[112.3768158,23.6521847],[112.3760309,23.6531042]]},"properties":{"key":"way:631439133@detail:449_94","osmType":"way","osmId":631439133,"sourceRegion":"guangdong","featureType":"infrastructure","railClass":"highspeed","mode":"rail","name":"贵广客专线","nameEn":"Guiguang Passenger Line","ref":"3044","usage":"main","highspeed":"yes","status":"operational","color":"#E54848","dataOrigin":"datum-2026-08-01","sourceKey":"way:631439133"}},{"type":"Feature","geometry":{"type":"LineString","coordinates":[[112.3983381,23.6340984],[112.3768158,23.6521847]]},"properties":{"key":"way:631439134@detail:449_94","osmType":"way","osmId":631439134,"sourceRegion":"guangdong","featureType":"infrastructure","railClass":"highspeed","mode":"rail","name":"贵广客专线","nameEn":"Guiguang Passenger Line","ref":"3044","usage":"main","highspeed":"yes","tunnel":"yes","status":"operational","color":"#E54848","dataOrigin":"datum-2026-08-01","sourceKey":"way:631439134"}},{"type":"Feature","geometry":{"type":"LineString","coordinates":[[112.3988749,23.6337001],[112.3983381,23.6340984]]},"properties":{"key":"way:631439135@detail:449_94","osmType":"way","osmId":631439135,"sourceRegion":"guangdong","featureType":"infrastructure","railClass":"highspeed","mode":"rail","name":"贵广客专线","nameEn":"Guiguang Passenger Line","ref":"3044","usage":"main","highspeed":"yes","status":"operational","color":"#E54848","dataOrigin":"datum-2026-08-01","sourceKey":"way:631439135"}},{"type":"Feature","geometry":{"type":"LineString","coordinates":[[112.4017425,23.6315225],[112.3988749,23.6337001]]},"properties":{"key":"way:631439136@detail:449_94","osmType":"way","osmId":631439136,"sourceRegion":"guangdong","featureType":"infrastructure","railClass":"highspeed","mode":"rail","name":"贵广客专线","nameEn":"Guiguang Passenger Line","ref":"3044","usage":"main","highspeed":"yes","tunnel":"yes","status":"operational","color":"#E54848","dataOrigin":"datum-2026-08-01","sourceKey":"way:631439136"}},{"type":"Feature","geometry":{"type":"LineString","coordinates":[[112.4043381,23.6292063],[112.4034444,23.6300515],[112.4017425,23.6315225]]},"properties":{"key":"way:631439137@detail:449_94","osmType":"way","osmId":631439137,"sourceRegion":"guangdong","featureType":"infrastructure","railClass":"highspeed","mode":"rail","name":"贵广客专线","nameEn":"Guiguang Passenger Line","ref":"3044","usage":"main","highspeed":"yes","status":"operational","color":"#E54848","dataOrigin":"datum-2026-08-01","sourceKey":"way:631439137"}},{"type":"Feature","geometry":{"type":"LineString","coordinates":[[112.411294,23.6211139],[112.4098269,23.6230913],[112.4092984,23.6237876],[112.4087352,23.6244978],[112.4081512,23.6251944],[112.4076381,23.6257978],[112.4065465,23.6270117],[112.4054924,23.6281077],[112.4043381,23.6292063]]},"properties":{"key":"way:631439138@detail:449_94","osmType":"way","osmId":631439138,"sourceRegion":"guangdong","featureType":"infrastructure","railClass":"highspeed","mode":"rail","name":"贵广客专线","nameEn":"Guiguang Passenger Line","ref":"3044","usage":"main","highspeed":"yes","bridge":"yes","status":"operational","color":"#E54848","dataOrigin":"datum-2026-08-01","sourceKey":"way:631439138"}},{"type":"Feature","geometry":{"type":"LineString","coordinates":[[112.4157998,23.6129847],[112.4153924,23.6139157],[112.4149901,23.6147513],[112.4146953,23.6153722]]},"properties":{"key":"way:631439139@detail:449_94","osmType":"way","osmId":631439139,"sourceRegion":"guangdong","featureType":"infrastructure","railClass":"highspeed","mode":"rail","name":"贵广客专线","nameEn":"Guiguang Passenger Line","ref":"3044","usage":"main","highspeed":"yes","tunnel":"yes","status":"operational","color":"#E54848","dataOrigin":"datum-2026-08-01","sourceKey":"way:631439139"}},{"type":"Feature","geometry":{"type":"LineString","coordinates":[[112.4159235,23.6126847],[112.4157998,23.6129847]]},"properties":{"key":"way:631439140@detail:449_94","osmType":"way","osmId":631439140,"sourceRegion":"guangdong","featureType":"infrastructure","railClass":"highspeed","mode":"rail","name":"贵广客专线","nameEn":"Guiguang Passenger Line","ref":"3044","usage":"main","highspeed":"yes","status":"operational","color":"#E54848","dataOrigin":"datum-2026-08-01","sourceKey":"way:631439140"}},{"type":"Feature","geometry":{"type":"LineString","coordinates":[[112.419481,23.5986877],[112.4189597,23.6022735],[112.418611,23.6040308],[112.4182355,23.6057857],[112.4177581,23.6075307],[112.4172109,23.6092462],[112.4166048,23.6109469],[112.4159235,23.6126847]]},"properties":{"key":"way:631439141@detail:449_94","osmType":"way","osmId":631439141,"sourceRegion":"guangdong","featureType":"infrastructure","railClass":"highspeed","mode":"rail","name":"贵广客专线","nameEn":"Guiguang Passenger Line","ref":"3044","usage":"main","highspeed":"yes","tunnel":"yes","status":"operational","color":"#E54848","dataOrigin":"datum-2026-08-01","sourceKey":"way:631439141"}},{"type":"Feature","geometry":{"type":"LineString","coordinates":[[112.4195657,23.5979568],[112.419481,23.5986877]]},"properties":{"key":"way:631439142@detail:449_94","osmType":"way","osmId":631439142,"sourceRegion":"guangdong","featureType":"infrastructure","railClass":"highspeed","mode":"rail","name":"贵广客专线","nameEn":"Guiguang Passenger Line","ref":"3044","usage":"main","highspeed":"yes","status":"operational","color":"#E54848","dataOrigin":"datum-2026-08-01","sourceKey":"way:631439142"}},{"type":"Feature","geometry":{"type":"LineString","coordinates":[[112.4195484,23.5987007],[112.4196363,23.5979607]]},"properties":{"key":"way:631439143@detail:449_94","osmType":"way","osmId":631439143,"sourceRegion":"guangdong","featureType":"infrastructure","railClass":"highspeed","mode":"rail","name":"贵广客专线","nameEn":"Guiguang Passenger Line","ref":"3044","usage":"main","highspeed":"yes","status":"operational","color":"#E54848","dataOrigin":"datum-2026-08-01","sourceKey":"way:631439143"}},{"type":"Feature","geometry":{"type":"LineString","coordinates":[[112.411758,23.6204381],[112.411294,23.6211139]]},"properties":{"key":"way:1275225188@detail:449_94","osmType":"way","osmId":1275225188,"sourceRegion":"guangdong","featureType":"infrastructure","railClass":"highspeed","mode":"rail","name":"贵广客专线","nameEn":"Guiguang Passenger Line","ref":"3044","usage":"main","highspeed":"yes","status":"operational","color":"#E54848","dataOrigin":"datum-2026-08-01","sourceKey":"way:1275225188"}},{"type":"Feature","geometry":{"type":"LineString","coordinates":[[112.4113369,23.6211385],[112.4118036,23.6204626]]},"properties":{"key":"way:1275225189@detail:449_94","osmType":"way","osmId":1275225189,"sourceRegion":"guangdong","featureType":"infrastructure","railClass":"highspeed","mode":"rail","name":"贵广客专线","nameEn":"Guiguang Passenger Line","ref":"3044","usage":"main","highspeed":"yes","status":"operational","color":"#E54848","dataOrigin":"datum-2026-08-01","sourceKey":"way:1275225189"}},{"type":"Feature","geometry":{"type":"LineString","coordinates":[[112.4118036,23.6204626],[112.4126309,23.6191292],[112.4132037,23.6182066]]},"properties":{"key":"way:1275225190@detail:449_94","osmType":"way","osmId":1275225190,"sourceRegion":"guangdong","featureType":"infrastructure","railClass":"highspeed","mode":"rail","name":"贵广客专线","nameEn":"Guiguang Passenger Line","ref":"3044","usage":"main","highspeed":"yes","bridge":"yes","status":"operational","color":"#E54848","dataOrigin":"datum-2026-08-01","sourceKey":"way:1275225190"}},{"type":"Feature","geometry":{"type":"LineString","coordinates":[[112.4131447,23.6181772],[112.412571,23.6190979],[112.411758,23.6204381]]},"properties":{"key":"way:1275225191@detail:449_94","osmType":"way","osmId":1275225191,"sourceRegion":"guangdong","featureType":"infrastructure","railClass":"highspeed","mode":"rail","name":"贵广客专线","nameEn":"Guiguang Passenger Line","ref":"3044","usage":"main","highspeed":"yes","bridge":"yes","status":"operational","color":"#E54848","dataOrigin":"datum-2026-08-01","sourceKey":"way:1275225191"}},{"type":"Feature","geometry":{"type":"LineString","coordinates":[[112.4146953,23.6153722],[112.413885,23.6168796],[112.4131447,23.6181772]]},"properties":{"key":"way:1275225192@detail:449_94","osmType":"way","osmId":1275225192,"sourceRegion":"guangdong","featureType":"infrastructure","railClass":"highspeed","mode":"rail","name":"贵广客专线","nameEn":"Guiguang Passenger Line","ref":"3044","usage":"main","highspeed":"yes","status":"operational","color":"#E54848","dataOrigin":"datum-2026-08-01","sourceKey":"way:1275225192"}},{"type":"Feature","geometry":{"type":"LineString","coordinates":[[112.4132037,23.6182066],[112.4139547,23.6168992],[112.4147606,23.6153962]]},"properties":{"key":"way:1275225193@detail:449_94","osmType":"way","osmId":1275225193,"sourceRegion":"guangdong","featureType":"infrastructure","railClass":"highspeed","mode":"rail","name":"贵广客专线","nameEn":"Guiguang Passenger Line","ref":"3044","usage":"main","highspeed":"yes","status":"operational","color":"#E54848","dataOrigin":"datum-2026-08-01","sourceKey":"way:1275225193"}},{"type":"Feature","geometry":{"type":"LineString","coordinates":[[112.4199708,23.5955553],[112.4197335,23.5968401]]},"properties":{"key":"way:1275225194@detail:449_94","osmType":"way","osmId":1275225194,"sourceRegion":"guangdong","featureType":"infrastructure","railClass":"minor","mode":"rail","name":"未命名","service":"crossover","status":"operational","color":"#52636F","dataOrigin":"datum-2026-08-01","sourceKey":"way:1275225194"}},{"type":"Feature","geometry":{"type":"LineString","coordinates":[[112.421671,23.5826121],[112.4217761,23.5813686]]},"properties":{"key":"way:1275225195@detail:449_94","osmType":"way","osmId":1275225195,"sourceRegion":"guangdong","featureType":"infrastructure","railClass":"minor","mode":"rail","name":"未命名","service":"crossover","bridge":"yes","status":"operational","color":"#52636F","dataOrigin":"datum-2026-08-01","sourceKey":"way:1275225195"}},{"type":"Feature","geometry":{"type":"LineString","coordinates":[[112.3500608,23.6980723],[112.3491809,23.7018573]]},"properties":{"key":"way:1340863355@detail:449_94","osmType":"way","osmId":1340863355,"sourceRegion":"guangdong","featureType":"infrastructure","railClass":"highspeed","mode":"rail","name":"贵广客专线","nameEn":"Guiguang Passenger Line","ref":"3044","usage":"main","highspeed":"yes","tunnel":"yes","status":"operational","color":"#E54848","dataOrigin":"datum-2026-08-01","sourceKey":"way:1340863355"}},{"type":"Feature","geometry":{"type":"LineString","coordinates":[[112.3492751,23.7018625],[112.3501279,23.6980867]]},"properties":{"key":"way:1340863356@detail:449_94","osmType":"way","osmId":1340863356,"sourceRegion":"guangdong","featureType":"infrastructure","railClass":"highspeed","mode":"rail","name":"贵广客专线","nameEn":"Guiguang Passenger Line","ref":"3044","usage":"main","highspeed":"yes","tunnel":"yes","status":"operational","color":"#E54848","dataOrigin":"datum-2026-08-01","sourceKey":"way:1340863356"}},{"type":"Feature","geometry":{"type":"LineString","coordinates":[[112.3491809,23.7018573],[112.3487462,23.7037427]]},"properties":{"key":"way:1340863357@detail:449_94","osmType":"way","osmId":1340863357,"sourceRegion":"guangdong","featureType":"infrastructure","railClass":"highspeed","mode":"rail","name":"贵广客专线","nameEn":"Guiguang Passenger Line","ref":"3044","usage":"main","highspeed":"yes","bridge":"yes","status":"operational","color":"#E54848","dataOrigin":"datum-2026-08-01","sourceKey":"way:1340863357"}},{"type":"Feature","geometry":{"type":"LineString","coordinates":[[112.3488216,23.7037649],[112.3492751,23.7018625]]},"properties":{"key":"way:1340863358@detail:449_94","osmType":"way","osmId":1340863358,"sourceRegion":"guangdong","featureType":"infrastructure","railClass":"highspeed","mode":"rail","name":"贵广客专线","nameEn":"Guiguang Passenger Line","ref":"3044","usage":"main","highspeed":"yes","bridge":"yes","status":"operational","color":"#E54848","dataOrigin":"datum-2026-08-01","sourceKey":"way:1340863358"}}]}