{"type":"FeatureCollection","features":[{"type":"Feature","geometry":{"type":"LineString","coordinates":[[112.4041372,24.8903605],[112.4040071,24.8897439],[112.4039063,24.8892453],[112.4035691,24.8879596],[112.4032926,24.8872547],[112.4034047,24.8868412],[112.4033151,24.8866582],[112.4032153,24.8864593]]},"properties":{"key":"way:1317324314@detail:449_99","osmType":"way","osmId":1317324314,"sourceRegion":"guangdong","featureType":"infrastructure","railClass":"minor","mode":"abandoned","name":"坪连铁路","status":"operational","color":"#52636F","dataOrigin":"datum-2026-08-01","sourceKey":"way:1317324314"}},{"type":"Feature","geometry":{"type":"LineString","coordinates":[[112.4032153,24.8864593],[112.4030759,24.8860956],[112.4030984,24.8857228],[112.4039788,24.8830201]]},"properties":{"key":"way:1317324315@detail:449_99","osmType":"way","osmId":1317324315,"sourceRegion":"guangdong","featureType":"infrastructure","railClass":"minor","mode":"abandoned","name":"石迳隧道","tunnel":"yes","status":"operational","color":"#52636F","dataOrigin":"datum-2026-08-01","sourceKey":"way:1317324315"}},{"type":"Feature","geometry":{"type":"LineString","coordinates":[[112.4039788,24.8830201],[112.4041743,24.8824489],[112.4041818,24.882171],[112.404391,24.8817168],[112.4050635,24.8800087]]},"properties":{"key":"way:1317324316@detail:449_99","osmType":"way","osmId":1317324316,"sourceRegion":"guangdong","featureType":"infrastructure","railClass":"minor","mode":"abandoned","name":"坪连铁路","status":"operational","color":"#52636F","dataOrigin":"datum-2026-08-01","sourceKey":"way:1317324316"}},{"type":"Feature","geometry":{"type":"LineString","coordinates":[[112.4694365,24.915822],[112.4688574,24.9150495],[112.4684763,24.9145615]]},"properties":{"key":"way:1317328521@detail:449_99","osmType":"way","osmId":1317328521,"sourceRegion":"guangdong","featureType":"infrastructure","railClass":"minor","mode":"abandoned","name":"青草大桥","bridge":"yes","status":"operational","color":"#52636F","dataOrigin":"datum-2026-08-01","sourceKey":"way:1317328521"}},{"type":"Feature","geometry":{"type":"LineString","coordinates":[[112.4625155,24.9078341],[112.4611871,24.9077043]]},"properties":{"key":"way:1317328522@detail:449_99","osmType":"way","osmId":1317328522,"sourceRegion":"guangdong","featureType":"infrastructure","railClass":"minor","mode":"abandoned","name":"水口大桥","bridge":"yes","status":"operational","color":"#52636F","dataOrigin":"datum-2026-08-01","sourceKey":"way:1317328522"}},{"type":"Feature","geometry":{"type":"LineString","coordinates":[[112.4094357,24.8973796],[112.4086203,24.8964396]]},"properties":{"key":"way:1317328523@detail:449_99","osmType":"way","osmId":1317328523,"sourceRegion":"guangdong","featureType":"infrastructure","railClass":"minor","mode":"abandoned","name":"大洛洞大桥","bridge":"yes","status":"operational","color":"#52636F","dataOrigin":"datum-2026-08-01","sourceKey":"way:1317328523"}},{"type":"Feature","geometry":{"type":"LineString","coordinates":[[112.3935512,24.8489233],[112.3946945,24.8498047]]},"properties":{"key":"way:1317328524@detail:449_99","osmType":"way","osmId":1317328524,"sourceRegion":"guangdong","featureType":"infrastructure","railClass":"minor","mode":"abandoned","name":"湖口水大桥","bridge":"yes","status":"operational","color":"#52636F","dataOrigin":"datum-2026-08-01","sourceKey":"way:1317328524"}},{"type":"Feature","geometry":{"type":"LineString","coordinates":[[112.3653921,24.7890223],[112.3638709,24.7887387]]},"properties":{"key":"way:1317328525@detail:449_99","osmType":"way","osmId":1317328525,"sourceRegion":"guangdong","featureType":"infrastructure","railClass":"minor","mode":"abandoned","name":"连阳大桥","status":"operational","color":"#52636F","dataOrigin":"datum-2026-08-01","sourceKey":"way:1317328525"}}]}