{"type":"FeatureCollection","features":[{"type":"Feature","geometry":{"type":"LineString","coordinates":[[112.293329,22.6841747],[112.268479,22.6660441]]},"properties":{"key":"way:1249436742@detail:449_90","osmType":"way","osmId":1249436742,"sourceRegion":"guangdong","featureType":"infrastructure","railClass":"highspeed","mode":"rail","name":"广湛高速线","nameEn":"Guangzhou-Zhanjiang Railway","usage":"main","highspeed":"yes","status":"operational","color":"#E54848","dataOrigin":"datum-2026-08-01","sourceKey":"way:1249436742"}},{"type":"Feature","geometry":{"type":"LineString","coordinates":[[112.2564102,22.6590899],[112.2547247,22.6581822],[112.2529855,22.6572449],[112.25,22.655555390333916]]},"properties":{"key":"way:1431621767@detail:449_90","osmType":"way","osmId":1431621767,"sourceRegion":"guangdong","featureType":"infrastructure","railClass":"highspeed","mode":"rail","name":"广湛高速线","nameEn":"Guangzhou-Zhanjiang Railway","usage":"main","highspeed":"yes","bridge":"yes","status":"operational","color":"#E54848","dataOrigin":"datum-2026-08-01","sourceKey":"way:1431621767"}},{"type":"Feature","geometry":{"type":"LineString","coordinates":[[112.2616245,22.6619616],[112.2564102,22.6590899]]},"properties":{"key":"way:1431621768@detail:449_90","osmType":"way","osmId":1431621768,"sourceRegion":"guangdong","featureType":"infrastructure","railClass":"highspeed","mode":"rail","name":"广湛高速线","nameEn":"Guangzhou-Zhanjiang Railway","usage":"main","highspeed":"yes","status":"operational","color":"#E54848","dataOrigin":"datum-2026-08-01","sourceKey":"way:1431621768"}},{"type":"Feature","geometry":{"type":"LineString","coordinates":[[112.268479,22.6660441],[112.2662613,22.6646534],[112.2641447,22.66341],[112.2616245,22.6619616]]},"properties":{"key":"way:1431621769@detail:449_90","osmType":"way","osmId":1431621769,"sourceRegion":"guangdong","featureType":"infrastructure","railClass":"highspeed","mode":"rail","name":"广湛高速线","nameEn":"Guangzhou-Zhanjiang Railway","usage":"main","highspeed":"yes","bridge":"yes","status":"operational","color":"#E54848","dataOrigin":"datum-2026-08-01","sourceKey":"way:1431621769"}},{"type":"Feature","geometry":{"type":"LineString","coordinates":[[112.2995438,22.6887308],[112.293329,22.6841747]]},"properties":{"key":"way:1431621770@detail:449_90","osmType":"way","osmId":1431621770,"sourceRegion":"guangdong","featureType":"infrastructure","railClass":"highspeed","mode":"rail","name":"广湛高速线","nameEn":"Guangzhou-Zhanjiang Railway","usage":"main","highspeed":"yes","bridge":"yes","status":"operational","color":"#E54848","dataOrigin":"datum-2026-08-01","sourceKey":"way:1431621770"}},{"type":"Feature","geometry":{"type":"LineString","coordinates":[[112.3037258,22.6917311],[112.3014889,22.6901566]]},"properties":{"key":"way:1431621771@detail:449_90","osmType":"way","osmId":1431621771,"sourceRegion":"guangdong","featureType":"infrastructure","railClass":"highspeed","mode":"rail","name":"广湛高速线","nameEn":"Guangzhou-Zhanjiang Railway","usage":"main","highspeed":"yes","tunnel":"yes","status":"operational","color":"#E54848","dataOrigin":"datum-2026-08-01","sourceKey":"way:1431621771"}},{"type":"Feature","geometry":{"type":"LineString","coordinates":[[112.3005164,22.6894437],[112.2995438,22.6887308]]},"properties":{"key":"way:1431621772@detail:449_90","osmType":"way","osmId":1431621772,"sourceRegion":"guangdong","featureType":"infrastructure","railClass":"highspeed","mode":"rail","name":"广湛高速线","nameEn":"Guangzhou-Zhanjiang Railway","usage":"main","highspeed":"yes","status":"operational","color":"#E54848","dataOrigin":"datum-2026-08-01","sourceKey":"way:1431621772"}},{"type":"Feature","geometry":{"type":"LineString","coordinates":[[112.3014889,22.6901566],[112.3005164,22.6894437]]},"properties":{"key":"way:1431621773@detail:449_90","osmType":"way","osmId":1431621773,"sourceRegion":"guangdong","featureType":"infrastructure","railClass":"highspeed","mode":"rail","name":"广湛高速线","nameEn":"Guangzhou-Zhanjiang Railway","usage":"main","highspeed":"yes","bridge":"yes","status":"operational","color":"#E54848","dataOrigin":"datum-2026-08-01","sourceKey":"way:1431621773"}},{"type":"Feature","geometry":{"type":"LineString","coordinates":[[112.3037258,22.6917311],[112.3055662,22.6930292],[112.3072656,22.694196],[112.3092372,22.6954513],[112.3113963,22.696737],[112.3135446,22.6979336]]},"properties":{"key":"way:1431621774@detail:449_90","osmType":"way","osmId":1431621774,"sourceRegion":"guangdong","featureType":"infrastructure","railClass":"highspeed","mode":"rail","name":"广湛高速线","nameEn":"Guangzhou-Zhanjiang Railway","usage":"main","highspeed":"yes","bridge":"yes","status":"operational","color":"#E54848","dataOrigin":"datum-2026-08-01","sourceKey":"way:1431621774"}},{"type":"Feature","geometry":{"type":"LineString","coordinates":[[112.3135446,22.6979336],[112.3143496,22.6983599]]},"properties":{"key":"way:1431621775@detail:449_90","osmType":"way","osmId":1431621775,"sourceRegion":"guangdong","featureType":"infrastructure","railClass":"highspeed","mode":"rail","name":"广湛高速线","nameEn":"Guangzhou-Zhanjiang Railway","usage":"main","highspeed":"yes","status":"operational","color":"#E54848","dataOrigin":"datum-2026-08-01","sourceKey":"way:1431621775"}},{"type":"Feature","geometry":{"type":"LineString","coordinates":[[112.3143496,22.6983599],[112.3180763,22.7003578]]},"properties":{"key":"way:1431621776@detail:449_90","osmType":"way","osmId":1431621776,"sourceRegion":"guangdong","featureType":"infrastructure","railClass":"highspeed","mode":"rail","name":"广湛高速线","nameEn":"Guangzhou-Zhanjiang Railway","usage":"main","highspeed":"yes","bridge":"yes","status":"operational","color":"#E54848","dataOrigin":"datum-2026-08-01","sourceKey":"way:1431621776"}},{"type":"Feature","geometry":{"type":"LineString","coordinates":[[112.3180763,22.7003578],[112.3191786,22.7009409]]},"properties":{"key":"way:1431621777@detail:449_90","osmType":"way","osmId":1431621777,"sourceRegion":"guangdong","featureType":"infrastructure","railClass":"highspeed","mode":"rail","name":"广湛高速线","nameEn":"Guangzhou-Zhanjiang Railway","usage":"main","highspeed":"yes","status":"operational","color":"#E54848","dataOrigin":"datum-2026-08-01","sourceKey":"way:1431621777"}},{"type":"Feature","geometry":{"type":"LineString","coordinates":[[112.3191786,22.7009409],[112.3206652,22.7017272]]},"properties":{"key":"way:1431621778@detail:449_90","osmType":"way","osmId":1431621778,"sourceRegion":"guangdong","featureType":"infrastructure","railClass":"highspeed","mode":"rail","name":"广湛高速线","nameEn":"Guangzhou-Zhanjiang Railway","usage":"main","highspeed":"yes","bridge":"yes","status":"operational","color":"#E54848","dataOrigin":"datum-2026-08-01","sourceKey":"way:1431621778"}},{"type":"Feature","geometry":{"type":"LineString","coordinates":[[112.3206652,22.7017272],[112.3217369,22.702294]]},"properties":{"key":"way:1431621779@detail:449_90","osmType":"way","osmId":1431621779,"sourceRegion":"guangdong","featureType":"infrastructure","railClass":"highspeed","mode":"rail","name":"广湛高速线","nameEn":"Guangzhou-Zhanjiang Railway","usage":"main","highspeed":"yes","status":"operational","color":"#E54848","dataOrigin":"datum-2026-08-01","sourceKey":"way:1431621779"}},{"type":"Feature","geometry":{"type":"LineString","coordinates":[[112.3228086,22.7028609],[112.3236098,22.7032847]]},"properties":{"key":"way:1431621780@detail:449_90","osmType":"way","osmId":1431621780,"sourceRegion":"guangdong","featureType":"infrastructure","railClass":"highspeed","mode":"rail","name":"广湛高速线","nameEn":"Guangzhou-Zhanjiang Railway","usage":"main","highspeed":"yes","status":"operational","color":"#E54848","dataOrigin":"datum-2026-08-01","sourceKey":"way:1431621780"}},{"type":"Feature","geometry":{"type":"LineString","coordinates":[[112.3217369,22.702294],[112.3228086,22.7028609]]},"properties":{"key":"way:1431621781@detail:449_90","osmType":"way","osmId":1431621781,"sourceRegion":"guangdong","featureType":"infrastructure","railClass":"highspeed","mode":"rail","name":"广湛高速线","nameEn":"Guangzhou-Zhanjiang Railway","usage":"main","highspeed":"yes","bridge":"yes","status":"operational","color":"#E54848","dataOrigin":"datum-2026-08-01","sourceKey":"way:1431621781"}},{"type":"Feature","geometry":{"type":"LineString","coordinates":[[112.3236098,22.7032847],[112.3247783,22.7039027]]},"properties":{"key":"way:1431621782@detail:449_90","osmType":"way","osmId":1431621782,"sourceRegion":"guangdong","featureType":"infrastructure","railClass":"highspeed","mode":"rail","name":"广湛高速线","nameEn":"Guangzhou-Zhanjiang Railway","usage":"main","highspeed":"yes","bridge":"yes","status":"operational","color":"#E54848","dataOrigin":"datum-2026-08-01","sourceKey":"way:1431621782"}},{"type":"Feature","geometry":{"type":"LineString","coordinates":[[112.3247783,22.7039027],[112.3270008,22.7050782]]},"properties":{"key":"way:1431621783@detail:449_90","osmType":"way","osmId":1431621783,"sourceRegion":"guangdong","featureType":"infrastructure","railClass":"highspeed","mode":"rail","name":"广湛高速线","nameEn":"Guangzhou-Zhanjiang Railway","usage":"main","highspeed":"yes","status":"operational","color":"#E54848","dataOrigin":"datum-2026-08-01","sourceKey":"way:1431621783"}},{"type":"Feature","geometry":{"type":"LineString","coordinates":[[112.3270008,22.7050782],[112.3285074,22.705875]]},"properties":{"key":"way:1431621784@detail:449_90","osmType":"way","osmId":1431621784,"sourceRegion":"guangdong","featureType":"infrastructure","railClass":"highspeed","mode":"rail","name":"广湛高速线","nameEn":"Guangzhou-Zhanjiang Railway","usage":"main","highspeed":"yes","bridge":"yes","status":"operational","color":"#E54848","dataOrigin":"datum-2026-08-01","sourceKey":"way:1431621784"}},{"type":"Feature","geometry":{"type":"LineString","coordinates":[[112.3285074,22.705875],[112.3293863,22.7063399]]},"properties":{"key":"way:1431621785@detail:449_90","osmType":"way","osmId":1431621785,"sourceRegion":"guangdong","featureType":"infrastructure","railClass":"highspeed","mode":"rail","name":"广湛高速线","nameEn":"Guangzhou-Zhanjiang Railway","usage":"main","highspeed":"yes","status":"operational","color":"#E54848","dataOrigin":"datum-2026-08-01","sourceKey":"way:1431621785"}},{"type":"Feature","geometry":{"type":"LineString","coordinates":[[112.3293863,22.7063399],[112.3400004,22.7119536]]},"properties":{"key":"way:1431621786@detail:449_90","osmType":"way","osmId":1431621786,"sourceRegion":"guangdong","featureType":"infrastructure","railClass":"highspeed","mode":"rail","name":"广湛高速线","nameEn":"Guangzhou-Zhanjiang Railway","usage":"main","highspeed":"yes","bridge":"yes","status":"operational","color":"#E54848","dataOrigin":"datum-2026-08-01","sourceKey":"way:1431621786"}},{"type":"Feature","geometry":{"type":"LineString","coordinates":[[112.3400004,22.7119536],[112.340919,22.7124394]]},"properties":{"key":"way:1431621787@detail:449_90","osmType":"way","osmId":1431621787,"sourceRegion":"guangdong","featureType":"infrastructure","railClass":"highspeed","mode":"rail","name":"广湛高速线","nameEn":"Guangzhou-Zhanjiang Railway","usage":"main","highspeed":"yes","status":"operational","color":"#E54848","dataOrigin":"datum-2026-08-01","sourceKey":"way:1431621787"}},{"type":"Feature","geometry":{"type":"LineString","coordinates":[[112.340919,22.7124394],[112.3455371,22.7148818]]},"properties":{"key":"way:1431621788@detail:449_90","osmType":"way","osmId":1431621788,"sourceRegion":"guangdong","featureType":"infrastructure","railClass":"highspeed","mode":"rail","name":"广湛高速线","nameEn":"Guangzhou-Zhanjiang Railway","usage":"main","highspeed":"yes","bridge":"yes","status":"operational","color":"#E54848","dataOrigin":"datum-2026-08-01","sourceKey":"way:1431621788"}},{"type":"Feature","geometry":{"type":"LineString","coordinates":[[112.3455371,22.7148818],[112.3653743,22.7253161]]},"properties":{"key":"way:1431621789@detail:449_90","osmType":"way","osmId":1431621789,"sourceRegion":"guangdong","featureType":"infrastructure","railClass":"highspeed","mode":"rail","name":"广湛高速线","nameEn":"Guangzhou-Zhanjiang Railway","usage":"main","highspeed":"yes","bridge":"yes","status":"operational","color":"#E54848","dataOrigin":"datum-2026-08-01","sourceKey":"way:1431621789"}},{"type":"Feature","geometry":{"type":"LineString","coordinates":[[112.3653743,22.7253161],[112.3670127,22.7261998]]},"properties":{"key":"way:1431621790@detail:449_90","osmType":"way","osmId":1431621790,"sourceRegion":"guangdong","featureType":"infrastructure","railClass":"highspeed","mode":"rail","name":"广湛高速线","nameEn":"Guangzhou-Zhanjiang Railway","usage":"main","highspeed":"yes","status":"operational","color":"#E54848","dataOrigin":"datum-2026-08-01","sourceKey":"way:1431621790"}},{"type":"Feature","geometry":{"type":"LineString","coordinates":[[112.3670127,22.7261998],[112.3710462,22.7284476]]},"properties":{"key":"way:1431621791@detail:449_90","osmType":"way","osmId":1431621791,"sourceRegion":"guangdong","featureType":"infrastructure","railClass":"highspeed","mode":"rail","name":"广湛高速线","nameEn":"Guangzhou-Zhanjiang Railway","usage":"main","highspeed":"yes","bridge":"yes","status":"operational","color":"#E54848","dataOrigin":"datum-2026-08-01","sourceKey":"way:1431621791"}},{"type":"Feature","geometry":{"type":"LineString","coordinates":[[112.3720542,22.7290729],[112.3743076,22.7304873]]},"properties":{"key":"way:1431621792@detail:449_90","osmType":"way","osmId":1431621792,"sourceRegion":"guangdong","featureType":"infrastructure","railClass":"highspeed","mode":"rail","name":"广湛高速线","nameEn":"Guangzhou-Zhanjiang Railway","usage":"main","highspeed":"yes","bridge":"yes","status":"operational","color":"#E54848","dataOrigin":"datum-2026-08-01","sourceKey":"way:1431621792"}},{"type":"Feature","geometry":{"type":"LineString","coordinates":[[112.3710462,22.7284476],[112.3720542,22.7290729]]},"properties":{"key":"way:1431621793@detail:449_90","osmType":"way","osmId":1431621793,"sourceRegion":"guangdong","featureType":"infrastructure","railClass":"highspeed","mode":"rail","name":"广湛高速线","nameEn":"Guangzhou-Zhanjiang Railway","usage":"main","highspeed":"yes","status":"operational","color":"#E54848","dataOrigin":"datum-2026-08-01","sourceKey":"way:1431621793"}},{"type":"Feature","geometry":{"type":"LineString","coordinates":[[112.3743076,22.7304873],[112.3751699,22.7310359]]},"properties":{"key":"way:1431621794@detail:449_90","osmType":"way","osmId":1431621794,"sourceRegion":"guangdong","featureType":"infrastructure","railClass":"highspeed","mode":"rail","name":"广湛高速线","nameEn":"Guangzhou-Zhanjiang Railway","usage":"main","highspeed":"yes","status":"operational","color":"#E54848","dataOrigin":"datum-2026-08-01","sourceKey":"way:1431621794"}},{"type":"Feature","geometry":{"type":"LineString","coordinates":[[112.3751699,22.7310359],[112.3768502,22.7320805]]},"properties":{"key":"way:1431621795@detail:449_90","osmType":"way","osmId":1431621795,"sourceRegion":"guangdong","featureType":"infrastructure","railClass":"highspeed","mode":"rail","name":"广湛高速线","nameEn":"Guangzhou-Zhanjiang Railway","usage":"main","highspeed":"yes","bridge":"yes","status":"operational","color":"#E54848","dataOrigin":"datum-2026-08-01","sourceKey":"way:1431621795"}},{"type":"Feature","geometry":{"type":"LineString","coordinates":[[112.3768502,22.7320805],[112.38013,22.7340226]]},"properties":{"key":"way:1431621796@detail:449_90","osmType":"way","osmId":1431621796,"sourceRegion":"guangdong","featureType":"infrastructure","railClass":"highspeed","mode":"rail","name":"广湛高速线","nameEn":"Guangzhou-Zhanjiang Railway","usage":"main","highspeed":"yes","tunnel":"yes","status":"operational","color":"#E54848","dataOrigin":"datum-2026-08-01","sourceKey":"way:1431621796"}},{"type":"Feature","geometry":{"type":"LineString","coordinates":[[112.38013,22.7340226],[112.382395,22.7354314],[112.3841441,22.7364293],[112.3859711,22.7373628]]},"properties":{"key":"way:1431621797@detail:449_90","osmType":"way","osmId":1431621797,"sourceRegion":"guangdong","featureType":"infrastructure","railClass":"highspeed","mode":"rail","name":"广湛高速线","nameEn":"Guangzhou-Zhanjiang Railway","usage":"main","highspeed":"yes","bridge":"yes","status":"operational","color":"#E54848","dataOrigin":"datum-2026-08-01","sourceKey":"way:1431621797"}},{"type":"Feature","geometry":{"type":"LineString","coordinates":[[112.3859711,22.7373628],[112.3875086,22.7380868],[112.3891518,22.738782],[112.3983247,22.7426021]]},"properties":{"key":"way:1431621798@detail:449_90","osmType":"way","osmId":1431621798,"sourceRegion":"guangdong","featureType":"infrastructure","railClass":"highspeed","mode":"rail","name":"广湛高速线","nameEn":"Guangzhou-Zhanjiang Railway","usage":"main","highspeed":"yes","tunnel":"yes","status":"operational","color":"#E54848","dataOrigin":"datum-2026-08-01","sourceKey":"way:1431621798"}},{"type":"Feature","geometry":{"type":"LineString","coordinates":[[112.3983247,22.7426021],[112.4023954,22.7442401]]},"properties":{"key":"way:1431621799@detail:449_90","osmType":"way","osmId":1431621799,"sourceRegion":"guangdong","featureType":"infrastructure","railClass":"highspeed","mode":"rail","name":"广湛高速线","nameEn":"Guangzhou-Zhanjiang Railway","usage":"main","highspeed":"yes","bridge":"yes","status":"operational","color":"#E54848","dataOrigin":"datum-2026-08-01","sourceKey":"way:1431621799"}},{"type":"Feature","geometry":{"type":"LineString","coordinates":[[112.4038945,22.7448658],[112.4053186,22.7455051]]},"properties":{"key":"way:1431621800@detail:449_90","osmType":"way","osmId":1431621800,"sourceRegion":"guangdong","featureType":"infrastructure","railClass":"highspeed","mode":"rail","name":"广湛高速线","nameEn":"Guangzhou-Zhanjiang Railway","usage":"main","highspeed":"yes","bridge":"yes","status":"operational","color":"#E54848","dataOrigin":"datum-2026-08-01","sourceKey":"way:1431621800"}},{"type":"Feature","geometry":{"type":"LineString","coordinates":[[112.4023954,22.7442401],[112.4038945,22.7448658]]},"properties":{"key":"way:1431621801@detail:449_90","osmType":"way","osmId":1431621801,"sourceRegion":"guangdong","featureType":"infrastructure","railClass":"highspeed","mode":"rail","name":"广湛高速线","nameEn":"Guangzhou-Zhanjiang Railway","usage":"main","highspeed":"yes","status":"operational","color":"#E54848","dataOrigin":"datum-2026-08-01","sourceKey":"way:1431621801"}},{"type":"Feature","geometry":{"type":"LineString","coordinates":[[112.4053186,22.7455051],[112.4120062,22.7489266]]},"properties":{"key":"way:1431621803@detail:449_90","osmType":"way","osmId":1431621803,"sourceRegion":"guangdong","featureType":"infrastructure","railClass":"highspeed","mode":"rail","name":"广湛高速线","nameEn":"Guangzhou-Zhanjiang Railway","usage":"main","highspeed":"yes","tunnel":"yes","status":"operational","color":"#E54848","dataOrigin":"datum-2026-08-01","sourceKey":"way:1431621803"}},{"type":"Feature","geometry":{"type":"LineString","coordinates":[[112.4120062,22.7489266],[112.4127816,22.749331]]},"properties":{"key":"way:1431621804@detail:449_90","osmType":"way","osmId":1431621804,"sourceRegion":"guangdong","featureType":"infrastructure","railClass":"highspeed","mode":"rail","name":"广湛高速线","nameEn":"Guangzhou-Zhanjiang Railway","usage":"main","highspeed":"yes","bridge":"yes","status":"operational","color":"#E54848","dataOrigin":"datum-2026-08-01","sourceKey":"way:1431621804"}},{"type":"Feature","geometry":{"type":"LineString","coordinates":[[112.4127816,22.749331],[112.41406447853282,22.75]]},"properties":{"key":"way:1431621805@detail:449_90","osmType":"way","osmId":1431621805,"sourceRegion":"guangdong","featureType":"infrastructure","railClass":"highspeed","mode":"rail","name":"广湛高速线","nameEn":"Guangzhou-Zhanjiang Railway","usage":"main","highspeed":"yes","tunnel":"yes","status":"operational","color":"#E54848","dataOrigin":"datum-2026-08-01","sourceKey":"way:1431621805"}},{"type":"Feature","geometry":{"type":"LineString","coordinates":[[112.2615969,22.6620034],[112.2563833,22.659132]]},"properties":{"key":"way:1462282153@detail:449_90","osmType":"way","osmId":1462282153,"sourceRegion":"guangdong","featureType":"infrastructure","railClass":"highspeed","mode":"rail","name":"广湛高速线","nameEn":"Guangzhou-Zhanjiang Railway","usage":"main","highspeed":"yes","status":"operational","color":"#E54848","dataOrigin":"datum-2026-08-01","sourceKey":"way:1462282153"}},{"type":"Feature","geometry":{"type":"LineString","coordinates":[[112.2684476,22.6660836],[112.2662322,22.6646943],[112.2641165,22.6634514],[112.2615969,22.6620034]]},"properties":{"key":"way:1462282159@detail:449_90","osmType":"way","osmId":1462282159,"sourceRegion":"guangdong","featureType":"infrastructure","railClass":"highspeed","mode":"rail","name":"广湛高速线","nameEn":"Guangzhou-Zhanjiang Railway","usage":"main","highspeed":"yes","bridge":"yes","status":"operational","color":"#E54848","dataOrigin":"datum-2026-08-01","sourceKey":"way:1462282159"}},{"type":"Feature","geometry":{"type":"LineString","coordinates":[[112.2563833,22.659132],[112.254698,22.6582244],[112.2529583,22.6572869],[112.25,22.655612736906022]]},"properties":{"key":"way:1462282168@detail:449_90","osmType":"way","osmId":1462282168,"sourceRegion":"guangdong","featureType":"infrastructure","railClass":"highspeed","mode":"rail","name":"广湛高速线","nameEn":"Guangzhou-Zhanjiang Railway","usage":"main","highspeed":"yes","bridge":"yes","status":"operational","color":"#E54848","dataOrigin":"datum-2026-08-01","sourceKey":"way:1462282168"}},{"type":"Feature","geometry":{"type":"LineString","coordinates":[[112.3135177,22.6979757],[112.3143231,22.6984022]]},"properties":{"key":"way:1462282171@detail:449_90","osmType":"way","osmId":1462282171,"sourceRegion":"guangdong","featureType":"infrastructure","railClass":"highspeed","mode":"rail","name":"广湛高速线","nameEn":"Guangzhou-Zhanjiang Railway","usage":"main","highspeed":"yes","status":"operational","color":"#E54848","dataOrigin":"datum-2026-08-01","sourceKey":"way:1462282171"}},{"type":"Feature","geometry":{"type":"LineString","coordinates":[[112.3206388,22.7017696],[112.3217105,22.7023364]]},"properties":{"key":"way:1462282172@detail:449_90","osmType":"way","osmId":1462282172,"sourceRegion":"guangdong","featureType":"infrastructure","railClass":"highspeed","mode":"rail","name":"广湛高速线","nameEn":"Guangzhou-Zhanjiang Railway","usage":"main","highspeed":"yes","status":"operational","color":"#E54848","dataOrigin":"datum-2026-08-01","sourceKey":"way:1462282172"}},{"type":"Feature","geometry":{"type":"LineString","coordinates":[[112.3004834,22.689482],[112.2995108,22.6887691]]},"properties":{"key":"way:1462282173@detail:449_90","osmType":"way","osmId":1462282173,"sourceRegion":"guangdong","featureType":"infrastructure","railClass":"highspeed","mode":"rail","name":"广湛高速线","nameEn":"Guangzhou-Zhanjiang Railway","usage":"main","highspeed":"yes","status":"operational","color":"#E54848","dataOrigin":"datum-2026-08-01","sourceKey":"way:1462282173"}},{"type":"Feature","geometry":{"type":"LineString","coordinates":[[112.3143231,22.6984022],[112.3180498,22.7004001]]},"properties":{"key":"way:1462282174@detail:449_90","osmType":"way","osmId":1462282174,"sourceRegion":"guangdong","featureType":"infrastructure","railClass":"highspeed","mode":"rail","name":"广湛高速线","nameEn":"Guangzhou-Zhanjiang Railway","usage":"main","highspeed":"yes","bridge":"yes","status":"operational","color":"#E54848","dataOrigin":"datum-2026-08-01","sourceKey":"way:1462282174"}},{"type":"Feature","geometry":{"type":"LineString","coordinates":[[112.3227822,22.7029033],[112.3235834,22.7033271]]},"properties":{"key":"way:1462282175@detail:449_90","osmType":"way","osmId":1462282175,"sourceRegion":"guangdong","featureType":"infrastructure","railClass":"highspeed","mode":"rail","name":"广湛高速线","nameEn":"Guangzhou-Zhanjiang Railway","usage":"main","highspeed":"yes","status":"operational","color":"#E54848","dataOrigin":"datum-2026-08-01","sourceKey":"way:1462282175"}},{"type":"Feature","geometry":{"type":"LineString","coordinates":[[112.3014563,22.6901952],[112.3004834,22.689482]]},"properties":{"key":"way:1462282176@detail:449_90","osmType":"way","osmId":1462282176,"sourceRegion":"guangdong","featureType":"infrastructure","railClass":"highspeed","mode":"rail","name":"广湛高速线","nameEn":"Guangzhou-Zhanjiang Railway","usage":"main","highspeed":"yes","bridge":"yes","status":"operational","color":"#E54848","dataOrigin":"datum-2026-08-01","sourceKey":"way:1462282176"}},{"type":"Feature","geometry":{"type":"LineString","coordinates":[[112.3180498,22.7004001],[112.3191522,22.7009833]]},"properties":{"key":"way:1462282177@detail:449_90","osmType":"way","osmId":1462282177,"sourceRegion":"guangdong","featureType":"infrastructure","railClass":"highspeed","mode":"rail","name":"广湛高速线","nameEn":"Guangzhou-Zhanjiang Railway","usage":"main","highspeed":"yes","status":"operational","color":"#E54848","dataOrigin":"datum-2026-08-01","sourceKey":"way:1462282177"}},{"type":"Feature","geometry":{"type":"LineString","coordinates":[[112.2995108,22.6887691],[112.2932961,22.684213]]},"properties":{"key":"way:1462282178@detail:449_90","osmType":"way","osmId":1462282178,"sourceRegion":"guangdong","featureType":"infrastructure","railClass":"highspeed","mode":"rail","name":"广湛高速线","nameEn":"Guangzhou-Zhanjiang Railway","usage":"main","highspeed":"yes","bridge":"yes","status":"operational","color":"#E54848","dataOrigin":"datum-2026-08-01","sourceKey":"way:1462282178"}},{"type":"Feature","geometry":{"type":"LineString","coordinates":[[112.3217105,22.7023364],[112.3227822,22.7029033]]},"properties":{"key":"way:1462282179@detail:449_90","osmType":"way","osmId":1462282179,"sourceRegion":"guangdong","featureType":"infrastructure","railClass":"highspeed","mode":"rail","name":"广湛高速线","nameEn":"Guangzhou-Zhanjiang Railway","usage":"main","highspeed":"yes","bridge":"yes","status":"operational","color":"#E54848","dataOrigin":"datum-2026-08-01","sourceKey":"way:1462282179"}},{"type":"Feature","geometry":{"type":"LineString","coordinates":[[112.3036936,22.69177],[112.3055343,22.6930682],[112.3072347,22.6942358],[112.3092078,22.695492],[112.3113682,22.6967785],[112.3135177,22.6979757]]},"properties":{"key":"way:1462282180@detail:449_90","osmType":"way","osmId":1462282180,"sourceRegion":"guangdong","featureType":"infrastructure","railClass":"highspeed","mode":"rail","name":"广湛高速线","nameEn":"Guangzhou-Zhanjiang Railway","usage":"main","highspeed":"yes","bridge":"yes","status":"operational","color":"#E54848","dataOrigin":"datum-2026-08-01","sourceKey":"way:1462282180"}},{"type":"Feature","geometry":{"type":"LineString","coordinates":[[112.3191522,22.7009833],[112.3206388,22.7017696]]},"properties":{"key":"way:1462282181@detail:449_90","osmType":"way","osmId":1462282181,"sourceRegion":"guangdong","featureType":"infrastructure","railClass":"highspeed","mode":"rail","name":"广湛高速线","nameEn":"Guangzhou-Zhanjiang Railway","usage":"main","highspeed":"yes","bridge":"yes","status":"operational","color":"#E54848","dataOrigin":"datum-2026-08-01","sourceKey":"way:1462282181"}},{"type":"Feature","geometry":{"type":"LineString","coordinates":[[112.3036936,22.69177],[112.3014563,22.6901952]]},"properties":{"key":"way:1462282182@detail:449_90","osmType":"way","osmId":1462282182,"sourceRegion":"guangdong","featureType":"infrastructure","railClass":"highspeed","mode":"rail","name":"广湛高速线","nameEn":"Guangzhou-Zhanjiang Railway","usage":"main","highspeed":"yes","tunnel":"yes","status":"operational","color":"#E54848","dataOrigin":"datum-2026-08-01","sourceKey":"way:1462282182"}},{"type":"Feature","geometry":{"type":"LineString","coordinates":[[112.3983028,22.7426466],[112.4023734,22.7442846]]},"properties":{"key":"way:1462282183@detail:449_90","osmType":"way","osmId":1462282183,"sourceRegion":"guangdong","featureType":"infrastructure","railClass":"highspeed","mode":"rail","name":"广湛高速线","nameEn":"Guangzhou-Zhanjiang Railway","usage":"main","highspeed":"yes","bridge":"yes","status":"operational","color":"#E54848","dataOrigin":"datum-2026-08-01","sourceKey":"way:1462282183"}},{"type":"Feature","geometry":{"type":"LineString","coordinates":[[112.3293599,22.7063823],[112.339974,22.711996]]},"properties":{"key":"way:1462282185@detail:449_90","osmType":"way","osmId":1462282185,"sourceRegion":"guangdong","featureType":"infrastructure","railClass":"highspeed","mode":"rail","name":"广湛高速线","nameEn":"Guangzhou-Zhanjiang Railway","usage":"main","highspeed":"yes","bridge":"yes","status":"operational","color":"#E54848","dataOrigin":"datum-2026-08-01","sourceKey":"way:1462282185"}},{"type":"Feature","geometry":{"type":"LineString","coordinates":[[112.4052947,22.7455488],[112.4119804,22.7489693]]},"properties":{"key":"way:1462282186@detail:449_90","osmType":"way","osmId":1462282186,"sourceRegion":"guangdong","featureType":"infrastructure","railClass":"highspeed","mode":"rail","name":"广湛高速线","nameEn":"Guangzhou-Zhanjiang Railway","usage":"main","highspeed":"yes","tunnel":"yes","status":"operational","color":"#E54848","dataOrigin":"datum-2026-08-01","sourceKey":"way:1462282186"}},{"type":"Feature","geometry":{"type":"LineString","coordinates":[[112.3653478,22.7253584],[112.3669856,22.7262418]]},"properties":{"key":"way:1462282187@detail:449_90","osmType":"way","osmId":1462282187,"sourceRegion":"guangdong","featureType":"infrastructure","railClass":"highspeed","mode":"rail","name":"广湛高速线","nameEn":"Guangzhou-Zhanjiang Railway","usage":"main","highspeed":"yes","status":"operational","color":"#E54848","dataOrigin":"datum-2026-08-01","sourceKey":"way:1462282187"}},{"type":"Feature","geometry":{"type":"LineString","coordinates":[[112.3247519,22.7039451],[112.3269744,22.7051206]]},"properties":{"key":"way:1462282188@detail:449_90","osmType":"way","osmId":1462282188,"sourceRegion":"guangdong","featureType":"infrastructure","railClass":"highspeed","mode":"rail","name":"广湛高速线","nameEn":"Guangzhou-Zhanjiang Railway","usage":"main","highspeed":"yes","status":"operational","color":"#E54848","dataOrigin":"datum-2026-08-01","sourceKey":"way:1462282188"}},{"type":"Feature","geometry":{"type":"LineString","coordinates":[[112.3720245,22.7291134],[112.3742776,22.7305276]]},"properties":{"key":"way:1462282190@detail:449_90","osmType":"way","osmId":1462282190,"sourceRegion":"guangdong","featureType":"infrastructure","railClass":"highspeed","mode":"rail","name":"广湛高速线","nameEn":"Guangzhou-Zhanjiang Railway","usage":"main","highspeed":"yes","bridge":"yes","status":"operational","color":"#E54848","dataOrigin":"datum-2026-08-01","sourceKey":"way:1462282190"}},{"type":"Feature","geometry":{"type":"LineString","coordinates":[[112.339974,22.711996],[112.3408926,22.7124818]]},"properties":{"key":"way:1462282191@detail:449_90","osmType":"way","osmId":1462282191,"sourceRegion":"guangdong","featureType":"infrastructure","railClass":"highspeed","mode":"rail","name":"广湛高速线","nameEn":"Guangzhou-Zhanjiang Railway","usage":"main","highspeed":"yes","status":"operational","color":"#E54848","dataOrigin":"datum-2026-08-01","sourceKey":"way:1462282191"}},{"type":"Feature","geometry":{"type":"LineString","coordinates":[[112.3768211,22.7321213],[112.3801009,22.7340634]]},"properties":{"key":"way:1462282192@detail:449_90","osmType":"way","osmId":1462282192,"sourceRegion":"guangdong","featureType":"infrastructure","railClass":"highspeed","mode":"rail","name":"广湛高速线","nameEn":"Guangzhou-Zhanjiang Railway","usage":"main","highspeed":"yes","tunnel":"yes","status":"operational","color":"#E54848","dataOrigin":"datum-2026-08-01","sourceKey":"way:1462282192"}},{"type":"Feature","geometry":{"type":"LineString","coordinates":[[112.3669856,22.7262418],[112.3710177,22.7284888]]},"properties":{"key":"way:1462282193@detail:449_90","osmType":"way","osmId":1462282193,"sourceRegion":"guangdong","featureType":"infrastructure","railClass":"highspeed","mode":"rail","name":"广湛高速线","nameEn":"Guangzhou-Zhanjiang Railway","usage":"main","highspeed":"yes","bridge":"yes","status":"operational","color":"#E54848","dataOrigin":"datum-2026-08-01","sourceKey":"way:1462282193"}},{"type":"Feature","geometry":{"type":"LineString","coordinates":[[112.4038724,22.7449103],[112.4052947,22.7455488]]},"properties":{"key":"way:1462282194@detail:449_90","osmType":"way","osmId":1462282194,"sourceRegion":"guangdong","featureType":"infrastructure","railClass":"highspeed","mode":"rail","name":"广湛高速线","nameEn":"Guangzhou-Zhanjiang Railway","usage":"main","highspeed":"yes","bridge":"yes","status":"operational","color":"#E54848","dataOrigin":"datum-2026-08-01","sourceKey":"way:1462282194"}},{"type":"Feature","geometry":{"type":"LineString","coordinates":[[112.3710177,22.7284888],[112.3720245,22.7291134]]},"properties":{"key":"way:1462282196@detail:449_90","osmType":"way","osmId":1462282196,"sourceRegion":"guangdong","featureType":"infrastructure","railClass":"highspeed","mode":"rail","name":"广湛高速线","nameEn":"Guangzhou-Zhanjiang Railway","usage":"main","highspeed":"yes","status":"operational","color":"#E54848","dataOrigin":"datum-2026-08-01","sourceKey":"way:1462282196"}},{"type":"Feature","geometry":{"type":"LineString","coordinates":[[112.4119804,22.7489693],[112.4127555,22.7493735]]},"properties":{"key":"way:1462282197@detail:449_90","osmType":"way","osmId":1462282197,"sourceRegion":"guangdong","featureType":"infrastructure","railClass":"highspeed","mode":"rail","name":"广湛高速线","nameEn":"Guangzhou-Zhanjiang Railway","usage":"main","highspeed":"yes","bridge":"yes","status":"operational","color":"#E54848","dataOrigin":"datum-2026-08-01","sourceKey":"way:1462282197"}},{"type":"Feature","geometry":{"type":"LineString","coordinates":[[112.3801009,22.7340634],[112.3823662,22.7354725],[112.3841172,22.7364714],[112.3859461,22.737406]]},"properties":{"key":"way:1462282198@detail:449_90","osmType":"way","osmId":1462282198,"sourceRegion":"guangdong","featureType":"infrastructure","railClass":"highspeed","mode":"rail","name":"广湛高速线","nameEn":"Guangzhou-Zhanjiang Railway","usage":"main","highspeed":"yes","bridge":"yes","status":"operational","color":"#E54848","dataOrigin":"datum-2026-08-01","sourceKey":"way:1462282198"}},{"type":"Feature","geometry":{"type":"LineString","coordinates":[[112.3269744,22.7051206],[112.328481,22.7059174]]},"properties":{"key":"way:1462282199@detail:449_90","osmType":"way","osmId":1462282199,"sourceRegion":"guangdong","featureType":"infrastructure","railClass":"highspeed","mode":"rail","name":"广湛高速线","nameEn":"Guangzhou-Zhanjiang Railway","usage":"main","highspeed":"yes","bridge":"yes","status":"operational","color":"#E54848","dataOrigin":"datum-2026-08-01","sourceKey":"way:1462282199"}},{"type":"Feature","geometry":{"type":"LineString","coordinates":[[112.4023734,22.7442846],[112.4038724,22.7449103]]},"properties":{"key":"way:1462282201@detail:449_90","osmType":"way","osmId":1462282201,"sourceRegion":"guangdong","featureType":"infrastructure","railClass":"highspeed","mode":"rail","name":"广湛高速线","nameEn":"Guangzhou-Zhanjiang Railway","usage":"main","highspeed":"yes","status":"operational","color":"#E54848","dataOrigin":"datum-2026-08-01","sourceKey":"way:1462282201"}},{"type":"Feature","geometry":{"type":"LineString","coordinates":[[112.3742776,22.7305276],[112.37514,22.7310763]]},"properties":{"key":"way:1462282202@detail:449_90","osmType":"way","osmId":1462282202,"sourceRegion":"guangdong","featureType":"infrastructure","railClass":"highspeed","mode":"rail","name":"广湛高速线","nameEn":"Guangzhou-Zhanjiang Railway","usage":"main","highspeed":"yes","status":"operational","color":"#E54848","dataOrigin":"datum-2026-08-01","sourceKey":"way:1462282202"}},{"type":"Feature","geometry":{"type":"LineString","coordinates":[[112.3408926,22.7124818],[112.3455108,22.7149242]]},"properties":{"key":"way:1462282203@detail:449_90","osmType":"way","osmId":1462282203,"sourceRegion":"guangdong","featureType":"infrastructure","railClass":"highspeed","mode":"rail","name":"广湛高速线","nameEn":"Guangzhou-Zhanjiang Railway","usage":"main","highspeed":"yes","bridge":"yes","status":"operational","color":"#E54848","dataOrigin":"datum-2026-08-01","sourceKey":"way:1462282203"}},{"type":"Feature","geometry":{"type":"LineString","coordinates":[[112.4127555,22.7493735],[112.41395688027028,22.75]]},"properties":{"key":"way:1462282204@detail:449_90","osmType":"way","osmId":1462282204,"sourceRegion":"guangdong","featureType":"infrastructure","railClass":"highspeed","mode":"rail","name":"广湛高速线","nameEn":"Guangzhou-Zhanjiang Railway","usage":"main","highspeed":"yes","tunnel":"yes","status":"operational","color":"#E54848","dataOrigin":"datum-2026-08-01","sourceKey":"way:1462282204"}},{"type":"Feature","geometry":{"type":"LineString","coordinates":[[112.3859461,22.737406],[112.3874856,22.7381308],[112.3891299,22.7388265],[112.3983028,22.7426466]]},"properties":{"key":"way:1462282205@detail:449_90","osmType":"way","osmId":1462282205,"sourceRegion":"guangdong","featureType":"infrastructure","railClass":"highspeed","mode":"rail","name":"广湛高速线","nameEn":"Guangzhou-Zhanjiang Railway","usage":"main","highspeed":"yes","tunnel":"yes","status":"operational","color":"#E54848","dataOrigin":"datum-2026-08-01","sourceKey":"way:1462282205"}},{"type":"Feature","geometry":{"type":"LineString","coordinates":[[112.328481,22.7059174],[112.3293599,22.7063823]]},"properties":{"key":"way:1462282206@detail:449_90","osmType":"way","osmId":1462282206,"sourceRegion":"guangdong","featureType":"infrastructure","railClass":"highspeed","mode":"rail","name":"广湛高速线","nameEn":"Guangzhou-Zhanjiang Railway","usage":"main","highspeed":"yes","status":"operational","color":"#E54848","dataOrigin":"datum-2026-08-01","sourceKey":"way:1462282206"}},{"type":"Feature","geometry":{"type":"LineString","coordinates":[[112.37514,22.7310763],[112.3768211,22.7321213]]},"properties":{"key":"way:1462282208@detail:449_90","osmType":"way","osmId":1462282208,"sourceRegion":"guangdong","featureType":"infrastructure","railClass":"highspeed","mode":"rail","name":"广湛高速线","nameEn":"Guangzhou-Zhanjiang Railway","usage":"main","highspeed":"yes","bridge":"yes","status":"operational","color":"#E54848","dataOrigin":"datum-2026-08-01","sourceKey":"way:1462282208"}},{"type":"Feature","geometry":{"type":"LineString","coordinates":[[112.3455108,22.7149242],[112.3653478,22.7253584]]},"properties":{"key":"way:1462282209@detail:449_90","osmType":"way","osmId":1462282209,"sourceRegion":"guangdong","featureType":"infrastructure","railClass":"highspeed","mode":"rail","name":"广湛高速线","nameEn":"Guangzhou-Zhanjiang Railway","usage":"main","highspeed":"yes","bridge":"yes","status":"operational","color":"#E54848","dataOrigin":"datum-2026-08-01","sourceKey":"way:1462282209"}},{"type":"Feature","geometry":{"type":"LineString","coordinates":[[112.3235834,22.7033271],[112.3247519,22.7039451]]},"properties":{"key":"way:1462282223@detail:449_90","osmType":"way","osmId":1462282223,"sourceRegion":"guangdong","featureType":"infrastructure","railClass":"highspeed","mode":"rail","name":"广湛高速线","nameEn":"Guangzhou-Zhanjiang Railway","usage":"main","highspeed":"yes","bridge":"yes","status":"operational","color":"#E54848","dataOrigin":"datum-2026-08-01","sourceKey":"way:1462282223"}},{"type":"Feature","geometry":{"type":"LineString","coordinates":[[112.2932961,22.684213],[112.2684476,22.6660836]]},"properties":{"key":"way:1462282224@detail:449_90","osmType":"way","osmId":1462282224,"sourceRegion":"guangdong","featureType":"infrastructure","railClass":"highspeed","mode":"rail","name":"广湛高速线","nameEn":"Guangzhou-Zhanjiang Railway","usage":"main","highspeed":"yes","status":"operational","color":"#E54848","dataOrigin":"datum-2026-08-01","sourceKey":"way:1462282224"}}]}