{"type":"FeatureCollection","features":[{"type":"Feature","geometry":{"type":"LineString","coordinates":[[112.5,23.413926760973236],[112.4996876,23.4142628],[112.4993702,23.4145914],[112.499218,23.4147527]]},"properties":{"key":"way:580157744@detail:449_93","osmType":"way","osmId":580157744,"sourceRegion":"foshan","featureType":"infrastructure","railClass":"highspeed","mode":"rail","name":"贵广客专线","nameEn":"Guiguang Passenger Line","ref":"3044","usage":"main","highspeed":"yes","status":"operational","color":"#E54848","sourceKey":"way:580157744"}},{"type":"Feature","geometry":{"type":"LineString","coordinates":[[112.4992616,23.4147866],[112.4994918,23.4145464],[112.4997896,23.4142304],[112.5,23.414009404316545]]},"properties":{"key":"way:583729345@detail:449_93","osmType":"way","osmId":583729345,"sourceRegion":"foshan","featureType":"infrastructure","railClass":"highspeed","mode":"rail","name":"贵广客专线","nameEn":"Guiguang Passenger Line","ref":"3044","usage":"main","highspeed":"yes","status":"operational","color":"#E54848","sourceKey":"way:583729345"}},{"type":"Feature","geometry":{"type":"LineString","coordinates":[[112.44396270363701,23.5],[112.4441503,23.499068]]},"properties":{"key":"way:436988169@detail:449_93","osmType":"way","osmId":436988169,"sourceRegion":"guangdong","featureType":"infrastructure","railClass":"highspeed","mode":"rail","name":"贵广客专线","nameEn":"Guiguang Passenger Line","ref":"3044","usage":"main","highspeed":"yes","bridge":"yes","status":"operational","color":"#E54848","dataOrigin":"datum-2026-08-01","sourceKey":"way:436988169"}},{"type":"Feature","geometry":{"type":"LineString","coordinates":[[112.4440971,23.4990623],[112.44390237928806,23.5]]},"properties":{"key":"way:582968559@detail:449_93","osmType":"way","osmId":582968559,"sourceRegion":"guangdong","featureType":"infrastructure","railClass":"highspeed","mode":"rail","name":"贵广客专线","nameEn":"Guiguang Passenger Line","ref":"3044","usage":"main","highspeed":"yes","bridge":"yes","status":"operational","color":"#E54848","dataOrigin":"datum-2026-08-01","sourceKey":"way:582968559"}},{"type":"Feature","geometry":{"type":"LineString","coordinates":[[112.4441503,23.499068],[112.4442089,23.4987611],[112.4442625,23.4985097],[112.4443234,23.4982501],[112.4444082,23.4979044],[112.4444936,23.497589],[112.4445913,23.4972587],[112.4447263,23.4968158],[112.4515758,23.474752],[112.4516971,23.4743839],[112.4518491,23.4739253],[112.4520306,23.473413],[112.4522058,23.4729437],[112.4523911,23.4724781],[112.4525386,23.4721388],[112.4526771,23.4718397],[112.452833,23.4715167],[112.4529954,23.4712007],[112.4531322,23.4709372],[112.4532727,23.4706798],[112.4533623,23.4705153]]},"properties":{"key":"way:582974163@detail:449_93","osmType":"way","osmId":582974163,"sourceRegion":"guangdong","featureType":"infrastructure","railClass":"highspeed","mode":"rail","name":"贵广客专线","nameEn":"Guiguang Passenger Line","ref":"3044","usage":"main","highspeed":"yes","tunnel":"yes","status":"operational","color":"#E54848","dataOrigin":"datum-2026-08-01","sourceKey":"way:582974163"}},{"type":"Feature","geometry":{"type":"LineString","coordinates":[[112.4533117,23.4704822],[112.4532104,23.4706637],[112.4531157,23.4708421],[112.4530205,23.4710213],[112.4529342,23.4711822],[112.4527849,23.4714734],[112.4526481,23.4717544],[112.4525059,23.4720623],[112.4524037,23.4722958],[112.452313,23.4725095],[112.4522165,23.4727494],[112.452113,23.4730169],[112.4520241,23.4732514],[112.4518945,23.4736071],[112.4517971,23.4738799],[112.4517077,23.4741464],[112.4516073,23.4744548],[112.4515174,23.4747375],[112.4446554,23.4968361],[112.4445382,23.4972289],[112.4444821,23.4974226],[112.4444305,23.4976033],[112.4443812,23.4977874],[112.4443384,23.497956],[112.4442918,23.4981509],[112.4442562,23.4982988],[112.4442038,23.4985344],[112.4441593,23.4987384],[112.4441239,23.4989152],[112.4440971,23.4990623]]},"properties":{"key":"way:582974164@detail:449_93","osmType":"way","osmId":582974164,"sourceRegion":"guangdong","featureType":"infrastructure","railClass":"highspeed","mode":"rail","name":"贵广客专线","nameEn":"Guiguang Passenger Line","ref":"3044","usage":"main","highspeed":"yes","tunnel":"yes","status":"operational","color":"#E54848","dataOrigin":"datum-2026-08-01","sourceKey":"way:582974164"}},{"type":"Feature","geometry":{"type":"LineString","coordinates":[[112.4544182,23.4686862],[112.4546997,23.4682087],[112.455236,23.4673369]]},"properties":{"key":"way:582974165@detail:449_93","osmType":"way","osmId":582974165,"sourceRegion":"guangdong","featureType":"infrastructure","railClass":"highspeed","mode":"rail","name":"贵广客专线","nameEn":"Guiguang Passenger Line","ref":"3044","usage":"main","highspeed":"yes","bridge":"yes","status":"operational","color":"#E54848","dataOrigin":"datum-2026-08-01","sourceKey":"way:582974165"}},{"type":"Feature","geometry":{"type":"LineString","coordinates":[[112.4533623,23.4705153],[112.4542617,23.4689541],[112.4544182,23.4686862]]},"properties":{"key":"way:582974166@detail:449_93","osmType":"way","osmId":582974166,"sourceRegion":"guangdong","featureType":"infrastructure","railClass":"highspeed","mode":"rail","name":"贵广客专线","nameEn":"Guiguang Passenger Line","ref":"3044","usage":"main","highspeed":"yes","status":"operational","color":"#E54848","dataOrigin":"datum-2026-08-01","sourceKey":"way:582974166"}},{"type":"Feature","geometry":{"type":"LineString","coordinates":[[112.4543702,23.468665],[112.4543031,23.4687783],[112.4533117,23.4704822]]},"properties":{"key":"way:582974167@detail:449_93","osmType":"way","osmId":582974167,"sourceRegion":"guangdong","featureType":"infrastructure","railClass":"highspeed","mode":"rail","name":"贵广客专线","nameEn":"Guiguang Passenger Line","ref":"3044","usage":"main","highspeed":"yes","status":"operational","color":"#E54848","dataOrigin":"datum-2026-08-01","sourceKey":"way:582974167"}},{"type":"Feature","geometry":{"type":"LineString","coordinates":[[112.455236,23.4673369],[112.4553839,23.4671038],[112.4555609,23.4668232],[112.4557144,23.4665873],[112.4561747,23.4659038]]},"properties":{"key":"way:582975782@detail:449_93","osmType":"way","osmId":582975782,"sourceRegion":"guangdong","featureType":"infrastructure","railClass":"highspeed","mode":"rail","name":"贵广客专线","nameEn":"Guiguang Passenger Line","ref":"3044","usage":"main","highspeed":"yes","tunnel":"yes","status":"operational","color":"#E54848","dataOrigin":"datum-2026-08-01","sourceKey":"way:582975782"}},{"type":"Feature","geometry":{"type":"LineString","coordinates":[[112.4561747,23.4659038],[112.4563483,23.4656518],[112.4566648,23.4652008]]},"properties":{"key":"way:582975783@detail:449_93","osmType":"way","osmId":582975783,"sourceRegion":"guangdong","featureType":"infrastructure","railClass":"highspeed","mode":"rail","name":"贵广客专线","nameEn":"Guiguang Passenger Line","ref":"3044","usage":"main","highspeed":"yes","bridge":"yes","status":"operational","color":"#E54848","dataOrigin":"datum-2026-08-01","sourceKey":"way:582975783"}},{"type":"Feature","geometry":{"type":"LineString","coordinates":[[112.4566648,23.4652008],[112.4568589,23.4649242]]},"properties":{"key":"way:582975784@detail:449_93","osmType":"way","osmId":582975784,"sourceRegion":"guangdong","featureType":"infrastructure","railClass":"highspeed","mode":"rail","name":"贵广客专线","nameEn":"Guiguang Passenger Line","ref":"3044","usage":"main","highspeed":"yes","status":"operational","color":"#E54848","dataOrigin":"datum-2026-08-01","sourceKey":"way:582975784"}},{"type":"Feature","geometry":{"type":"LineString","coordinates":[[112.4568589,23.4649242],[112.4570174,23.4647079],[112.4581194,23.4631747]]},"properties":{"key":"way:582975785@detail:449_93","osmType":"way","osmId":582975785,"sourceRegion":"guangdong","featureType":"infrastructure","railClass":"highspeed","mode":"rail","name":"贵广客专线","nameEn":"Guiguang Passenger Line","ref":"3044","usage":"main","highspeed":"yes","tunnel":"yes","status":"operational","color":"#E54848","dataOrigin":"datum-2026-08-01","sourceKey":"way:582975785"}},{"type":"Feature","geometry":{"type":"LineString","coordinates":[[112.4566143,23.4651882],[112.4565183,23.4653255],[112.4561292,23.4658802]]},"properties":{"key":"way:582975786@detail:449_93","osmType":"way","osmId":582975786,"sourceRegion":"guangdong","featureType":"infrastructure","railClass":"highspeed","mode":"rail","name":"贵广客专线","nameEn":"Guiguang Passenger Line","ref":"3044","usage":"main","highspeed":"yes","bridge":"yes","status":"operational","color":"#E54848","dataOrigin":"datum-2026-08-01","sourceKey":"way:582975786"}},{"type":"Feature","geometry":{"type":"LineString","coordinates":[[112.4561292,23.4658802],[112.4556749,23.4665632],[112.4554971,23.4668298],[112.4553362,23.46708],[112.4551901,23.4673059]]},"properties":{"key":"way:582975787@detail:449_93","osmType":"way","osmId":582975787,"sourceRegion":"guangdong","featureType":"infrastructure","railClass":"highspeed","mode":"rail","name":"贵广客专线","nameEn":"Guiguang Passenger Line","ref":"3044","usage":"main","highspeed":"yes","tunnel":"yes","status":"operational","color":"#E54848","dataOrigin":"datum-2026-08-01","sourceKey":"way:582975787"}},{"type":"Feature","geometry":{"type":"LineString","coordinates":[[112.4551901,23.4673059],[112.454648,23.4681962],[112.4543702,23.468665]]},"properties":{"key":"way:582975788@detail:449_93","osmType":"way","osmId":582975788,"sourceRegion":"guangdong","featureType":"infrastructure","railClass":"highspeed","mode":"rail","name":"贵广客专线","nameEn":"Guiguang Passenger Line","ref":"3044","usage":"main","highspeed":"yes","bridge":"yes","status":"operational","color":"#E54848","dataOrigin":"datum-2026-08-01","sourceKey":"way:582975788"}},{"type":"Feature","geometry":{"type":"LineString","coordinates":[[112.4580751,23.4631491],[112.4568153,23.464899]]},"properties":{"key":"way:582975789@detail:449_93","osmType":"way","osmId":582975789,"sourceRegion":"guangdong","featureType":"infrastructure","railClass":"highspeed","mode":"rail","name":"贵广客专线","nameEn":"Guiguang Passenger Line","ref":"3044","usage":"main","highspeed":"yes","tunnel":"yes","status":"operational","color":"#E54848","dataOrigin":"datum-2026-08-01","sourceKey":"way:582975789"}},{"type":"Feature","geometry":{"type":"LineString","coordinates":[[112.4568153,23.464899],[112.456675,23.4651015],[112.4566143,23.4651882]]},"properties":{"key":"way:582975790@detail:449_93","osmType":"way","osmId":582975790,"sourceRegion":"guangdong","featureType":"infrastructure","railClass":"highspeed","mode":"rail","name":"贵广客专线","nameEn":"Guiguang Passenger Line","ref":"3044","usage":"main","highspeed":"yes","status":"operational","color":"#E54848","dataOrigin":"datum-2026-08-01","sourceKey":"way:582975790"}},{"type":"Feature","geometry":{"type":"LineString","coordinates":[[112.4581194,23.4631747],[112.4595468,23.4613539]]},"properties":{"key":"way:582975791@detail:449_93","osmType":"way","osmId":582975791,"sourceRegion":"guangdong","featureType":"infrastructure","railClass":"highspeed","mode":"rail","name":"贵广客专线","nameEn":"Guiguang Passenger Line","ref":"3044","usage":"main","highspeed":"yes","status":"operational","color":"#E54848","dataOrigin":"datum-2026-08-01","sourceKey":"way:582975791"}},{"type":"Feature","geometry":{"type":"LineString","coordinates":[[112.4595071,23.4613221],[112.4580751,23.4631491]]},"properties":{"key":"way:582975792@detail:449_93","osmType":"way","osmId":582975792,"sourceRegion":"guangdong","featureType":"infrastructure","railClass":"highspeed","mode":"rail","name":"贵广客专线","nameEn":"Guiguang Passenger Line","ref":"3044","usage":"main","highspeed":"yes","status":"operational","color":"#E54848","dataOrigin":"datum-2026-08-01","sourceKey":"way:582975792"}},{"type":"Feature","geometry":{"type":"LineString","coordinates":[[112.4595468,23.4613539],[112.4598357,23.461006],[112.4602238,23.4605537],[112.4722988,23.4466269],[112.4726846,23.4461804],[112.4729137,23.4459138],[112.473159,23.445615],[112.4738784,23.4447572],[112.4745843,23.4438975],[112.4751909,23.4431533],[112.4757775,23.4424411],[112.4762632,23.4418282],[112.4767294,23.4412337],[112.4772249,23.4405997],[112.4776466,23.4400433],[112.4780888,23.4394541],[112.4786283,23.4387629],[112.4789559,23.4383266],[112.4792427,23.4379415],[112.4794535,23.43765],[112.4796648,23.437352],[112.4798857,23.437034],[112.4800638,23.4367703],[112.4802224,23.4365387],[112.4804946,23.4361454]]},"properties":{"key":"way:582983898@detail:449_93","osmType":"way","osmId":582983898,"sourceRegion":"guangdong","featureType":"infrastructure","railClass":"highspeed","mode":"rail","name":"贵广客专线","nameEn":"Guiguang Passenger Line","ref":"3044","usage":"main","highspeed":"yes","tunnel":"yes","status":"operational","color":"#E54848","dataOrigin":"datum-2026-08-01","sourceKey":"way:582983898"}},{"type":"Feature","geometry":{"type":"LineString","coordinates":[[112.4804473,23.4361263],[112.4801842,23.4365067],[112.4800285,23.4367365],[112.4798388,23.4370096],[112.4796172,23.4373227],[112.4794053,23.4376232],[112.4791868,23.4379237],[112.4789047,23.4383045],[112.4786017,23.4387065],[112.478206,23.439218],[112.4778527,23.4396728],[112.4776177,23.4399837],[112.4773254,23.4403589],[112.4770836,23.4406723],[112.4767126,23.4411537],[112.4763793,23.441577],[112.4760934,23.4419351],[112.4759139,23.4421576],[112.4755684,23.4425853],[112.4751126,23.4431462],[112.4747041,23.4436496],[112.4744136,23.4440059],[112.4739014,23.444629],[112.4733959,23.445241],[112.4726349,23.4461442],[112.4722544,23.4465822],[112.4602547,23.4604257],[112.4599734,23.4607545],[112.4597604,23.4610082],[112.4595071,23.4613221]]},"properties":{"key":"way:582983899@detail:449_93","osmType":"way","osmId":582983899,"sourceRegion":"guangdong","featureType":"infrastructure","railClass":"highspeed","mode":"rail","name":"贵广客专线","nameEn":"Guiguang Passenger Line","ref":"3044","usage":"main","highspeed":"yes","tunnel":"yes","status":"operational","color":"#E54848","dataOrigin":"datum-2026-08-01","sourceKey":"way:582983899"}},{"type":"Feature","geometry":{"type":"LineString","coordinates":[[112.4820726,23.4337861],[112.4804473,23.4361263]]},"properties":{"key":"way:582983900@detail:449_93","osmType":"way","osmId":582983900,"sourceRegion":"guangdong","featureType":"infrastructure","railClass":"highspeed","mode":"rail","name":"贵广客专线","nameEn":"Guiguang Passenger Line","ref":"3044","usage":"main","highspeed":"yes","status":"operational","color":"#E54848","dataOrigin":"datum-2026-08-01","sourceKey":"way:582983900"}},{"type":"Feature","geometry":{"type":"LineString","coordinates":[[112.4804946,23.4361454],[112.4821212,23.4338077]]},"properties":{"key":"way:582983901@detail:449_93","osmType":"way","osmId":582983901,"sourceRegion":"guangdong","featureType":"infrastructure","railClass":"highspeed","mode":"rail","name":"贵广客专线","nameEn":"Guiguang Passenger Line","ref":"3044","usage":"main","highspeed":"yes","status":"operational","color":"#E54848","dataOrigin":"datum-2026-08-01","sourceKey":"way:582983901"}},{"type":"Feature","geometry":{"type":"LineString","coordinates":[[112.4835086,23.4318229],[112.483687,23.4315646]]},"properties":{"key":"way:582983902@detail:449_93","osmType":"way","osmId":582983902,"sourceRegion":"guangdong","featureType":"infrastructure","railClass":"highspeed","mode":"rail","name":"贵广客专线","nameEn":"Guiguang Passenger Line","ref":"3044","usage":"main","highspeed":"yes","status":"operational","color":"#E54848","dataOrigin":"datum-2026-08-01","sourceKey":"way:582983902"}},{"type":"Feature","geometry":{"type":"LineString","coordinates":[[112.4821212,23.4338077],[112.4823378,23.4334933],[112.4824426,23.4333478],[112.482676,23.4330148],[112.4832022,23.432263],[112.4834459,23.4319137],[112.4835086,23.4318229]]},"properties":{"key":"way:582983903@detail:449_93","osmType":"way","osmId":582983903,"sourceRegion":"guangdong","featureType":"infrastructure","railClass":"highspeed","mode":"rail","name":"贵广客专线","nameEn":"Guiguang Passenger Line","ref":"3044","usage":"main","highspeed":"yes","bridge":"yes","status":"operational","color":"#E54848","dataOrigin":"datum-2026-08-01","sourceKey":"way:582983903"}},{"type":"Feature","geometry":{"type":"LineString","coordinates":[[112.4834646,23.4317943],[112.4833935,23.4318973],[112.4831702,23.4322151],[112.4827915,23.4327523],[112.4822946,23.4334617],[112.4820726,23.4337861]]},"properties":{"key":"way:582983904@detail:449_93","osmType":"way","osmId":582983904,"sourceRegion":"guangdong","featureType":"infrastructure","railClass":"highspeed","mode":"rail","name":"贵广客专线","nameEn":"Guiguang Passenger Line","ref":"3044","usage":"main","highspeed":"yes","bridge":"yes","status":"operational","color":"#E54848","dataOrigin":"datum-2026-08-01","sourceKey":"way:582983904"}},{"type":"Feature","geometry":{"type":"LineString","coordinates":[[112.4843861,23.4306283],[112.4847908,23.4301037]]},"properties":{"key":"way:582984693@detail:449_93","osmType":"way","osmId":582984693,"sourceRegion":"guangdong","featureType":"infrastructure","railClass":"highspeed","mode":"rail","name":"贵广客专线","nameEn":"Guiguang Passenger Line","ref":"3044","usage":"main","highspeed":"yes","status":"operational","color":"#E54848","dataOrigin":"datum-2026-08-01","sourceKey":"way:582984693"}},{"type":"Feature","geometry":{"type":"LineString","coordinates":[[112.483687,23.4315646],[112.4843861,23.4306283]]},"properties":{"key":"way:582984697@detail:449_93","osmType":"way","osmId":582984697,"sourceRegion":"guangdong","featureType":"infrastructure","railClass":"highspeed","mode":"rail","name":"贵广客专线","nameEn":"Guiguang Passenger Line","ref":"3044","usage":"main","highspeed":"yes","tunnel":"yes","status":"operational","color":"#E54848","dataOrigin":"datum-2026-08-01","sourceKey":"way:582984697"}},{"type":"Feature","geometry":{"type":"LineString","coordinates":[[112.4843417,23.4305946],[112.4836451,23.4315373]]},"properties":{"key":"way:582984700@detail:449_93","osmType":"way","osmId":582984700,"sourceRegion":"guangdong","featureType":"infrastructure","railClass":"highspeed","mode":"rail","name":"贵广客专线","nameEn":"Guiguang Passenger Line","ref":"3044","usage":"main","highspeed":"yes","tunnel":"yes","status":"operational","color":"#E54848","dataOrigin":"datum-2026-08-01","sourceKey":"way:582984700"}},{"type":"Feature","geometry":{"type":"LineString","coordinates":[[112.4836451,23.4315373],[112.4834646,23.4317943]]},"properties":{"key":"way:582984704@detail:449_93","osmType":"way","osmId":582984704,"sourceRegion":"guangdong","featureType":"infrastructure","railClass":"highspeed","mode":"rail","name":"贵广客专线","nameEn":"Guiguang Passenger Line","ref":"3044","usage":"main","highspeed":"yes","status":"operational","color":"#E54848","dataOrigin":"datum-2026-08-01","sourceKey":"way:582984704"}},{"type":"Feature","geometry":{"type":"LineString","coordinates":[[112.4847908,23.4301037],[112.4851955,23.4295791],[112.4857963,23.4288268]]},"properties":{"key":"way:582984705@detail:449_93","osmType":"way","osmId":582984705,"sourceRegion":"guangdong","featureType":"infrastructure","railClass":"highspeed","mode":"rail","name":"贵广客专线","nameEn":"Guiguang Passenger Line","ref":"3044","usage":"main","highspeed":"yes","bridge":"yes","status":"operational","color":"#E54848","dataOrigin":"datum-2026-08-01","sourceKey":"way:582984705"}},{"type":"Feature","geometry":{"type":"LineString","coordinates":[[112.4847445,23.4300724],[112.4843417,23.4305946]]},"properties":{"key":"way:582984712@detail:449_93","osmType":"way","osmId":582984712,"sourceRegion":"guangdong","featureType":"infrastructure","railClass":"highspeed","mode":"rail","name":"贵广客专线","nameEn":"Guiguang Passenger Line","ref":"3044","usage":"main","highspeed":"yes","status":"operational","color":"#E54848","dataOrigin":"datum-2026-08-01","sourceKey":"way:582984712"}},{"type":"Feature","geometry":{"type":"LineString","coordinates":[[112.4857573,23.4287944],[112.4854123,23.4292178],[112.4851933,23.429492],[112.4849497,23.4298057],[112.4847445,23.4300724]]},"properties":{"key":"way:582984716@detail:449_93","osmType":"way","osmId":582984716,"sourceRegion":"guangdong","featureType":"infrastructure","railClass":"highspeed","mode":"rail","name":"贵广客专线","nameEn":"Guiguang Passenger Line","ref":"3044","usage":"main","highspeed":"yes","bridge":"yes","status":"operational","color":"#E54848","dataOrigin":"datum-2026-08-01","sourceKey":"way:582984716"}},{"type":"Feature","geometry":{"type":"LineString","coordinates":[[112.4857963,23.4288268],[112.4861043,23.4284491],[112.4864988,23.4279729],[112.4867843,23.4276407],[112.4869781,23.4274214],[112.4871664,23.4272141]]},"properties":{"key":"way:582985769@detail:449_93","osmType":"way","osmId":582985769,"sourceRegion":"guangdong","featureType":"infrastructure","railClass":"highspeed","mode":"rail","name":"贵广客专线","nameEn":"Guiguang Passenger Line","ref":"3044","usage":"main","highspeed":"yes","tunnel":"yes","status":"operational","color":"#E54848","dataOrigin":"datum-2026-08-01","sourceKey":"way:582985769"}},{"type":"Feature","geometry":{"type":"LineString","coordinates":[[112.4871216,23.4271821],[112.486937,23.4273832],[112.4867565,23.4275881],[112.48656,23.4278142],[112.4863275,23.4280919],[112.4861278,23.4283342],[112.4859069,23.4286079],[112.4857573,23.4287944]]},"properties":{"key":"way:582985770@detail:449_93","osmType":"way","osmId":582985770,"sourceRegion":"guangdong","featureType":"infrastructure","railClass":"highspeed","mode":"rail","name":"贵广客专线","nameEn":"Guiguang Passenger Line","ref":"3044","usage":"main","highspeed":"yes","tunnel":"yes","status":"operational","color":"#E54848","dataOrigin":"datum-2026-08-01","sourceKey":"way:582985770"}},{"type":"Feature","geometry":{"type":"LineString","coordinates":[[112.4873408,23.4270276],[112.4878647,23.4264684],[112.4890677,23.4252159],[112.4892897,23.4249922]]},"properties":{"key":"way:582985771@detail:449_93","osmType":"way","osmId":582985771,"sourceRegion":"guangdong","featureType":"infrastructure","railClass":"highspeed","mode":"rail","name":"贵广客专线","nameEn":"Guiguang Passenger Line","ref":"3044","usage":"main","highspeed":"yes","bridge":"yes","status":"operational","color":"#E54848","dataOrigin":"datum-2026-08-01","sourceKey":"way:582985771"}},{"type":"Feature","geometry":{"type":"LineString","coordinates":[[112.4871664,23.4272141],[112.487223,23.4271536],[112.4873408,23.4270276]]},"properties":{"key":"way:582985772@detail:449_93","osmType":"way","osmId":582985772,"sourceRegion":"guangdong","featureType":"infrastructure","railClass":"highspeed","mode":"rail","name":"贵广客专线","nameEn":"Guiguang Passenger Line","ref":"3044","usage":"main","highspeed":"yes","status":"operational","color":"#E54848","dataOrigin":"datum-2026-08-01","sourceKey":"way:582985772"}},{"type":"Feature","geometry":{"type":"LineString","coordinates":[[112.4892497,23.4249572],[112.4888894,23.4253235],[112.488656,23.4255715],[112.4883735,23.4258683],[112.4881124,23.4261433],[112.4877419,23.4265171],[112.4872918,23.4269996]]},"properties":{"key":"way:582985773@detail:449_93","osmType":"way","osmId":582985773,"sourceRegion":"guangdong","featureType":"infrastructure","railClass":"highspeed","mode":"rail","name":"贵广客专线","nameEn":"Guiguang Passenger Line","ref":"3044","usage":"main","highspeed":"yes","bridge":"yes","status":"operational","color":"#E54848","dataOrigin":"datum-2026-08-01","sourceKey":"way:582985773"}},{"type":"Feature","geometry":{"type":"LineString","coordinates":[[112.4872918,23.4269996],[112.4871216,23.4271821]]},"properties":{"key":"way:582985774@detail:449_93","osmType":"way","osmId":582985774,"sourceRegion":"guangdong","featureType":"infrastructure","railClass":"highspeed","mode":"rail","name":"贵广客专线","nameEn":"Guiguang Passenger Line","ref":"3044","usage":"main","highspeed":"yes","status":"operational","color":"#E54848","dataOrigin":"datum-2026-08-01","sourceKey":"way:582985774"}},{"type":"Feature","geometry":{"type":"LineString","coordinates":[[112.4892897,23.4249922],[112.4899434,23.424318]]},"properties":{"key":"way:582987076@detail:449_93","osmType":"way","osmId":582987076,"sourceRegion":"guangdong","featureType":"infrastructure","railClass":"highspeed","mode":"rail","name":"贵广客专线","nameEn":"Guiguang Passenger Line","ref":"3044","usage":"main","highspeed":"yes","status":"operational","color":"#E54848","dataOrigin":"datum-2026-08-01","sourceKey":"way:582987076"}},{"type":"Feature","geometry":{"type":"LineString","coordinates":[[112.4899077,23.4242898],[112.4894687,23.4247375],[112.4892497,23.4249572]]},"properties":{"key":"way:582987078@detail:449_93","osmType":"way","osmId":582987078,"sourceRegion":"guangdong","featureType":"infrastructure","railClass":"highspeed","mode":"rail","name":"贵广客专线","nameEn":"Guiguang Passenger Line","ref":"3044","usage":"main","highspeed":"yes","status":"operational","color":"#E54848","dataOrigin":"datum-2026-08-01","sourceKey":"way:582987078"}},{"type":"Feature","geometry":{"type":"LineString","coordinates":[[112.4899434,23.424318],[112.490522,23.4237352],[112.4910547,23.4231887]]},"properties":{"key":"way:582987079@detail:449_93","osmType":"way","osmId":582987079,"sourceRegion":"guangdong","featureType":"infrastructure","railClass":"highspeed","mode":"rail","name":"贵广客专线","nameEn":"Guiguang Passenger Line","ref":"3044","usage":"main","highspeed":"yes","bridge":"yes","status":"operational","color":"#E54848","dataOrigin":"datum-2026-08-01","sourceKey":"way:582987079"}},{"type":"Feature","geometry":{"type":"LineString","coordinates":[[112.4910547,23.4231887],[112.4913341,23.4228984]]},"properties":{"key":"way:582987080@detail:449_93","osmType":"way","osmId":582987080,"sourceRegion":"guangdong","featureType":"infrastructure","railClass":"highspeed","mode":"rail","name":"贵广客专线","nameEn":"Guiguang Passenger Line","ref":"3044","usage":"main","highspeed":"yes","status":"operational","color":"#E54848","dataOrigin":"datum-2026-08-01","sourceKey":"way:582987080"}},{"type":"Feature","geometry":{"type":"LineString","coordinates":[[112.4910209,23.4231555],[112.4908337,23.4233452],[112.4904292,23.4237566],[112.4899077,23.4242898]]},"properties":{"key":"way:582987082@detail:449_93","osmType":"way","osmId":582987082,"sourceRegion":"guangdong","featureType":"infrastructure","railClass":"highspeed","mode":"rail","name":"贵广客专线","nameEn":"Guiguang Passenger Line","ref":"3044","usage":"main","highspeed":"yes","bridge":"yes","status":"operational","color":"#E54848","dataOrigin":"datum-2026-08-01","sourceKey":"way:582987082"}},{"type":"Feature","geometry":{"type":"LineString","coordinates":[[112.4913341,23.4228984],[112.4928645,23.4213014]]},"properties":{"key":"way:582987083@detail:449_93","osmType":"way","osmId":582987083,"sourceRegion":"guangdong","featureType":"infrastructure","railClass":"highspeed","mode":"rail","name":"贵广客专线","nameEn":"Guiguang Passenger Line","ref":"3044","usage":"main","highspeed":"yes","tunnel":"yes","status":"operational","color":"#E54848","dataOrigin":"datum-2026-08-01","sourceKey":"way:582987083"}},{"type":"Feature","geometry":{"type":"LineString","coordinates":[[112.4928235,23.4212795],[112.4912971,23.4228677]]},"properties":{"key":"way:582987084@detail:449_93","osmType":"way","osmId":582987084,"sourceRegion":"guangdong","featureType":"infrastructure","railClass":"highspeed","mode":"rail","name":"贵广客专线","nameEn":"Guiguang Passenger Line","ref":"3044","usage":"main","highspeed":"yes","tunnel":"yes","status":"operational","color":"#E54848","dataOrigin":"datum-2026-08-01","sourceKey":"way:582987084"}},{"type":"Feature","geometry":{"type":"LineString","coordinates":[[112.4912971,23.4228677],[112.4910209,23.4231555]]},"properties":{"key":"way:582987085@detail:449_93","osmType":"way","osmId":582987085,"sourceRegion":"guangdong","featureType":"infrastructure","railClass":"highspeed","mode":"rail","name":"贵广客专线","nameEn":"Guiguang Passenger Line","ref":"3044","usage":"main","highspeed":"yes","status":"operational","color":"#E54848","dataOrigin":"datum-2026-08-01","sourceKey":"way:582987085"}},{"type":"Feature","geometry":{"type":"LineString","coordinates":[[112.4928645,23.4213014],[112.4933422,23.4208131]]},"properties":{"key":"way:582987086@detail:449_93","osmType":"way","osmId":582987086,"sourceRegion":"guangdong","featureType":"infrastructure","railClass":"highspeed","mode":"rail","name":"贵广客专线","nameEn":"Guiguang Passenger Line","ref":"3044","usage":"main","highspeed":"yes","bridge":"yes","status":"operational","color":"#E54848","dataOrigin":"datum-2026-08-01","sourceKey":"way:582987086"}},{"type":"Feature","geometry":{"type":"LineString","coordinates":[[112.4942995,23.4197602],[112.4936582,23.4204257],[112.4933041,23.4207879]]},"properties":{"key":"way:582987088@detail:449_93","osmType":"way","osmId":582987088,"sourceRegion":"guangdong","featureType":"infrastructure","railClass":"highspeed","mode":"rail","name":"贵广客专线","nameEn":"Guiguang Passenger Line","ref":"3044","usage":"main","highspeed":"yes","status":"operational","color":"#E54848","dataOrigin":"datum-2026-08-01","sourceKey":"way:582987088"}},{"type":"Feature","geometry":{"type":"LineString","coordinates":[[112.4933422,23.4208131],[112.4936928,23.4204548],[112.4943409,23.4197926]]},"properties":{"key":"way:582987089@detail:449_93","osmType":"way","osmId":582987089,"sourceRegion":"guangdong","featureType":"infrastructure","railClass":"highspeed","mode":"rail","name":"贵广客专线","nameEn":"Guiguang Passenger Line","ref":"3044","usage":"main","highspeed":"yes","status":"operational","color":"#E54848","dataOrigin":"datum-2026-08-01","sourceKey":"way:582987089"}},{"type":"Feature","geometry":{"type":"LineString","coordinates":[[112.4933041,23.4207879],[112.4928235,23.4212795]]},"properties":{"key":"way:582987090@detail:449_93","osmType":"way","osmId":582987090,"sourceRegion":"guangdong","featureType":"infrastructure","railClass":"highspeed","mode":"rail","name":"贵广客专线","nameEn":"Guiguang Passenger Line","ref":"3044","usage":"main","highspeed":"yes","bridge":"yes","status":"operational","color":"#E54848","dataOrigin":"datum-2026-08-01","sourceKey":"way:582987090"}},{"type":"Feature","geometry":{"type":"LineString","coordinates":[[112.4943409,23.4197926],[112.494396,23.4197362],[112.4946801,23.4194433],[112.4949135,23.4192066]]},"properties":{"key":"way:582987091@detail:449_93","osmType":"way","osmId":582987091,"sourceRegion":"guangdong","featureType":"infrastructure","railClass":"highspeed","mode":"rail","name":"贵广客专线","nameEn":"Guiguang Passenger Line","ref":"3044","usage":"main","highspeed":"yes","bridge":"yes","status":"operational","color":"#E54848","dataOrigin":"datum-2026-08-01","sourceKey":"way:582987091"}},{"type":"Feature","geometry":{"type":"LineString","coordinates":[[112.4948751,23.4191749],[112.4946359,23.4194186],[112.4943561,23.4197015],[112.4942995,23.4197602]]},"properties":{"key":"way:582987093@detail:449_93","osmType":"way","osmId":582987093,"sourceRegion":"guangdong","featureType":"infrastructure","railClass":"highspeed","mode":"rail","name":"贵广客专线","nameEn":"Guiguang Passenger Line","ref":"3044","usage":"main","highspeed":"yes","bridge":"yes","status":"operational","color":"#E54848","dataOrigin":"datum-2026-08-01","sourceKey":"way:582987093"}},{"type":"Feature","geometry":{"type":"LineString","coordinates":[[112.4979357,23.4161303],[112.4981896,23.4158717]]},"properties":{"key":"way:582987900@detail:449_93","osmType":"way","osmId":582987900,"sourceRegion":"guangdong","featureType":"infrastructure","railClass":"highspeed","mode":"rail","name":"贵广客专线","nameEn":"Guiguang Passenger Line","ref":"3044","usage":"main","highspeed":"yes","status":"operational","color":"#E54848","dataOrigin":"datum-2026-08-01","sourceKey":"way:582987900"}},{"type":"Feature","geometry":{"type":"LineString","coordinates":[[112.4949135,23.4192066],[112.4950422,23.4190757]]},"properties":{"key":"way:582987901@detail:449_93","osmType":"way","osmId":582987901,"sourceRegion":"guangdong","featureType":"infrastructure","railClass":"highspeed","mode":"rail","name":"贵广客专线","nameEn":"Guiguang Passenger Line","ref":"3044","usage":"main","highspeed":"yes","status":"operational","color":"#E54848","dataOrigin":"datum-2026-08-01","sourceKey":"way:582987901"}},{"type":"Feature","geometry":{"type":"LineString","coordinates":[[112.4950422,23.4190757],[112.4979357,23.4161303]]},"properties":{"key":"way:582987902@detail:449_93","osmType":"way","osmId":582987902,"sourceRegion":"guangdong","featureType":"infrastructure","railClass":"highspeed","mode":"rail","name":"贵广客专线","nameEn":"Guiguang Passenger Line","ref":"3044","usage":"main","highspeed":"yes","tunnel":"yes","status":"operational","color":"#E54848","dataOrigin":"datum-2026-08-01","sourceKey":"way:582987902"}},{"type":"Feature","geometry":{"type":"LineString","coordinates":[[112.4950056,23.4190448],[112.4948751,23.4191749]]},"properties":{"key":"way:582987903@detail:449_93","osmType":"way","osmId":582987903,"sourceRegion":"guangdong","featureType":"infrastructure","railClass":"highspeed","mode":"rail","name":"贵广客专线","nameEn":"Guiguang Passenger Line","ref":"3044","usage":"main","highspeed":"yes","status":"operational","color":"#E54848","dataOrigin":"datum-2026-08-01","sourceKey":"way:582987903"}},{"type":"Feature","geometry":{"type":"LineString","coordinates":[[112.4981461,23.4158409],[112.4978914,23.4160903]]},"properties":{"key":"way:582987904@detail:449_93","osmType":"way","osmId":582987904,"sourceRegion":"guangdong","featureType":"infrastructure","railClass":"highspeed","mode":"rail","name":"贵广客专线","nameEn":"Guiguang Passenger Line","ref":"3044","usage":"main","highspeed":"yes","status":"operational","color":"#E54848","dataOrigin":"datum-2026-08-01","sourceKey":"way:582987904"}},{"type":"Feature","geometry":{"type":"LineString","coordinates":[[112.4978914,23.4160903],[112.4950056,23.4190448]]},"properties":{"key":"way:582987905@detail:449_93","osmType":"way","osmId":582987905,"sourceRegion":"guangdong","featureType":"infrastructure","railClass":"highspeed","mode":"rail","name":"贵广客专线","nameEn":"Guiguang Passenger Line","ref":"3044","usage":"main","highspeed":"yes","tunnel":"yes","status":"operational","color":"#E54848","dataOrigin":"datum-2026-08-01","sourceKey":"way:582987905"}},{"type":"Feature","geometry":{"type":"LineString","coordinates":[[112.4981896,23.4158717],[112.4984103,23.4156571],[112.4986155,23.4154539],[112.4987945,23.4152708],[112.4989897,23.4150676],[112.4992616,23.4147866]]},"properties":{"key":"way:582987906@detail:449_93","osmType":"way","osmId":582987906,"sourceRegion":"guangdong","featureType":"infrastructure","railClass":"highspeed","mode":"rail","name":"贵广客专线","nameEn":"Guiguang Passenger Line","ref":"3044","usage":"main","highspeed":"yes","bridge":"yes","status":"operational","color":"#E54848","dataOrigin":"datum-2026-08-01","sourceKey":"way:582987906"}},{"type":"Feature","geometry":{"type":"LineString","coordinates":[[112.499218,23.4147527],[112.4989372,23.4150374],[112.4986672,23.4153193],[112.4984849,23.4155032],[112.4981461,23.4158409]]},"properties":{"key":"way:582987907@detail:449_93","osmType":"way","osmId":582987907,"sourceRegion":"guangdong","featureType":"infrastructure","railClass":"highspeed","mode":"rail","name":"贵广客专线","nameEn":"Guiguang Passenger Line","ref":"3044","usage":"main","highspeed":"yes","bridge":"yes","status":"operational","color":"#E54848","dataOrigin":"datum-2026-08-01","sourceKey":"way:582987907"}}]}