{"type":"FeatureCollection","features":[{"type":"Feature","geometry":{"type":"LineString","coordinates":[[112.5346707,22.2471961],[112.5328946,22.2464526],[112.5217473,22.2415967],[112.5133681,22.2380713],[112.5117932,22.2373761]]},"properties":{"key":"way:1151272596@detail:450_88","osmType":"way","osmId":1151272596,"sourceRegion":"guangdong","featureType":"infrastructure","railClass":"highspeed","mode":"rail","name":"深湛线","nameEn":"Shenzhen-Zhanjiang Railway","ref":"3071","operator":"中国铁路广州局集团有限公司","usage":"main","highspeed":"yes","status":"operational","color":"#E54848","dataOrigin":"datum-2026-08-01","sourceKey":"way:1151272596"}},{"type":"Feature","geometry":{"type":"LineString","coordinates":[[112.5346464,22.2472347],[112.5328745,22.246493],[112.5217271,22.2416371],[112.5133478,22.2381117],[112.5117738,22.2374169]]},"properties":{"key":"way:1151272597@detail:450_88","osmType":"way","osmId":1151272597,"sourceRegion":"guangdong","featureType":"infrastructure","railClass":"highspeed","mode":"rail","name":"深湛线","nameEn":"Shenzhen-Zhanjiang Railway","ref":"3071","operator":"中国铁路广州局集团有限公司","usage":"main","highspeed":"yes","status":"operational","color":"#E54848","dataOrigin":"datum-2026-08-01","sourceKey":"way:1151272597"}},{"type":"Feature","geometry":{"type":"LineString","coordinates":[[112.5117738,22.2374169],[112.5110293,22.2370883],[112.510033,22.2366127]]},"properties":{"key":"way:1151272598@detail:450_88","osmType":"way","osmId":1151272598,"sourceRegion":"guangdong","featureType":"infrastructure","railClass":"highspeed","mode":"rail","name":"深湛线","nameEn":"Shenzhen-Zhanjiang Railway","ref":"3071","operator":"中国铁路广州局集团有限公司","usage":"main","highspeed":"yes","bridge":"yes","status":"operational","color":"#E54848","dataOrigin":"datum-2026-08-01","sourceKey":"way:1151272598"}},{"type":"Feature","geometry":{"type":"LineString","coordinates":[[112.5117932,22.2373761],[112.5110507,22.2370484],[112.5100395,22.2365657]]},"properties":{"key":"way:1151272599@detail:450_88","osmType":"way","osmId":1151272599,"sourceRegion":"guangdong","featureType":"infrastructure","railClass":"highspeed","mode":"rail","name":"深湛线","nameEn":"Shenzhen-Zhanjiang Railway","ref":"3071","operator":"中国铁路广州局集团有限公司","usage":"main","highspeed":"yes","bridge":"yes","status":"operational","color":"#E54848","dataOrigin":"datum-2026-08-01","sourceKey":"way:1151272599"}},{"type":"Feature","geometry":{"type":"LineString","coordinates":[[112.54128588809455,22.25],[112.5395489,22.2493236],[112.5379061,22.2486578],[112.5374074,22.2484301]]},"properties":{"key":"way:1151272600@detail:450_88","osmType":"way","osmId":1151272600,"sourceRegion":"guangdong","featureType":"infrastructure","railClass":"highspeed","mode":"rail","name":"深湛线","nameEn":"Shenzhen-Zhanjiang Railway","ref":"3071","operator":"中国铁路广州局集团有限公司","usage":"main","highspeed":"yes","status":"operational","color":"#E54848","dataOrigin":"datum-2026-08-01","sourceKey":"way:1151272600"}},{"type":"Feature","geometry":{"type":"LineString","coordinates":[[112.54141144916069,22.25],[112.5413275,22.2499679],[112.5395679,22.2492827],[112.5379264,22.2486174],[112.537429,22.2483904]]},"properties":{"key":"way:1151272601@detail:450_88","osmType":"way","osmId":1151272601,"sourceRegion":"guangdong","featureType":"infrastructure","railClass":"highspeed","mode":"rail","name":"深湛线","nameEn":"Shenzhen-Zhanjiang Railway","ref":"3071","operator":"中国铁路广州局集团有限公司","usage":"main","highspeed":"yes","status":"operational","color":"#E54848","dataOrigin":"datum-2026-08-01","sourceKey":"way:1151272601"}},{"type":"Feature","geometry":{"type":"LineString","coordinates":[[112.5374074,22.2484301],[112.536361,22.2479525],[112.5346464,22.2472347]]},"properties":{"key":"way:1151272602@detail:450_88","osmType":"way","osmId":1151272602,"sourceRegion":"guangdong","featureType":"infrastructure","railClass":"highspeed","mode":"rail","name":"深湛线","nameEn":"Shenzhen-Zhanjiang Railway","ref":"3071","operator":"中国铁路广州局集团有限公司","usage":"main","highspeed":"yes","bridge":"yes","status":"operational","color":"#E54848","dataOrigin":"datum-2026-08-01","sourceKey":"way:1151272602"}},{"type":"Feature","geometry":{"type":"LineString","coordinates":[[112.537429,22.2483904],[112.5363815,22.2479123],[112.5346707,22.2471961]]},"properties":{"key":"way:1151272603@detail:450_88","osmType":"way","osmId":1151272603,"sourceRegion":"guangdong","featureType":"infrastructure","railClass":"highspeed","mode":"rail","name":"深湛线","nameEn":"Shenzhen-Zhanjiang Railway","ref":"3071","operator":"中国铁路广州局集团有限公司","usage":"main","highspeed":"yes","bridge":"yes","status":"operational","color":"#E54848","dataOrigin":"datum-2026-08-01","sourceKey":"way:1151272603"}},{"type":"Feature","geometry":{"type":"LineString","coordinates":[[112.510033,22.2366127],[112.5089685,22.2361046],[112.5079589,22.2356077],[112.5067979,22.2349906],[112.5046398,22.2336192],[112.5037479,22.2330522],[112.5022667,22.2319592],[112.5014505,22.2314026],[112.5000751,22.2302984],[112.5,22.23023311360304]]},"properties":{"key":"way:1151272608@detail:450_88","osmType":"way","osmId":1151272608,"sourceRegion":"guangdong","featureType":"infrastructure","railClass":"highspeed","mode":"rail","name":"深湛线","nameEn":"Shenzhen-Zhanjiang Railway","ref":"3071","operator":"中国铁路广州局集团有限公司","usage":"main","highspeed":"yes","status":"operational","color":"#E54848","dataOrigin":"datum-2026-08-01","sourceKey":"way:1151272608"}},{"type":"Feature","geometry":{"type":"LineString","coordinates":[[112.5100395,22.2365657],[112.5089908,22.2360652],[112.5079822,22.2355687],[112.5068235,22.2349529],[112.504667,22.2335825],[112.5037765,22.2330164],[112.502296,22.2319239],[112.5014806,22.2313678],[112.5001073,22.2302654],[112.5,22.2301721015817]]},"properties":{"key":"way:1151272609@detail:450_88","osmType":"way","osmId":1151272609,"sourceRegion":"guangdong","featureType":"infrastructure","railClass":"highspeed","mode":"rail","name":"深湛线","nameEn":"Shenzhen-Zhanjiang Railway","ref":"3071","operator":"中国铁路广州局集团有限公司","usage":"main","highspeed":"yes","status":"operational","color":"#E54848","dataOrigin":"datum-2026-08-01","sourceKey":"way:1151272609"}}]}