{"type":"FeatureCollection","features":[{"type":"Feature","geometry":{"type":"LineString","coordinates":[[112.5219948,24.9763003],[112.5225664,24.9769844],[112.5230035,24.9776617]]},"properties":{"key":"way:1317328520@detail:450_99","osmType":"way","osmId":1317328520,"sourceRegion":"guangdong","featureType":"infrastructure","railClass":"minor","mode":"abandoned","name":"大陂洞大桥","bridge":"yes","status":"operational","color":"#52636F","dataOrigin":"datum-2026-08-01","sourceKey":"way:1317328520"}}]}