{"type":"FeatureCollection","features":[{"type":"Feature","geometry":{"type":"LineString","coordinates":[[112.75,22.9250896168851],[112.7495003,22.9252742],[112.734281,22.9306642]]},"properties":{"key":"way:1097489669@detail:450_91","osmType":"way","osmId":1097489669,"sourceRegion":"guangzhou","featureType":"infrastructure","railClass":"construction","mode":"construction","name":"南珠高速线","nameEn":"Nanning-Zhuhai Highspeed Railway","usage":"main","highspeed":"yes","bridge":"yes","status":"construction","color":"#397F9D","sourceKey":"way:1097489669"}},{"type":"Feature","geometry":{"type":"LineString","coordinates":[[112.7124649,22.9571565],[112.7428367,22.9625206],[112.7459445,22.9630321],[112.7491835,22.9634698],[112.75,22.963552426609244]]},"properties":{"key":"way:1229243326@detail:450_91","osmType":"way","osmId":1229243326,"sourceRegion":"guangzhou","featureType":"infrastructure","railClass":"highspeed","mode":"rail","name":"广湛高速线","nameEn":"Guangzhou-Zhanjiang Railway","usage":"main","highspeed":"yes","tunnel":"yes","status":"operational","color":"#E54848","sourceKey":"way:1229243326"}},{"type":"Feature","geometry":{"type":"LineString","coordinates":[[112.75,22.96342675214159],[112.7492851,22.9633626],[112.745852,22.9629152],[112.7125014,22.9570248]]},"properties":{"key":"way:1249006569@detail:450_91","osmType":"way","osmId":1249006569,"sourceRegion":"guangzhou","featureType":"infrastructure","railClass":"highspeed","mode":"rail","name":"广湛高速线","nameEn":"Guangzhou-Zhanjiang Railway","usage":"main","highspeed":"yes","tunnel":"yes","status":"operational","color":"#E54848","sourceKey":"way:1249006569"}},{"type":"Feature","geometry":{"type":"Point","coordinates":[112.5692198,22.8693979]},"properties":{"key":"node:11610116803","osmType":"node","osmId":11610116803,"sourceRegion":"foshan","featureType":"station","railClass":"station","mode":"station","name":"佛肇","status":"operational","color":"#126d75","sourceKey":"node:11610116803","stationGroup":"佛肇","hasOperationalRail":true,"hasConstructionRail":false}},{"type":"Feature","geometry":{"type":"LineString","coordinates":[[112.5603012,22.8395942],[112.5609542,22.8410646],[112.5618497,22.843097],[112.562898,22.8459594],[112.5638509,22.8487932],[112.564506,22.8510315],[112.5687088,22.8666873],[112.5709559,22.8750572],[112.5740922,22.8867383],[112.5746864,22.8886981],[112.5753826,22.890673],[112.5763708,22.8930402],[112.5773094,22.895182],[112.5781685,22.8969619],[112.5788701,22.8983484]]},"properties":{"key":"way:1218264114@detail:450_91","osmType":"way","osmId":1218264114,"sourceRegion":"foshan","featureType":"infrastructure","railClass":"highspeed","mode":"rail","name":"广湛高速线","nameEn":"Guangzhou-Zhanjiang Railway","usage":"main","highspeed":"yes","tunnel":"yes","status":"operational","color":"#E54848","sourceKey":"way:1218264114"}},{"type":"Feature","geometry":{"type":"LineString","coordinates":[[112.5860709,22.9096033],[112.587311,22.9111776],[112.5884726,22.9125619],[112.5899813,22.914277],[112.5913166,22.9157082],[112.5928071,22.9172189],[112.5955554,22.9198319],[112.5975756,22.9215813],[112.5993458,22.9230364],[112.6008913,22.924217],[112.6022991,22.9252644],[112.6039204,22.9263984],[112.6057706,22.9276316],[112.6075982,22.9287264],[112.6094161,22.9298002],[112.611159,22.9307672],[112.6130549,22.9317762],[112.6149098,22.9327185],[112.6168001,22.9335962],[112.618652,22.9343928],[112.6206772,22.9351469],[112.6228288,22.9359207],[112.6252255,22.9367431],[112.6278668,22.9375668],[112.6303532,22.9382803],[112.6327324,22.9388618],[112.6352109,22.9394003],[112.6400389,22.9403799],[112.6498401,22.9423684],[112.6725555,22.946977],[112.6747932,22.9474691],[112.6884982,22.9509843]]},"properties":{"key":"way:1226420045@detail:450_91","osmType":"way","osmId":1226420045,"sourceRegion":"foshan","featureType":"infrastructure","railClass":"highspeed","mode":"rail","name":"广湛高速线","nameEn":"Guangzhou-Zhanjiang Railway","usage":"main","highspeed":"yes","bridge":"yes","status":"operational","color":"#E54848","sourceKey":"way:1226420045"}},{"type":"Feature","geometry":{"type":"LineString","coordinates":[[112.7292802,22.9324352],[112.7272165,22.9330923]]},"properties":{"key":"way:1248735899@detail:450_91","osmType":"way","osmId":1248735899,"sourceRegion":"foshan","featureType":"infrastructure","railClass":"construction","mode":"construction","name":"南珠高速线","nameEn":"Nanning-Zhuhai Highspeed Railway","usage":"main","highspeed":"yes","tunnel":"yes","status":"construction","color":"#397F9D","sourceKey":"way:1248735899"}},{"type":"Feature","geometry":{"type":"LineString","coordinates":[[112.6022395,22.9253253],[112.6007967,22.9242737],[112.5993003,22.9231385],[112.5975253,22.9217079],[112.5954751,22.9199796],[112.5926971,22.9173532],[112.5911678,22.9158031],[112.5898122,22.9143453],[112.5883163,22.9126292],[112.5871476,22.9112144],[112.5853779,22.9089446],[112.5840423,22.9071423],[112.5830941,22.9058074],[112.5819121,22.9039866],[112.5808636,22.902258],[112.5798953,22.9005786]]},"properties":{"key":"way:1248735900@detail:450_91","osmType":"way","osmId":1248735900,"sourceRegion":"foshan","featureType":"infrastructure","railClass":"construction","mode":"construction","name":"南珠高速线","nameEn":"Nanning-Zhuhai Highspeed Railway","usage":"main","highspeed":"yes","bridge":"yes","status":"construction","color":"#397F9D","sourceKey":"way:1248735900"}},{"type":"Feature","geometry":{"type":"LineString","coordinates":[[112.6884982,22.9509843],[112.706773,22.9558006]]},"properties":{"key":"way:1249006567@detail:450_91","osmType":"way","osmId":1249006567,"sourceRegion":"foshan","featureType":"infrastructure","railClass":"highspeed","mode":"rail","name":"广湛高速线","nameEn":"Guangzhou-Zhanjiang Railway","usage":"main","highspeed":"yes","status":"operational","color":"#E54848","sourceKey":"way:1249006567"}},{"type":"Feature","geometry":{"type":"LineString","coordinates":[[112.7095174,22.9564826],[112.7124649,22.9571565]]},"properties":{"key":"way:1249006568@detail:450_91","osmType":"way","osmId":1249006568,"sourceRegion":"foshan","featureType":"infrastructure","railClass":"highspeed","mode":"rail","name":"广湛高速线","nameEn":"Guangzhou-Zhanjiang Railway","usage":"main","highspeed":"yes","bridge":"yes","status":"operational","color":"#E54848","sourceKey":"way:1249006568"}},{"type":"Feature","geometry":{"type":"LineString","coordinates":[[112.706773,22.9558006],[112.7095174,22.9564826]]},"properties":{"key":"way:1249056350@detail:450_91","osmType":"way","osmId":1249056350,"sourceRegion":"foshan","featureType":"infrastructure","railClass":"highspeed","mode":"rail","name":"广湛高速线","nameEn":"Guangzhou-Zhanjiang Railway","usage":"main","highspeed":"yes","tunnel":"yes","status":"operational","color":"#E54848","sourceKey":"way:1249056350"}},{"type":"Feature","geometry":{"type":"LineString","coordinates":[[112.6885522,22.9508913],[112.6748175,22.9474059],[112.672541,22.9468974],[112.6498651,22.9422816],[112.6400536,22.9402844],[112.6352328,22.9393031],[112.6327718,22.9387621],[112.6303763,22.9381802],[112.627896,22.9374593],[112.6252647,22.9366342],[112.6228786,22.9358177],[112.6207284,22.935036],[112.6187007,22.9342804],[112.6168616,22.93349],[112.6149754,22.9326301],[112.6130892,22.931666],[112.6112407,22.9306758],[112.6094771,22.929703],[112.6076663,22.928652],[112.605865,22.9275576],[112.6039788,22.9262981],[112.6023849,22.9251863],[112.6009891,22.9241527],[112.5994424,22.9229713],[112.5976694,22.9215207],[112.5956323,22.919766],[112.5928784,22.9171427],[112.5914166,22.9156573],[112.5900774,22.9142066],[112.5885684,22.9125213],[112.5873707,22.9110879],[112.5861635,22.909559]]},"properties":{"key":"way:1249056353@detail:450_91","osmType":"way","osmId":1249056353,"sourceRegion":"foshan","featureType":"infrastructure","railClass":"highspeed","mode":"rail","name":"广湛高速线","nameEn":"Guangzhou-Zhanjiang Railway","usage":"main","highspeed":"yes","bridge":"yes","status":"operational","color":"#E54848","sourceKey":"way:1249056353"}},{"type":"Feature","geometry":{"type":"LineString","coordinates":[[112.6899712,22.9402563],[112.6863942,22.9413368]]},"properties":{"key":"way:1365463421@detail:450_91","osmType":"way","osmId":1365463421,"sourceRegion":"foshan","featureType":"infrastructure","railClass":"construction","mode":"construction","name":"南珠高速线","nameEn":"Nanning-Zhuhai Highspeed Railway","usage":"main","highspeed":"yes","status":"construction","color":"#397F9D","sourceKey":"way:1365463421"}},{"type":"Feature","geometry":{"type":"LineString","coordinates":[[112.5798106,22.9006117],[112.580775,22.9022959],[112.5818184,22.9040147],[112.5830171,22.9058625],[112.5839553,22.907198],[112.5853052,22.9089997],[112.587071,22.9112712],[112.5882356,22.9126925],[112.5897281,22.9143909],[112.5910781,22.9158382],[112.5926164,22.9173916],[112.5954016,22.9200346],[112.5974449,22.9217765],[112.5992276,22.9232202],[112.6007197,22.9243557],[112.6021871,22.9254228],[112.6037559,22.9265073],[112.6056436,22.9277357],[112.6074591,22.92885],[112.6092941,22.9299272],[112.6110757,22.930925],[112.6129506,22.931921],[112.6148091,22.9328639],[112.6167368,22.9337699],[112.6185644,22.9345414],[112.6205821,22.9352986],[112.6227038,22.93606],[112.6251832,22.936891],[112.6277855,22.9376888],[112.6302873,22.9383987],[112.6326357,22.9389727],[112.6351842,22.9395176],[112.6445402,22.9414127],[112.6452782,22.9415622],[112.654679,22.9434663]]},"properties":{"key":"way:1365463422@detail:450_91","osmType":"way","osmId":1365463422,"sourceRegion":"foshan","featureType":"infrastructure","railClass":"construction","mode":"construction","name":"南珠高速线","nameEn":"Nanning-Zhuhai Highspeed Railway","usage":"main","highspeed":"yes","bridge":"yes","status":"construction","color":"#397F9D","sourceKey":"way:1365463422"}},{"type":"Feature","geometry":{"type":"LineString","coordinates":[[112.6948062,22.9388216],[112.6899712,22.9402563]]},"properties":{"key":"way:1365472140@detail:450_91","osmType":"way","osmId":1365472140,"sourceRegion":"foshan","featureType":"infrastructure","railClass":"construction","mode":"construction","name":"南珠高速线","nameEn":"Nanning-Zhuhai Highspeed Railway","usage":"main","highspeed":"yes","bridge":"yes","status":"construction","color":"#397F9D","sourceKey":"way:1365472140"}},{"type":"Feature","geometry":{"type":"LineString","coordinates":[[112.7016897,22.937031],[112.6969379,22.9382057]]},"properties":{"key":"way:1365472141@detail:450_91","osmType":"way","osmId":1365472141,"sourceRegion":"foshan","featureType":"infrastructure","railClass":"construction","mode":"construction","name":"南珠高速线","nameEn":"Nanning-Zhuhai Highspeed Railway","usage":"main","highspeed":"yes","bridge":"yes","status":"construction","color":"#397F9D","sourceKey":"way:1365472141"}},{"type":"Feature","geometry":{"type":"LineString","coordinates":[[112.6969379,22.9382057],[112.6948062,22.9388216]]},"properties":{"key":"way:1365472142@detail:450_91","osmType":"way","osmId":1365472142,"sourceRegion":"foshan","featureType":"infrastructure","railClass":"construction","mode":"construction","name":"南珠高速线","nameEn":"Nanning-Zhuhai Highspeed Railway","usage":"main","highspeed":"yes","tunnel":"yes","status":"construction","color":"#397F9D","sourceKey":"way:1365472142"}},{"type":"Feature","geometry":{"type":"LineString","coordinates":[[112.7053058,22.9363177],[112.7016897,22.937031]]},"properties":{"key":"way:1365472143@detail:450_91","osmType":"way","osmId":1365472143,"sourceRegion":"foshan","featureType":"infrastructure","railClass":"construction","mode":"construction","name":"南珠高速线","nameEn":"Nanning-Zhuhai Highspeed Railway","usage":"main","highspeed":"yes","tunnel":"yes","status":"construction","color":"#397F9D","sourceKey":"way:1365472143"}},{"type":"Feature","geometry":{"type":"LineString","coordinates":[[112.7106508,22.9356289],[112.7078859,22.9359213]]},"properties":{"key":"way:1365472144@detail:450_91","osmType":"way","osmId":1365472144,"sourceRegion":"foshan","featureType":"infrastructure","railClass":"construction","mode":"construction","name":"南珠高速线","nameEn":"Nanning-Zhuhai Highspeed Railway","usage":"main","highspeed":"yes","status":"construction","color":"#397F9D","sourceKey":"way:1365472144"}},{"type":"Feature","geometry":{"type":"LineString","coordinates":[[112.7078859,22.9359213],[112.7053058,22.9363177]]},"properties":{"key":"way:1365472145@detail:450_91","osmType":"way","osmId":1365472145,"sourceRegion":"foshan","featureType":"infrastructure","railClass":"construction","mode":"construction","name":"南珠高速线","nameEn":"Nanning-Zhuhai Highspeed Railway","usage":"main","highspeed":"yes","bridge":"yes","status":"construction","color":"#397F9D","sourceKey":"way:1365472145"}},{"type":"Feature","geometry":{"type":"LineString","coordinates":[[112.7199023,22.9347529],[112.718072,22.9350223],[112.7160392,22.9352245],[112.7106508,22.9356289]]},"properties":{"key":"way:1365472146@detail:450_91","osmType":"way","osmId":1365472146,"sourceRegion":"foshan","featureType":"infrastructure","railClass":"construction","mode":"construction","name":"南珠高速线","nameEn":"Nanning-Zhuhai Highspeed Railway","usage":"main","highspeed":"yes","tunnel":"yes","status":"construction","color":"#397F9D","sourceKey":"way:1365472146"}},{"type":"Feature","geometry":{"type":"LineString","coordinates":[[112.7216699,22.9344321],[112.7199023,22.9347529]]},"properties":{"key":"way:1365472147@detail:450_91","osmType":"way","osmId":1365472147,"sourceRegion":"foshan","featureType":"infrastructure","railClass":"construction","mode":"construction","name":"南珠高速线","nameEn":"Nanning-Zhuhai Highspeed Railway","usage":"main","highspeed":"yes","bridge":"yes","status":"construction","color":"#397F9D","sourceKey":"way:1365472147"}},{"type":"Feature","geometry":{"type":"LineString","coordinates":[[112.7253365,22.9336421],[112.7216699,22.9344321]]},"properties":{"key":"way:1365472148@detail:450_91","osmType":"way","osmId":1365472148,"sourceRegion":"foshan","featureType":"infrastructure","railClass":"construction","mode":"construction","name":"南珠高速线","nameEn":"Nanning-Zhuhai Highspeed Railway","usage":"main","highspeed":"yes","tunnel":"yes","status":"construction","color":"#397F9D","sourceKey":"way:1365472148"}},{"type":"Feature","geometry":{"type":"LineString","coordinates":[[112.7272165,22.9330923],[112.7253365,22.9336421]]},"properties":{"key":"way:1365472149@detail:450_91","osmType":"way","osmId":1365472149,"sourceRegion":"foshan","featureType":"infrastructure","railClass":"construction","mode":"construction","name":"南珠高速线","nameEn":"Nanning-Zhuhai Highspeed Railway","usage":"main","highspeed":"yes","bridge":"yes","status":"construction","color":"#397F9D","sourceKey":"way:1365472149"}},{"type":"Feature","geometry":{"type":"LineString","coordinates":[[112.733067,22.9310941],[112.7292802,22.9324352]]},"properties":{"key":"way:1365472150@detail:450_91","osmType":"way","osmId":1365472150,"sourceRegion":"foshan","featureType":"infrastructure","railClass":"construction","mode":"construction","name":"南珠高速线","nameEn":"Nanning-Zhuhai Highspeed Railway","usage":"main","highspeed":"yes","bridge":"yes","status":"construction","color":"#397F9D","sourceKey":"way:1365472150"}},{"type":"Feature","geometry":{"type":"LineString","coordinates":[[112.734281,22.9306642],[112.733067,22.9310941]]},"properties":{"key":"way:1365472151@detail:450_91","osmType":"way","osmId":1365472151,"sourceRegion":"foshan","featureType":"infrastructure","railClass":"construction","mode":"construction","name":"南珠高速线","nameEn":"Nanning-Zhuhai Highspeed Railway","usage":"main","highspeed":"yes","status":"construction","color":"#397F9D","sourceKey":"way:1365472151"}},{"type":"Feature","geometry":{"type":"LineString","coordinates":[[112.5,22.78372336299558],[112.5016174,22.7842094]]},"properties":{"key":"way:1391311351@detail:450_91","osmType":"way","osmId":1391311351,"sourceRegion":"foshan","featureType":"infrastructure","railClass":"highspeed","mode":"rail","name":"广湛高速线","nameEn":"Guangzhou-Zhanjiang Railway","usage":"main","highspeed":"yes","tunnel":"yes","status":"operational","color":"#E54848","sourceKey":"way:1391311351"}},{"type":"Feature","geometry":{"type":"LineString","coordinates":[[112.5016174,22.7842094],[112.5030218,22.7846149]]},"properties":{"key":"way:1391311352@detail:450_91","osmType":"way","osmId":1391311352,"sourceRegion":"foshan","featureType":"infrastructure","railClass":"highspeed","mode":"rail","name":"广湛高速线","nameEn":"Guangzhou-Zhanjiang Railway","usage":"main","highspeed":"yes","status":"operational","color":"#E54848","sourceKey":"way:1391311352"}},{"type":"Feature","geometry":{"type":"LineString","coordinates":[[112.5030218,22.7846149],[112.5052144,22.7852481]]},"properties":{"key":"way:1391311353@detail:450_91","osmType":"way","osmId":1391311353,"sourceRegion":"foshan","featureType":"infrastructure","railClass":"highspeed","mode":"rail","name":"广湛高速线","nameEn":"Guangzhou-Zhanjiang Railway","usage":"main","highspeed":"yes","tunnel":"yes","status":"operational","color":"#E54848","sourceKey":"way:1391311353"}},{"type":"Feature","geometry":{"type":"LineString","coordinates":[[112.5052144,22.7852481],[112.5097344,22.7865533]]},"properties":{"key":"way:1391311354@detail:450_91","osmType":"way","osmId":1391311354,"sourceRegion":"foshan","featureType":"infrastructure","railClass":"highspeed","mode":"rail","name":"广湛高速线","nameEn":"Guangzhou-Zhanjiang Railway","usage":"main","highspeed":"yes","bridge":"yes","status":"operational","color":"#E54848","sourceKey":"way:1391311354"}},{"type":"Feature","geometry":{"type":"LineString","coordinates":[[112.5097344,22.7865533],[112.5116737,22.7871133]]},"properties":{"key":"way:1391311355@detail:450_91","osmType":"way","osmId":1391311355,"sourceRegion":"foshan","featureType":"infrastructure","railClass":"highspeed","mode":"rail","name":"广湛高速线","nameEn":"Guangzhou-Zhanjiang Railway","usage":"main","highspeed":"yes","status":"operational","color":"#E54848","sourceKey":"way:1391311355"}},{"type":"Feature","geometry":{"type":"LineString","coordinates":[[112.5116737,22.7871133],[112.5140785,22.7879483]]},"properties":{"key":"way:1391311356@detail:450_91","osmType":"way","osmId":1391311356,"sourceRegion":"foshan","featureType":"infrastructure","railClass":"highspeed","mode":"rail","name":"广湛高速线","nameEn":"Guangzhou-Zhanjiang Railway","usage":"main","highspeed":"yes","bridge":"yes","status":"operational","color":"#E54848","sourceKey":"way:1391311356"}},{"type":"Feature","geometry":{"type":"LineString","coordinates":[[112.5214185,22.7911654],[112.5232523,22.7921085],[112.5248753,22.7930189],[112.5267377,22.7941379]]},"properties":{"key":"way:1391311357@detail:450_91","osmType":"way","osmId":1391311357,"sourceRegion":"foshan","featureType":"infrastructure","railClass":"highspeed","mode":"rail","name":"广湛高速线","nameEn":"Guangzhou-Zhanjiang Railway","usage":"main","highspeed":"yes","bridge":"yes","status":"operational","color":"#E54848","sourceKey":"way:1391311357"}},{"type":"Feature","geometry":{"type":"LineString","coordinates":[[112.5197469,22.7903718],[112.5214185,22.7911654]]},"properties":{"key":"way:1391311358@detail:450_91","osmType":"way","osmId":1391311358,"sourceRegion":"foshan","featureType":"infrastructure","railClass":"highspeed","mode":"rail","name":"广湛高速线","nameEn":"Guangzhou-Zhanjiang Railway","usage":"main","highspeed":"yes","status":"operational","color":"#E54848","sourceKey":"way:1391311358"}},{"type":"Feature","geometry":{"type":"LineString","coordinates":[[112.5181613,22.7896653],[112.5197469,22.7903718]]},"properties":{"key":"way:1391311359@detail:450_91","osmType":"way","osmId":1391311359,"sourceRegion":"foshan","featureType":"infrastructure","railClass":"highspeed","mode":"rail","name":"广湛高速线","nameEn":"Guangzhou-Zhanjiang Railway","usage":"main","highspeed":"yes","bridge":"yes","status":"operational","color":"#E54848","sourceKey":"way:1391311359"}},{"type":"Feature","geometry":{"type":"LineString","coordinates":[[112.5152452,22.7883964],[112.5169587,22.7891243]]},"properties":{"key":"way:1391311360@detail:450_91","osmType":"way","osmId":1391311360,"sourceRegion":"foshan","featureType":"infrastructure","railClass":"highspeed","mode":"rail","name":"广湛高速线","nameEn":"Guangzhou-Zhanjiang Railway","usage":"main","highspeed":"yes","bridge":"yes","status":"operational","color":"#E54848","sourceKey":"way:1391311360"}},{"type":"Feature","geometry":{"type":"LineString","coordinates":[[112.5169587,22.7891243],[112.5181613,22.7896653]]},"properties":{"key":"way:1391311361@detail:450_91","osmType":"way","osmId":1391311361,"sourceRegion":"foshan","featureType":"infrastructure","railClass":"highspeed","mode":"rail","name":"广湛高速线","nameEn":"Guangzhou-Zhanjiang Railway","usage":"main","highspeed":"yes","status":"operational","color":"#E54848","sourceKey":"way:1391311361"}},{"type":"Feature","geometry":{"type":"LineString","coordinates":[[112.5140785,22.7879483],[112.5152452,22.7883964]]},"properties":{"key":"way:1391311362@detail:450_91","osmType":"way","osmId":1391311362,"sourceRegion":"foshan","featureType":"infrastructure","railClass":"highspeed","mode":"rail","name":"广湛高速线","nameEn":"Guangzhou-Zhanjiang Railway","usage":"main","highspeed":"yes","status":"operational","color":"#E54848","sourceKey":"way:1391311362"}},{"type":"Feature","geometry":{"type":"LineString","coordinates":[[112.5267377,22.7941379],[112.5285716,22.7952696]]},"properties":{"key":"way:1391311363@detail:450_91","osmType":"way","osmId":1391311363,"sourceRegion":"foshan","featureType":"infrastructure","railClass":"highspeed","mode":"rail","name":"广湛高速线","nameEn":"Guangzhou-Zhanjiang Railway","usage":"main","highspeed":"yes","tunnel":"yes","status":"operational","color":"#E54848","sourceKey":"way:1391311363"}},{"type":"Feature","geometry":{"type":"LineString","coordinates":[[112.5295503,22.795918],[112.5324561,22.7979954]]},"properties":{"key":"way:1391311364@detail:450_91","osmType":"way","osmId":1391311364,"sourceRegion":"foshan","featureType":"infrastructure","railClass":"highspeed","mode":"rail","name":"广湛高速线","nameEn":"Guangzhou-Zhanjiang Railway","usage":"main","highspeed":"yes","tunnel":"yes","status":"operational","color":"#E54848","sourceKey":"way:1391311364"}},{"type":"Feature","geometry":{"type":"LineString","coordinates":[[112.5285716,22.7952696],[112.5295503,22.795918]]},"properties":{"key":"way:1391311365@detail:450_91","osmType":"way","osmId":1391311365,"sourceRegion":"foshan","featureType":"infrastructure","railClass":"highspeed","mode":"rail","name":"广湛高速线","nameEn":"Guangzhou-Zhanjiang Railway","usage":"main","highspeed":"yes","status":"operational","color":"#E54848","sourceKey":"way:1391311365"}},{"type":"Feature","geometry":{"type":"LineString","coordinates":[[112.5324561,22.7979954],[112.5339597,22.7991411],[112.5354134,22.8003602],[112.5367651,22.8015583],[112.5382931,22.8030474],[112.5399029,22.8046712],[112.5415222,22.8064265],[112.5431976,22.8083397],[112.5447479,22.8102963],[112.546032,22.8120057]]},"properties":{"key":"way:1391311366@detail:450_91","osmType":"way","osmId":1391311366,"sourceRegion":"foshan","featureType":"infrastructure","railClass":"highspeed","mode":"rail","name":"广湛高速线","nameEn":"Guangzhou-Zhanjiang Railway","usage":"main","highspeed":"yes","bridge":"yes","status":"operational","color":"#E54848","sourceKey":"way:1391311366"}},{"type":"Feature","geometry":{"type":"LineString","coordinates":[[112.546032,22.8120057],[112.5468035,22.8131307]]},"properties":{"key":"way:1391311367@detail:450_91","osmType":"way","osmId":1391311367,"sourceRegion":"foshan","featureType":"infrastructure","railClass":"highspeed","mode":"rail","name":"广湛高速线","nameEn":"Guangzhou-Zhanjiang Railway","usage":"main","highspeed":"yes","status":"operational","color":"#E54848","sourceKey":"way:1391311367"}},{"type":"Feature","geometry":{"type":"LineString","coordinates":[[112.5468035,22.8131307],[112.5486805,22.8160289]]},"properties":{"key":"way:1391311368@detail:450_91","osmType":"way","osmId":1391311368,"sourceRegion":"foshan","featureType":"infrastructure","railClass":"highspeed","mode":"rail","name":"广湛高速线","nameEn":"Guangzhou-Zhanjiang Railway","usage":"main","highspeed":"yes","bridge":"yes","status":"operational","color":"#E54848","sourceKey":"way:1391311368"}},{"type":"Feature","geometry":{"type":"LineString","coordinates":[[112.5486805,22.8160289],[112.5499293,22.818188]]},"properties":{"key":"way:1391311369@detail:450_91","osmType":"way","osmId":1391311369,"sourceRegion":"foshan","featureType":"infrastructure","railClass":"highspeed","mode":"rail","name":"广湛高速线","nameEn":"Guangzhou-Zhanjiang Railway","usage":"main","highspeed":"yes","status":"operational","color":"#E54848","sourceKey":"way:1391311369"}},{"type":"Feature","geometry":{"type":"LineString","coordinates":[[112.5499293,22.818188],[112.5511447,22.8204213]]},"properties":{"key":"way:1391311370@detail:450_91","osmType":"way","osmId":1391311370,"sourceRegion":"foshan","featureType":"infrastructure","railClass":"highspeed","mode":"rail","name":"广湛高速线","nameEn":"Guangzhou-Zhanjiang Railway","usage":"main","highspeed":"yes","tunnel":"yes","status":"operational","color":"#E54848","sourceKey":"way:1391311370"}},{"type":"Feature","geometry":{"type":"LineString","coordinates":[[112.5511447,22.8204213],[112.5519947,22.8221751]]},"properties":{"key":"way:1391311371@detail:450_91","osmType":"way","osmId":1391311371,"sourceRegion":"foshan","featureType":"infrastructure","railClass":"highspeed","mode":"rail","name":"广湛高速线","nameEn":"Guangzhou-Zhanjiang Railway","usage":"main","highspeed":"yes","status":"operational","color":"#E54848","sourceKey":"way:1391311371"}},{"type":"Feature","geometry":{"type":"LineString","coordinates":[[112.5519947,22.8221751],[112.5522924,22.8228031]]},"properties":{"key":"way:1391311372@detail:450_91","osmType":"way","osmId":1391311372,"sourceRegion":"foshan","featureType":"infrastructure","railClass":"highspeed","mode":"rail","name":"广湛高速线","nameEn":"Guangzhou-Zhanjiang Railway","usage":"main","highspeed":"yes","bridge":"yes","status":"operational","color":"#E54848","sourceKey":"way:1391311372"}},{"type":"Feature","geometry":{"type":"LineString","coordinates":[[112.5800278,22.9005186],[112.5809943,22.902186],[112.5820438,22.9039043],[112.5832267,22.9057153]]},"properties":{"key":"way:1391311373@detail:450_91","osmType":"way","osmId":1391311373,"sourceRegion":"foshan","featureType":"infrastructure","railClass":"highspeed","mode":"rail","name":"广湛高速线","nameEn":"Guangzhou-Zhanjiang Railway","usage":"main","highspeed":"yes","bridge":"yes","status":"operational","color":"#E54848","sourceKey":"way:1391311373"}},{"type":"Feature","geometry":{"type":"LineString","coordinates":[[112.5832267,22.9057153],[112.5837458,22.9064623]]},"properties":{"key":"way:1391311374@detail:450_91","osmType":"way","osmId":1391311374,"sourceRegion":"foshan","featureType":"infrastructure","railClass":"highspeed","mode":"rail","name":"广湛高速线","nameEn":"Guangzhou-Zhanjiang Railway","usage":"main","highspeed":"yes","status":"operational","color":"#E54848","sourceKey":"way:1391311374"}},{"type":"Feature","geometry":{"type":"LineString","coordinates":[[112.5837458,22.9064623],[112.5841661,22.9070579]]},"properties":{"key":"way:1391311375@detail:450_91","osmType":"way","osmId":1391311375,"sourceRegion":"foshan","featureType":"infrastructure","railClass":"highspeed","mode":"rail","name":"广湛高速线","nameEn":"Guangzhou-Zhanjiang Railway","usage":"main","highspeed":"yes","bridge":"yes","status":"operational","color":"#E54848","sourceKey":"way:1391311375"}},{"type":"Feature","geometry":{"type":"LineString","coordinates":[[112.5841661,22.9070579],[112.5846418,22.9077044]]},"properties":{"key":"way:1391311376@detail:450_91","osmType":"way","osmId":1391311376,"sourceRegion":"foshan","featureType":"infrastructure","railClass":"highspeed","mode":"rail","name":"广湛高速线","nameEn":"Guangzhou-Zhanjiang Railway","usage":"main","highspeed":"yes","status":"operational","color":"#E54848","sourceKey":"way:1391311376"}},{"type":"Feature","geometry":{"type":"LineString","coordinates":[[112.5846418,22.9077044],[112.5855046,22.9088714]]},"properties":{"key":"way:1391311377@detail:450_91","osmType":"way","osmId":1391311377,"sourceRegion":"foshan","featureType":"infrastructure","railClass":"highspeed","mode":"rail","name":"广湛高速线","nameEn":"Guangzhou-Zhanjiang Railway","usage":"main","highspeed":"yes","bridge":"yes","status":"operational","color":"#E54848","sourceKey":"way:1391311377"}},{"type":"Feature","geometry":{"type":"LineString","coordinates":[[112.5855046,22.9088714],[112.5860709,22.9096033]]},"properties":{"key":"way:1391311378@detail:450_91","osmType":"way","osmId":1391311378,"sourceRegion":"foshan","featureType":"infrastructure","railClass":"highspeed","mode":"rail","name":"广湛高速线","nameEn":"Guangzhou-Zhanjiang Railway","usage":"main","highspeed":"yes","status":"operational","color":"#E54848","sourceKey":"way:1391311378"}},{"type":"Feature","geometry":{"type":"LineString","coordinates":[[112.5522924,22.8228031],[112.5599403,22.8386257]]},"properties":{"key":"way:1391311379@detail:450_91","osmType":"way","osmId":1391311379,"sourceRegion":"foshan","featureType":"infrastructure","railClass":"highspeed","mode":"rail","name":"广湛高速线","nameEn":"Guangzhou-Zhanjiang Railway","usage":"main","highspeed":"yes","tunnel":"yes","status":"operational","color":"#E54848","sourceKey":"way:1391311379"}},{"type":"Feature","geometry":{"type":"LineString","coordinates":[[112.5789653,22.8983047],[112.5782732,22.8969471],[112.5774229,22.8951501],[112.5764892,22.8930305],[112.5755055,22.8906651],[112.5748053,22.8886837],[112.5741745,22.8867165],[112.5710363,22.8750377],[112.5687858,22.8666616],[112.5645828,22.8510176],[112.5639337,22.8487748],[112.5629916,22.8459576],[112.561926,22.8430686],[112.5610341,22.8410372],[112.5603727,22.8395625]]},"properties":{"key":"way:1391311380@detail:450_91","osmType":"way","osmId":1391311380,"sourceRegion":"foshan","featureType":"infrastructure","railClass":"highspeed","mode":"rail","name":"广湛高速线","nameEn":"Guangzhou-Zhanjiang Railway","usage":"main","highspeed":"yes","tunnel":"yes","status":"operational","color":"#E54848","sourceKey":"way:1391311380"}},{"type":"Feature","geometry":{"type":"LineString","coordinates":[[112.5833084,22.9056631],[112.5821413,22.9038662],[112.5810909,22.9021614],[112.5801156,22.9004796]]},"properties":{"key":"way:1391311381@detail:450_91","osmType":"way","osmId":1391311381,"sourceRegion":"foshan","featureType":"infrastructure","railClass":"highspeed","mode":"rail","name":"广湛高速线","nameEn":"Guangzhou-Zhanjiang Railway","usage":"main","highspeed":"yes","bridge":"yes","status":"operational","color":"#E54848","sourceKey":"way:1391311381"}},{"type":"Feature","geometry":{"type":"LineString","coordinates":[[112.5838253,22.9064156],[112.5833084,22.9056631]]},"properties":{"key":"way:1391311382@detail:450_91","osmType":"way","osmId":1391311382,"sourceRegion":"foshan","featureType":"infrastructure","railClass":"highspeed","mode":"rail","name":"广湛高速线","nameEn":"Guangzhou-Zhanjiang Railway","usage":"main","highspeed":"yes","status":"operational","color":"#E54848","sourceKey":"way:1391311382"}},{"type":"Feature","geometry":{"type":"LineString","coordinates":[[112.5842504,22.9070069],[112.5838253,22.9064156]]},"properties":{"key":"way:1391311383@detail:450_91","osmType":"way","osmId":1391311383,"sourceRegion":"foshan","featureType":"infrastructure","railClass":"highspeed","mode":"rail","name":"广湛高速线","nameEn":"Guangzhou-Zhanjiang Railway","usage":"main","highspeed":"yes","bridge":"yes","status":"operational","color":"#E54848","sourceKey":"way:1391311383"}},{"type":"Feature","geometry":{"type":"LineString","coordinates":[[112.5847256,22.9076519],[112.5842504,22.9070069]]},"properties":{"key":"way:1391311384@detail:450_91","osmType":"way","osmId":1391311384,"sourceRegion":"foshan","featureType":"infrastructure","railClass":"highspeed","mode":"rail","name":"广湛高速线","nameEn":"Guangzhou-Zhanjiang Railway","usage":"main","highspeed":"yes","status":"operational","color":"#E54848","sourceKey":"way:1391311384"}},{"type":"Feature","geometry":{"type":"LineString","coordinates":[[112.5855926,22.9088115],[112.5847256,22.9076519]]},"properties":{"key":"way:1391311385@detail:450_91","osmType":"way","osmId":1391311385,"sourceRegion":"foshan","featureType":"infrastructure","railClass":"highspeed","mode":"rail","name":"广湛高速线","nameEn":"Guangzhou-Zhanjiang Railway","usage":"main","highspeed":"yes","bridge":"yes","status":"operational","color":"#E54848","sourceKey":"way:1391311385"}},{"type":"Feature","geometry":{"type":"LineString","coordinates":[[112.5861635,22.909559],[112.5855926,22.9088115]]},"properties":{"key":"way:1391311386@detail:450_91","osmType":"way","osmId":1391311386,"sourceRegion":"foshan","featureType":"infrastructure","railClass":"highspeed","mode":"rail","name":"广湛高速线","nameEn":"Guangzhou-Zhanjiang Railway","usage":"main","highspeed":"yes","status":"operational","color":"#E54848","sourceKey":"way:1391311386"}},{"type":"Feature","geometry":{"type":"LineString","coordinates":[[112.6863942,22.9413368],[112.6819159,22.9425861],[112.68023,22.9430225],[112.6787526,22.9433881],[112.6771304,22.9437282],[112.6753912,22.9440443],[112.6738151,22.944307],[112.6722423,22.9445271],[112.670435,22.9446908],[112.6684912,22.9447822],[112.6672357,22.9447544],[112.6661317,22.9447299],[112.6638613,22.9445656],[112.6618432,22.9443801],[112.6599151,22.9441075],[112.6581206,22.9438115],[112.656288,22.943468],[112.6453632,22.9412467],[112.6446159,22.9410947],[112.6352611,22.9391926],[112.6328184,22.9386644],[112.6304018,22.9380952]]},"properties":{"key":"way:1391317902@detail:450_91","osmType":"way","osmId":1391317902,"sourceRegion":"foshan","featureType":"infrastructure","railClass":"construction","mode":"construction","name":"南珠高速线","nameEn":"Nanning-Zhuhai Highspeed Railway","usage":"main","highspeed":"yes","bridge":"yes","status":"construction","color":"#397F9D","sourceKey":"way:1391317902"}},{"type":"Feature","geometry":{"type":"LineString","coordinates":[[112.6304018,22.9380952],[112.627908,22.9374034],[112.6252986,22.9366147],[112.6228672,22.9358412],[112.6207127,22.9350772],[112.6186928,22.9343299],[112.6168332,22.9335434],[112.6149336,22.9326783],[112.6130631,22.931748],[112.6111645,22.9307551],[112.6094043,22.9298081],[112.6075751,22.9287642],[112.6057433,22.9276754],[112.6038348,22.9264301],[112.6022395,22.9253253]]},"properties":{"key":"way:1391317903@detail:450_91","osmType":"way","osmId":1391317903,"sourceRegion":"foshan","featureType":"infrastructure","railClass":"construction","mode":"construction","name":"南珠高速线","nameEn":"Nanning-Zhuhai Highspeed Railway","usage":"main","highspeed":"yes","bridge":"yes","status":"construction","color":"#397F9D","sourceKey":"way:1391317903"}},{"type":"Feature","geometry":{"type":"LineString","coordinates":[[112.6623678,22.9447291],[112.6640984,22.9448887],[112.6664526,22.9450039],[112.6672894,22.9449966],[112.6689283,22.9449823],[112.6709494,22.9448281],[112.6730416,22.9445535],[112.6751159,22.9442294],[112.676744,22.9439254],[112.6785596,22.9435454],[112.6798501,22.9432138],[112.6819175,22.9426625],[112.6863979,22.9414186]]},"properties":{"key":"way:1391317904@detail:450_91","osmType":"way","osmId":1391317904,"sourceRegion":"foshan","featureType":"infrastructure","railClass":"construction","mode":"construction","name":"南珠高速线","nameEn":"Nanning-Zhuhai Highspeed Railway","usage":"main","highspeed":"yes","bridge":"yes","status":"construction","color":"#397F9D","sourceKey":"way:1391317904"}},{"type":"Feature","geometry":{"type":"LineString","coordinates":[[112.654679,22.9434663],[112.6564511,22.9438049],[112.6581415,22.9441109],[112.6603597,22.944458],[112.6623678,22.9447291]]},"properties":{"key":"way:1391317905@detail:450_91","osmType":"way","osmId":1391317905,"sourceRegion":"foshan","featureType":"infrastructure","railClass":"construction","mode":"construction","name":"南珠高速线","nameEn":"Nanning-Zhuhai Highspeed Railway","usage":"main","highspeed":"yes","bridge":"yes","status":"construction","color":"#397F9D","sourceKey":"way:1391317905"}},{"type":"Feature","geometry":{"type":"LineString","coordinates":[[112.5581306,22.8386094],[112.5593668,22.8407235],[112.5602662,22.8423757],[112.561038,22.8439047],[112.5618645,22.8456745],[112.5625269,22.847181],[112.56308,22.8485475],[112.5635601,22.8498524],[112.5639723,22.8511862],[112.5727257,22.8837168],[112.573399,22.8861057],[112.5740378,22.8880185],[112.5747197,22.8899615],[112.5753896,22.8916707],[112.5762848,22.893675],[112.5772024,22.8955996],[112.5783927,22.8979801],[112.5798106,22.9006117]]},"properties":{"key":"way:1391317906@detail:450_91","osmType":"way","osmId":1391317906,"sourceRegion":"foshan","featureType":"infrastructure","railClass":"construction","mode":"construction","name":"南珠高速线","nameEn":"Nanning-Zhuhai Highspeed Railway","usage":"main","highspeed":"yes","status":"construction","color":"#397F9D","sourceKey":"way:1391317906"}},{"type":"Feature","geometry":{"type":"LineString","coordinates":[[112.5798953,22.9005786],[112.5784729,22.8979518],[112.5772909,22.8955587],[112.5763693,22.8936332],[112.5754678,22.8916276],[112.5748066,22.8899481],[112.5741388,22.8880409],[112.5734844,22.8860845],[112.5728182,22.8836973],[112.5640526,22.8511404],[112.5636357,22.8498106],[112.5631553,22.8484994],[112.5626051,22.8471415],[112.5619461,22.8456448],[112.5611149,22.8438649],[112.5603339,22.8423238],[112.559438,22.8406628],[112.5582144,22.8385633],[112.5549822,22.8340609],[112.5487862,22.8279365],[112.5430841,22.8236327],[112.5377411,22.8206531],[112.5322186,22.8182942],[112.5247205,22.8164732],[112.5183898,22.8156455],[112.5115652,22.815811],[112.5059977,22.8162249],[112.5,22.81712634208819]]},"properties":{"key":"way:1391317907@detail:450_91","osmType":"way","osmId":1391317907,"sourceRegion":"foshan","featureType":"infrastructure","railClass":"construction","mode":"construction","name":"南珠高速线","nameEn":"Nanning-Zhuhai Highspeed Railway","usage":"main","highspeed":"yes","status":"construction","color":"#397F9D","sourceKey":"way:1391317907"}},{"type":"Feature","geometry":{"type":"LineString","coordinates":[[112.6400389,22.9403799],[112.6445402,22.9414127]]},"properties":{"key":"way:1391317908@detail:450_91","osmType":"way","osmId":1391317908,"sourceRegion":"foshan","featureType":"infrastructure","railClass":"construction","mode":"construction","name":"未命名","service":"crossover","bridge":"yes","status":"construction","color":"#52636f","sourceKey":"way:1391317908"}},{"type":"Feature","geometry":{"type":"LineString","coordinates":[[112.6452782,22.9415622],[112.6498401,22.9423684]]},"properties":{"key":"way:1391317909@detail:450_91","osmType":"way","osmId":1391317909,"sourceRegion":"foshan","featureType":"infrastructure","railClass":"construction","mode":"construction","name":"未命名","service":"crossover","bridge":"yes","status":"construction","color":"#52636f","sourceKey":"way:1391317909"}},{"type":"Feature","geometry":{"type":"LineString","coordinates":[[112.6498651,22.9422816],[112.6453632,22.9412467]]},"properties":{"key":"way:1391317910@detail:450_91","osmType":"way","osmId":1391317910,"sourceRegion":"foshan","featureType":"infrastructure","railClass":"construction","mode":"construction","name":"未命名","service":"crossover","bridge":"yes","status":"construction","color":"#52636f","sourceKey":"way:1391317910"}},{"type":"Feature","geometry":{"type":"LineString","coordinates":[[112.6446159,22.9410947],[112.6400536,22.9402844]]},"properties":{"key":"way:1391317911@detail:450_91","osmType":"way","osmId":1391317911,"sourceRegion":"foshan","featureType":"infrastructure","railClass":"construction","mode":"construction","name":"未命名","service":"crossover","bridge":"yes","status":"construction","color":"#52636f","sourceKey":"way:1391317911"}},{"type":"Feature","geometry":{"type":"LineString","coordinates":[[112.5603727,22.8395625],[112.5599403,22.8386257]]},"properties":{"key":"way:1419112037@detail:450_91","osmType":"way","osmId":1419112037,"sourceRegion":"foshan","featureType":"infrastructure","railClass":"highspeed","mode":"rail","name":"广湛高速线","nameEn":"Guangzhou-Zhanjiang Railway","usage":"main","highspeed":"yes","status":"operational","color":"#E54848","sourceKey":"way:1419112037"}},{"type":"Feature","geometry":{"type":"LineString","coordinates":[[112.5598489,22.8386753],[112.5603012,22.8395942]]},"properties":{"key":"way:1419112038@detail:450_91","osmType":"way","osmId":1419112038,"sourceRegion":"foshan","featureType":"infrastructure","railClass":"highspeed","mode":"rail","name":"广湛高速线","nameEn":"Guangzhou-Zhanjiang Railway","usage":"main","highspeed":"yes","status":"operational","color":"#E54848","sourceKey":"way:1419112038"}},{"type":"Feature","geometry":{"type":"LineString","coordinates":[[112.5801156,22.9004796],[112.5792402,22.8988439],[112.5789653,22.8983047]]},"properties":{"key":"way:1419112039@detail:450_91","osmType":"way","osmId":1419112039,"sourceRegion":"foshan","featureType":"infrastructure","railClass":"highspeed","mode":"rail","name":"广湛高速线","nameEn":"Guangzhou-Zhanjiang Railway","usage":"main","highspeed":"yes","status":"operational","color":"#E54848","sourceKey":"way:1419112039"}},{"type":"Feature","geometry":{"type":"LineString","coordinates":[[112.5788701,22.8983484],[112.5791396,22.8988809],[112.5800278,22.9005186]]},"properties":{"key":"way:1419112040@detail:450_91","osmType":"way","osmId":1419112040,"sourceRegion":"foshan","featureType":"infrastructure","railClass":"highspeed","mode":"rail","name":"广湛高速线","nameEn":"Guangzhou-Zhanjiang Railway","usage":"main","highspeed":"yes","status":"operational","color":"#E54848","sourceKey":"way:1419112040"}},{"type":"Feature","geometry":{"type":"LineString","coordinates":[[112.5710363,22.8750377],[112.5709476,22.8742472],[112.5690486,22.8673137],[112.5687858,22.8666616]]},"properties":{"key":"way:1419112041@detail:450_91","osmType":"way","osmId":1419112041,"sourceRegion":"foshan","featureType":"infrastructure","railClass":"construction","mode":"construction","name":"未命名","tunnel":"yes","status":"construction","color":"#52636f","sourceKey":"way:1419112041"}},{"type":"Feature","geometry":{"type":"LineString","coordinates":[[112.5687088,22.8666873],[112.5688154,22.8673725],[112.5706625,22.874296],[112.5709559,22.8750572]]},"properties":{"key":"way:1419112042@detail:450_91","osmType":"way","osmId":1419112042,"sourceRegion":"foshan","featureType":"infrastructure","railClass":"construction","mode":"construction","name":"未命名","tunnel":"yes","status":"construction","color":"#52636f","sourceKey":"way:1419112042"}},{"type":"Feature","geometry":{"type":"LineString","coordinates":[[112.6885522,22.9508913],[112.7068168,22.9556794]]},"properties":{"key":"way:1432460947@detail:450_91","osmType":"way","osmId":1432460947,"sourceRegion":"foshan","featureType":"infrastructure","railClass":"highspeed","mode":"rail","name":"广湛高速线","nameEn":"Guangzhou-Zhanjiang Railway","usage":"main","highspeed":"yes","status":"operational","color":"#E54848","sourceKey":"way:1432460947"}},{"type":"Feature","geometry":{"type":"LineString","coordinates":[[112.7068168,22.9556794],[112.7095597,22.9563556]]},"properties":{"key":"way:1432460948@detail:450_91","osmType":"way","osmId":1432460948,"sourceRegion":"foshan","featureType":"infrastructure","railClass":"highspeed","mode":"rail","name":"广湛高速线","nameEn":"Guangzhou-Zhanjiang Railway","usage":"main","highspeed":"yes","tunnel":"yes","status":"operational","color":"#E54848","sourceKey":"way:1432460948"}},{"type":"Feature","geometry":{"type":"LineString","coordinates":[[112.7095597,22.9563556],[112.7125014,22.9570248]]},"properties":{"key":"way:1432460949@detail:450_91","osmType":"way","osmId":1432460949,"sourceRegion":"foshan","featureType":"infrastructure","railClass":"highspeed","mode":"rail","name":"广湛高速线","nameEn":"Guangzhou-Zhanjiang Railway","usage":"main","highspeed":"yes","bridge":"yes","status":"operational","color":"#E54848","sourceKey":"way:1432460949"}},{"type":"Feature","geometry":{"type":"LineString","coordinates":[[112.5498822,22.8182104],[112.5510968,22.8204422]]},"properties":{"key":"way:1462282088@detail:450_91","osmType":"way","osmId":1462282088,"sourceRegion":"foshan","featureType":"infrastructure","railClass":"highspeed","mode":"rail","name":"广湛高速线","nameEn":"Guangzhou-Zhanjiang Railway","usage":"main","highspeed":"yes","tunnel":"yes","status":"operational","color":"#E54848","sourceKey":"way:1462282088"}},{"type":"Feature","geometry":{"type":"LineString","coordinates":[[112.5459878,22.8120327],[112.5467583,22.8131563]]},"properties":{"key":"way:1462282089@detail:450_91","osmType":"way","osmId":1462282089,"sourceRegion":"foshan","featureType":"infrastructure","railClass":"highspeed","mode":"rail","name":"广湛高速线","nameEn":"Guangzhou-Zhanjiang Railway","usage":"main","highspeed":"yes","status":"operational","color":"#E54848","sourceKey":"way:1462282089"}},{"type":"Feature","geometry":{"type":"LineString","coordinates":[[112.5510968,22.8204422],[112.5519462,22.8221948]]},"properties":{"key":"way:1462282090@detail:450_91","osmType":"way","osmId":1462282090,"sourceRegion":"foshan","featureType":"infrastructure","railClass":"highspeed","mode":"rail","name":"广湛高速线","nameEn":"Guangzhou-Zhanjiang Railway","usage":"main","highspeed":"yes","status":"operational","color":"#E54848","sourceKey":"way:1462282090"}},{"type":"Feature","geometry":{"type":"LineString","coordinates":[[112.5467583,22.8131563],[112.5486343,22.8160529]]},"properties":{"key":"way:1462282091@detail:450_91","osmType":"way","osmId":1462282091,"sourceRegion":"foshan","featureType":"infrastructure","railClass":"highspeed","mode":"rail","name":"广湛高速线","nameEn":"Guangzhou-Zhanjiang Railway","usage":"main","highspeed":"yes","bridge":"yes","status":"operational","color":"#E54848","sourceKey":"way:1462282091"}},{"type":"Feature","geometry":{"type":"LineString","coordinates":[[112.5486343,22.8160529],[112.5498822,22.8182104]]},"properties":{"key":"way:1462282092@detail:450_91","osmType":"way","osmId":1462282092,"sourceRegion":"foshan","featureType":"infrastructure","railClass":"highspeed","mode":"rail","name":"广湛高速线","nameEn":"Guangzhou-Zhanjiang Railway","usage":"main","highspeed":"yes","status":"operational","color":"#E54848","sourceKey":"way:1462282092"}},{"type":"Feature","geometry":{"type":"LineString","coordinates":[[112.532423,22.7980335],[112.533925,22.799178],[112.5353772,22.8003959],[112.5367275,22.8015927],[112.5382543,22.8030807],[112.5398631,22.8047035],[112.5414814,22.8064577],[112.5431556,22.8083695],[112.5447047,22.8103246],[112.5459878,22.8120327]]},"properties":{"key":"way:1462282093@detail:450_91","osmType":"way","osmId":1462282093,"sourceRegion":"foshan","featureType":"infrastructure","railClass":"highspeed","mode":"rail","name":"广湛高速线","nameEn":"Guangzhou-Zhanjiang Railway","usage":"main","highspeed":"yes","bridge":"yes","status":"operational","color":"#E54848","sourceKey":"way:1462282093"}},{"type":"Feature","geometry":{"type":"LineString","coordinates":[[112.5016013,22.7842559],[112.503006,22.7846615]]},"properties":{"key":"way:1462282226@detail:450_91","osmType":"way","osmId":1462282226,"sourceRegion":"foshan","featureType":"infrastructure","railClass":"highspeed","mode":"rail","name":"广湛高速线","nameEn":"Guangzhou-Zhanjiang Railway","usage":"main","highspeed":"yes","status":"operational","color":"#E54848","sourceKey":"way:1462282226"}},{"type":"Feature","geometry":{"type":"LineString","coordinates":[[112.5267085,22.7941787],[112.5285414,22.7953098]]},"properties":{"key":"way:1462282227@detail:450_91","osmType":"way","osmId":1462282227,"sourceRegion":"foshan","featureType":"infrastructure","railClass":"highspeed","mode":"rail","name":"广湛高速线","nameEn":"Guangzhou-Zhanjiang Railway","usage":"main","highspeed":"yes","tunnel":"yes","status":"operational","color":"#E54848","sourceKey":"way:1462282227"}},{"type":"Feature","geometry":{"type":"LineString","coordinates":[[112.5116564,22.7871595],[112.514059,22.7879937]]},"properties":{"key":"way:1462282228@detail:450_91","osmType":"way","osmId":1462282228,"sourceRegion":"foshan","featureType":"infrastructure","railClass":"highspeed","mode":"rail","name":"广湛高速线","nameEn":"Guangzhou-Zhanjiang Railway","usage":"main","highspeed":"yes","bridge":"yes","status":"operational","color":"#E54848","sourceKey":"way:1462282228"}},{"type":"Feature","geometry":{"type":"LineString","coordinates":[[112.503006,22.7846615],[112.5051986,22.7852947]]},"properties":{"key":"way:1462282229@detail:450_91","osmType":"way","osmId":1462282229,"sourceRegion":"foshan","featureType":"infrastructure","railClass":"highspeed","mode":"rail","name":"广湛高速线","nameEn":"Guangzhou-Zhanjiang Railway","usage":"main","highspeed":"yes","tunnel":"yes","status":"operational","color":"#E54848","sourceKey":"way:1462282229"}},{"type":"Feature","geometry":{"type":"LineString","coordinates":[[112.5213934,22.7912085],[112.5232256,22.7921507],[112.524847,22.7930603],[112.5267085,22.7941787]]},"properties":{"key":"way:1462282230@detail:450_91","osmType":"way","osmId":1462282230,"sourceRegion":"foshan","featureType":"infrastructure","railClass":"highspeed","mode":"rail","name":"广湛高速线","nameEn":"Guangzhou-Zhanjiang Railway","usage":"main","highspeed":"yes","bridge":"yes","status":"operational","color":"#E54848","sourceKey":"way:1462282230"}},{"type":"Feature","geometry":{"type":"LineString","coordinates":[[112.5152239,22.7884412],[112.516936,22.7891685]]},"properties":{"key":"way:1462282231@detail:450_91","osmType":"way","osmId":1462282231,"sourceRegion":"foshan","featureType":"infrastructure","railClass":"highspeed","mode":"rail","name":"广湛高速线","nameEn":"Guangzhou-Zhanjiang Railway","usage":"main","highspeed":"yes","bridge":"yes","status":"operational","color":"#E54848","sourceKey":"way:1462282231"}},{"type":"Feature","geometry":{"type":"LineString","coordinates":[[112.5295186,22.7959572],[112.532423,22.7980335]]},"properties":{"key":"way:1462282232@detail:450_91","osmType":"way","osmId":1462282232,"sourceRegion":"foshan","featureType":"infrastructure","railClass":"highspeed","mode":"rail","name":"广湛高速线","nameEn":"Guangzhou-Zhanjiang Railway","usage":"main","highspeed":"yes","tunnel":"yes","status":"operational","color":"#E54848","sourceKey":"way:1462282232"}},{"type":"Feature","geometry":{"type":"LineString","coordinates":[[112.5051986,22.7852947],[112.5097186,22.7865999]]},"properties":{"key":"way:1462282233@detail:450_91","osmType":"way","osmId":1462282233,"sourceRegion":"foshan","featureType":"infrastructure","railClass":"highspeed","mode":"rail","name":"广湛高速线","nameEn":"Guangzhou-Zhanjiang Railway","usage":"main","highspeed":"yes","bridge":"yes","status":"operational","color":"#E54848","sourceKey":"way:1462282233"}},{"type":"Feature","geometry":{"type":"LineString","coordinates":[[112.5197232,22.7904155],[112.5213934,22.7912085]]},"properties":{"key":"way:1462282234@detail:450_91","osmType":"way","osmId":1462282234,"sourceRegion":"foshan","featureType":"infrastructure","railClass":"highspeed","mode":"rail","name":"广湛高速线","nameEn":"Guangzhou-Zhanjiang Railway","usage":"main","highspeed":"yes","status":"operational","color":"#E54848","sourceKey":"way:1462282234"}},{"type":"Feature","geometry":{"type":"LineString","coordinates":[[112.516936,22.7891685],[112.5181381,22.7897093]]},"properties":{"key":"way:1462282235@detail:450_91","osmType":"way","osmId":1462282235,"sourceRegion":"foshan","featureType":"infrastructure","railClass":"highspeed","mode":"rail","name":"广湛高速线","nameEn":"Guangzhou-Zhanjiang Railway","usage":"main","highspeed":"yes","status":"operational","color":"#E54848","sourceKey":"way:1462282235"}},{"type":"Feature","geometry":{"type":"LineString","coordinates":[[112.5285414,22.7953098],[112.5295186,22.7959572]]},"properties":{"key":"way:1462282236@detail:450_91","osmType":"way","osmId":1462282236,"sourceRegion":"foshan","featureType":"infrastructure","railClass":"highspeed","mode":"rail","name":"广湛高速线","nameEn":"Guangzhou-Zhanjiang Railway","usage":"main","highspeed":"yes","status":"operational","color":"#E54848","sourceKey":"way:1462282236"}},{"type":"Feature","geometry":{"type":"LineString","coordinates":[[112.5097186,22.7865999],[112.5116564,22.7871595]]},"properties":{"key":"way:1462282237@detail:450_91","osmType":"way","osmId":1462282237,"sourceRegion":"foshan","featureType":"infrastructure","railClass":"highspeed","mode":"rail","name":"广湛高速线","nameEn":"Guangzhou-Zhanjiang Railway","usage":"main","highspeed":"yes","status":"operational","color":"#E54848","sourceKey":"way:1462282237"}},{"type":"Feature","geometry":{"type":"LineString","coordinates":[[112.5181381,22.7897093],[112.5197232,22.7904155]]},"properties":{"key":"way:1462282238@detail:450_91","osmType":"way","osmId":1462282238,"sourceRegion":"foshan","featureType":"infrastructure","railClass":"highspeed","mode":"rail","name":"广湛高速线","nameEn":"Guangzhou-Zhanjiang Railway","usage":"main","highspeed":"yes","bridge":"yes","status":"operational","color":"#E54848","sourceKey":"way:1462282238"}},{"type":"Feature","geometry":{"type":"LineString","coordinates":[[112.514059,22.7879937],[112.5152239,22.7884412]]},"properties":{"key":"way:1462282239@detail:450_91","osmType":"way","osmId":1462282239,"sourceRegion":"foshan","featureType":"infrastructure","railClass":"highspeed","mode":"rail","name":"广湛高速线","nameEn":"Guangzhou-Zhanjiang Railway","usage":"main","highspeed":"yes","status":"operational","color":"#E54848","sourceKey":"way:1462282239"}},{"type":"Feature","geometry":{"type":"LineString","coordinates":[[112.5,22.783774727735867],[112.5016013,22.7842559]]},"properties":{"key":"way:1462282240@detail:450_91","osmType":"way","osmId":1462282240,"sourceRegion":"foshan","featureType":"infrastructure","railClass":"highspeed","mode":"rail","name":"广湛高速线","nameEn":"Guangzhou-Zhanjiang Railway","usage":"main","highspeed":"yes","tunnel":"yes","status":"operational","color":"#E54848","sourceKey":"way:1462282240"}},{"type":"Feature","geometry":{"type":"LineString","coordinates":[[112.5522439,22.8228228],[112.5598489,22.8386753]]},"properties":{"key":"way:1462282242@detail:450_91","osmType":"way","osmId":1462282242,"sourceRegion":"foshan","featureType":"infrastructure","railClass":"highspeed","mode":"rail","name":"广湛高速线","nameEn":"Guangzhou-Zhanjiang Railway","usage":"main","highspeed":"yes","tunnel":"yes","status":"operational","color":"#E54848","sourceKey":"way:1462282242"}},{"type":"Feature","geometry":{"type":"LineString","coordinates":[[112.5519462,22.8221948],[112.5522439,22.8228228]]},"properties":{"key":"way:1462282243@detail:450_91","osmType":"way","osmId":1462282243,"sourceRegion":"foshan","featureType":"infrastructure","railClass":"highspeed","mode":"rail","name":"广湛高速线","nameEn":"Guangzhou-Zhanjiang Railway","usage":"main","highspeed":"yes","bridge":"yes","status":"operational","color":"#E54848","sourceKey":"way:1462282243"}},{"type":"Feature","geometry":{"type":"LineString","coordinates":[[112.5581306,22.8386094],[112.5549054,22.8341167],[112.5487194,22.8280022],[112.5430277,22.8237063],[112.5376952,22.8207325],[112.5321854,22.8183791],[112.5247012,22.8165614],[112.5183842,22.8157355],[112.5115704,22.8159008],[112.5060095,22.8163142],[112.5,22.81721738252988]]},"properties":{"key":"way:1509798754@detail:450_91","osmType":"way","osmId":1509798754,"sourceRegion":"foshan","featureType":"infrastructure","railClass":"construction","mode":"construction","name":"南珠高速线","nameEn":"Nanning-Zhuhai Highspeed Railway","usage":"main","highspeed":"yes","status":"construction","color":"#397F9D","sourceKey":"way:1509798754"}},{"type":"Feature","geometry":{"type":"LineString","coordinates":[[112.5840248,22.9071989],[112.583116,22.9058882],[112.5818902,22.904027],[112.5808285,22.9023227],[112.5798702,22.9007295]]},"properties":{"key":"way:1535473944@detail:450_91","osmType":"way","osmId":1535473944,"sourceRegion":"guangdong","featureType":"infrastructure","railClass":"construction","mode":"construction","name":"南珠高速线","nameEn":"Nanning-Zhuhai Highspeed Railway","usage":"main","highspeed":"yes","bridge":"yes","status":"construction","color":"#397F9D","dataOrigin":"datum-2026-08-01","sourceKey":"way:1535473944"}},{"type":"Feature","geometry":{"type":"LineString","coordinates":[[112.5798147,22.9007518],[112.580775,22.9023565],[112.5818272,22.9040551],[112.5830566,22.905907],[112.5839685,22.9072303]]},"properties":{"key":"way:1535473945@detail:450_91","osmType":"way","osmId":1535473945,"sourceRegion":"guangdong","featureType":"infrastructure","railClass":"construction","mode":"construction","name":"南珠高速线","nameEn":"Nanning-Zhuhai Highspeed Railway","usage":"main","highspeed":"yes","bridge":"yes","status":"construction","color":"#397F9D","dataOrigin":"datum-2026-08-01","sourceKey":"way:1535473945"}},{"type":"Feature","geometry":{"type":"LineString","coordinates":[[112.5839685,22.9072303],[112.5844295,22.9078656]]},"properties":{"key":"way:1535473946@detail:450_91","osmType":"way","osmId":1535473946,"sourceRegion":"guangdong","featureType":"infrastructure","railClass":"construction","mode":"construction","name":"南珠高速线","nameEn":"Nanning-Zhuhai Highspeed Railway","usage":"main","highspeed":"yes","status":"construction","color":"#397F9D","dataOrigin":"datum-2026-08-01","sourceKey":"way:1535473946"}},{"type":"Feature","geometry":{"type":"LineString","coordinates":[[112.5844901,22.9078348],[112.5840248,22.9071989]]},"properties":{"key":"way:1535473947@detail:450_91","osmType":"way","osmId":1535473947,"sourceRegion":"guangdong","featureType":"infrastructure","railClass":"construction","mode":"construction","name":"南珠高速线","nameEn":"Nanning-Zhuhai Highspeed Railway","usage":"main","highspeed":"yes","status":"construction","color":"#397F9D","dataOrigin":"datum-2026-08-01","sourceKey":"way:1535473947"}},{"type":"Feature","geometry":{"type":"LineString","coordinates":[[112.5852287,22.9088153],[112.5844901,22.9078348]]},"properties":{"key":"way:1535473948@detail:450_91","osmType":"way","osmId":1535473948,"sourceRegion":"guangdong","featureType":"infrastructure","railClass":"construction","mode":"construction","name":"南珠高速线","nameEn":"Nanning-Zhuhai Highspeed Railway","usage":"main","highspeed":"yes","bridge":"yes","status":"construction","color":"#397F9D","dataOrigin":"datum-2026-08-01","sourceKey":"way:1535473948"}},{"type":"Feature","geometry":{"type":"LineString","coordinates":[[112.5844295,22.9078656],[112.5851648,22.9088461]]},"properties":{"key":"way:1535473949@detail:450_91","osmType":"way","osmId":1535473949,"sourceRegion":"guangdong","featureType":"infrastructure","railClass":"construction","mode":"construction","name":"南珠高速线","nameEn":"Nanning-Zhuhai Highspeed Railway","usage":"main","highspeed":"yes","bridge":"yes","status":"construction","color":"#397F9D","dataOrigin":"datum-2026-08-01","sourceKey":"way:1535473949"}},{"type":"Feature","geometry":{"type":"LineString","coordinates":[[112.5851648,22.9088461],[112.5855095,22.9092924]]},"properties":{"key":"way:1535473950@detail:450_91","osmType":"way","osmId":1535473950,"sourceRegion":"guangdong","featureType":"infrastructure","railClass":"construction","mode":"construction","name":"南珠高速线","nameEn":"Nanning-Zhuhai Highspeed Railway","usage":"main","highspeed":"yes","status":"construction","color":"#397F9D","dataOrigin":"datum-2026-08-01","sourceKey":"way:1535473950"}},{"type":"Feature","geometry":{"type":"LineString","coordinates":[[112.5855679,22.9092599],[112.5852287,22.9088153]]},"properties":{"key":"way:1535473951@detail:450_91","osmType":"way","osmId":1535473951,"sourceRegion":"guangdong","featureType":"infrastructure","railClass":"construction","mode":"construction","name":"南珠高速线","nameEn":"Nanning-Zhuhai Highspeed Railway","usage":"main","highspeed":"yes","status":"construction","color":"#397F9D","dataOrigin":"datum-2026-08-01","sourceKey":"way:1535473951"}},{"type":"Feature","geometry":{"type":"LineString","coordinates":[[112.5785455,22.8984374],[112.5798147,22.9007518]]},"properties":{"key":"way:1535473952@detail:450_91","osmType":"way","osmId":1535473952,"sourceRegion":"guangdong","featureType":"infrastructure","railClass":"construction","mode":"construction","name":"南珠高速线","nameEn":"Nanning-Zhuhai Highspeed Railway","usage":"main","highspeed":"yes","status":"construction","color":"#397F9D","dataOrigin":"datum-2026-08-01","sourceKey":"way:1535473952"}},{"type":"Feature","geometry":{"type":"LineString","coordinates":[[112.5798702,22.9007295],[112.5786066,22.8984162]]},"properties":{"key":"way:1535473953@detail:450_91","osmType":"way","osmId":1535473953,"sourceRegion":"guangdong","featureType":"infrastructure","railClass":"construction","mode":"construction","name":"南珠高速线","nameEn":"Nanning-Zhuhai Highspeed Railway","usage":"main","highspeed":"yes","status":"construction","color":"#397F9D","dataOrigin":"datum-2026-08-01","sourceKey":"way:1535473953"}},{"type":"Feature","geometry":{"type":"LineString","coordinates":[[112.5599767,22.8413127],[112.5614795,22.8442474]]},"properties":{"key":"way:1535473954@detail:450_91","osmType":"way","osmId":1535473954,"sourceRegion":"guangdong","featureType":"infrastructure","railClass":"construction","mode":"construction","name":"南珠高速线","nameEn":"Nanning-Zhuhai Highspeed Railway","usage":"main","highspeed":"yes","bridge":"yes","status":"construction","color":"#397F9D","dataOrigin":"datum-2026-08-01","sourceKey":"way:1535473954"}},{"type":"Feature","geometry":{"type":"LineString","coordinates":[[112.5786066,22.8984162],[112.5775177,22.89619],[112.576591,22.8941624],[112.5756708,22.8920477],[112.574862,22.8899667],[112.5741791,22.8880363],[112.5734945,22.8858709],[112.5728414,22.88366],[112.563782,22.8498477],[112.5633302,22.8483972],[112.5628152,22.8470021],[112.56221,22.8456045],[112.5615288,22.844225]]},"properties":{"key":"way:1535473955@detail:450_91","osmType":"way","osmId":1535473955,"sourceRegion":"guangdong","featureType":"infrastructure","railClass":"construction","mode":"construction","name":"南珠高速线","nameEn":"Nanning-Zhuhai Highspeed Railway","usage":"main","highspeed":"yes","tunnel":"yes","status":"construction","color":"#397F9D","dataOrigin":"datum-2026-08-01","sourceKey":"way:1535473955"}},{"type":"Feature","geometry":{"type":"LineString","coordinates":[[112.5615288,22.844225],[112.5600257,22.841278]]},"properties":{"key":"way:1535473956@detail:450_91","osmType":"way","osmId":1535473956,"sourceRegion":"guangdong","featureType":"infrastructure","railClass":"construction","mode":"construction","name":"南珠高速线","nameEn":"Nanning-Zhuhai Highspeed Railway","usage":"main","highspeed":"yes","bridge":"yes","status":"construction","color":"#397F9D","dataOrigin":"datum-2026-08-01","sourceKey":"way:1535473956"}},{"type":"Feature","geometry":{"type":"LineString","coordinates":[[112.5583174,22.8385879],[112.5588137,22.8393715]]},"properties":{"key":"way:1535473957@detail:450_91","osmType":"way","osmId":1535473957,"sourceRegion":"guangdong","featureType":"infrastructure","railClass":"construction","mode":"construction","name":"南珠高速线","nameEn":"Nanning-Zhuhai Highspeed Railway","usage":"main","highspeed":"yes","status":"construction","color":"#397F9D","dataOrigin":"datum-2026-08-01","sourceKey":"way:1535473957"}},{"type":"Feature","geometry":{"type":"LineString","coordinates":[[112.5588712,22.8393508],[112.5583697,22.8385509]]},"properties":{"key":"way:1535473958@detail:450_91","osmType":"way","osmId":1535473958,"sourceRegion":"guangdong","featureType":"infrastructure","railClass":"construction","mode":"construction","name":"南珠高速线","nameEn":"Nanning-Zhuhai Highspeed Railway","usage":"main","highspeed":"yes","status":"construction","color":"#397F9D","dataOrigin":"datum-2026-08-01","sourceKey":"way:1535473958"}},{"type":"Feature","geometry":{"type":"LineString","coordinates":[[112.5588137,22.8393715],[112.5593557,22.8402252]]},"properties":{"key":"way:1535473959@detail:450_91","osmType":"way","osmId":1535473959,"sourceRegion":"guangdong","featureType":"infrastructure","railClass":"construction","mode":"construction","name":"南珠高速线","nameEn":"Nanning-Zhuhai Highspeed Railway","usage":"main","highspeed":"yes","tunnel":"yes","status":"construction","color":"#397F9D","dataOrigin":"datum-2026-08-01","sourceKey":"way:1535473959"}},{"type":"Feature","geometry":{"type":"LineString","coordinates":[[112.5594048,22.8401988],[112.5588712,22.8393508]]},"properties":{"key":"way:1535473960@detail:450_91","osmType":"way","osmId":1535473960,"sourceRegion":"guangdong","featureType":"infrastructure","railClass":"construction","mode":"construction","name":"南珠高速线","nameEn":"Nanning-Zhuhai Highspeed Railway","usage":"main","highspeed":"yes","tunnel":"yes","status":"construction","color":"#397F9D","dataOrigin":"datum-2026-08-01","sourceKey":"way:1535473960"}},{"type":"Feature","geometry":{"type":"LineString","coordinates":[[112.5593557,22.8402252],[112.5599767,22.8413127]]},"properties":{"key":"way:1535473961@detail:450_91","osmType":"way","osmId":1535473961,"sourceRegion":"guangdong","featureType":"infrastructure","railClass":"construction","mode":"construction","name":"南珠高速线","nameEn":"Nanning-Zhuhai Highspeed Railway","usage":"main","highspeed":"yes","status":"construction","color":"#397F9D","dataOrigin":"datum-2026-08-01","sourceKey":"way:1535473961"}},{"type":"Feature","geometry":{"type":"LineString","coordinates":[[112.5600257,22.841278],[112.5594048,22.8401988]]},"properties":{"key":"way:1535473962@detail:450_91","osmType":"way","osmId":1535473962,"sourceRegion":"guangdong","featureType":"infrastructure","railClass":"construction","mode":"construction","name":"南珠高速线","nameEn":"Nanning-Zhuhai Highspeed Railway","usage":"main","highspeed":"yes","status":"construction","color":"#397F9D","dataOrigin":"datum-2026-08-01","sourceKey":"way:1535473962"}},{"type":"Feature","geometry":{"type":"LineString","coordinates":[[112.5583174,22.8385879],[112.5570655,22.8367076],[112.5558071,22.8349848],[112.5546865,22.8335787],[112.5533343,22.8320571],[112.5520461,22.830729],[112.5505347,22.8292916],[112.5490994,22.8280292],[112.5476383,22.8268398],[112.5460926,22.8256806],[112.5442748,22.8243918]]},"properties":{"key":"way:1535473963@detail:450_91","osmType":"way","osmId":1535473963,"sourceRegion":"guangdong","featureType":"infrastructure","railClass":"construction","mode":"construction","name":"南珠高速线","nameEn":"Nanning-Zhuhai Highspeed Railway","usage":"main","highspeed":"yes","status":"construction","color":"#397F9D","dataOrigin":"datum-2026-08-01","sourceKey":"way:1535473963"}},{"type":"Feature","geometry":{"type":"LineString","coordinates":[[112.5442748,22.8243918],[112.5426324,22.8233552]]},"properties":{"key":"way:1535473964@detail:450_91","osmType":"way","osmId":1535473964,"sourceRegion":"guangdong","featureType":"infrastructure","railClass":"construction","mode":"construction","name":"南珠高速线","nameEn":"Nanning-Zhuhai Highspeed Railway","usage":"main","highspeed":"yes","bridge":"yes","status":"construction","color":"#397F9D","dataOrigin":"datum-2026-08-01","sourceKey":"way:1535473964"}},{"type":"Feature","geometry":{"type":"LineString","coordinates":[[112.5583697,22.8385509],[112.557126,22.8366792],[112.5558685,22.8349573],[112.5547341,22.8335408],[112.5533773,22.8320095],[112.5520878,22.8306821],[112.5505689,22.8292403],[112.5491303,22.8279818],[112.5476833,22.8268046],[112.5461189,22.8256342],[112.5443037,22.824348]]},"properties":{"key":"way:1535473965@detail:450_91","osmType":"way","osmId":1535473965,"sourceRegion":"guangdong","featureType":"infrastructure","railClass":"construction","mode":"construction","name":"南珠高速线","nameEn":"Nanning-Zhuhai Highspeed Railway","usage":"main","highspeed":"yes","status":"construction","color":"#397F9D","dataOrigin":"datum-2026-08-01","sourceKey":"way:1535473965"}},{"type":"Feature","geometry":{"type":"LineString","coordinates":[[112.5443037,22.824348],[112.5426657,22.8233163]]},"properties":{"key":"way:1535473966@detail:450_91","osmType":"way","osmId":1535473966,"sourceRegion":"guangdong","featureType":"infrastructure","railClass":"construction","mode":"construction","name":"南珠高速线","nameEn":"Nanning-Zhuhai Highspeed Railway","usage":"main","highspeed":"yes","bridge":"yes","status":"construction","color":"#397F9D","dataOrigin":"datum-2026-08-01","sourceKey":"way:1535473966"}},{"type":"Feature","geometry":{"type":"LineString","coordinates":[[112.5426324,22.8233552],[112.5410445,22.8224272]]},"properties":{"key":"way:1535473967@detail:450_91","osmType":"way","osmId":1535473967,"sourceRegion":"guangdong","featureType":"infrastructure","railClass":"construction","mode":"construction","name":"南珠高速线","nameEn":"Nanning-Zhuhai Highspeed Railway","usage":"main","highspeed":"yes","tunnel":"yes","status":"construction","color":"#397F9D","dataOrigin":"datum-2026-08-01","sourceKey":"way:1535473967"}},{"type":"Feature","geometry":{"type":"LineString","coordinates":[[112.5426657,22.8233163],[112.5410718,22.8223861]]},"properties":{"key":"way:1535473968@detail:450_91","osmType":"way","osmId":1535473968,"sourceRegion":"guangdong","featureType":"infrastructure","railClass":"construction","mode":"construction","name":"南珠高速线","nameEn":"Nanning-Zhuhai Highspeed Railway","usage":"main","highspeed":"yes","tunnel":"yes","status":"construction","color":"#397F9D","dataOrigin":"datum-2026-08-01","sourceKey":"way:1535473968"}},{"type":"Feature","geometry":{"type":"LineString","coordinates":[[112.5410445,22.8224272],[112.5397332,22.8217175]]},"properties":{"key":"way:1535473969@detail:450_91","osmType":"way","osmId":1535473969,"sourceRegion":"guangdong","featureType":"infrastructure","railClass":"construction","mode":"construction","name":"南珠高速线","nameEn":"Nanning-Zhuhai Highspeed Railway","usage":"main","highspeed":"yes","bridge":"yes","status":"construction","color":"#397F9D","dataOrigin":"datum-2026-08-01","sourceKey":"way:1535473969"}},{"type":"Feature","geometry":{"type":"LineString","coordinates":[[112.5410718,22.8223861],[112.5397581,22.8216817]]},"properties":{"key":"way:1535473970@detail:450_91","osmType":"way","osmId":1535473970,"sourceRegion":"guangdong","featureType":"infrastructure","railClass":"construction","mode":"construction","name":"南珠高速线","nameEn":"Nanning-Zhuhai Highspeed Railway","usage":"main","highspeed":"yes","bridge":"yes","status":"construction","color":"#397F9D","dataOrigin":"datum-2026-08-01","sourceKey":"way:1535473970"}},{"type":"Feature","geometry":{"type":"LineString","coordinates":[[112.538815,22.8212484],[112.5378022,22.8207448]]},"properties":{"key":"way:1535473971@detail:450_91","osmType":"way","osmId":1535473971,"sourceRegion":"guangdong","featureType":"infrastructure","railClass":"construction","mode":"construction","name":"南珠高速线","nameEn":"Nanning-Zhuhai Highspeed Railway","usage":"main","highspeed":"yes","bridge":"yes","status":"construction","color":"#397F9D","dataOrigin":"datum-2026-08-01","sourceKey":"way:1535473971"}},{"type":"Feature","geometry":{"type":"LineString","coordinates":[[112.5388411,22.8212125],[112.537824,22.8207049]]},"properties":{"key":"way:1535473972@detail:450_91","osmType":"way","osmId":1535473972,"sourceRegion":"guangdong","featureType":"infrastructure","railClass":"construction","mode":"construction","name":"南珠高速线","nameEn":"Nanning-Zhuhai Highspeed Railway","usage":"main","highspeed":"yes","bridge":"yes","status":"construction","color":"#397F9D","dataOrigin":"datum-2026-08-01","sourceKey":"way:1535473972"}},{"type":"Feature","geometry":{"type":"LineString","coordinates":[[112.5397332,22.8217175],[112.538815,22.8212484]]},"properties":{"key":"way:1535473973@detail:450_91","osmType":"way","osmId":1535473973,"sourceRegion":"guangdong","featureType":"infrastructure","railClass":"construction","mode":"construction","name":"南珠高速线","nameEn":"Nanning-Zhuhai Highspeed Railway","usage":"main","highspeed":"yes","status":"construction","color":"#397F9D","dataOrigin":"datum-2026-08-01","sourceKey":"way:1535473973"}},{"type":"Feature","geometry":{"type":"LineString","coordinates":[[112.5397581,22.8216817],[112.5388411,22.8212125]]},"properties":{"key":"way:1535473974@detail:450_91","osmType":"way","osmId":1535473974,"sourceRegion":"guangdong","featureType":"infrastructure","railClass":"construction","mode":"construction","name":"南珠高速线","nameEn":"Nanning-Zhuhai Highspeed Railway","usage":"main","highspeed":"yes","status":"construction","color":"#397F9D","dataOrigin":"datum-2026-08-01","sourceKey":"way:1535473974"}},{"type":"Feature","geometry":{"type":"LineString","coordinates":[[112.5378022,22.8207448],[112.5362534,22.8200485]]},"properties":{"key":"way:1535473975@detail:450_91","osmType":"way","osmId":1535473975,"sourceRegion":"guangdong","featureType":"infrastructure","railClass":"construction","mode":"construction","name":"南珠高速线","nameEn":"Nanning-Zhuhai Highspeed Railway","usage":"main","highspeed":"yes","tunnel":"yes","status":"construction","color":"#397F9D","dataOrigin":"datum-2026-08-01","sourceKey":"way:1535473975"}},{"type":"Feature","geometry":{"type":"LineString","coordinates":[[112.537824,22.8207049],[112.536279,22.8200064]]},"properties":{"key":"way:1535473976@detail:450_91","osmType":"way","osmId":1535473976,"sourceRegion":"guangdong","featureType":"infrastructure","railClass":"construction","mode":"construction","name":"南珠高速线","nameEn":"Nanning-Zhuhai Highspeed Railway","usage":"main","highspeed":"yes","tunnel":"yes","status":"construction","color":"#397F9D","dataOrigin":"datum-2026-08-01","sourceKey":"way:1535473976"}},{"type":"Feature","geometry":{"type":"LineString","coordinates":[[112.536279,22.8200064],[112.5343279,22.8192078]]},"properties":{"key":"way:1535473977@detail:450_91","osmType":"way","osmId":1535473977,"sourceRegion":"guangdong","featureType":"infrastructure","railClass":"construction","mode":"construction","name":"南珠高速线","nameEn":"Nanning-Zhuhai Highspeed Railway","usage":"main","highspeed":"yes","bridge":"yes","status":"construction","color":"#397F9D","dataOrigin":"datum-2026-08-01","sourceKey":"way:1535473977"}},{"type":"Feature","geometry":{"type":"LineString","coordinates":[[112.5362534,22.8200485],[112.5342986,22.8192567]]},"properties":{"key":"way:1535473978@detail:450_91","osmType":"way","osmId":1535473978,"sourceRegion":"guangdong","featureType":"infrastructure","railClass":"construction","mode":"construction","name":"南珠高速线","nameEn":"Nanning-Zhuhai Highspeed Railway","usage":"main","highspeed":"yes","bridge":"yes","status":"construction","color":"#397F9D","dataOrigin":"datum-2026-08-01","sourceKey":"way:1535473978"}},{"type":"Feature","geometry":{"type":"LineString","coordinates":[[112.5343279,22.8192078],[112.5322885,22.8184745]]},"properties":{"key":"way:1535473979@detail:450_91","osmType":"way","osmId":1535473979,"sourceRegion":"guangdong","featureType":"infrastructure","railClass":"construction","mode":"construction","name":"南珠高速线","nameEn":"Nanning-Zhuhai Highspeed Railway","usage":"main","highspeed":"yes","tunnel":"yes","status":"construction","color":"#397F9D","dataOrigin":"datum-2026-08-01","sourceKey":"way:1535473979"}},{"type":"Feature","geometry":{"type":"LineString","coordinates":[[112.5342986,22.8192567],[112.5322692,22.818525]]},"properties":{"key":"way:1535473980@detail:450_91","osmType":"way","osmId":1535473980,"sourceRegion":"guangdong","featureType":"infrastructure","railClass":"construction","mode":"construction","name":"南珠高速线","nameEn":"Nanning-Zhuhai Highspeed Railway","usage":"main","highspeed":"yes","tunnel":"yes","status":"construction","color":"#397F9D","dataOrigin":"datum-2026-08-01","sourceKey":"way:1535473980"}},{"type":"Feature","geometry":{"type":"LineString","coordinates":[[112.5322692,22.818525],[112.5301796,22.8178758]]},"properties":{"key":"way:1535473981@detail:450_91","osmType":"way","osmId":1535473981,"sourceRegion":"guangdong","featureType":"infrastructure","railClass":"construction","mode":"construction","name":"南珠高速线","nameEn":"Nanning-Zhuhai Highspeed Railway","usage":"main","highspeed":"yes","bridge":"yes","status":"construction","color":"#397F9D","dataOrigin":"datum-2026-08-01","sourceKey":"way:1535473981"}},{"type":"Feature","geometry":{"type":"LineString","coordinates":[[112.5322885,22.8184745],[112.5301998,22.817819]]},"properties":{"key":"way:1535473982@detail:450_91","osmType":"way","osmId":1535473982,"sourceRegion":"guangdong","featureType":"infrastructure","railClass":"construction","mode":"construction","name":"南珠高速线","nameEn":"Nanning-Zhuhai Highspeed Railway","usage":"main","highspeed":"yes","bridge":"yes","status":"construction","color":"#397F9D","dataOrigin":"datum-2026-08-01","sourceKey":"way:1535473982"}},{"type":"Feature","geometry":{"type":"LineString","coordinates":[[112.5301796,22.8178758],[112.5296237,22.8177153]]},"properties":{"key":"way:1535473983@detail:450_91","osmType":"way","osmId":1535473983,"sourceRegion":"guangdong","featureType":"infrastructure","railClass":"construction","mode":"construction","name":"南珠高速线","nameEn":"Nanning-Zhuhai Highspeed Railway","usage":"main","highspeed":"yes","status":"construction","color":"#397F9D","dataOrigin":"datum-2026-08-01","sourceKey":"way:1535473983"}},{"type":"Feature","geometry":{"type":"LineString","coordinates":[[112.5301998,22.817819],[112.5296438,22.8176596]]},"properties":{"key":"way:1535473984@detail:450_91","osmType":"way","osmId":1535473984,"sourceRegion":"guangdong","featureType":"infrastructure","railClass":"construction","mode":"construction","name":"南珠高速线","nameEn":"Nanning-Zhuhai Highspeed Railway","usage":"main","highspeed":"yes","status":"construction","color":"#397F9D","dataOrigin":"datum-2026-08-01","sourceKey":"way:1535473984"}},{"type":"Feature","geometry":{"type":"LineString","coordinates":[[112.5296237,22.8177153],[112.5277287,22.8172212],[112.5260608,22.8168392],[112.5244985,22.8165128]]},"properties":{"key":"way:1535473985@detail:450_91","osmType":"way","osmId":1535473985,"sourceRegion":"guangdong","featureType":"infrastructure","railClass":"construction","mode":"construction","name":"南珠高速线","nameEn":"Nanning-Zhuhai Highspeed Railway","usage":"main","highspeed":"yes","bridge":"yes","status":"construction","color":"#397F9D","dataOrigin":"datum-2026-08-01","sourceKey":"way:1535473985"}},{"type":"Feature","geometry":{"type":"LineString","coordinates":[[112.5296438,22.8176596],[112.5277451,22.8171716],[112.5260755,22.8167872],[112.5245143,22.8164657]]},"properties":{"key":"way:1535473986@detail:450_91","osmType":"way","osmId":1535473986,"sourceRegion":"guangdong","featureType":"infrastructure","railClass":"construction","mode":"construction","name":"南珠高速线","nameEn":"Nanning-Zhuhai Highspeed Railway","usage":"main","highspeed":"yes","bridge":"yes","status":"construction","color":"#397F9D","dataOrigin":"datum-2026-08-01","sourceKey":"way:1535473986"}},{"type":"Feature","geometry":{"type":"LineString","coordinates":[[112.5244985,22.8165128],[112.5237496,22.8163942]]},"properties":{"key":"way:1535473987@detail:450_91","osmType":"way","osmId":1535473987,"sourceRegion":"guangdong","featureType":"infrastructure","railClass":"construction","mode":"construction","name":"南珠高速线","nameEn":"Nanning-Zhuhai Highspeed Railway","usage":"main","highspeed":"yes","status":"construction","color":"#397F9D","dataOrigin":"datum-2026-08-01","sourceKey":"way:1535473987"}},{"type":"Feature","geometry":{"type":"LineString","coordinates":[[112.5245143,22.8164657],[112.5237586,22.8163409]]},"properties":{"key":"way:1535473988@detail:450_91","osmType":"way","osmId":1535473988,"sourceRegion":"guangdong","featureType":"infrastructure","railClass":"construction","mode":"construction","name":"南珠高速线","nameEn":"Nanning-Zhuhai Highspeed Railway","usage":"main","highspeed":"yes","status":"construction","color":"#397F9D","dataOrigin":"datum-2026-08-01","sourceKey":"way:1535473988"}},{"type":"Feature","geometry":{"type":"LineString","coordinates":[[112.5237586,22.8163409],[112.5222213,22.8161102]]},"properties":{"key":"way:1535473989@detail:450_91","osmType":"way","osmId":1535473989,"sourceRegion":"guangdong","featureType":"infrastructure","railClass":"construction","mode":"construction","name":"南珠高速线","nameEn":"Nanning-Zhuhai Highspeed Railway","usage":"main","highspeed":"yes","bridge":"yes","status":"construction","color":"#397F9D","dataOrigin":"datum-2026-08-01","sourceKey":"way:1535473989"}},{"type":"Feature","geometry":{"type":"LineString","coordinates":[[112.5237496,22.8163942],[112.5222118,22.8161652]]},"properties":{"key":"way:1535473990@detail:450_91","osmType":"way","osmId":1535473990,"sourceRegion":"guangdong","featureType":"infrastructure","railClass":"construction","mode":"construction","name":"南珠高速线","nameEn":"Nanning-Zhuhai Highspeed Railway","usage":"main","highspeed":"yes","bridge":"yes","status":"construction","color":"#397F9D","dataOrigin":"datum-2026-08-01","sourceKey":"way:1535473990"}},{"type":"Feature","geometry":{"type":"LineString","coordinates":[[112.5222118,22.8161652],[112.5211107,22.8160258]]},"properties":{"key":"way:1535473991@detail:450_91","osmType":"way","osmId":1535473991,"sourceRegion":"guangdong","featureType":"infrastructure","railClass":"construction","mode":"construction","name":"南珠高速线","nameEn":"Nanning-Zhuhai Highspeed Railway","usage":"main","highspeed":"yes","status":"construction","color":"#397F9D","dataOrigin":"datum-2026-08-01","sourceKey":"way:1535473991"}},{"type":"Feature","geometry":{"type":"LineString","coordinates":[[112.5222213,22.8161102],[112.5211223,22.8159726]]},"properties":{"key":"way:1535473992@detail:450_91","osmType":"way","osmId":1535473992,"sourceRegion":"guangdong","featureType":"infrastructure","railClass":"construction","mode":"construction","name":"南珠高速线","nameEn":"Nanning-Zhuhai Highspeed Railway","usage":"main","highspeed":"yes","status":"construction","color":"#397F9D","dataOrigin":"datum-2026-08-01","sourceKey":"way:1535473992"}},{"type":"Feature","geometry":{"type":"LineString","coordinates":[[112.5211107,22.8160258],[112.5177172,22.8157388]]},"properties":{"key":"way:1535473993@detail:450_91","osmType":"way","osmId":1535473993,"sourceRegion":"guangdong","featureType":"infrastructure","railClass":"construction","mode":"construction","name":"南珠高速线","nameEn":"Nanning-Zhuhai Highspeed Railway","usage":"main","highspeed":"yes","bridge":"yes","status":"construction","color":"#397F9D","dataOrigin":"datum-2026-08-01","sourceKey":"way:1535473993"}},{"type":"Feature","geometry":{"type":"LineString","coordinates":[[112.5211223,22.8159726],[112.5177157,22.8156813]]},"properties":{"key":"way:1535473994@detail:450_91","osmType":"way","osmId":1535473994,"sourceRegion":"guangdong","featureType":"infrastructure","railClass":"construction","mode":"construction","name":"南珠高速线","nameEn":"Nanning-Zhuhai Highspeed Railway","usage":"main","highspeed":"yes","bridge":"yes","status":"construction","color":"#397F9D","dataOrigin":"datum-2026-08-01","sourceKey":"way:1535473994"}},{"type":"Feature","geometry":{"type":"LineString","coordinates":[[112.5177172,22.8157388],[112.5148035,22.8156536]]},"properties":{"key":"way:1535473995@detail:450_91","osmType":"way","osmId":1535473995,"sourceRegion":"guangdong","featureType":"infrastructure","railClass":"construction","mode":"construction","name":"南珠高速线","nameEn":"Nanning-Zhuhai Highspeed Railway","usage":"main","highspeed":"yes","tunnel":"yes","status":"construction","color":"#397F9D","dataOrigin":"datum-2026-08-01","sourceKey":"way:1535473995"}},{"type":"Feature","geometry":{"type":"LineString","coordinates":[[112.5177157,22.8156813],[112.5148044,22.8155932]]},"properties":{"key":"way:1535473996@detail:450_91","osmType":"way","osmId":1535473996,"sourceRegion":"guangdong","featureType":"infrastructure","railClass":"construction","mode":"construction","name":"南珠高速线","nameEn":"Nanning-Zhuhai Highspeed Railway","usage":"main","highspeed":"yes","tunnel":"yes","status":"construction","color":"#397F9D","dataOrigin":"datum-2026-08-01","sourceKey":"way:1535473996"}},{"type":"Feature","geometry":{"type":"LineString","coordinates":[[112.5148035,22.8156536],[112.5126296,22.8157085]]},"properties":{"key":"way:1535473997@detail:450_91","osmType":"way","osmId":1535473997,"sourceRegion":"guangdong","featureType":"infrastructure","railClass":"construction","mode":"construction","name":"南珠高速线","nameEn":"Nanning-Zhuhai Highspeed Railway","usage":"main","highspeed":"yes","bridge":"yes","status":"construction","color":"#397F9D","dataOrigin":"datum-2026-08-01","sourceKey":"way:1535473997"}},{"type":"Feature","geometry":{"type":"LineString","coordinates":[[112.5148044,22.8155932],[112.5126297,22.8156384]]},"properties":{"key":"way:1535473998@detail:450_91","osmType":"way","osmId":1535473998,"sourceRegion":"guangdong","featureType":"infrastructure","railClass":"construction","mode":"construction","name":"南珠高速线","nameEn":"Nanning-Zhuhai Highspeed Railway","usage":"main","highspeed":"yes","bridge":"yes","status":"construction","color":"#397F9D","dataOrigin":"datum-2026-08-01","sourceKey":"way:1535473998"}},{"type":"Feature","geometry":{"type":"LineString","coordinates":[[112.5101501,22.8158004],[112.5054788,22.8163744]]},"properties":{"key":"way:1535473999@detail:450_91","osmType":"way","osmId":1535473999,"sourceRegion":"guangdong","featureType":"infrastructure","railClass":"construction","mode":"construction","name":"南珠高速线","nameEn":"Nanning-Zhuhai Highspeed Railway","usage":"main","highspeed":"yes","bridge":"yes","status":"construction","color":"#397F9D","dataOrigin":"datum-2026-08-01","sourceKey":"way:1535473999"}},{"type":"Feature","geometry":{"type":"LineString","coordinates":[[112.5101515,22.8158585],[112.5054865,22.81643]]},"properties":{"key":"way:1535474000@detail:450_91","osmType":"way","osmId":1535474000,"sourceRegion":"guangdong","featureType":"infrastructure","railClass":"construction","mode":"construction","name":"南珠高速线","nameEn":"Nanning-Zhuhai Highspeed Railway","usage":"main","highspeed":"yes","bridge":"yes","status":"construction","color":"#397F9D","dataOrigin":"datum-2026-08-01","sourceKey":"way:1535474000"}},{"type":"Feature","geometry":{"type":"LineString","coordinates":[[112.5126296,22.8157085],[112.5101515,22.8158585]]},"properties":{"key":"way:1535474001@detail:450_91","osmType":"way","osmId":1535474001,"sourceRegion":"guangdong","featureType":"infrastructure","railClass":"construction","mode":"construction","name":"南珠高速线","nameEn":"Nanning-Zhuhai Highspeed Railway","usage":"main","highspeed":"yes","status":"construction","color":"#397F9D","dataOrigin":"datum-2026-08-01","sourceKey":"way:1535474001"}},{"type":"Feature","geometry":{"type":"LineString","coordinates":[[112.5126297,22.8156384],[112.5101501,22.8158004]]},"properties":{"key":"way:1535474002@detail:450_91","osmType":"way","osmId":1535474002,"sourceRegion":"guangdong","featureType":"infrastructure","railClass":"construction","mode":"construction","name":"南珠高速线","nameEn":"Nanning-Zhuhai Highspeed Railway","usage":"main","highspeed":"yes","status":"construction","color":"#397F9D","dataOrigin":"datum-2026-08-01","sourceKey":"way:1535474002"}}]}