{"type":"FeatureCollection","features":[{"type":"Feature","geometry":{"type":"LineString","coordinates":[[112.6251681,25.0507313],[112.6261726,25.0504358],[112.6277744,25.0502001],[112.629218,25.0500322]]},"properties":{"key":"way:1279642542@detail:450_100","osmType":"way","osmId":1279642542,"sourceRegion":"guangdong","featureType":"infrastructure","railClass":"minor","mode":"abandoned","name":"坪连铁路","status":"operational","color":"#52636F","dataOrigin":"datum-2026-08-01","sourceKey":"way:1279642542"}},{"type":"Feature","geometry":{"type":"LineString","coordinates":[[112.6510394,25.0607073],[112.6518344,25.063288]]},"properties":{"key":"way:1279642543@detail:450_100","osmType":"way","osmId":1279642543,"sourceRegion":"guangdong","featureType":"infrastructure","railClass":"minor","mode":"razed","name":"坪连铁路","status":"operational","color":"#52636F","dataOrigin":"datum-2026-08-01","sourceKey":"way:1279642543"}},{"type":"Feature","geometry":{"type":"LineString","coordinates":[[112.6970856,25.0811674],[112.6949797,25.0816019],[112.693695,25.0816535],[112.6926949,25.0814178],[112.6912883,25.0804752],[112.6901743,25.0796504],[112.6879953,25.0780965],[112.686304,25.0769697],[112.6856942,25.0765647],[112.6843932,25.0757693],[112.6827345,25.0749813],[112.6812547,25.0744731],[112.6791407,25.0740902],[112.6767502,25.0737661]]},"properties":{"key":"way:1279642544@detail:450_100","osmType":"way","osmId":1279642544,"sourceRegion":"guangdong","featureType":"infrastructure","railClass":"minor","mode":"razed","name":"坪连铁路","status":"operational","color":"#52636F","dataOrigin":"datum-2026-08-01","sourceKey":"way:1279642544"}},{"type":"Feature","geometry":{"type":"LineString","coordinates":[[112.6767502,25.0737661],[112.676113,25.0737109],[112.674965,25.0737012],[112.6742621,25.0738043]]},"properties":{"key":"way:1279642545@detail:450_100","osmType":"way","osmId":1279642545,"sourceRegion":"guangdong","featureType":"infrastructure","railClass":"minor","mode":"razed","name":"坪连铁路","status":"operational","color":"#52636F","dataOrigin":"datum-2026-08-01","sourceKey":"way:1279642545"}},{"type":"Feature","geometry":{"type":"LineString","coordinates":[[112.6742621,25.0738043],[112.6737223,25.0739909],[112.6734793,25.0741725],[112.6733487,25.0742701],[112.6713346,25.0766259],[112.6701902,25.0776392],[112.6688563,25.0782779]]},"properties":{"key":"way:1279642546@detail:450_100","osmType":"way","osmId":1279642546,"sourceRegion":"guangdong","featureType":"infrastructure","railClass":"minor","mode":"razed","name":"坪连铁路","status":"operational","color":"#52636F","dataOrigin":"datum-2026-08-01","sourceKey":"way:1279642546"}},{"type":"Feature","geometry":{"type":"LineString","coordinates":[[112.650252,25.0582455],[112.6508151,25.0599794],[112.6510394,25.0607073]]},"properties":{"key":"way:1317325798@detail:450_100","osmType":"way","osmId":1317325798,"sourceRegion":"guangdong","featureType":"infrastructure","railClass":"minor","mode":"abandoned","name":"王家堆高架桥","bridge":"yes","status":"operational","color":"#52636F","dataOrigin":"datum-2026-08-01","sourceKey":"way:1317325798"}},{"type":"Feature","geometry":{"type":"LineString","coordinates":[[112.6498524,25.0569016],[112.6500648,25.0577608],[112.650252,25.0582455]]},"properties":{"key":"way:1317325799@detail:450_100","osmType":"way","osmId":1317325799,"sourceRegion":"guangdong","featureType":"infrastructure","railClass":"minor","mode":"abandoned","name":"未命名","status":"operational","color":"#52636F","dataOrigin":"datum-2026-08-01","sourceKey":"way:1317325799"}},{"type":"Feature","geometry":{"type":"LineString","coordinates":[[112.6518344,25.063288],[112.6524021,25.0650025]]},"properties":{"key":"way:1317325800@detail:450_100","osmType":"way","osmId":1317325800,"sourceRegion":"guangdong","featureType":"infrastructure","railClass":"minor","mode":"razed","name":"未命名","bridge":"yes","status":"operational","color":"#52636F","dataOrigin":"datum-2026-08-01","sourceKey":"way:1317325800"}},{"type":"Feature","geometry":{"type":"LineString","coordinates":[[112.6492044,25.055643],[112.6486769,25.0548972],[112.6480212,25.0542184],[112.6467346,25.052959],[112.6442451,25.0513781]]},"properties":{"key":"way:1317328513@detail:450_100","osmType":"way","osmId":1317328513,"sourceRegion":"guangdong","featureType":"infrastructure","railClass":"minor","mode":"abandoned","name":"未命名","status":"operational","color":"#52636F","dataOrigin":"datum-2026-08-01","sourceKey":"way:1317328513"}},{"type":"Feature","geometry":{"type":"LineString","coordinates":[[112.5504711,25.0091261],[112.5511541,25.0100369]]},"properties":{"key":"way:1317328514@detail:450_100","osmType":"way","osmId":1317328514,"sourceRegion":"guangdong","featureType":"infrastructure","railClass":"minor","mode":"abandoned","name":"星子大桥","bridge":"yes","status":"operational","color":"#52636F","dataOrigin":"datum-2026-08-01","sourceKey":"way:1317328514"}},{"type":"Feature","geometry":{"type":"LineString","coordinates":[[112.629218,25.0500322],[112.6294412,25.0499938],[112.6299291,25.0498612],[112.6302706,25.0497507],[112.6308154,25.0495371],[112.6310674,25.0493898]]},"properties":{"key":"way:1317328515@detail:450_100","osmType":"way","osmId":1317328515,"sourceRegion":"guangdong","featureType":"infrastructure","railClass":"minor","mode":"abandoned","name":"大路边高架","bridge":"yes","status":"operational","color":"#52636F","dataOrigin":"datum-2026-08-01","sourceKey":"way:1317328515"}},{"type":"Feature","geometry":{"type":"LineString","coordinates":[[112.6310674,25.0493898],[112.6318329,25.0489271],[112.632571,25.0484994]]},"properties":{"key":"way:1317328516@detail:450_100","osmType":"way","osmId":1317328516,"sourceRegion":"guangdong","featureType":"infrastructure","railClass":"minor","mode":"abandoned","name":"坪连铁路","tunnel":"yes","status":"operational","color":"#52636F","dataOrigin":"datum-2026-08-01","sourceKey":"way:1317328516"}},{"type":"Feature","geometry":{"type":"LineString","coordinates":[[112.6633878,25.0784334],[112.6618247,25.0781012],[112.661013,25.0778764],[112.6600095,25.0774993],[112.659377,25.0770716]]},"properties":{"key":"way:1317328517@detail:450_100","osmType":"way","osmId":1317328517,"sourceRegion":"guangdong","featureType":"infrastructure","railClass":"minor","mode":"abandoned","name":"坪连铁路","tunnel":"yes","status":"operational","color":"#52636F","dataOrigin":"datum-2026-08-01","sourceKey":"way:1317328517"}},{"type":"Feature","geometry":{"type":"LineString","coordinates":[[112.6688563,25.0782779],[112.667208,25.0785555],[112.6659169,25.0786068],[112.6648105,25.0785567],[112.6633878,25.0784334]]},"properties":{"key":"way:1317328518@detail:450_100","osmType":"way","osmId":1317328518,"sourceRegion":"guangdong","featureType":"infrastructure","railClass":"minor","mode":"abandoned","name":"坪连铁路","status":"operational","color":"#52636F","dataOrigin":"datum-2026-08-01","sourceKey":"way:1317328518"}},{"type":"Feature","geometry":{"type":"LineString","coordinates":[[112.659377,25.0770716],[112.6581411,25.0757026],[112.6573376,25.075073]]},"properties":{"key":"way:1317328519@detail:450_100","osmType":"way","osmId":1317328519,"sourceRegion":"guangdong","featureType":"infrastructure","railClass":"minor","mode":"abandoned","name":"坪连铁路","status":"operational","color":"#52636F","dataOrigin":"datum-2026-08-01","sourceKey":"way:1317328519"}}]}