{"type":"FeatureCollection","features":[{"type":"Feature","geometry":{"type":"Point","coordinates":[112.6706712,22.3219819]},"properties":{"key":"node:8020545908","osmType":"node","osmId":8020545908,"sourceRegion":"guangdong","featureType":"station","railClass":"minor","mode":"station","name":"开平南","nameEn":"Kaipingnan","status":"operational","color":"#52636F","dataOrigin":"datum-2026-08-01","sourceKey":"node:8020545908","stationGroup":"开平南","hasOperationalRail":true,"hasConstructionRail":false}},{"type":"Feature","geometry":{"type":"LineString","coordinates":[[112.5832021,22.2693598],[112.582891,22.2689428],[112.5821721,22.2681286],[112.5810563,22.266818],[112.5801015,22.2658847],[112.5789428,22.2647528],[112.5780845,22.2640379],[112.576797,22.2629457],[112.5759172,22.2622408],[112.5746941,22.2614365],[112.5728917,22.2602351],[112.5718617,22.259679],[112.5709712,22.2591925],[112.5694048,22.2583783],[112.5683212,22.2578719],[112.5669265,22.2573159],[112.5654781,22.2567797],[112.5642657,22.2563527],[112.5626457,22.255886],[112.5586223,22.2549129],[112.5510263,22.2529667],[112.5485051,22.2523312]]},"properties":{"key":"way:570583588@detail:450_89","osmType":"way","osmId":570583588,"sourceRegion":"guangdong","featureType":"infrastructure","railClass":"highspeed","mode":"rail","name":"深湛线","nameEn":"Shenzhen-Zhanjiang Railway","ref":"3071","operator":"中国铁路广州局集团有限公司","usage":"main","highspeed":"yes","bridge":"yes","status":"operational","color":"#E54848","dataOrigin":"datum-2026-08-01","sourceKey":"way:570583588"}},{"type":"Feature","geometry":{"type":"LineString","coordinates":[[112.5831627,22.2693853],[112.5828525,22.2689696],[112.5821346,22.2681565],[112.5810199,22.2668471],[112.5800666,22.2659153],[112.5789092,22.2647847],[112.5780522,22.2640708],[112.576765,22.2629789],[112.5758875,22.2622758],[112.5746661,22.2614727],[112.5728655,22.2602725],[112.5718374,22.2597174],[112.5709472,22.2592311],[112.5693822,22.2584176],[112.5683008,22.2579122],[112.5669081,22.257357],[112.5654606,22.2568212],[112.56425,22.2563948],[112.5626325,22.2559288],[112.5586098,22.2549559],[112.5510136,22.2530096],[112.548491,22.2523738]]},"properties":{"key":"way:627789172@detail:450_89","osmType":"way","osmId":627789172,"sourceRegion":"guangdong","featureType":"infrastructure","railClass":"highspeed","mode":"rail","name":"深湛线","nameEn":"Shenzhen-Zhanjiang Railway","ref":"3071","operator":"中国铁路广州局集团有限公司","usage":"main","highspeed":"yes","bridge":"yes","status":"operational","color":"#E54848","dataOrigin":"datum-2026-08-01","sourceKey":"way:627789172"}},{"type":"Feature","geometry":{"type":"LineString","coordinates":[[112.6122674,22.2989705],[112.610507,22.2974152],[112.6055181,22.2931963],[112.6037264,22.2917966],[112.6026106,22.2908337],[112.6006901,22.2892354],[112.5995314,22.2882725],[112.5973105,22.2862374],[112.5964522,22.2853737],[112.5945425,22.2834676],[112.5935662,22.282445],[112.5920641,22.2806084],[112.5901651,22.2784938],[112.5880623,22.2757934],[112.5845754,22.2711469],[112.5832021,22.2693598]]},"properties":{"key":"way:666912083@detail:450_89","osmType":"way","osmId":666912083,"sourceRegion":"guangdong","featureType":"infrastructure","railClass":"highspeed","mode":"rail","name":"深湛线","nameEn":"Shenzhen-Zhanjiang Railway","ref":"3071","operator":"中国铁路广州局集团有限公司","usage":"main","highspeed":"yes","status":"operational","color":"#E54848","dataOrigin":"datum-2026-08-01","sourceKey":"way:666912083"}},{"type":"Feature","geometry":{"type":"LineString","coordinates":[[112.6122348,22.2990032],[112.6104742,22.2974477],[112.6054864,22.2932297],[112.6036945,22.2918299],[112.6025781,22.2908665],[112.600658,22.2892685],[112.5994984,22.2883049],[112.5972759,22.2862683],[112.5964169,22.2854039],[112.5945068,22.2834975],[112.593529,22.2824732],[112.5920264,22.2806361],[112.5901271,22.2785211],[112.588023,22.2758191],[112.5845361,22.2711725],[112.5831627,22.2693853]]},"properties":{"key":"way:666912085@detail:450_89","osmType":"way","osmId":666912085,"sourceRegion":"guangdong","featureType":"infrastructure","railClass":"highspeed","mode":"rail","name":"深湛线","nameEn":"Shenzhen-Zhanjiang Railway","ref":"3071","operator":"中国铁路广州局集团有限公司","usage":"main","highspeed":"yes","status":"operational","color":"#E54848","dataOrigin":"datum-2026-08-01","sourceKey":"way:666912085"}},{"type":"Feature","geometry":{"type":"LineString","coordinates":[[112.734454,22.302645],[112.7345814,22.3026129],[112.7349823,22.3025093],[112.7354286,22.3024019],[112.7358769,22.302302],[112.7363267,22.3022099],[112.7368004,22.3021135],[112.7372758,22.3020232],[112.7377525,22.3019391]]},"properties":{"key":"way:864884818@detail:450_89","osmType":"way","osmId":864884818,"sourceRegion":"guangdong","featureType":"infrastructure","railClass":"highspeed","mode":"rail","name":"深湛线","nameEn":"Shenzhen-Zhanjiang Railway","ref":"3071","operator":"中国铁路广州局集团有限公司","usage":"main","highspeed":"yes","bridge":"yes","status":"operational","color":"#E54848","dataOrigin":"datum-2026-08-01","sourceKey":"way:864884818"}},{"type":"Feature","geometry":{"type":"LineString","coordinates":[[112.734472,22.3026824],[112.734593,22.3026518],[112.7349937,22.3025484],[112.7354392,22.3024411],[112.7358867,22.3023414],[112.7363361,22.3022493],[112.7368095,22.3021531],[112.7372843,22.3020629],[112.7377604,22.3019788]]},"properties":{"key":"way:864884819@detail:450_89","osmType":"way","osmId":864884819,"sourceRegion":"guangdong","featureType":"infrastructure","railClass":"highspeed","mode":"rail","name":"深湛线","nameEn":"Shenzhen-Zhanjiang Railway","ref":"3071","operator":"中国铁路广州局集团有限公司","usage":"main","highspeed":"yes","bridge":"yes","status":"operational","color":"#E54848","dataOrigin":"datum-2026-08-01","sourceKey":"way:864884819"}},{"type":"Feature","geometry":{"type":"LineString","coordinates":[[112.7377525,22.3019391],[112.7381608,22.3018721],[112.7385699,22.3018095],[112.7386153,22.3018031]]},"properties":{"key":"way:864884820@detail:450_89","osmType":"way","osmId":864884820,"sourceRegion":"guangdong","featureType":"infrastructure","railClass":"highspeed","mode":"rail","name":"深湛线","nameEn":"Shenzhen-Zhanjiang Railway","ref":"3071","operator":"中国铁路广州局集团有限公司","usage":"main","highspeed":"yes","status":"operational","color":"#E54848","dataOrigin":"datum-2026-08-01","sourceKey":"way:864884820"}},{"type":"Feature","geometry":{"type":"LineString","coordinates":[[112.7377604,22.3019788],[112.7381682,22.3019119],[112.7385768,22.3018494],[112.738622,22.301843]]},"properties":{"key":"way:864884821@detail:450_89","osmType":"way","osmId":864884821,"sourceRegion":"guangdong","featureType":"infrastructure","railClass":"highspeed","mode":"rail","name":"深湛线","nameEn":"Shenzhen-Zhanjiang Railway","ref":"3071","operator":"中国铁路广州局集团有限公司","usage":"main","highspeed":"yes","status":"operational","color":"#E54848","dataOrigin":"datum-2026-08-01","sourceKey":"way:864884821"}},{"type":"Feature","geometry":{"type":"LineString","coordinates":[[112.7386153,22.3018031],[112.7389797,22.3017515],[112.7395357,22.3016764],[112.7400932,22.3016098],[112.7406517,22.3015516],[112.7412113,22.3015018],[112.7417642,22.301461],[112.7423173,22.3014285],[112.742609,22.3014098],[112.7429014,22.3013944],[112.7433069,22.3013785],[112.7437127,22.3013689],[112.7441993,22.3013632],[112.7446857,22.3013602],[112.7452701,22.3013601],[112.7458548,22.3013639],[112.7463883,22.3013791],[112.7469214,22.3014037],[112.7473589,22.301431],[112.7477955,22.3014646],[112.7488941,22.3015515],[112.749699,22.301622]]},"properties":{"key":"way:864884822@detail:450_89","osmType":"way","osmId":864884822,"sourceRegion":"guangdong","featureType":"infrastructure","railClass":"highspeed","mode":"rail","name":"深湛线","nameEn":"Shenzhen-Zhanjiang Railway","ref":"3071","operator":"中国铁路广州局集团有限公司","usage":"main","highspeed":"yes","bridge":"yes","status":"operational","color":"#E54848","dataOrigin":"datum-2026-08-01","sourceKey":"way:864884822"}},{"type":"Feature","geometry":{"type":"LineString","coordinates":[[112.738622,22.301843],[112.7389862,22.3017915],[112.7395417,22.3017165],[112.7400984,22.3016499],[112.7406563,22.3015918],[112.7412151,22.3015421],[112.7417673,22.3015014],[112.7423201,22.3014689],[112.7426117,22.3014502],[112.7429035,22.3014348],[112.7433084,22.3014189],[112.7437136,22.3014093],[112.7441997,22.3014036],[112.7446859,22.3014006],[112.7452699,22.3014006],[112.745854,22.3014044],[112.7463866,22.3014195],[112.7469188,22.3014441],[112.7473556,22.3014713],[112.7477919,22.3015049],[112.7488902,22.3015917],[112.7496903,22.3016618]]},"properties":{"key":"way:864884823@detail:450_89","osmType":"way","osmId":864884823,"sourceRegion":"guangdong","featureType":"infrastructure","railClass":"highspeed","mode":"rail","name":"深湛线","nameEn":"Shenzhen-Zhanjiang Railway","ref":"3071","operator":"中国铁路广州局集团有限公司","usage":"main","highspeed":"yes","bridge":"yes","status":"operational","color":"#E54848","dataOrigin":"datum-2026-08-01","sourceKey":"way:864884823"}},{"type":"Feature","geometry":{"type":"LineString","coordinates":[[112.749699,22.301622],[112.75,22.301648388496876]]},"properties":{"key":"way:864884824@detail:450_89","osmType":"way","osmId":864884824,"sourceRegion":"guangdong","featureType":"infrastructure","railClass":"highspeed","mode":"rail","name":"深湛线","nameEn":"Shenzhen-Zhanjiang Railway","ref":"3071","operator":"中国铁路广州局集团有限公司","usage":"main","highspeed":"yes","status":"operational","color":"#E54848","dataOrigin":"datum-2026-08-01","sourceKey":"way:864884824"}},{"type":"Feature","geometry":{"type":"LineString","coordinates":[[112.7496903,22.3016618],[112.75,22.301688947956652]]},"properties":{"key":"way:864884825@detail:450_89","osmType":"way","osmId":864884825,"sourceRegion":"guangdong","featureType":"infrastructure","railClass":"highspeed","mode":"rail","name":"深湛线","nameEn":"Shenzhen-Zhanjiang Railway","ref":"3071","operator":"中国铁路广州局集团有限公司","usage":"main","highspeed":"yes","status":"operational","color":"#E54848","dataOrigin":"datum-2026-08-01","sourceKey":"way:864884825"}},{"type":"Feature","geometry":{"type":"LineString","coordinates":[[112.7299776,22.3040722],[112.73012,22.304019],[112.7305607,22.3038564],[112.731016,22.3036923],[112.7314728,22.3035316],[112.7319676,22.3033653],[112.7324651,22.3032061],[112.732882,22.3030789],[112.7333005,22.3029568],[112.7337206,22.3028397],[112.734165,22.3027179],[112.734454,22.302645]]},"properties":{"key":"way:864884836@detail:450_89","osmType":"way","osmId":864884836,"sourceRegion":"guangdong","featureType":"infrastructure","railClass":"highspeed","mode":"rail","name":"深湛线","nameEn":"Shenzhen-Zhanjiang Railway","ref":"3071","operator":"中国铁路广州局集团有限公司","usage":"main","highspeed":"yes","status":"operational","color":"#E54848","dataOrigin":"datum-2026-08-01","sourceKey":"way:864884836"}},{"type":"Feature","geometry":{"type":"LineString","coordinates":[[112.7299964,22.3041131],[112.7301362,22.3040565],[112.7305768,22.303894],[112.7310317,22.30373],[112.731488,22.3035695],[112.7319822,22.3034034],[112.7324791,22.3032444],[112.7328954,22.3031174],[112.7333134,22.3029954],[112.7337331,22.3028784],[112.734177,22.3027568],[112.734472,22.3026824]]},"properties":{"key":"way:864884837@detail:450_89","osmType":"way","osmId":864884837,"sourceRegion":"guangdong","featureType":"infrastructure","railClass":"highspeed","mode":"rail","name":"深湛线","nameEn":"Shenzhen-Zhanjiang Railway","ref":"3071","operator":"中国铁路广州局集团有限公司","usage":"main","highspeed":"yes","status":"operational","color":"#E54848","dataOrigin":"datum-2026-08-01","sourceKey":"way:864884837"}},{"type":"Feature","geometry":{"type":"LineString","coordinates":[[112.7299964,22.3041131],[112.7291389,22.3044392],[112.7282492,22.3048239],[112.7268522,22.3054697],[112.7260051,22.3059211],[112.7239028,22.3069928],[112.7230185,22.3074936],[112.7204539,22.3089281],[112.7122664,22.313467],[112.7079659,22.3158112],[112.7040334,22.3180396],[112.7031994,22.3184877],[112.7013023,22.319288],[112.6996321,22.3198793],[112.6981393,22.320376],[112.697134,22.3206645],[112.6960005,22.3209328],[112.6940141,22.3213649],[112.6931271,22.3215191],[112.6919345,22.321688],[112.6909992,22.3217875],[112.6898274,22.3218671],[112.6884418,22.3218869],[112.6853295,22.3218968],[112.6842288,22.3218755],[112.6841232,22.3218737]]},"properties":{"key":"way:970101890@detail:450_89","osmType":"way","osmId":970101890,"sourceRegion":"guangdong","featureType":"infrastructure","railClass":"highspeed","mode":"rail","name":"深湛线","nameEn":"Shenzhen-Zhanjiang Railway","ref":"3071","operator":"中国铁路广州局集团有限公司","usage":"main","highspeed":"yes","bridge":"yes","status":"operational","color":"#E54848","dataOrigin":"datum-2026-08-01","sourceKey":"way:970101890"}},{"type":"Feature","geometry":{"type":"LineString","coordinates":[[112.7299776,22.3040722],[112.7291197,22.3043984],[112.7282285,22.3047837],[112.726829,22.3054307],[112.7259815,22.3058823],[112.7238786,22.3069543],[112.7229935,22.3074556],[112.7204293,22.3088899],[112.7122344,22.3134329],[112.7118575,22.3136384],[112.7079409,22.3157732],[112.7040088,22.3180014],[112.7031773,22.3184481],[112.7012837,22.319247],[112.6996154,22.3198376],[112.698124,22.3203338],[112.6971209,22.3206217],[112.695989,22.3208896],[112.6940042,22.3213214],[112.693119,22.3214752],[112.6919281,22.3216439],[112.6909947,22.3217432],[112.6898253,22.3218226],[112.6884413,22.3218424],[112.6853299,22.3218523],[112.6842296,22.3218347],[112.6841259,22.3218328]]},"properties":{"key":"way:970101891@detail:450_89","osmType":"way","osmId":970101891,"sourceRegion":"guangdong","featureType":"infrastructure","railClass":"highspeed","mode":"rail","name":"深湛线","nameEn":"Shenzhen-Zhanjiang Railway","ref":"3071","operator":"中国铁路广州局集团有限公司","usage":"main","highspeed":"yes","bridge":"yes","status":"operational","color":"#E54848","dataOrigin":"datum-2026-08-01","sourceKey":"way:970101891"}},{"type":"Feature","geometry":{"type":"LineString","coordinates":[[112.6799821,22.3217579],[112.678799,22.3217377],[112.6768835,22.3217051],[112.6651275,22.321505],[112.6634207,22.3214669],[112.6632085,22.3214621],[112.6619226,22.3214334],[112.6611256,22.3214156],[112.6594844,22.3213955],[112.6593574,22.321392]]},"properties":{"key":"way:970101892@detail:450_89","osmType":"way","osmId":970101892,"sourceRegion":"guangdong","featureType":"infrastructure","railClass":"highspeed","mode":"rail","name":"深湛线","nameEn":"Shenzhen-Zhanjiang Railway","ref":"3071","operator":"中国铁路广州局集团有限公司","usage":"main","highspeed":"yes","status":"operational","color":"#E54848","dataOrigin":"datum-2026-08-01","sourceKey":"way:970101892"}},{"type":"Feature","geometry":{"type":"LineString","coordinates":[[112.680024,22.3218056],[112.6757008,22.3217313],[112.6657712,22.3215606],[112.6651265,22.3215495],[112.6612978,22.321464],[112.6611245,22.3214601],[112.6593542,22.3214368]]},"properties":{"key":"way:970101893@detail:450_89","osmType":"way","osmId":970101893,"sourceRegion":"guangdong","featureType":"infrastructure","railClass":"highspeed","mode":"rail","name":"深湛线","nameEn":"Shenzhen-Zhanjiang Railway","ref":"3071","operator":"中国铁路广州局集团有限公司","usage":"main","highspeed":"yes","status":"operational","color":"#E54848","dataOrigin":"datum-2026-08-01","sourceKey":"way:970101893"}},{"type":"Feature","geometry":{"type":"LineString","coordinates":[[112.6806642,22.3217699],[112.6799821,22.3217579]]},"properties":{"key":"way:970101894@detail:450_89","osmType":"way","osmId":970101894,"sourceRegion":"guangdong","featureType":"infrastructure","railClass":"highspeed","mode":"rail","name":"深湛线","nameEn":"Shenzhen-Zhanjiang Railway","ref":"3071","operator":"中国铁路广州局集团有限公司","usage":"main","highspeed":"yes","bridge":"yes","status":"operational","color":"#E54848","dataOrigin":"datum-2026-08-01","sourceKey":"way:970101894"}},{"type":"Feature","geometry":{"type":"LineString","coordinates":[[112.6806913,22.3218171],[112.680024,22.3218056]]},"properties":{"key":"way:970101895@detail:450_89","osmType":"way","osmId":970101895,"sourceRegion":"guangdong","featureType":"infrastructure","railClass":"highspeed","mode":"rail","name":"深湛线","nameEn":"Shenzhen-Zhanjiang Railway","ref":"3071","operator":"中国铁路广州局集团有限公司","usage":"main","highspeed":"yes","bridge":"yes","status":"operational","color":"#E54848","dataOrigin":"datum-2026-08-01","sourceKey":"way:970101895"}},{"type":"Feature","geometry":{"type":"LineString","coordinates":[[112.6841259,22.3218328],[112.6806642,22.3217699]]},"properties":{"key":"way:970101896@detail:450_89","osmType":"way","osmId":970101896,"sourceRegion":"guangdong","featureType":"infrastructure","railClass":"highspeed","mode":"rail","name":"深湛线","nameEn":"Shenzhen-Zhanjiang Railway","ref":"3071","operator":"中国铁路广州局集团有限公司","usage":"main","highspeed":"yes","status":"operational","color":"#E54848","dataOrigin":"datum-2026-08-01","sourceKey":"way:970101896"}},{"type":"Feature","geometry":{"type":"LineString","coordinates":[[112.6841232,22.3218737],[112.6806913,22.3218171]]},"properties":{"key":"way:970101897@detail:450_89","osmType":"way","osmId":970101897,"sourceRegion":"guangdong","featureType":"infrastructure","railClass":"highspeed","mode":"rail","name":"深湛线","nameEn":"Shenzhen-Zhanjiang Railway","ref":"3071","operator":"中国铁路广州局集团有限公司","usage":"main","highspeed":"yes","status":"operational","color":"#E54848","dataOrigin":"datum-2026-08-01","sourceKey":"way:970101897"}},{"type":"Feature","geometry":{"type":"LineString","coordinates":[[112.6612978,22.321464],[112.6619226,22.3214334]]},"properties":{"key":"way:970101898@detail:450_89","osmType":"way","osmId":970101898,"sourceRegion":"guangdong","featureType":"infrastructure","railClass":"minor","mode":"rail","name":"未命名","usage":"main","service":"crossover","highspeed":"yes","status":"operational","color":"#52636F","dataOrigin":"datum-2026-08-01","sourceKey":"way:970101898"}},{"type":"Feature","geometry":{"type":"LineString","coordinates":[[112.6630341,22.3214001],[112.6642078,22.3214211],[112.6740734,22.3215974],[112.6759823,22.3216313],[112.679493,22.321693],[112.6799507,22.3217017]]},"properties":{"key":"way:970101899@detail:450_89","osmType":"way","osmId":970101899,"sourceRegion":"guangdong","featureType":"infrastructure","railClass":"minor","mode":"rail","name":"未命名","service":"siding","highspeed":"yes","status":"operational","color":"#52636F","dataOrigin":"datum-2026-08-01","sourceKey":"way:970101899"}},{"type":"Feature","geometry":{"type":"LineString","coordinates":[[112.6806406,22.321714],[112.6839668,22.3217731],[112.6840409,22.3217744]]},"properties":{"key":"way:970101900@detail:450_89","osmType":"way","osmId":970101900,"sourceRegion":"guangdong","featureType":"infrastructure","railClass":"minor","mode":"rail","name":"未命名","service":"siding","highspeed":"yes","status":"operational","color":"#52636F","dataOrigin":"datum-2026-08-01","sourceKey":"way:970101900"}},{"type":"Feature","geometry":{"type":"LineString","coordinates":[[112.6799507,22.3217017],[112.6806406,22.321714]]},"properties":{"key":"way:970101901@detail:450_89","osmType":"way","osmId":970101901,"sourceRegion":"guangdong","featureType":"infrastructure","railClass":"minor","mode":"rail","name":"未命名","service":"siding","highspeed":"yes","bridge":"yes","status":"operational","color":"#52636F","dataOrigin":"datum-2026-08-01","sourceKey":"way:970101901"}},{"type":"Feature","geometry":{"type":"LineString","coordinates":[[112.6642078,22.3214211],[112.6632085,22.3214621]]},"properties":{"key":"way:970101902@detail:450_89","osmType":"way","osmId":970101902,"sourceRegion":"guangdong","featureType":"infrastructure","railClass":"minor","mode":"rail","name":"未命名","service":"crossover","highspeed":"yes","status":"operational","color":"#52636F","dataOrigin":"datum-2026-08-01","sourceKey":"way:970101902"}},{"type":"Feature","geometry":{"type":"LineString","coordinates":[[112.6768835,22.3217051],[112.6759823,22.3216313]]},"properties":{"key":"way:970101903@detail:450_89","osmType":"way","osmId":970101903,"sourceRegion":"guangdong","featureType":"infrastructure","railClass":"minor","mode":"rail","name":"未命名","service":"crossover","highspeed":"yes","status":"operational","color":"#52636F","dataOrigin":"datum-2026-08-01","sourceKey":"way:970101903"}},{"type":"Feature","geometry":{"type":"LineString","coordinates":[[112.679493,22.321693],[112.678799,22.3217377]]},"properties":{"key":"way:970101904@detail:450_89","osmType":"way","osmId":970101904,"sourceRegion":"guangdong","featureType":"infrastructure","railClass":"minor","mode":"rail","name":"未命名","service":"crossover","highspeed":"yes","status":"operational","color":"#52636F","dataOrigin":"datum-2026-08-01","sourceKey":"way:970101904"}},{"type":"Feature","geometry":{"type":"LineString","coordinates":[[112.664865,22.3216001],[112.665322,22.3216079],[112.6664193,22.3216267],[112.6728405,22.3217365],[112.6742862,22.3217708],[112.6745308,22.3217728],[112.6749804,22.3217624],[112.6757008,22.3217313]]},"properties":{"key":"way:970101905@detail:450_89","osmType":"way","osmId":970101905,"sourceRegion":"guangdong","featureType":"infrastructure","railClass":"minor","mode":"rail","name":"未命名","service":"siding","highspeed":"yes","status":"operational","color":"#52636F","dataOrigin":"datum-2026-08-01","sourceKey":"way:970101905"}},{"type":"Feature","geometry":{"type":"LineString","coordinates":[[112.6599084,22.3216041],[112.6637438,22.3216843],[112.6638803,22.3216815],[112.6640609,22.3216605],[112.6644205,22.3216156],[112.6645601,22.3216057],[112.664683,22.3215987],[112.664865,22.3216001]]},"properties":{"key":"way:970101906@detail:450_89","osmType":"way","osmId":970101906,"sourceRegion":"guangdong","featureType":"infrastructure","railClass":"minor","mode":"rail","name":"未命名","service":"yard","status":"operational","color":"#52636F","dataOrigin":"datum-2026-08-01","sourceKey":"way:970101906"}},{"type":"Feature","geometry":{"type":"LineString","coordinates":[[112.6664193,22.3216267],[112.6657712,22.3215606]]},"properties":{"key":"way:970101907@detail:450_89","osmType":"way","osmId":970101907,"sourceRegion":"guangdong","featureType":"infrastructure","railClass":"minor","mode":"rail","name":"未命名","usage":"main","service":"crossover","highspeed":"yes","status":"operational","color":"#52636F","dataOrigin":"datum-2026-08-01","sourceKey":"way:970101907"}},{"type":"Feature","geometry":{"type":"LineString","coordinates":[[112.6661693,22.3216649],[112.6657342,22.321659],[112.6656245,22.3216507],[112.665322,22.3216079]]},"properties":{"key":"way:970101908@detail:450_89","osmType":"way","osmId":970101908,"sourceRegion":"guangdong","featureType":"infrastructure","railClass":"minor","mode":"rail","name":"未命名","service":"siding","highspeed":"yes","status":"operational","color":"#52636F","dataOrigin":"datum-2026-08-01","sourceKey":"way:970101908"}},{"type":"Feature","geometry":{"type":"LineString","coordinates":[[112.548491,22.2523738],[112.5454106,22.2514003],[112.5431025,22.2506948],[112.541309,22.250009],[112.54128588809455,22.25]]},"properties":{"key":"way:1151272600@detail:450_89","osmType":"way","osmId":1151272600,"sourceRegion":"guangdong","featureType":"infrastructure","railClass":"highspeed","mode":"rail","name":"深湛线","nameEn":"Shenzhen-Zhanjiang Railway","ref":"3071","operator":"中国铁路广州局集团有限公司","usage":"main","highspeed":"yes","status":"operational","color":"#E54848","dataOrigin":"datum-2026-08-01","sourceKey":"way:1151272600"}},{"type":"Feature","geometry":{"type":"LineString","coordinates":[[112.5485051,22.2523312],[112.5454259,22.2513581],[112.5431192,22.250653],[112.54141144916069,22.25]]},"properties":{"key":"way:1151272601@detail:450_89","osmType":"way","osmId":1151272601,"sourceRegion":"guangdong","featureType":"infrastructure","railClass":"highspeed","mode":"rail","name":"深湛线","nameEn":"Shenzhen-Zhanjiang Railway","ref":"3071","operator":"中国铁路广州局集团有限公司","usage":"main","highspeed":"yes","status":"operational","color":"#E54848","dataOrigin":"datum-2026-08-01","sourceKey":"way:1151272601"}},{"type":"Feature","geometry":{"type":"LineString","coordinates":[[112.6593542,22.3214368],[112.6580549,22.3214005],[112.6567436,22.3213111],[112.6549721,22.3211124],[112.6531791,22.3209039],[112.651653,22.3206553],[112.6505572,22.3204132]]},"properties":{"key":"way:1482821146@detail:450_89","osmType":"way","osmId":1482821146,"sourceRegion":"guangdong","featureType":"infrastructure","railClass":"highspeed","mode":"rail","name":"深湛线","nameEn":"Shenzhen-Zhanjiang Railway","ref":"3071","operator":"中国铁路广州局集团有限公司","usage":"main","highspeed":"yes","bridge":"yes","status":"operational","color":"#E54848","dataOrigin":"datum-2026-08-01","sourceKey":"way:1482821146"}},{"type":"Feature","geometry":{"type":"LineString","coordinates":[[112.6593574,22.321392],[112.6580572,22.3213561],[112.6567483,22.3212668],[112.654978,22.3210683],[112.6531863,22.3208599],[112.6516628,22.3206117],[112.6505618,22.3203684]]},"properties":{"key":"way:1482821147@detail:450_89","osmType":"way","osmId":1482821147,"sourceRegion":"guangdong","featureType":"infrastructure","railClass":"highspeed","mode":"rail","name":"深湛线","nameEn":"Shenzhen-Zhanjiang Railway","ref":"3071","operator":"中国铁路广州局集团有限公司","usage":"main","highspeed":"yes","bridge":"yes","status":"operational","color":"#E54848","dataOrigin":"datum-2026-08-01","sourceKey":"way:1482821147"}},{"type":"Feature","geometry":{"type":"LineString","coordinates":[[112.6505618,22.3203684],[112.6504505,22.3203438],[112.6504127,22.3203347],[112.6484656,22.3198674],[112.6468241,22.319381],[112.6454186,22.318984],[112.6441848,22.3185473],[112.6419854,22.3176938],[112.6413891,22.3174226]]},"properties":{"key":"way:1482821148@detail:450_89","osmType":"way","osmId":1482821148,"sourceRegion":"guangdong","featureType":"infrastructure","railClass":"highspeed","mode":"rail","name":"深湛线","nameEn":"Shenzhen-Zhanjiang Railway","ref":"3071","operator":"中国铁路广州局集团有限公司","usage":"main","highspeed":"yes","status":"operational","color":"#E54848","dataOrigin":"datum-2026-08-01","sourceKey":"way:1482821148"}},{"type":"Feature","geometry":{"type":"LineString","coordinates":[[112.6505572,22.3204132],[112.6504389,22.320387],[112.6484522,22.3199101],[112.6468097,22.3194235],[112.645403,22.3190261],[112.6441669,22.3185886],[112.6419655,22.3177343],[112.6413601,22.3174589]]},"properties":{"key":"way:1482821149@detail:450_89","osmType":"way","osmId":1482821149,"sourceRegion":"guangdong","featureType":"infrastructure","railClass":"highspeed","mode":"rail","name":"深湛线","nameEn":"Shenzhen-Zhanjiang Railway","ref":"3071","operator":"中国铁路广州局集团有限公司","usage":"main","highspeed":"yes","status":"operational","color":"#E54848","dataOrigin":"datum-2026-08-01","sourceKey":"way:1482821149"}},{"type":"Feature","geometry":{"type":"LineString","coordinates":[[112.6413891,22.3174226],[112.6406979,22.3171082],[112.6390028,22.3162546],[112.6361918,22.3146864],[112.6305485,22.3114507],[112.627362,22.3096244],[112.6256454,22.3086715],[112.6230383,22.307133],[112.6214826,22.3061305],[112.6207423,22.3056441],[112.6198196,22.3050187],[112.6180708,22.3037383],[112.6169658,22.3028251],[112.6151097,22.3012865],[112.6138102,22.3002834]]},"properties":{"key":"way:1493418075@detail:450_89","osmType":"way","osmId":1493418075,"sourceRegion":"guangdong","featureType":"infrastructure","railClass":"highspeed","mode":"rail","name":"深湛线","nameEn":"Shenzhen-Zhanjiang Railway","ref":"3071","operator":"中国铁路广州局集团有限公司","usage":"main","highspeed":"yes","status":"operational","color":"#E54848","dataOrigin":"datum-2026-08-01","sourceKey":"way:1493418075"}},{"type":"Feature","geometry":{"type":"LineString","coordinates":[[112.6413601,22.3174589],[112.6406758,22.3171477],[112.6389789,22.3162932],[112.6361667,22.3147244],[112.6305232,22.3114885],[112.627337,22.3096624],[112.6256201,22.3087093],[112.6230116,22.30717],[112.6214549,22.3061669],[112.6207142,22.3056802],[112.6197905,22.3050541],[112.6180398,22.3037724],[112.6169337,22.3028583],[112.6150782,22.3013202],[112.6137741,22.3003134]]},"properties":{"key":"way:1493418076@detail:450_89","osmType":"way","osmId":1493418076,"sourceRegion":"guangdong","featureType":"infrastructure","railClass":"highspeed","mode":"rail","name":"深湛线","nameEn":"Shenzhen-Zhanjiang Railway","ref":"3071","operator":"中国铁路广州局集团有限公司","usage":"main","highspeed":"yes","status":"operational","color":"#E54848","dataOrigin":"datum-2026-08-01","sourceKey":"way:1493418076"}},{"type":"Feature","geometry":{"type":"LineString","coordinates":[[112.6138102,22.3002834],[112.6133609,22.2999365],[112.6127325,22.2993814],[112.6122674,22.2989705]]},"properties":{"key":"way:1493418077@detail:450_89","osmType":"way","osmId":1493418077,"sourceRegion":"guangdong","featureType":"infrastructure","railClass":"highspeed","mode":"rail","name":"深湛线","nameEn":"Shenzhen-Zhanjiang Railway","ref":"3071","operator":"中国铁路广州局集团有限公司","usage":"main","highspeed":"yes","bridge":"yes","status":"operational","color":"#E54848","dataOrigin":"datum-2026-08-01","sourceKey":"way:1493418077"}},{"type":"Feature","geometry":{"type":"LineString","coordinates":[[112.6137741,22.3003134],[112.6133289,22.2999697],[112.6122348,22.2990032]]},"properties":{"key":"way:1493418078@detail:450_89","osmType":"way","osmId":1493418078,"sourceRegion":"guangdong","featureType":"infrastructure","railClass":"highspeed","mode":"rail","name":"深湛线","nameEn":"Shenzhen-Zhanjiang Railway","ref":"3071","operator":"中国铁路广州局集团有限公司","usage":"main","highspeed":"yes","bridge":"yes","status":"operational","color":"#E54848","dataOrigin":"datum-2026-08-01","sourceKey":"way:1493418078"}}]}