{"type":"FeatureCollection","features":[{"type":"Feature","geometry":{"type":"Point","coordinates":[112.9011123,22.7327563]},"properties":{"key":"node:11607169592","osmType":"node","osmId":11607169592,"sourceRegion":"guangzhou","featureType":"station","railClass":"station","mode":"station","name":"鹤山西","nameEn":"Heshan West","status":"operational","color":"#126d75","sourceKey":"node:11607169592","stationGroup":"鹤山西","hasOperationalRail":true,"hasConstructionRail":false}},{"type":"Feature","geometry":{"type":"LineString","coordinates":[[112.9552056,22.7202861],[112.953486,22.7214277]]},"properties":{"key":"way:241074019@detail:451_90","osmType":"way","osmId":241074019,"sourceRegion":"guangzhou","featureType":"infrastructure","railClass":"national","mode":"rail","name":"广珠线","nameEn":"Guangzhu Line","ref":"0710","usage":"main","bridge":"yes","status":"operational","color":"#E54848","sourceKey":"way:241074019"}},{"type":"Feature","geometry":{"type":"LineString","coordinates":[[112.9474053,22.7263489],[112.9435081,22.7318579],[112.9409091,22.7355662]]},"properties":{"key":"way:241074023@detail:451_90","osmType":"way","osmId":241074023,"sourceRegion":"guangzhou","featureType":"infrastructure","railClass":"national","mode":"rail","name":"广珠线","nameEn":"Guangzhu Line","ref":"0710","usage":"main","status":"operational","color":"#E54848","sourceKey":"way:241074023"}},{"type":"Feature","geometry":{"type":"LineString","coordinates":[[112.9917333,22.6574748],[112.9916162,22.6579189],[112.990067,22.6622811],[112.9877281,22.6715476],[112.9873857,22.672831]]},"properties":{"key":"way:302473589@detail:451_90","osmType":"way","osmId":302473589,"sourceRegion":"guangzhou","featureType":"infrastructure","railClass":"national","mode":"rail","name":"广珠线","nameEn":"Guangzhu Line","ref":"0710","usage":"main","status":"operational","color":"#E54848","sourceKey":"way:302473589"}},{"type":"Feature","geometry":{"type":"LineString","coordinates":[[112.9936266,22.6489411],[112.993114,22.6512515],[112.9925818,22.6542555],[112.9917333,22.6574748]]},"properties":{"key":"way:302473590@detail:451_90","osmType":"way","osmId":302473590,"sourceRegion":"guangzhou","featureType":"infrastructure","railClass":"national","mode":"rail","name":"广珠线","nameEn":"Guangzhu Line","ref":"0710","usage":"main","bridge":"yes","status":"operational","color":"#E54848","sourceKey":"way:302473590"}},{"type":"Feature","geometry":{"type":"LineString","coordinates":[[112.9771912,22.7034524],[112.9762029,22.7044733],[112.9736132,22.7070576],[112.9724073,22.7082117],[112.9715319,22.7089183],[112.969017,22.7108245],[112.9671628,22.7121761],[112.9659486,22.7130612],[112.9643392,22.7142884],[112.9619188,22.7158659],[112.9582833,22.7182597],[112.9552056,22.7202861]]},"properties":{"key":"way:309829046@detail:451_90","osmType":"way","osmId":309829046,"sourceRegion":"guangzhou","featureType":"infrastructure","railClass":"national","mode":"rail","name":"广珠线","nameEn":"Guangzhu Line","ref":"0710","usage":"main","status":"operational","color":"#E54848","sourceKey":"way:309829046"}},{"type":"Feature","geometry":{"type":"LineString","coordinates":[[112.9775349,22.7031045],[112.9771912,22.7034524]]},"properties":{"key":"way:309829047@detail:451_90","osmType":"way","osmId":309829047,"sourceRegion":"guangzhou","featureType":"infrastructure","railClass":"national","mode":"rail","name":"广珠线","nameEn":"Guangzhu Line","ref":"0710","usage":"main","bridge":"yes","status":"operational","color":"#E54848","sourceKey":"way:309829047"}},{"type":"Feature","geometry":{"type":"LineString","coordinates":[[112.9800992,22.7005094],[112.9775349,22.7031045]]},"properties":{"key":"way:309829048@detail:451_90","osmType":"way","osmId":309829048,"sourceRegion":"guangzhou","featureType":"infrastructure","railClass":"national","mode":"rail","name":"广珠线","nameEn":"Guangzhu Line","ref":"0710","usage":"main","status":"operational","color":"#E54848","sourceKey":"way:309829048"}},{"type":"Feature","geometry":{"type":"LineString","coordinates":[[112.9815889,22.6990219],[112.9800992,22.7005094]]},"properties":{"key":"way:309829049@detail:451_90","osmType":"way","osmId":309829049,"sourceRegion":"guangzhou","featureType":"infrastructure","railClass":"national","mode":"rail","name":"广珠线","nameEn":"Guangzhu Line","ref":"0710","usage":"main","bridge":"yes","status":"operational","color":"#E54848","sourceKey":"way:309829049"}},{"type":"Feature","geometry":{"type":"LineString","coordinates":[[112.9940835,22.6475676],[112.9939035,22.6479621],[112.993764,22.6484162],[112.9936266,22.6489411]]},"properties":{"key":"way:309829050@detail:451_90","osmType":"way","osmId":309829050,"sourceRegion":"guangzhou","featureType":"infrastructure","railClass":"national","mode":"rail","name":"广珠线","nameEn":"Guangzhu Line","ref":"0710","usage":"main","status":"operational","color":"#E54848","sourceKey":"way:309829050"}},{"type":"Feature","geometry":{"type":"LineString","coordinates":[[113.0,22.637490080748083],[112.9987657,22.6390557],[112.9959516,22.6433385],[112.9940835,22.6475676]]},"properties":{"key":"way:309829051@detail:451_90","osmType":"way","osmId":309829051,"sourceRegion":"guangzhou","featureType":"infrastructure","railClass":"national","mode":"rail","name":"广珠线","nameEn":"Guangzhu Line","ref":"0710","usage":"main","tunnel":"yes","status":"operational","color":"#E54848","sourceKey":"way:309829051"}},{"type":"Feature","geometry":{"type":"LineString","coordinates":[[112.9846345,22.683619],[112.9844022,22.6846346],[112.9843347,22.685535],[112.984317,22.6863501],[112.9843581,22.6872334],[112.984452,22.6884816]]},"properties":{"key":"way:309829052@detail:451_90","osmType":"way","osmId":309829052,"sourceRegion":"guangzhou","featureType":"infrastructure","railClass":"national","mode":"rail","name":"广珠线","nameEn":"Guangzhu Line","ref":"0710","usage":"main","bridge":"yes","status":"operational","color":"#E54848","sourceKey":"way:309829052"}},{"type":"Feature","geometry":{"type":"LineString","coordinates":[[112.984452,22.6884816],[112.9846382,22.6908113],[112.9847283,22.6924881],[112.9845095,22.6943549],[112.9840631,22.6956753],[112.9834623,22.6967443],[112.982943,22.6975421],[112.9821105,22.6985062],[112.9815889,22.6990219]]},"properties":{"key":"way:309829053@detail:451_90","osmType":"way","osmId":309829053,"sourceRegion":"guangzhou","featureType":"infrastructure","railClass":"national","mode":"rail","name":"广珠线","nameEn":"Guangzhu Line","ref":"0710","usage":"main","status":"operational","color":"#E54848","sourceKey":"way:309829053"}},{"type":"Feature","geometry":{"type":"LineString","coordinates":[[112.9863504,22.6769202],[112.9860102,22.6782035]]},"properties":{"key":"way:344899078@detail:451_90","osmType":"way","osmId":344899078,"sourceRegion":"guangzhou","featureType":"infrastructure","railClass":"national","mode":"rail","name":"广珠线","nameEn":"Guangzhu Line","ref":"0710","usage":"main","bridge":"yes","status":"operational","color":"#E54848","sourceKey":"way:344899078"}},{"type":"Feature","geometry":{"type":"LineString","coordinates":[[112.9873857,22.672831],[112.9872997,22.6731713]]},"properties":{"key":"way:344899079@detail:451_90","osmType":"way","osmId":344899079,"sourceRegion":"guangzhou","featureType":"infrastructure","railClass":"national","mode":"rail","name":"广珠线","nameEn":"Guangzhu Line","ref":"0710","usage":"main","bridge":"yes","status":"operational","color":"#E54848","sourceKey":"way:344899079"}},{"type":"Feature","geometry":{"type":"LineString","coordinates":[[112.9872997,22.6731713],[112.9866591,22.6757912],[112.9863504,22.6769202]]},"properties":{"key":"way:344899080@detail:451_90","osmType":"way","osmId":344899080,"sourceRegion":"guangzhou","featureType":"infrastructure","railClass":"national","mode":"rail","name":"广珠线","nameEn":"Guangzhu Line","ref":"0710","usage":"main","status":"operational","color":"#E54848","sourceKey":"way:344899080"}},{"type":"Feature","geometry":{"type":"LineString","coordinates":[[112.9860102,22.6782035],[112.9855394,22.6803384],[112.9848062,22.6830692],[112.9846345,22.683619]]},"properties":{"key":"way:344899081@detail:451_90","osmType":"way","osmId":344899081,"sourceRegion":"guangzhou","featureType":"infrastructure","railClass":"national","mode":"rail","name":"广珠线","nameEn":"Guangzhu Line","ref":"0710","usage":"main","status":"operational","color":"#E54848","sourceKey":"way:344899081"}},{"type":"Feature","geometry":{"type":"LineString","coordinates":[[112.9785342,22.7026204],[112.9767787,22.703078],[112.9759312,22.7033849],[112.9747832,22.7040183],[112.9741073,22.7046221],[112.9733777,22.7055326],[112.9726374,22.7068885],[112.9717397,22.708056],[112.9698553,22.7098284],[112.9696136,22.7100557]]},"properties":{"key":"way:684188607@detail:451_90","osmType":"way","osmId":684188607,"sourceRegion":"guangzhou","featureType":"infrastructure","railClass":"construction","mode":"rail","name":"南沙港线","nameEn":"Nanshagang Line","usage":"main","bridge":"viaduct","status":"construction","color":"#52636f","sourceKey":"way:684188607"}},{"type":"Feature","geometry":{"type":"LineString","coordinates":[[112.9941285,22.6475848],[112.9959953,22.6433588],[112.9988063,22.6390806],[113.0,22.637566496072008]]},"properties":{"key":"way:904648357@detail:451_90","osmType":"way","osmId":904648357,"sourceRegion":"guangzhou","featureType":"infrastructure","railClass":"national","mode":"rail","name":"广珠线","nameEn":"Guangzhu Line","ref":"0710","usage":"main","tunnel":"yes","status":"operational","color":"#E54848","sourceKey":"way:904648357"}},{"type":"Feature","geometry":{"type":"LineString","coordinates":[[112.9936742,22.6489509],[112.9938111,22.6484276],[112.9939496,22.647977],[112.9941285,22.6475848]]},"properties":{"key":"way:904648358@detail:451_90","osmType":"way","osmId":904648358,"sourceRegion":"guangzhou","featureType":"infrastructure","railClass":"national","mode":"rail","name":"广珠线","nameEn":"Guangzhu Line","ref":"0710","usage":"main","status":"operational","color":"#E54848","sourceKey":"way:904648358"}},{"type":"Feature","geometry":{"type":"LineString","coordinates":[[112.9917806,22.6574854],[112.9926296,22.6542645],[112.9931619,22.6512596],[112.9936742,22.6489509]]},"properties":{"key":"way:904648359@detail:451_90","osmType":"way","osmId":904648359,"sourceRegion":"guangzhou","featureType":"infrastructure","railClass":"national","mode":"rail","name":"广珠线","nameEn":"Guangzhu Line","ref":"0710","usage":"main","bridge":"yes","status":"operational","color":"#E54848","sourceKey":"way:904648359"}},{"type":"Feature","geometry":{"type":"LineString","coordinates":[[112.9874331,22.6728415],[112.9877755,22.6715581],[112.990114,22.6622932],[112.9916631,22.6579312],[112.9917806,22.6574854]]},"properties":{"key":"way:904648360@detail:451_90","osmType":"way","osmId":904648360,"sourceRegion":"guangzhou","featureType":"infrastructure","railClass":"national","mode":"rail","name":"广珠线","nameEn":"Guangzhu Line","ref":"0710","usage":"main","status":"operational","color":"#E54848","sourceKey":"way:904648360"}},{"type":"Feature","geometry":{"type":"LineString","coordinates":[[112.9873472,22.6731814],[112.9874331,22.6728415]]},"properties":{"key":"way:904648361@detail:451_90","osmType":"way","osmId":904648361,"sourceRegion":"guangzhou","featureType":"infrastructure","railClass":"national","mode":"rail","name":"广珠线","nameEn":"Guangzhu Line","ref":"0710","usage":"main","bridge":"yes","status":"operational","color":"#E54848","sourceKey":"way:904648361"}},{"type":"Feature","geometry":{"type":"LineString","coordinates":[[112.9863977,22.676931],[112.9867065,22.6758016],[112.9873472,22.6731814]]},"properties":{"key":"way:904648362@detail:451_90","osmType":"way","osmId":904648362,"sourceRegion":"guangzhou","featureType":"infrastructure","railClass":"national","mode":"rail","name":"广珠线","nameEn":"Guangzhu Line","ref":"0710","usage":"main","status":"operational","color":"#E54848","sourceKey":"way:904648362"}},{"type":"Feature","geometry":{"type":"LineString","coordinates":[[112.9860578,22.6782133],[112.9863977,22.676931]]},"properties":{"key":"way:904648363@detail:451_90","osmType":"way","osmId":904648363,"sourceRegion":"guangzhou","featureType":"infrastructure","railClass":"national","mode":"rail","name":"广珠线","nameEn":"Guangzhu Line","ref":"0710","usage":"main","bridge":"yes","status":"operational","color":"#E54848","sourceKey":"way:904648363"}},{"type":"Feature","geometry":{"type":"LineString","coordinates":[[112.9846818,22.6836299],[112.9848533,22.6830808],[112.9855869,22.6803483],[112.9860578,22.6782133]]},"properties":{"key":"way:904648364@detail:451_90","osmType":"way","osmId":904648364,"sourceRegion":"guangzhou","featureType":"infrastructure","railClass":"national","mode":"rail","name":"广珠线","nameEn":"Guangzhu Line","ref":"0710","usage":"main","status":"operational","color":"#E54848","sourceKey":"way:904648364"}},{"type":"Feature","geometry":{"type":"LineString","coordinates":[[112.9845006,22.6884784],[112.9844068,22.6872309],[112.9843658,22.6863496],[112.9843834,22.685537],[112.9844506,22.6846408],[112.9846818,22.6836299]]},"properties":{"key":"way:904648365@detail:451_90","osmType":"way","osmId":904648365,"sourceRegion":"guangzhou","featureType":"infrastructure","railClass":"national","mode":"rail","name":"广珠线","nameEn":"Guangzhu Line","ref":"0710","usage":"main","bridge":"yes","status":"operational","color":"#E54848","sourceKey":"way:904648365"}},{"type":"Feature","geometry":{"type":"LineString","coordinates":[[112.9816246,22.6990525],[112.9821474,22.6985356],[112.9829831,22.6975678],[112.9835049,22.6967662],[112.9841083,22.6956925],[112.9845574,22.6943641],[112.9847772,22.6924894],[112.9846868,22.6908085],[112.9845006,22.6884784]]},"properties":{"key":"way:904648366@detail:451_90","osmType":"way","osmId":904648366,"sourceRegion":"guangzhou","featureType":"infrastructure","railClass":"national","mode":"rail","name":"广珠线","nameEn":"Guangzhu Line","ref":"0710","usage":"main","status":"operational","color":"#E54848","sourceKey":"way:904648366"}},{"type":"Feature","geometry":{"type":"LineString","coordinates":[[112.9801351,22.7005398],[112.9816246,22.6990525]]},"properties":{"key":"way:904648367@detail:451_90","osmType":"way","osmId":904648367,"sourceRegion":"guangzhou","featureType":"infrastructure","railClass":"national","mode":"rail","name":"广珠线","nameEn":"Guangzhu Line","ref":"0710","usage":"main","bridge":"yes","status":"operational","color":"#E54848","sourceKey":"way:904648367"}},{"type":"Feature","geometry":{"type":"LineString","coordinates":[[112.9775709,22.7031348],[112.9801351,22.7005398]]},"properties":{"key":"way:904648368@detail:451_90","osmType":"way","osmId":904648368,"sourceRegion":"guangzhou","featureType":"infrastructure","railClass":"national","mode":"rail","name":"广珠线","nameEn":"Guangzhu Line","ref":"0710","usage":"main","status":"operational","color":"#E54848","sourceKey":"way:904648368"}},{"type":"Feature","geometry":{"type":"LineString","coordinates":[[112.9772274,22.7034825],[112.9775709,22.7031348]]},"properties":{"key":"way:904648369@detail:451_90","osmType":"way","osmId":904648369,"sourceRegion":"guangzhou","featureType":"infrastructure","railClass":"national","mode":"rail","name":"广珠线","nameEn":"Guangzhu Line","ref":"0710","usage":"main","bridge":"yes","status":"operational","color":"#E54848","sourceKey":"way:904648369"}},{"type":"Feature","geometry":{"type":"LineString","coordinates":[[112.955234,22.7203226],[112.961947,22.7159025],[112.9643688,22.7143241],[112.9659792,22.7130962],[112.9690476,22.7108595],[112.9715634,22.7089526],[112.9724409,22.7082443],[112.9736486,22.7070885],[112.976239,22.7045035],[112.9772274,22.7034825]]},"properties":{"key":"way:904648370@detail:451_90","osmType":"way","osmId":904648370,"sourceRegion":"guangzhou","featureType":"infrastructure","railClass":"national","mode":"rail","name":"广珠线","nameEn":"Guangzhu Line","ref":"0710","usage":"main","status":"operational","color":"#E54848","sourceKey":"way:904648370"}},{"type":"Feature","geometry":{"type":"LineString","coordinates":[[112.9535144,22.7214643],[112.955234,22.7203226]]},"properties":{"key":"way:904648371@detail:451_90","osmType":"way","osmId":904648371,"sourceRegion":"guangzhou","featureType":"infrastructure","railClass":"national","mode":"rail","name":"广珠线","nameEn":"Guangzhu Line","ref":"0710","usage":"main","bridge":"yes","status":"operational","color":"#E54848","sourceKey":"way:904648371"}},{"type":"Feature","geometry":{"type":"LineString","coordinates":[[112.9409544,22.7355843],[112.943549,22.7318824],[112.9474603,22.7263534]]},"properties":{"key":"way:904648372@detail:451_90","osmType":"way","osmId":904648372,"sourceRegion":"guangzhou","featureType":"infrastructure","railClass":"national","mode":"rail","name":"广珠线","nameEn":"Guangzhu Line","ref":"0710","usage":"main","status":"operational","color":"#E54848","sourceKey":"way:904648372"}},{"type":"Feature","geometry":{"type":"LineString","coordinates":[[112.92792458902053,22.75],[112.9279701,22.7499316],[112.9289111,22.7488073],[112.9300456,22.7477019],[112.9309417,22.7469367],[112.9320932,22.7459215]]},"properties":{"key":"way:940586079@detail:451_90","osmType":"way","osmId":940586079,"sourceRegion":"guangzhou","featureType":"infrastructure","railClass":"national","mode":"rail","name":"广珠线","nameEn":"Guangzhu Line","ref":"0710","usage":"main","bridge":"yes","status":"operational","color":"#E54848","sourceKey":"way:940586079"}},{"type":"Feature","geometry":{"type":"LineString","coordinates":[[112.9324128,22.7460371],[112.9309082,22.7469041],[112.9300113,22.7476699],[112.928874,22.7487781],[112.9279299,22.749906],[112.92786735949936,22.75]]},"properties":{"key":"way:940586080@detail:451_90","osmType":"way","osmId":940586080,"sourceRegion":"guangzhou","featureType":"infrastructure","railClass":"national","mode":"rail","name":"广珠线","nameEn":"Guangzhu Line","ref":"0710","usage":"main","bridge":"yes","status":"operational","color":"#E54848","sourceKey":"way:940586080"}},{"type":"Feature","geometry":{"type":"LineString","coordinates":[[112.9335192,22.7445744],[112.9324128,22.7460371]]},"properties":{"key":"way:940586081@detail:451_90","osmType":"way","osmId":940586081,"sourceRegion":"guangzhou","featureType":"infrastructure","railClass":"national","mode":"rail","name":"广珠线","nameEn":"Guangzhu Line","ref":"0710","usage":"main","status":"operational","color":"#E54848","sourceKey":"way:940586081"}},{"type":"Feature","geometry":{"type":"LineString","coordinates":[[112.9320932,22.7459215],[112.9335884,22.7445821]]},"properties":{"key":"way:940586082@detail:451_90","osmType":"way","osmId":940586082,"sourceRegion":"guangzhou","featureType":"infrastructure","railClass":"national","mode":"rail","name":"广珠线","nameEn":"Guangzhu Line","ref":"0710","usage":"main","status":"operational","color":"#E54848","sourceKey":"way:940586082"}},{"type":"Feature","geometry":{"type":"LineString","coordinates":[[112.934267,22.7439072],[112.9335192,22.7445744]]},"properties":{"key":"way:940586083@detail:451_90","osmType":"way","osmId":940586083,"sourceRegion":"guangzhou","featureType":"infrastructure","railClass":"national","mode":"rail","name":"广珠线","nameEn":"Guangzhu Line","ref":"0710","usage":"main","bridge":"yes","status":"operational","color":"#E54848","sourceKey":"way:940586083"}},{"type":"Feature","geometry":{"type":"LineString","coordinates":[[112.9335884,22.7445821],[112.9342988,22.7439457]]},"properties":{"key":"way:940586084@detail:451_90","osmType":"way","osmId":940586084,"sourceRegion":"guangzhou","featureType":"infrastructure","railClass":"national","mode":"rail","name":"广珠线","nameEn":"Guangzhu Line","ref":"0710","usage":"main","bridge":"yes","status":"operational","color":"#E54848","sourceKey":"way:940586084"}},{"type":"Feature","geometry":{"type":"LineString","coordinates":[[112.9342988,22.7439457],[112.9355439,22.7428032]]},"properties":{"key":"way:940586085@detail:451_90","osmType":"way","osmId":940586085,"sourceRegion":"guangzhou","featureType":"infrastructure","railClass":"national","mode":"rail","name":"广珠线","nameEn":"Guangzhu Line","ref":"0710","usage":"main","status":"operational","color":"#E54848","sourceKey":"way:940586085"}},{"type":"Feature","geometry":{"type":"LineString","coordinates":[[112.9355175,22.7427639],[112.934267,22.7439072]]},"properties":{"key":"way:940586086@detail:451_90","osmType":"way","osmId":940586086,"sourceRegion":"guangzhou","featureType":"infrastructure","railClass":"national","mode":"rail","name":"广珠线","nameEn":"Guangzhu Line","ref":"0710","usage":"main","status":"operational","color":"#E54848","sourceKey":"way:940586086"}},{"type":"Feature","geometry":{"type":"LineString","coordinates":[[112.9360032,22.7423132],[112.9355175,22.7427639]]},"properties":{"key":"way:940586087@detail:451_90","osmType":"way","osmId":940586087,"sourceRegion":"guangzhou","featureType":"infrastructure","railClass":"national","mode":"rail","name":"广珠线","nameEn":"Guangzhu Line","ref":"0710","usage":"main","bridge":"yes","status":"operational","color":"#E54848","sourceKey":"way:940586087"}},{"type":"Feature","geometry":{"type":"LineString","coordinates":[[112.9355439,22.7428032],[112.9360445,22.7423319]]},"properties":{"key":"way:940586088@detail:451_90","osmType":"way","osmId":940586088,"sourceRegion":"guangzhou","featureType":"infrastructure","railClass":"national","mode":"rail","name":"广珠线","nameEn":"Guangzhu Line","ref":"0710","usage":"main","bridge":"yes","status":"operational","color":"#E54848","sourceKey":"way:940586088"}},{"type":"Feature","geometry":{"type":"LineString","coordinates":[[112.9500716,22.7237425],[112.9501693,22.7236596],[112.9535144,22.7214643]]},"properties":{"key":"way:940586105@detail:451_90","osmType":"way","osmId":940586105,"sourceRegion":"guangzhou","featureType":"infrastructure","railClass":"national","mode":"rail","name":"广珠线","nameEn":"Guangzhu Line","ref":"0710","usage":"main","status":"operational","color":"#E54848","sourceKey":"way:940586105"}},{"type":"Feature","geometry":{"type":"LineString","coordinates":[[112.953486,22.7214277],[112.9501386,22.7236246],[112.9500401,22.7237081]]},"properties":{"key":"way:940586106@detail:451_90","osmType":"way","osmId":940586106,"sourceRegion":"guangzhou","featureType":"infrastructure","railClass":"national","mode":"rail","name":"广珠线","nameEn":"Guangzhu Line","ref":"0710","usage":"main","status":"operational","color":"#E54848","sourceKey":"way:940586106"}},{"type":"Feature","geometry":{"type":"LineString","coordinates":[[112.9500401,22.7237081],[112.9499375,22.7237951],[112.9488082,22.7247528],[112.9474563,22.7262768],[112.9474053,22.7263489]]},"properties":{"key":"way:940586107@detail:451_90","osmType":"way","osmId":940586107,"sourceRegion":"guangzhou","featureType":"infrastructure","railClass":"national","mode":"rail","name":"广珠线","nameEn":"Guangzhu Line","ref":"0710","usage":"main","bridge":"yes","status":"operational","color":"#E54848","sourceKey":"way:940586107"}},{"type":"Feature","geometry":{"type":"LineString","coordinates":[[112.9474603,22.7263534],[112.9474957,22.7263034],[112.9488437,22.7247837],[112.9500716,22.7237425]]},"properties":{"key":"way:940586108@detail:451_90","osmType":"way","osmId":940586108,"sourceRegion":"guangzhou","featureType":"infrastructure","railClass":"national","mode":"rail","name":"广珠线","nameEn":"Guangzhu Line","ref":"0710","usage":"main","bridge":"yes","status":"operational","color":"#E54848","sourceKey":"way:940586108"}},{"type":"Feature","geometry":{"type":"LineString","coordinates":[[113.0,22.646686133253073],[112.9990834,22.6474926],[112.9974305,22.648856]]},"properties":{"key":"way:1248726493@detail:451_90","osmType":"way","osmId":1248726493,"sourceRegion":"guangzhou","featureType":"infrastructure","railClass":"construction","mode":"construction","name":"南珠高速线","nameEn":"Nanning-Zhuhai Highspeed Railway","usage":"main","highspeed":"yes","tunnel":"yes","status":"construction","color":"#397F9D","sourceKey":"way:1248726493"}},{"type":"Feature","geometry":{"type":"LineString","coordinates":[[112.9974305,22.648856],[112.9956417,22.6502887],[112.9942717,22.6513229],[112.9926368,22.6524893],[112.9896761,22.6545093]]},"properties":{"key":"way:1248726494@detail:451_90","osmType":"way","osmId":1248726494,"sourceRegion":"guangzhou","featureType":"infrastructure","railClass":"construction","mode":"construction","name":"南珠高速线","nameEn":"Nanning-Zhuhai Highspeed Railway","usage":"main","highspeed":"yes","bridge":"yes","status":"construction","color":"#397F9D","sourceKey":"way:1248726494"}},{"type":"Feature","geometry":{"type":"LineString","coordinates":[[112.9890861,22.6549118],[112.9830349,22.6591256]]},"properties":{"key":"way:1248726495@detail:451_90","osmType":"way","osmId":1248726495,"sourceRegion":"guangzhou","featureType":"infrastructure","railClass":"construction","mode":"construction","name":"南珠高速线","nameEn":"Nanning-Zhuhai Highspeed Railway","usage":"main","highspeed":"yes","bridge":"yes","status":"construction","color":"#397F9D","sourceKey":"way:1248726495"}},{"type":"Feature","geometry":{"type":"LineString","coordinates":[[112.9830349,22.6591256],[112.981326,22.6604094]]},"properties":{"key":"way:1248726497@detail:451_90","osmType":"way","osmId":1248726497,"sourceRegion":"guangzhou","featureType":"infrastructure","railClass":"construction","mode":"construction","name":"南珠高速线","nameEn":"Nanning-Zhuhai Highspeed Railway","usage":"main","highspeed":"yes","status":"construction","color":"#397F9D","sourceKey":"way:1248726497"}},{"type":"Feature","geometry":{"type":"LineString","coordinates":[[112.9784593,22.6627185],[112.9774574,22.6636053]]},"properties":{"key":"way:1248726498@detail:451_90","osmType":"way","osmId":1248726498,"sourceRegion":"guangzhou","featureType":"infrastructure","railClass":"construction","mode":"construction","name":"南珠高速线","nameEn":"Nanning-Zhuhai Highspeed Railway","usage":"main","highspeed":"yes","tunnel":"yes","status":"construction","color":"#397F9D","sourceKey":"way:1248726498"}},{"type":"Feature","geometry":{"type":"LineString","coordinates":[[112.981326,22.6604094],[112.9794256,22.6619327]]},"properties":{"key":"way:1248735893@detail:451_90","osmType":"way","osmId":1248735893,"sourceRegion":"guangzhou","featureType":"infrastructure","railClass":"construction","mode":"construction","name":"南珠高速线","nameEn":"Nanning-Zhuhai Highspeed Railway","usage":"main","highspeed":"yes","bridge":"yes","status":"construction","color":"#397F9D","sourceKey":"way:1248735893"}},{"type":"Feature","geometry":{"type":"LineString","coordinates":[[112.9794256,22.6619327],[112.9784593,22.6627185]]},"properties":{"key":"way:1248735894@detail:451_90","osmType":"way","osmId":1248735894,"sourceRegion":"guangzhou","featureType":"infrastructure","railClass":"construction","mode":"construction","name":"南珠高速线","nameEn":"Nanning-Zhuhai Highspeed Railway","usage":"main","highspeed":"yes","status":"construction","color":"#397F9D","sourceKey":"way:1248735894"}},{"type":"Feature","geometry":{"type":"LineString","coordinates":[[112.9084914,22.7276683],[112.8920512,22.7396826],[112.8899437,22.7410966],[112.87548543332065,22.75]]},"properties":{"key":"way:1248735895@detail:451_90","osmType":"way","osmId":1248735895,"sourceRegion":"guangzhou","featureType":"infrastructure","railClass":"construction","mode":"construction","name":"南珠高速线","nameEn":"Nanning-Zhuhai Highspeed Railway","usage":"main","highspeed":"yes","status":"construction","color":"#397F9D","sourceKey":"way:1248735895"}},{"type":"Feature","geometry":{"type":"LineString","coordinates":[[112.9690476,22.7108595],[112.9712748,22.7094618]]},"properties":{"key":"way:1252192291@detail:451_90","osmType":"way","osmId":1252192291,"sourceRegion":"guangzhou","featureType":"infrastructure","railClass":"construction","mode":"rail","name":"南沙港线","nameEn":"Nanshagang Line","usage":"main","status":"construction","color":"#52636f","sourceKey":"way:1252192291"}},{"type":"Feature","geometry":{"type":"LineString","coordinates":[[112.9696136,22.7100557],[112.9680586,22.7113069],[112.96705,22.7121763],[112.96642,22.7126482],[112.9643204,22.7142207],[112.9629046,22.7151459],[112.9598495,22.7171517],[112.9590059,22.7177128],[112.9585837,22.7179936],[112.9582839,22.7181804],[112.9577529,22.7185243]]},"properties":{"key":"way:1252192292@detail:451_90","osmType":"way","osmId":1252192292,"sourceRegion":"guangzhou","featureType":"infrastructure","railClass":"construction","mode":"rail","name":"南沙港线","nameEn":"Nanshagang Line","usage":"main","status":"construction","color":"#52636f","sourceKey":"way:1252192292"}},{"type":"Feature","geometry":{"type":"LineString","coordinates":[[112.9590059,22.7177128],[112.9582833,22.7182597]]},"properties":{"key":"way:1252192293@detail:451_90","osmType":"way","osmId":1252192293,"sourceRegion":"guangzhou","featureType":"infrastructure","railClass":"national","mode":"rail","name":"未命名","usage":"main","service":"crossover","status":"operational","color":"#E54848","sourceKey":"way:1252192293"}},{"type":"Feature","geometry":{"type":"LineString","coordinates":[[112.96642,22.7126482],[112.9671628,22.7121761]]},"properties":{"key":"way:1252192294@detail:451_90","osmType":"way","osmId":1252192294,"sourceRegion":"guangzhou","featureType":"infrastructure","railClass":"national","mode":"rail","name":"未命名","usage":"main","service":"crossover","status":"operational","color":"#E54848","sourceKey":"way:1252192294"}},{"type":"Feature","geometry":{"type":"LineString","coordinates":[[112.9936445,22.6987627],[112.9942421,22.6984778],[112.9948182,22.6981252],[112.9969919,22.6965644],[112.9980823,22.6959091],[112.9992116,22.6953324],[112.9997116,22.6951451],[113.0,22.695070015766195]]},"properties":{"key":"way:1290408712@detail:451_90","osmType":"way","osmId":1290408712,"sourceRegion":"guangzhou","featureType":"infrastructure","railClass":"construction","mode":"rail","name":"南沙港线","nameEn":"Nanshagang Line","usage":"main","bridge":"yes","status":"construction","color":"#52636f","sourceKey":"way:1290408712"}},{"type":"Feature","geometry":{"type":"LineString","coordinates":[[112.9936316,22.6987331],[112.9943117,22.6983779],[112.9949555,22.6979622],[112.9969639,22.6965131],[112.9985475,22.6956184],[112.9991569,22.6953095],[112.9996118,22.6951314],[113.0,22.69501422987805]]},"properties":{"key":"way:1290408741@detail:451_90","osmType":"way","osmId":1290408741,"sourceRegion":"guangzhou","featureType":"infrastructure","railClass":"construction","mode":"rail","name":"南沙港线","nameEn":"Nanshagang Line","usage":"main","bridge":"yes","status":"construction","color":"#52636f","sourceKey":"way:1290408741"}},{"type":"Feature","geometry":{"type":"LineString","coordinates":[[112.9793841,22.7024236],[112.9795825,22.7023846],[112.9801842,22.7022466],[112.9807241,22.7020096],[112.9834593,22.7006534],[112.9841196,22.7003803],[112.9851854,22.7000294],[112.9860823,22.6998433],[112.9869857,22.6997463],[112.9891444,22.6995917],[112.9907907,22.6994135],[112.9908308,22.6994095]]},"properties":{"key":"way:1290408745@detail:451_90","osmType":"way","osmId":1290408745,"sourceRegion":"guangzhou","featureType":"infrastructure","railClass":"construction","mode":"rail","name":"南沙港线","nameEn":"Nanshagang Line","usage":"main","bridge":"yes","status":"construction","color":"#52636f","sourceKey":"way:1290408745"}},{"type":"Feature","geometry":{"type":"LineString","coordinates":[[112.9794352,22.7026188],[112.9807704,22.7020397],[112.9821432,22.7013757],[112.9830467,22.7009368],[112.98353,22.7006891],[112.9841109,22.7004354],[112.985218,22.7000593],[112.9860845,22.6998858],[112.9868102,22.6997959],[112.9891402,22.6996247],[112.990836,22.6994521]]},"properties":{"key":"way:1290408746@detail:451_90","osmType":"way","osmId":1290408746,"sourceRegion":"guangzhou","featureType":"infrastructure","railClass":"construction","mode":"rail","name":"南沙港线","nameEn":"Nanshagang Line","usage":"main","bridge":"viaduct","status":"construction","color":"#52636f","sourceKey":"way:1290408746"}},{"type":"Feature","geometry":{"type":"LineString","coordinates":[[112.990836,22.6994521],[112.9910075,22.6994346],[112.9915703,22.6993527],[112.991939,22.6992867],[112.9921663,22.6992292]]},"properties":{"key":"way:1290408747@detail:451_90","osmType":"way","osmId":1290408747,"sourceRegion":"guangzhou","featureType":"infrastructure","railClass":"construction","mode":"rail","name":"南沙港线","nameEn":"Nanshagang Line","usage":"main","status":"construction","color":"#52636f","sourceKey":"way:1290408747"}},{"type":"Feature","geometry":{"type":"LineString","coordinates":[[112.9908308,22.6994095],[112.9910406,22.6993833],[112.9914065,22.6993375],[112.9920017,22.699234],[112.9921505,22.6991953]]},"properties":{"key":"way:1290408748@detail:451_90","osmType":"way","osmId":1290408748,"sourceRegion":"guangzhou","featureType":"infrastructure","railClass":"construction","mode":"rail","name":"南沙港线","nameEn":"Nanshagang Line","usage":"main","status":"construction","color":"#52636f","sourceKey":"way:1290408748"}},{"type":"Feature","geometry":{"type":"LineString","coordinates":[[112.9921505,22.6991953],[112.9926993,22.6990524]]},"properties":{"key":"way:1290408749@detail:451_90","osmType":"way","osmId":1290408749,"sourceRegion":"guangzhou","featureType":"infrastructure","railClass":"construction","mode":"rail","name":"南沙港线","nameEn":"Nanshagang Line","usage":"main","bridge":"yes","status":"construction","color":"#52636f","sourceKey":"way:1290408749"}},{"type":"Feature","geometry":{"type":"LineString","coordinates":[[112.9921663,22.6992292],[112.9927234,22.6990884]]},"properties":{"key":"way:1290408750@detail:451_90","osmType":"way","osmId":1290408750,"sourceRegion":"guangzhou","featureType":"infrastructure","railClass":"construction","mode":"rail","name":"南沙港线","nameEn":"Nanshagang Line","usage":"main","bridge":"yes","status":"construction","color":"#52636f","sourceKey":"way:1290408750"}},{"type":"Feature","geometry":{"type":"LineString","coordinates":[[112.9927234,22.6990884],[112.9930433,22.6989898],[112.9933172,22.6989054],[112.9936445,22.6987627]]},"properties":{"key":"way:1290408751@detail:451_90","osmType":"way","osmId":1290408751,"sourceRegion":"guangzhou","featureType":"infrastructure","railClass":"construction","mode":"rail","name":"南沙港线","nameEn":"Nanshagang Line","usage":"main","status":"construction","color":"#52636f","sourceKey":"way:1290408751"}},{"type":"Feature","geometry":{"type":"LineString","coordinates":[[112.9926993,22.6990524],[112.9932838,22.6988714],[112.9936316,22.6987331]]},"properties":{"key":"way:1290408752@detail:451_90","osmType":"way","osmId":1290408752,"sourceRegion":"guangzhou","featureType":"infrastructure","railClass":"construction","mode":"rail","name":"南沙港线","nameEn":"Nanshagang Line","usage":"main","status":"construction","color":"#52636f","sourceKey":"way:1290408752"}},{"type":"Feature","geometry":{"type":"LineString","coordinates":[[112.9712748,22.7094618],[112.9723048,22.7087294],[112.9739356,22.7071756],[112.9756844,22.7054534],[112.977004,22.7042262],[112.9784755,22.7031497]]},"properties":{"key":"way:1290408753@detail:451_90","osmType":"way","osmId":1290408753,"sourceRegion":"guangzhou","featureType":"infrastructure","railClass":"construction","mode":"rail","name":"南沙港线","nameEn":"Nanshagang Line","usage":"main","bridge":"viaduct","status":"construction","color":"#52636f","sourceKey":"way:1290408753"}},{"type":"Feature","geometry":{"type":"LineString","coordinates":[[112.9784755,22.7031497],[112.9789951,22.7028498],[112.9794352,22.7026188]]},"properties":{"key":"way:1290408754@detail:451_90","osmType":"way","osmId":1290408754,"sourceRegion":"guangzhou","featureType":"infrastructure","railClass":"construction","mode":"rail","name":"南沙港线","nameEn":"Nanshagang Line","usage":"main","status":"construction","color":"#52636f","sourceKey":"way:1290408754"}},{"type":"Feature","geometry":{"type":"LineString","coordinates":[[112.9785342,22.7026204],[112.9793841,22.7024236]]},"properties":{"key":"way:1290408755@detail:451_90","osmType":"way","osmId":1290408755,"sourceRegion":"guangzhou","featureType":"infrastructure","railClass":"construction","mode":"rail","name":"南沙港线","nameEn":"Nanshagang Line","usage":"main","status":"construction","color":"#52636f","sourceKey":"way:1290408755"}},{"type":"Feature","geometry":{"type":"LineString","coordinates":[[112.940479,22.7361508],[112.9384827,22.739028],[112.9366846,22.7414957],[112.9360032,22.7423132]]},"properties":{"key":"way:1359859159@detail:451_90","osmType":"way","osmId":1359859159,"sourceRegion":"guangzhou","featureType":"infrastructure","railClass":"national","mode":"rail","name":"广珠线","nameEn":"Guangzhu Line","ref":"0710","usage":"main","status":"operational","color":"#E54848","sourceKey":"way:1359859159"}},{"type":"Feature","geometry":{"type":"LineString","coordinates":[[112.9409091,22.7355662],[112.940479,22.7361508]]},"properties":{"key":"way:1359859160@detail:451_90","osmType":"way","osmId":1359859160,"sourceRegion":"guangzhou","featureType":"infrastructure","railClass":"national","mode":"rail","name":"广珠线","nameEn":"Guangzhu Line","ref":"0710","usage":"main","bridge":"yes","status":"operational","color":"#E54848","sourceKey":"way:1359859160"}},{"type":"Feature","geometry":{"type":"LineString","coordinates":[[112.9360445,22.7423319],[112.9367236,22.7415227],[112.9385234,22.7390527],[112.940516,22.7361724]]},"properties":{"key":"way:1359859161@detail:451_90","osmType":"way","osmId":1359859161,"sourceRegion":"guangzhou","featureType":"infrastructure","railClass":"national","mode":"rail","name":"广珠线","nameEn":"Guangzhu Line","ref":"0710","usage":"main","status":"operational","color":"#E54848","sourceKey":"way:1359859161"}},{"type":"Feature","geometry":{"type":"LineString","coordinates":[[112.940516,22.7361724],[112.9409544,22.7355843]]},"properties":{"key":"way:1359859162@detail:451_90","osmType":"way","osmId":1359859162,"sourceRegion":"guangzhou","featureType":"infrastructure","railClass":"national","mode":"rail","name":"广珠线","nameEn":"Guangzhu Line","ref":"0710","usage":"main","bridge":"yes","status":"operational","color":"#E54848","sourceKey":"way:1359859162"}},{"type":"Feature","geometry":{"type":"LineString","coordinates":[[112.9774574,22.6636053],[112.9748557,22.6659625]]},"properties":{"key":"way:1429231002@detail:451_90","osmType":"way","osmId":1429231002,"sourceRegion":"guangzhou","featureType":"infrastructure","railClass":"construction","mode":"construction","name":"南珠高速线","nameEn":"Nanning-Zhuhai Highspeed Railway","usage":"main","highspeed":"yes","bridge":"yes","status":"construction","color":"#397F9D","sourceKey":"way:1429231002"}},{"type":"Feature","geometry":{"type":"LineString","coordinates":[[112.9225293,22.7170518],[112.9214753,22.7179259],[112.9202389,22.7189074],[112.9190334,22.7198549],[112.9084914,22.7276683]]},"properties":{"key":"way:1429231003@detail:451_90","osmType":"way","osmId":1429231003,"sourceRegion":"guangzhou","featureType":"infrastructure","railClass":"construction","mode":"construction","name":"南珠高速线","nameEn":"Nanning-Zhuhai Highspeed Railway","usage":"main","highspeed":"yes","bridge":"yes","status":"construction","color":"#397F9D","sourceKey":"way:1429231003"}},{"type":"Feature","geometry":{"type":"LineString","coordinates":[[112.9241828,22.7156101],[112.9225293,22.7170518]]},"properties":{"key":"way:1429231004@detail:451_90","osmType":"way","osmId":1429231004,"sourceRegion":"guangzhou","featureType":"infrastructure","railClass":"construction","mode":"construction","name":"南珠高速线","nameEn":"Nanning-Zhuhai Highspeed Railway","usage":"main","highspeed":"yes","status":"construction","color":"#397F9D","sourceKey":"way:1429231004"}},{"type":"Feature","geometry":{"type":"LineString","coordinates":[[112.9282423,22.7117888],[112.9269459,22.7130745],[112.9254027,22.7145209],[112.9241828,22.7156101]]},"properties":{"key":"way:1429231005@detail:451_90","osmType":"way","osmId":1429231005,"sourceRegion":"guangzhou","featureType":"infrastructure","railClass":"construction","mode":"construction","name":"南珠高速线","nameEn":"Nanning-Zhuhai Highspeed Railway","usage":"main","highspeed":"yes","bridge":"yes","status":"construction","color":"#397F9D","sourceKey":"way:1429231005"}},{"type":"Feature","geometry":{"type":"LineString","coordinates":[[112.9390585,22.7005624],[112.9313514,22.7085663]]},"properties":{"key":"way:1429231006@detail:451_90","osmType":"way","osmId":1429231006,"sourceRegion":"guangzhou","featureType":"infrastructure","railClass":"construction","mode":"construction","name":"南珠高速线","nameEn":"Nanning-Zhuhai Highspeed Railway","usage":"main","highspeed":"yes","tunnel":"yes","status":"construction","color":"#397F9D","sourceKey":"way:1429231006"}},{"type":"Feature","geometry":{"type":"LineString","coordinates":[[112.9313514,22.7085663],[112.9303019,22.7096542]]},"properties":{"key":"way:1429231007@detail:451_90","osmType":"way","osmId":1429231007,"sourceRegion":"guangzhou","featureType":"infrastructure","railClass":"construction","mode":"construction","name":"南珠高速线","nameEn":"Nanning-Zhuhai Highspeed Railway","usage":"main","highspeed":"yes","status":"construction","color":"#397F9D","sourceKey":"way:1429231007"}},{"type":"Feature","geometry":{"type":"LineString","coordinates":[[112.9294221,22.710566],[112.9282423,22.7117888]]},"properties":{"key":"way:1491419581@detail:451_90","osmType":"way","osmId":1491419581,"sourceRegion":"guangzhou","featureType":"infrastructure","railClass":"construction","mode":"construction","name":"南珠高速线","nameEn":"Nanning-Zhuhai Highspeed Railway","usage":"main","highspeed":"yes","status":"construction","color":"#397F9D","sourceKey":"way:1491419581"}},{"type":"Feature","geometry":{"type":"LineString","coordinates":[[112.9303019,22.7096542],[112.9294221,22.710566]]},"properties":{"key":"way:1491419582@detail:451_90","osmType":"way","osmId":1491419582,"sourceRegion":"guangzhou","featureType":"infrastructure","railClass":"construction","mode":"construction","name":"南珠高速线","nameEn":"Nanning-Zhuhai Highspeed Railway","usage":"main","highspeed":"yes","bridge":"yes","status":"construction","color":"#397F9D","sourceKey":"way:1491419582"}},{"type":"Feature","geometry":{"type":"LineString","coordinates":[[112.9399519,22.6996314],[112.9390585,22.7005624]]},"properties":{"key":"way:1491419583@detail:451_90","osmType":"way","osmId":1491419583,"sourceRegion":"guangzhou","featureType":"infrastructure","railClass":"construction","mode":"construction","name":"南珠高速线","nameEn":"Nanning-Zhuhai Highspeed Railway","usage":"main","highspeed":"yes","status":"construction","color":"#397F9D","sourceKey":"way:1491419583"}},{"type":"Feature","geometry":{"type":"LineString","coordinates":[[112.9410292,22.6985087],[112.9399519,22.6996314]]},"properties":{"key":"way:1491419584@detail:451_90","osmType":"way","osmId":1491419584,"sourceRegion":"guangzhou","featureType":"infrastructure","railClass":"construction","mode":"construction","name":"南珠高速线","nameEn":"Nanning-Zhuhai Highspeed Railway","usage":"main","highspeed":"yes","tunnel":"yes","status":"construction","color":"#397F9D","sourceKey":"way:1491419584"}},{"type":"Feature","geometry":{"type":"LineString","coordinates":[[112.9415801,22.6979346],[112.9410292,22.6985087]]},"properties":{"key":"way:1491419585@detail:451_90","osmType":"way","osmId":1491419585,"sourceRegion":"guangzhou","featureType":"infrastructure","railClass":"construction","mode":"construction","name":"南珠高速线","nameEn":"Nanning-Zhuhai Highspeed Railway","usage":"main","highspeed":"yes","bridge":"yes","status":"construction","color":"#397F9D","sourceKey":"way:1491419585"}},{"type":"Feature","geometry":{"type":"LineString","coordinates":[[112.942267,22.6972187],[112.9415801,22.6979346]]},"properties":{"key":"way:1491419586@detail:451_90","osmType":"way","osmId":1491419586,"sourceRegion":"guangzhou","featureType":"infrastructure","railClass":"construction","mode":"construction","name":"南珠高速线","nameEn":"Nanning-Zhuhai Highspeed Railway","usage":"main","highspeed":"yes","status":"construction","color":"#397F9D","sourceKey":"way:1491419586"}},{"type":"Feature","geometry":{"type":"LineString","coordinates":[[112.9430266,22.6964271],[112.942267,22.6972187]]},"properties":{"key":"way:1491419587@detail:451_90","osmType":"way","osmId":1491419587,"sourceRegion":"guangzhou","featureType":"infrastructure","railClass":"construction","mode":"construction","name":"南珠高速线","nameEn":"Nanning-Zhuhai Highspeed Railway","usage":"main","highspeed":"yes","bridge":"yes","status":"construction","color":"#397F9D","sourceKey":"way:1491419587"}},{"type":"Feature","geometry":{"type":"LineString","coordinates":[[112.9441829,22.6952221],[112.9430266,22.6964271]]},"properties":{"key":"way:1491419588@detail:451_90","osmType":"way","osmId":1491419588,"sourceRegion":"guangzhou","featureType":"infrastructure","railClass":"construction","mode":"construction","name":"南珠高速线","nameEn":"Nanning-Zhuhai Highspeed Railway","usage":"main","highspeed":"yes","status":"construction","color":"#397F9D","sourceKey":"way:1491419588"}},{"type":"Feature","geometry":{"type":"LineString","coordinates":[[112.9482591,22.6909739],[112.9441829,22.6952221]]},"properties":{"key":"way:1491419589@detail:451_90","osmType":"way","osmId":1491419589,"sourceRegion":"guangzhou","featureType":"infrastructure","railClass":"construction","mode":"construction","name":"南珠高速线","nameEn":"Nanning-Zhuhai Highspeed Railway","usage":"main","highspeed":"yes","bridge":"yes","status":"construction","color":"#397F9D","sourceKey":"way:1491419589"}},{"type":"Feature","geometry":{"type":"LineString","coordinates":[[112.949631,22.6895441],[112.9482591,22.6909739]]},"properties":{"key":"way:1491419590@detail:451_90","osmType":"way","osmId":1491419590,"sourceRegion":"guangzhou","featureType":"infrastructure","railClass":"construction","mode":"construction","name":"南珠高速线","nameEn":"Nanning-Zhuhai Highspeed Railway","usage":"main","highspeed":"yes","status":"construction","color":"#397F9D","sourceKey":"way:1491419590"}},{"type":"Feature","geometry":{"type":"LineString","coordinates":[[112.9520406,22.6870329],[112.949631,22.6895441]]},"properties":{"key":"way:1491419591@detail:451_90","osmType":"way","osmId":1491419591,"sourceRegion":"guangzhou","featureType":"infrastructure","railClass":"construction","mode":"construction","name":"南珠高速线","nameEn":"Nanning-Zhuhai Highspeed Railway","usage":"main","highspeed":"yes","tunnel":"yes","status":"construction","color":"#397F9D","sourceKey":"way:1491419591"}},{"type":"Feature","geometry":{"type":"LineString","coordinates":[[112.9528277,22.6862367],[112.9520406,22.6870329]]},"properties":{"key":"way:1491419592@detail:451_90","osmType":"way","osmId":1491419592,"sourceRegion":"guangzhou","featureType":"infrastructure","railClass":"construction","mode":"construction","name":"南珠高速线","nameEn":"Nanning-Zhuhai Highspeed Railway","usage":"main","highspeed":"yes","status":"construction","color":"#397F9D","sourceKey":"way:1491419592"}},{"type":"Feature","geometry":{"type":"LineString","coordinates":[[112.9539208,22.685131],[112.9528277,22.6862367]]},"properties":{"key":"way:1491419593@detail:451_90","osmType":"way","osmId":1491419593,"sourceRegion":"guangzhou","featureType":"infrastructure","railClass":"construction","mode":"construction","name":"南珠高速线","nameEn":"Nanning-Zhuhai Highspeed Railway","usage":"main","highspeed":"yes","bridge":"yes","status":"construction","color":"#397F9D","sourceKey":"way:1491419593"}},{"type":"Feature","geometry":{"type":"LineString","coordinates":[[112.9593064,22.6800657],[112.9539208,22.685131]]},"properties":{"key":"way:1491419594@detail:451_90","osmType":"way","osmId":1491419594,"sourceRegion":"guangzhou","featureType":"infrastructure","railClass":"construction","mode":"construction","name":"南珠高速线","nameEn":"Nanning-Zhuhai Highspeed Railway","usage":"main","highspeed":"yes","tunnel":"yes","status":"construction","color":"#397F9D","sourceKey":"way:1491419594"}},{"type":"Feature","geometry":{"type":"LineString","coordinates":[[112.9605913,22.6788855],[112.9593064,22.6800657]]},"properties":{"key":"way:1491419595@detail:451_90","osmType":"way","osmId":1491419595,"sourceRegion":"guangzhou","featureType":"infrastructure","railClass":"construction","mode":"construction","name":"南珠高速线","nameEn":"Nanning-Zhuhai Highspeed Railway","usage":"main","highspeed":"yes","bridge":"yes","status":"construction","color":"#397F9D","sourceKey":"way:1491419595"}},{"type":"Feature","geometry":{"type":"LineString","coordinates":[[112.962655,22.6770159],[112.9605913,22.6788855]]},"properties":{"key":"way:1491419596@detail:451_90","osmType":"way","osmId":1491419596,"sourceRegion":"guangzhou","featureType":"infrastructure","railClass":"construction","mode":"construction","name":"南珠高速线","nameEn":"Nanning-Zhuhai Highspeed Railway","usage":"main","highspeed":"yes","status":"construction","color":"#397F9D","sourceKey":"way:1491419596"}},{"type":"Feature","geometry":{"type":"LineString","coordinates":[[112.9638396,22.6759428],[112.962655,22.6770159]]},"properties":{"key":"way:1491419597@detail:451_90","osmType":"way","osmId":1491419597,"sourceRegion":"guangzhou","featureType":"infrastructure","railClass":"construction","mode":"construction","name":"南珠高速线","nameEn":"Nanning-Zhuhai Highspeed Railway","usage":"main","highspeed":"yes","bridge":"yes","status":"construction","color":"#397F9D","sourceKey":"way:1491419597"}},{"type":"Feature","geometry":{"type":"LineString","coordinates":[[112.9659852,22.673999],[112.9638396,22.6759428]]},"properties":{"key":"way:1491419598@detail:451_90","osmType":"way","osmId":1491419598,"sourceRegion":"guangzhou","featureType":"infrastructure","railClass":"construction","mode":"construction","name":"南珠高速线","nameEn":"Nanning-Zhuhai Highspeed Railway","usage":"main","highspeed":"yes","status":"construction","color":"#397F9D","sourceKey":"way:1491419598"}},{"type":"Feature","geometry":{"type":"LineString","coordinates":[[112.9694551,22.6708554],[112.9659852,22.673999]]},"properties":{"key":"way:1491419599@detail:451_90","osmType":"way","osmId":1491419599,"sourceRegion":"guangzhou","featureType":"infrastructure","railClass":"construction","mode":"construction","name":"南珠高速线","nameEn":"Nanning-Zhuhai Highspeed Railway","usage":"main","highspeed":"yes","bridge":"yes","status":"construction","color":"#397F9D","sourceKey":"way:1491419599"}},{"type":"Feature","geometry":{"type":"LineString","coordinates":[[112.9706956,22.6697314],[112.9694551,22.6708554]]},"properties":{"key":"way:1491419600@detail:451_90","osmType":"way","osmId":1491419600,"sourceRegion":"guangzhou","featureType":"infrastructure","railClass":"construction","mode":"construction","name":"南珠高速线","nameEn":"Nanning-Zhuhai Highspeed Railway","usage":"main","highspeed":"yes","status":"construction","color":"#397F9D","sourceKey":"way:1491419600"}},{"type":"Feature","geometry":{"type":"LineString","coordinates":[[112.9721134,22.668447],[112.9706956,22.6697314]]},"properties":{"key":"way:1491419601@detail:451_90","osmType":"way","osmId":1491419601,"sourceRegion":"guangzhou","featureType":"infrastructure","railClass":"construction","mode":"construction","name":"南珠高速线","nameEn":"Nanning-Zhuhai Highspeed Railway","usage":"main","highspeed":"yes","bridge":"yes","status":"construction","color":"#397F9D","sourceKey":"way:1491419601"}},{"type":"Feature","geometry":{"type":"LineString","coordinates":[[112.972729,22.6678892],[112.9721134,22.668447]]},"properties":{"key":"way:1491419602@detail:451_90","osmType":"way","osmId":1491419602,"sourceRegion":"guangzhou","featureType":"infrastructure","railClass":"construction","mode":"construction","name":"南珠高速线","nameEn":"Nanning-Zhuhai Highspeed Railway","usage":"main","highspeed":"yes","status":"construction","color":"#397F9D","sourceKey":"way:1491419602"}},{"type":"Feature","geometry":{"type":"LineString","coordinates":[[112.9745324,22.6662553],[112.972729,22.6678892]]},"properties":{"key":"way:1491419603@detail:451_90","osmType":"way","osmId":1491419603,"sourceRegion":"guangzhou","featureType":"infrastructure","railClass":"construction","mode":"construction","name":"南珠高速线","nameEn":"Nanning-Zhuhai Highspeed Railway","usage":"main","highspeed":"yes","bridge":"yes","status":"construction","color":"#397F9D","sourceKey":"way:1491419603"}},{"type":"Feature","geometry":{"type":"LineString","coordinates":[[112.9748557,22.6659625],[112.9745324,22.6662553]]},"properties":{"key":"way:1491419604@detail:451_90","osmType":"way","osmId":1491419604,"sourceRegion":"guangzhou","featureType":"infrastructure","railClass":"construction","mode":"construction","name":"南珠高速线","nameEn":"Nanning-Zhuhai Highspeed Railway","usage":"main","highspeed":"yes","status":"construction","color":"#397F9D","sourceKey":"way:1491419604"}},{"type":"Feature","geometry":{"type":"LineString","coordinates":[[112.9896761,22.6545093],[112.9890861,22.6549118]]},"properties":{"key":"way:1491419605@detail:451_90","osmType":"way","osmId":1491419605,"sourceRegion":"guangzhou","featureType":"infrastructure","railClass":"construction","mode":"construction","name":"南珠高速线","nameEn":"Nanning-Zhuhai Highspeed Railway","usage":"main","highspeed":"yes","status":"construction","color":"#397F9D","sourceKey":"way:1491419605"}}]}