{"type":"FeatureCollection","features":[{"type":"Feature","geometry":{"type":"Point","coordinates":[112.8103423,22.3021203]},"properties":{"key":"node:5485730430","osmType":"node","osmId":5485730430,"sourceRegion":"guangdong","featureType":"station","railClass":"minor","mode":"station","name":"台山","nameEn":"Taishan","status":"operational","color":"#52636F","dataOrigin":"datum-2026-08-01","sourceKey":"node:5485730430","stationGroup":"台山","hasOperationalRail":true,"hasConstructionRail":false}},{"type":"Feature","geometry":{"type":"Point","coordinates":[112.9515121,22.4283501]},"properties":{"key":"node:7114221876","osmType":"node","osmId":7114221876,"sourceRegion":"guangdong","featureType":"station","railClass":"minor","mode":"station","name":"双水镇","status":"operational","color":"#52636F","dataOrigin":"datum-2026-08-01","sourceKey":"node:7114221876","stationGroup":"双水镇","hasOperationalRail":true,"hasConstructionRail":false}},{"type":"Feature","geometry":{"type":"LineString","coordinates":[[112.918725,22.3931741],[112.9119873,22.385992],[112.8782129,22.3480714],[112.8758526,22.345412],[112.874372,22.3435861],[112.8728592,22.3412938],[112.8714537,22.3387038],[112.8700804,22.3356075],[112.8680313,22.3304768]]},"properties":{"key":"way:570583581@detail:451_89","osmType":"way","osmId":570583581,"sourceRegion":"guangdong","featureType":"infrastructure","railClass":"highspeed","mode":"rail","name":"深湛线","nameEn":"Shenzhen-Zhanjiang Railway","ref":"3071","operator":"中国铁路广州局集团有限公司","usage":"main","highspeed":"yes","tunnel":"yes","status":"operational","color":"#E54848","dataOrigin":"datum-2026-08-01","sourceKey":"way:570583581"}},{"type":"Feature","geometry":{"type":"LineString","coordinates":[[112.8680313,22.3304768],[112.8661001,22.3262688]]},"properties":{"key":"way:570583582@detail:451_89","osmType":"way","osmId":570583582,"sourceRegion":"guangdong","featureType":"infrastructure","railClass":"highspeed","mode":"rail","name":"深湛线","nameEn":"Shenzhen-Zhanjiang Railway","ref":"3071","operator":"中国铁路广州局集团有限公司","usage":"main","highspeed":"yes","status":"operational","color":"#E54848","dataOrigin":"datum-2026-08-01","sourceKey":"way:570583582"}},{"type":"Feature","geometry":{"type":"LineString","coordinates":[[112.8661001,22.3262688],[112.8631282,22.3211775],[112.861669,22.3190535],[112.8605318,22.3175647],[112.8566479,22.3130189],[112.8543305,22.3107758],[112.8521419,22.3088154]]},"properties":{"key":"way:570583583@detail:451_89","osmType":"way","osmId":570583583,"sourceRegion":"guangdong","featureType":"infrastructure","railClass":"highspeed","mode":"rail","name":"深湛线","nameEn":"Shenzhen-Zhanjiang Railway","ref":"3071","operator":"中国铁路广州局集团有限公司","usage":"main","highspeed":"yes","tunnel":"yes","status":"operational","color":"#E54848","dataOrigin":"datum-2026-08-01","sourceKey":"way:570583583"}},{"type":"Feature","geometry":{"type":"LineString","coordinates":[[112.8521419,22.3088154],[112.8499317,22.3074804]]},"properties":{"key":"way:570583584@detail:451_89","osmType":"way","osmId":570583584,"sourceRegion":"guangdong","featureType":"infrastructure","railClass":"highspeed","mode":"rail","name":"深湛线","nameEn":"Shenzhen-Zhanjiang Railway","ref":"3071","operator":"中国铁路广州局集团有限公司","usage":"main","highspeed":"yes","status":"operational","color":"#E54848","dataOrigin":"datum-2026-08-01","sourceKey":"way:570583584"}},{"type":"Feature","geometry":{"type":"LineString","coordinates":[[112.8499317,22.3074804],[112.8483546,22.3067756],[112.8461766,22.3058525],[112.8433818,22.3048301]]},"properties":{"key":"way:570583585@detail:451_89","osmType":"way","osmId":570583585,"sourceRegion":"guangdong","featureType":"infrastructure","railClass":"highspeed","mode":"rail","name":"深湛线","nameEn":"Shenzhen-Zhanjiang Railway","ref":"3071","operator":"中国铁路广州局集团有限公司","usage":"main","highspeed":"yes","tunnel":"yes","status":"operational","color":"#E54848","dataOrigin":"datum-2026-08-01","sourceKey":"way:570583585"}},{"type":"Feature","geometry":{"type":"LineString","coordinates":[[113.0,22.467033794064005],[112.9988694,22.4662042],[112.9933011,22.46204],[112.9906189,22.4600967],[112.9872769,22.4576377],[112.9853189,22.4563785],[112.9836452,22.4554365],[112.9812366,22.4540533],[112.9769504,22.4515398],[112.972734,22.449155],[112.971248,22.4483023],[112.9700088,22.4475387],[112.9692954,22.4470578],[112.9688877,22.4467752]]},"properties":{"key":"way:570583586@detail:451_89","osmType":"way","osmId":570583586,"sourceRegion":"guangdong","featureType":"infrastructure","railClass":"highspeed","mode":"rail","name":"深湛线","nameEn":"Shenzhen-Zhanjiang Railway","ref":"3071","operator":"中国铁路广州局集团有限公司","usage":"main","highspeed":"yes","bridge":"yes","status":"operational","color":"#E54848","dataOrigin":"datum-2026-08-01","sourceKey":"way:570583586"}},{"type":"Feature","geometry":{"type":"LineString","coordinates":[[112.8271019,22.3031171],[112.8210711,22.3028449],[112.8167405,22.3027327],[112.8134107,22.3026464],[112.8079283,22.3023982],[112.8052836,22.3022901],[112.8040445,22.3022394],[112.8017349,22.3021326]]},"properties":{"key":"way:570583587@detail:451_89","osmType":"way","osmId":570583587,"sourceRegion":"guangdong","featureType":"infrastructure","railClass":"highspeed","mode":"rail","name":"深湛线","nameEn":"Shenzhen-Zhanjiang Railway","ref":"3071","operator":"中国铁路广州局集团有限公司","usage":"main","highspeed":"yes","status":"operational","color":"#E54848","dataOrigin":"datum-2026-08-01","sourceKey":"way:570583587"}},{"type":"Feature","geometry":{"type":"LineString","coordinates":[[112.9688877,22.4467752],[112.9676914,22.445853],[112.9670531,22.4453771],[112.965889,22.44444],[112.9651916,22.4438549],[112.9638773,22.4426551],[112.9632121,22.4419956],[112.9624718,22.441247],[112.9613614,22.4400421],[112.9605246,22.4390505],[112.9572415,22.4353169],[112.9543394,22.4319649],[112.9494095,22.426441],[112.9449785,22.4214227],[112.9438165,22.4201102]]},"properties":{"key":"way:570736671@detail:451_89","osmType":"way","osmId":570736671,"sourceRegion":"guangdong","featureType":"infrastructure","railClass":"highspeed","mode":"rail","name":"深湛线","nameEn":"Shenzhen-Zhanjiang Railway","ref":"3071","operator":"中国铁路广州局集团有限公司","usage":"main","highspeed":"yes","status":"operational","color":"#E54848","dataOrigin":"datum-2026-08-01","sourceKey":"way:570736671"}},{"type":"Feature","geometry":{"type":"LineString","coordinates":[[113.0,22.467090551054586],[112.9988393,22.4662389],[112.9932711,22.4620748],[112.9905891,22.4601316],[112.9872482,22.4576734],[112.9852926,22.4564158],[112.98362,22.4554744],[112.981211,22.4540909],[112.976925,22.4515775],[112.9727088,22.4491928],[112.971222,22.4483397],[112.9699813,22.4475752],[112.9692668,22.4470935],[112.9688579,22.4468101]]},"properties":{"key":"way:627789149@detail:451_89","osmType":"way","osmId":627789149,"sourceRegion":"guangdong","featureType":"infrastructure","railClass":"highspeed","mode":"rail","name":"深湛线","nameEn":"Shenzhen-Zhanjiang Railway","ref":"3071","operator":"中国铁路广州局集团有限公司","usage":"main","highspeed":"yes","bridge":"yes","status":"operational","color":"#E54848","dataOrigin":"datum-2026-08-01","sourceKey":"way:627789149"}},{"type":"Feature","geometry":{"type":"LineString","coordinates":[[112.9688579,22.4468101],[112.9676609,22.4458874],[112.9670222,22.4454112],[112.965857,22.4444732],[112.9651585,22.4438872],[112.9638428,22.4426861],[112.9631768,22.4420257],[112.9624357,22.4412764],[112.9613241,22.4400702],[112.960487,22.4390782],[112.9572041,22.4353448],[112.9543021,22.4319929],[112.9493723,22.4264692],[112.9449413,22.4214508],[112.9436686,22.4200133]]},"properties":{"key":"way:627789150@detail:451_89","osmType":"way","osmId":627789150,"sourceRegion":"guangdong","featureType":"infrastructure","railClass":"highspeed","mode":"rail","name":"深湛线","nameEn":"Shenzhen-Zhanjiang Railway","ref":"3071","operator":"中国铁路广州局集团有限公司","usage":"main","highspeed":"yes","status":"operational","color":"#E54848","dataOrigin":"datum-2026-08-01","sourceKey":"way:627789150"}},{"type":"Feature","geometry":{"type":"LineString","coordinates":[[112.9186879,22.3932024],[112.9119506,22.3860207],[112.8781758,22.3480996],[112.8758148,22.3454395],[112.8743322,22.3436111],[112.8728171,22.3413154],[112.8714099,22.3387222],[112.8700356,22.3356237],[112.8679866,22.3304932]]},"properties":{"key":"way:627789153@detail:451_89","osmType":"way","osmId":627789153,"sourceRegion":"guangdong","featureType":"infrastructure","railClass":"highspeed","mode":"rail","name":"深湛线","nameEn":"Shenzhen-Zhanjiang Railway","ref":"3071","operator":"中国铁路广州局集团有限公司","usage":"main","highspeed":"yes","tunnel":"yes","status":"operational","color":"#E54848","dataOrigin":"datum-2026-08-01","sourceKey":"way:627789153"}},{"type":"Feature","geometry":{"type":"LineString","coordinates":[[112.8679866,22.3304932],[112.8660567,22.3262881]]},"properties":{"key":"way:627789157@detail:451_89","osmType":"way","osmId":627789157,"sourceRegion":"guangdong","featureType":"infrastructure","railClass":"highspeed","mode":"rail","name":"深湛线","nameEn":"Shenzhen-Zhanjiang Railway","ref":"3071","operator":"中国铁路广州局集团有限公司","usage":"main","highspeed":"yes","status":"operational","color":"#E54848","dataOrigin":"datum-2026-08-01","sourceKey":"way:627789157"}},{"type":"Feature","geometry":{"type":"LineString","coordinates":[[112.8660567,22.3262881],[112.8630867,22.3212],[112.861629,22.3190783],[112.8604933,22.3175913],[112.8566116,22.3130481],[112.8542964,22.3108072],[112.8521118,22.3088503]]},"properties":{"key":"way:627789160@detail:451_89","osmType":"way","osmId":627789160,"sourceRegion":"guangdong","featureType":"infrastructure","railClass":"highspeed","mode":"rail","name":"深湛线","nameEn":"Shenzhen-Zhanjiang Railway","ref":"3071","operator":"中国铁路广州局集团有限公司","usage":"main","highspeed":"yes","tunnel":"yes","status":"operational","color":"#E54848","dataOrigin":"datum-2026-08-01","sourceKey":"way:627789160"}},{"type":"Feature","geometry":{"type":"LineString","coordinates":[[112.8521118,22.3088503],[112.849908,22.3075192]]},"properties":{"key":"way:627789163@detail:451_89","osmType":"way","osmId":627789163,"sourceRegion":"guangdong","featureType":"infrastructure","railClass":"highspeed","mode":"rail","name":"深湛线","nameEn":"Shenzhen-Zhanjiang Railway","ref":"3071","operator":"中国铁路广州局集团有限公司","usage":"main","highspeed":"yes","status":"operational","color":"#E54848","dataOrigin":"datum-2026-08-01","sourceKey":"way:627789163"}},{"type":"Feature","geometry":{"type":"LineString","coordinates":[[112.849908,22.3075192],[112.8483341,22.3068159],[112.8461577,22.3058934],[112.8433654,22.3048719]]},"properties":{"key":"way:627789167@detail:451_89","osmType":"way","osmId":627789167,"sourceRegion":"guangdong","featureType":"infrastructure","railClass":"highspeed","mode":"rail","name":"深湛线","nameEn":"Shenzhen-Zhanjiang Railway","ref":"3071","operator":"中国铁路广州局集团有限公司","usage":"main","highspeed":"yes","tunnel":"yes","status":"operational","color":"#E54848","dataOrigin":"datum-2026-08-01","sourceKey":"way:627789167"}},{"type":"Feature","geometry":{"type":"LineString","coordinates":[[112.8271177,22.3031623],[112.8210693,22.3028894],[112.8143616,22.3027156],[112.8134089,22.3026909],[112.8079261,22.3024426],[112.8053277,22.3023364],[112.8040422,22.3022838],[112.8030843,22.3022395],[112.8017001,22.3022022]]},"properties":{"key":"way:627789170@detail:451_89","osmType":"way","osmId":627789170,"sourceRegion":"guangdong","featureType":"infrastructure","railClass":"highspeed","mode":"rail","name":"深湛线","nameEn":"Shenzhen-Zhanjiang Railway","ref":"3071","operator":"中国铁路广州局集团有限公司","usage":"main","highspeed":"yes","status":"operational","color":"#E54848","dataOrigin":"datum-2026-08-01","sourceKey":"way:627789170"}},{"type":"Feature","geometry":{"type":"LineString","coordinates":[[112.8017349,22.3021326],[112.8010072,22.3020989]]},"properties":{"key":"way:666912084@detail:451_89","osmType":"way","osmId":666912084,"sourceRegion":"guangdong","featureType":"infrastructure","railClass":"highspeed","mode":"rail","name":"深湛线","nameEn":"Shenzhen-Zhanjiang Railway","ref":"3071","operator":"中国铁路广州局集团有限公司","usage":"main","highspeed":"yes","bridge":"yes","status":"operational","color":"#E54848","dataOrigin":"datum-2026-08-01","sourceKey":"way:666912084"}},{"type":"Feature","geometry":{"type":"LineString","coordinates":[[112.8017001,22.3022022],[112.8009963,22.302181]]},"properties":{"key":"way:666912087@detail:451_89","osmType":"way","osmId":666912087,"sourceRegion":"guangdong","featureType":"infrastructure","railClass":"highspeed","mode":"rail","name":"深湛线","nameEn":"Shenzhen-Zhanjiang Railway","ref":"3071","operator":"中国铁路广州局集团有限公司","usage":"main","highspeed":"yes","bridge":"yes","status":"operational","color":"#E54848","dataOrigin":"datum-2026-08-01","sourceKey":"way:666912087"}},{"type":"Feature","geometry":{"type":"LineString","coordinates":[[112.75,22.301648388496876],[112.7516689,22.3017947],[112.7525345,22.3018635]]},"properties":{"key":"way:864884824@detail:451_89","osmType":"way","osmId":864884824,"sourceRegion":"guangdong","featureType":"infrastructure","railClass":"highspeed","mode":"rail","name":"深湛线","nameEn":"Shenzhen-Zhanjiang Railway","ref":"3071","operator":"中国铁路广州局集团有限公司","usage":"main","highspeed":"yes","status":"operational","color":"#E54848","dataOrigin":"datum-2026-08-01","sourceKey":"way:864884824"}},{"type":"Feature","geometry":{"type":"LineString","coordinates":[[112.75,22.301688947956652],[112.751665,22.3018349],[112.7525306,22.3019038]]},"properties":{"key":"way:864884825@detail:451_89","osmType":"way","osmId":864884825,"sourceRegion":"guangdong","featureType":"infrastructure","railClass":"highspeed","mode":"rail","name":"深湛线","nameEn":"Shenzhen-Zhanjiang Railway","ref":"3071","operator":"中国铁路广州局集团有限公司","usage":"main","highspeed":"yes","status":"operational","color":"#E54848","dataOrigin":"datum-2026-08-01","sourceKey":"way:864884825"}},{"type":"Feature","geometry":{"type":"LineString","coordinates":[[112.7525345,22.3018635],[112.7542497,22.3020042],[112.7559646,22.3021495],[112.7575601,22.302289],[112.7580479,22.3023328]]},"properties":{"key":"way:864884826@detail:451_89","osmType":"way","osmId":864884826,"sourceRegion":"guangdong","featureType":"infrastructure","railClass":"highspeed","mode":"rail","name":"深湛线","nameEn":"Shenzhen-Zhanjiang Railway","ref":"3071","operator":"中国铁路广州局集团有限公司","usage":"main","highspeed":"yes","bridge":"yes","status":"operational","color":"#E54848","dataOrigin":"datum-2026-08-01","sourceKey":"way:864884826"}},{"type":"Feature","geometry":{"type":"LineString","coordinates":[[112.7525306,22.3019038],[112.7542458,22.3020445],[112.7559605,22.3021898],[112.757556,22.3023292],[112.7580503,22.3023737]]},"properties":{"key":"way:864884827@detail:451_89","osmType":"way","osmId":864884827,"sourceRegion":"guangdong","featureType":"infrastructure","railClass":"highspeed","mode":"rail","name":"深湛线","nameEn":"Shenzhen-Zhanjiang Railway","ref":"3071","operator":"中国铁路广州局集团有限公司","usage":"main","highspeed":"yes","bridge":"yes","status":"operational","color":"#E54848","dataOrigin":"datum-2026-08-01","sourceKey":"way:864884827"}},{"type":"Feature","geometry":{"type":"LineString","coordinates":[[112.7580479,22.3023328],[112.759155,22.3024324],[112.7608223,22.3025688],[112.7624892,22.3027129],[112.7642314,22.3028717]]},"properties":{"key":"way:864884828@detail:451_89","osmType":"way","osmId":864884828,"sourceRegion":"guangdong","featureType":"infrastructure","railClass":"highspeed","mode":"rail","name":"深湛线","nameEn":"Shenzhen-Zhanjiang Railway","ref":"3071","operator":"中国铁路广州局集团有限公司","usage":"main","highspeed":"yes","status":"operational","color":"#E54848","dataOrigin":"datum-2026-08-01","sourceKey":"way:864884828"}},{"type":"Feature","geometry":{"type":"LineString","coordinates":[[112.7580503,22.3023737],[112.759151,22.3024727],[112.7608184,22.3026091],[112.762485,22.3027531],[112.7642271,22.3029119]]},"properties":{"key":"way:864884829@detail:451_89","osmType":"way","osmId":864884829,"sourceRegion":"guangdong","featureType":"infrastructure","railClass":"highspeed","mode":"rail","name":"深湛线","nameEn":"Shenzhen-Zhanjiang Railway","ref":"3071","operator":"中国铁路广州局集团有限公司","usage":"main","highspeed":"yes","status":"operational","color":"#E54848","dataOrigin":"datum-2026-08-01","sourceKey":"way:864884829"}},{"type":"Feature","geometry":{"type":"LineString","coordinates":[[112.7642314,22.3028717],[112.7650233,22.3029459],[112.7658158,22.3030106],[112.7666028,22.3030655],[112.7669576,22.303086]]},"properties":{"key":"way:864884830@detail:451_89","osmType":"way","osmId":864884830,"sourceRegion":"guangdong","featureType":"infrastructure","railClass":"highspeed","mode":"rail","name":"深湛线","nameEn":"Shenzhen-Zhanjiang Railway","ref":"3071","operator":"中国铁路广州局集团有限公司","usage":"main","highspeed":"yes","tunnel":"yes","bridge":"yes","status":"operational","color":"#E54848","dataOrigin":"datum-2026-08-01","sourceKey":"way:864884830"}},{"type":"Feature","geometry":{"type":"LineString","coordinates":[[112.7642271,22.3029119],[112.7650192,22.3029861],[112.7658123,22.3030509],[112.7665998,22.3031058],[112.7669552,22.3031263]]},"properties":{"key":"way:864884831@detail:451_89","osmType":"way","osmId":864884831,"sourceRegion":"guangdong","featureType":"infrastructure","railClass":"highspeed","mode":"rail","name":"深湛线","nameEn":"Shenzhen-Zhanjiang Railway","ref":"3071","operator":"中国铁路广州局集团有限公司","usage":"main","highspeed":"yes","tunnel":"yes","bridge":"yes","status":"operational","color":"#E54848","dataOrigin":"datum-2026-08-01","sourceKey":"way:864884831"}},{"type":"Feature","geometry":{"type":"LineString","coordinates":[[112.7669576,22.303086],[112.7673906,22.303111],[112.7679585,22.30314],[112.7685267,22.3031606],[112.769118,22.3031732],[112.7697091,22.3031767],[112.7702327,22.3031649],[112.7703746,22.3031601]]},"properties":{"key":"way:864884832@detail:451_89","osmType":"way","osmId":864884832,"sourceRegion":"guangdong","featureType":"infrastructure","railClass":"highspeed","mode":"rail","name":"深湛线","nameEn":"Shenzhen-Zhanjiang Railway","ref":"3071","operator":"中国铁路广州局集团有限公司","usage":"main","highspeed":"yes","bridge":"yes","status":"operational","color":"#E54848","dataOrigin":"datum-2026-08-01","sourceKey":"way:864884832"}},{"type":"Feature","geometry":{"type":"LineString","coordinates":[[112.7669552,22.3031263],[112.7673881,22.3031514],[112.7679565,22.3031804],[112.7685253,22.303201],[112.7691174,22.3032136],[112.7697095,22.3032171],[112.770234,22.3032054],[112.7703786,22.3032004]]},"properties":{"key":"way:864884833@detail:451_89","osmType":"way","osmId":864884833,"sourceRegion":"guangdong","featureType":"infrastructure","railClass":"highspeed","mode":"rail","name":"深湛线","nameEn":"Shenzhen-Zhanjiang Railway","ref":"3071","operator":"中国铁路广州局集团有限公司","usage":"main","highspeed":"yes","bridge":"yes","status":"operational","color":"#E54848","dataOrigin":"datum-2026-08-01","sourceKey":"way:864884833"}},{"type":"Feature","geometry":{"type":"LineString","coordinates":[[112.7703746,22.3031601],[112.7707564,22.303147],[112.7712207,22.3031259],[112.771685,22.3030999]]},"properties":{"key":"way:864884834@detail:451_89","osmType":"way","osmId":864884834,"sourceRegion":"guangdong","featureType":"infrastructure","railClass":"highspeed","mode":"rail","name":"深湛线","nameEn":"Shenzhen-Zhanjiang Railway","ref":"3071","operator":"中国铁路广州局集团有限公司","usage":"main","highspeed":"yes","status":"operational","color":"#E54848","dataOrigin":"datum-2026-08-01","sourceKey":"way:864884834"}},{"type":"Feature","geometry":{"type":"LineString","coordinates":[[112.7703786,22.3032004],[112.7707583,22.3031874],[112.7712231,22.3031662],[112.7716877,22.3031402]]},"properties":{"key":"way:864884835@detail:451_89","osmType":"way","osmId":864884835,"sourceRegion":"guangdong","featureType":"infrastructure","railClass":"highspeed","mode":"rail","name":"深湛线","nameEn":"Shenzhen-Zhanjiang Railway","ref":"3071","operator":"中国铁路广州局集团有限公司","usage":"main","highspeed":"yes","status":"operational","color":"#E54848","dataOrigin":"datum-2026-08-01","sourceKey":"way:864884835"}},{"type":"Feature","geometry":{"type":"LineString","coordinates":[[112.8010072,22.3020989],[112.7986801,22.3019913],[112.7953112,22.3019218],[112.7930152,22.3018622],[112.7908265,22.3018324],[112.7839708,22.3018523],[112.7820396,22.3019119],[112.780779,22.3019615],[112.7800173,22.302021],[112.7791107,22.3021153],[112.7774477,22.3023288],[112.775597,22.3026365],[112.7739769,22.3028548],[112.7723408,22.3030484],[112.771685,22.3030999]]},"properties":{"key":"way:864884838@detail:451_89","osmType":"way","osmId":864884838,"sourceRegion":"guangdong","featureType":"infrastructure","railClass":"highspeed","mode":"rail","name":"深湛线","nameEn":"Shenzhen-Zhanjiang Railway","ref":"3071","operator":"中国铁路广州局集团有限公司","usage":"main","highspeed":"yes","bridge":"yes","status":"operational","color":"#E54848","dataOrigin":"datum-2026-08-01","sourceKey":"way:864884838"}},{"type":"Feature","geometry":{"type":"LineString","coordinates":[[112.8009963,22.302181],[112.7986784,22.3020358],[112.79531,22.3019663],[112.7930142,22.3019067],[112.7908262,22.3018769],[112.7839717,22.3018968],[112.7820414,22.3019564],[112.780782,22.3020059],[112.780022,22.3020653],[112.7791167,22.3021594],[112.7774553,22.3023727],[112.7756047,22.3026804],[112.7739834,22.3028989],[112.772345,22.3030928],[112.7716877,22.3031402]]},"properties":{"key":"way:864884839@detail:451_89","osmType":"way","osmId":864884839,"sourceRegion":"guangdong","featureType":"infrastructure","railClass":"highspeed","mode":"rail","name":"深湛线","nameEn":"Shenzhen-Zhanjiang Railway","ref":"3071","operator":"中国铁路广州局集团有限公司","usage":"main","highspeed":"yes","bridge":"yes","status":"operational","color":"#E54848","dataOrigin":"datum-2026-08-01","sourceKey":"way:864884839"}},{"type":"Feature","geometry":{"type":"LineString","coordinates":[[112.9428754,22.4190471],[112.9407728,22.4166721],[112.9396033,22.4153033],[112.9387665,22.4144801],[112.9380369,22.4137759],[112.9371571,22.4129031],[112.9334074,22.409467],[112.9313958,22.4075719],[112.929368,22.405722],[112.928381,22.404745],[112.9270774,22.4033365],[112.9259992,22.4020421]]},"properties":{"key":"way:909825605@detail:451_89","osmType":"way","osmId":909825605,"sourceRegion":"guangdong","featureType":"infrastructure","railClass":"highspeed","mode":"rail","name":"深湛线","nameEn":"Shenzhen-Zhanjiang Railway","ref":"3071","operator":"中国铁路广州局集团有限公司","usage":"main","highspeed":"yes","status":"operational","color":"#E54848","dataOrigin":"datum-2026-08-01","sourceKey":"way:909825605"}},{"type":"Feature","geometry":{"type":"LineString","coordinates":[[112.9429445,22.4191252],[112.9428754,22.4190471]]},"properties":{"key":"way:909825606@detail:451_89","osmType":"way","osmId":909825606,"sourceRegion":"guangdong","featureType":"infrastructure","railClass":"highspeed","mode":"rail","name":"深湛线","nameEn":"Shenzhen-Zhanjiang Railway","ref":"3071","operator":"中国铁路广州局集团有限公司","usage":"main","highspeed":"yes","bridge":"yes","status":"operational","color":"#E54848","dataOrigin":"datum-2026-08-01","sourceKey":"way:909825606"}},{"type":"Feature","geometry":{"type":"LineString","coordinates":[[112.9436393,22.41991],[112.9429445,22.4191252]]},"properties":{"key":"way:909825607@detail:451_89","osmType":"way","osmId":909825607,"sourceRegion":"guangdong","featureType":"infrastructure","railClass":"highspeed","mode":"rail","name":"深湛线","nameEn":"Shenzhen-Zhanjiang Railway","ref":"3071","operator":"中国铁路广州局集团有限公司","usage":"main","highspeed":"yes","status":"operational","color":"#E54848","dataOrigin":"datum-2026-08-01","sourceKey":"way:909825607"}},{"type":"Feature","geometry":{"type":"LineString","coordinates":[[112.9438165,22.4201102],[112.9437086,22.4199883]]},"properties":{"key":"way:909825608@detail:451_89","osmType":"way","osmId":909825608,"sourceRegion":"guangdong","featureType":"infrastructure","railClass":"highspeed","mode":"rail","name":"深湛线","nameEn":"Shenzhen-Zhanjiang Railway","ref":"3071","operator":"中国铁路广州局集团有限公司","usage":"main","highspeed":"yes","bridge":"yes","status":"operational","color":"#E54848","dataOrigin":"datum-2026-08-01","sourceKey":"way:909825608"}},{"type":"Feature","geometry":{"type":"LineString","coordinates":[[112.9427967,22.4190284],[112.9407353,22.4167],[112.9395668,22.4153324],[112.9387316,22.4145107],[112.9380019,22.4138064],[112.9371226,22.4129341],[112.9333733,22.4094984],[112.9313618,22.4076033],[112.9293335,22.405753],[112.9283451,22.4047746],[112.9270401,22.4033645],[112.9259606,22.4020686]]},"properties":{"key":"way:919656917@detail:451_89","osmType":"way","osmId":919656917,"sourceRegion":"guangdong","featureType":"infrastructure","railClass":"highspeed","mode":"rail","name":"深湛线","nameEn":"Shenzhen-Zhanjiang Railway","ref":"3071","operator":"中国铁路广州局集团有限公司","usage":"main","highspeed":"yes","status":"operational","color":"#E54848","dataOrigin":"datum-2026-08-01","sourceKey":"way:919656917"}},{"type":"Feature","geometry":{"type":"LineString","coordinates":[[112.9429308,22.4191799],[112.9427967,22.4190284]]},"properties":{"key":"way:919656918@detail:451_89","osmType":"way","osmId":919656918,"sourceRegion":"guangdong","featureType":"infrastructure","railClass":"highspeed","mode":"rail","name":"深湛线","nameEn":"Shenzhen-Zhanjiang Railway","ref":"3071","operator":"中国铁路广州局集团有限公司","usage":"main","highspeed":"yes","bridge":"yes","status":"operational","color":"#E54848","dataOrigin":"datum-2026-08-01","sourceKey":"way:919656918"}},{"type":"Feature","geometry":{"type":"LineString","coordinates":[[112.9239281,22.3993684],[112.923671,22.3990365],[112.9204615,22.3952324]]},"properties":{"key":"way:919656919@detail:451_89","osmType":"way","osmId":919656919,"sourceRegion":"guangdong","featureType":"infrastructure","railClass":"highspeed","mode":"rail","name":"深湛线","nameEn":"Shenzhen-Zhanjiang Railway","ref":"3071","operator":"中国铁路广州局集团有限公司","usage":"main","highspeed":"yes","status":"operational","color":"#E54848","dataOrigin":"datum-2026-08-01","sourceKey":"way:919656919"}},{"type":"Feature","geometry":{"type":"LineString","coordinates":[[112.9259992,22.4020421],[112.9239281,22.3993684]]},"properties":{"key":"way:919656920@detail:451_89","osmType":"way","osmId":919656920,"sourceRegion":"guangdong","featureType":"infrastructure","railClass":"highspeed","mode":"rail","name":"深湛线","nameEn":"Shenzhen-Zhanjiang Railway","ref":"3071","operator":"中国铁路广州局集团有限公司","usage":"main","highspeed":"yes","bridge":"yes","status":"operational","color":"#E54848","dataOrigin":"datum-2026-08-01","sourceKey":"way:919656920"}},{"type":"Feature","geometry":{"type":"LineString","coordinates":[[112.9238977,22.3994054],[112.9236325,22.3990631],[112.9204319,22.3952695]]},"properties":{"key":"way:919656921@detail:451_89","osmType":"way","osmId":919656921,"sourceRegion":"guangdong","featureType":"infrastructure","railClass":"highspeed","mode":"rail","name":"深湛线","nameEn":"Shenzhen-Zhanjiang Railway","ref":"3071","operator":"中国铁路广州局集团有限公司","usage":"main","highspeed":"yes","status":"operational","color":"#E54848","dataOrigin":"datum-2026-08-01","sourceKey":"way:919656921"}},{"type":"Feature","geometry":{"type":"LineString","coordinates":[[112.9259606,22.4020686],[112.9253609,22.4012945],[112.9238977,22.3994054]]},"properties":{"key":"way:919656922@detail:451_89","osmType":"way","osmId":919656922,"sourceRegion":"guangdong","featureType":"infrastructure","railClass":"highspeed","mode":"rail","name":"深湛线","nameEn":"Shenzhen-Zhanjiang Railway","ref":"3071","operator":"中国铁路广州局集团有限公司","usage":"main","highspeed":"yes","bridge":"yes","status":"operational","color":"#E54848","dataOrigin":"datum-2026-08-01","sourceKey":"way:919656922"}},{"type":"Feature","geometry":{"type":"LineString","coordinates":[[112.9435608,22.4198915],[112.9429308,22.4191799]]},"properties":{"key":"way:1337008099@detail:451_89","osmType":"way","osmId":1337008099,"sourceRegion":"guangdong","featureType":"infrastructure","railClass":"highspeed","mode":"rail","name":"深湛线","nameEn":"Shenzhen-Zhanjiang Railway","ref":"3071","operator":"中国铁路广州局集团有限公司","usage":"main","highspeed":"yes","status":"operational","color":"#E54848","dataOrigin":"datum-2026-08-01","sourceKey":"way:1337008099"}},{"type":"Feature","geometry":{"type":"LineString","coordinates":[[112.9436686,22.4200133],[112.9435608,22.4198915]]},"properties":{"key":"way:1337008100@detail:451_89","osmType":"way","osmId":1337008100,"sourceRegion":"guangdong","featureType":"infrastructure","railClass":"highspeed","mode":"rail","name":"深湛线","nameEn":"Shenzhen-Zhanjiang Railway","ref":"3071","operator":"中国铁路广州局集团有限公司","usage":"main","highspeed":"yes","bridge":"yes","status":"operational","color":"#E54848","dataOrigin":"datum-2026-08-01","sourceKey":"way:1337008100"}},{"type":"Feature","geometry":{"type":"LineString","coordinates":[[112.9437086,22.4199883],[112.9436393,22.41991]]},"properties":{"key":"way:1337008101@detail:451_89","osmType":"way","osmId":1337008101,"sourceRegion":"guangdong","featureType":"infrastructure","railClass":"highspeed","mode":"rail","name":"深湛线","nameEn":"Shenzhen-Zhanjiang Railway","ref":"3071","operator":"中国铁路广州局集团有限公司","usage":"main","highspeed":"yes","bridge":"yes","status":"operational","color":"#E54848","dataOrigin":"datum-2026-08-01","sourceKey":"way:1337008101"}},{"type":"Feature","geometry":{"type":"LineString","coordinates":[[112.8143616,22.3027156],[112.8135456,22.3028187],[112.8073046,22.3025958],[112.8053277,22.3023364]]},"properties":{"key":"way:1433625057@detail:451_89","osmType":"way","osmId":1433625057,"sourceRegion":"guangdong","featureType":"infrastructure","railClass":"national","mode":"rail","name":"未命名","status":"operational","color":"#E54848","dataOrigin":"datum-2026-08-01","sourceKey":"way:1433625057"}},{"type":"Feature","geometry":{"type":"LineString","coordinates":[[112.8052836,22.3022901],[112.807317,22.3022642],[112.8132552,22.3025043],[112.8148865,22.3025672],[112.8167405,22.3027327]]},"properties":{"key":"way:1433625058@detail:451_89","osmType":"way","osmId":1433625058,"sourceRegion":"guangdong","featureType":"infrastructure","railClass":"national","mode":"rail","name":"未命名","status":"operational","color":"#E54848","dataOrigin":"datum-2026-08-01","sourceKey":"way:1433625058"}},{"type":"Feature","geometry":{"type":"LineString","coordinates":[[112.8077681,22.3031275],[112.8058216,22.3029903],[112.8055127,22.3029274],[112.8045734,22.3025386],[112.8041471,22.3024128],[112.80356,22.3023099],[112.8030843,22.3022395]]},"properties":{"key":"way:1433625061@detail:451_89","osmType":"way","osmId":1433625061,"sourceRegion":"guangdong","featureType":"infrastructure","railClass":"national","mode":"rail","name":"未命名","status":"operational","color":"#E54848","dataOrigin":"datum-2026-08-01","sourceKey":"way:1433625061"}},{"type":"Feature","geometry":{"type":"LineString","coordinates":[[112.8433818,22.3048301],[112.8426522,22.3046068],[112.8420621,22.3044579],[112.8412574,22.3042644],[112.8404206,22.3040956],[112.8389829,22.3038177],[112.838425,22.3037383],[112.8378832,22.3036638],[112.8368586,22.3035546],[112.8359306,22.3034752],[112.8310221,22.3032767]]},"properties":{"key":"way:1498207928@detail:451_89","osmType":"way","osmId":1498207928,"sourceRegion":"guangdong","featureType":"infrastructure","railClass":"highspeed","mode":"rail","name":"深湛线","nameEn":"Shenzhen-Zhanjiang Railway","ref":"3071","operator":"中国铁路广州局集团有限公司","usage":"main","highspeed":"yes","status":"operational","color":"#E54848","dataOrigin":"datum-2026-08-01","sourceKey":"way:1498207928"}},{"type":"Feature","geometry":{"type":"LineString","coordinates":[[112.8433654,22.3048719],[112.8426383,22.3046494],[112.8420497,22.3045009],[112.8412462,22.3043077],[112.8404106,22.3041391],[112.8389743,22.3038615],[112.8384178,22.3037823],[112.8378769,22.3037079],[112.8368536,22.3035989],[112.8359273,22.3035196],[112.83102,22.3033211]]},"properties":{"key":"way:1498207929@detail:451_89","osmType":"way","osmId":1498207929,"sourceRegion":"guangdong","featureType":"infrastructure","railClass":"highspeed","mode":"rail","name":"深湛线","nameEn":"Shenzhen-Zhanjiang Railway","ref":"3071","operator":"中国铁路广州局集团有限公司","usage":"main","highspeed":"yes","status":"operational","color":"#E54848","dataOrigin":"datum-2026-08-01","sourceKey":"way:1498207929"}},{"type":"Feature","geometry":{"type":"LineString","coordinates":[[112.83102,22.3033211],[112.8274472,22.3031772],[112.8271177,22.3031623]]},"properties":{"key":"way:1498207930@detail:451_89","osmType":"way","osmId":1498207930,"sourceRegion":"guangdong","featureType":"infrastructure","railClass":"highspeed","mode":"rail","name":"深湛线","nameEn":"Shenzhen-Zhanjiang Railway","ref":"3071","operator":"中国铁路广州局集团有限公司","usage":"main","highspeed":"yes","bridge":"yes","status":"operational","color":"#E54848","dataOrigin":"datum-2026-08-01","sourceKey":"way:1498207930"}},{"type":"Feature","geometry":{"type":"LineString","coordinates":[[112.8310221,22.3032767],[112.8274494,22.3031328],[112.8271019,22.3031171]]},"properties":{"key":"way:1498207931@detail:451_89","osmType":"way","osmId":1498207931,"sourceRegion":"guangdong","featureType":"infrastructure","railClass":"highspeed","mode":"rail","name":"深湛线","nameEn":"Shenzhen-Zhanjiang Railway","ref":"3071","operator":"中国铁路广州局集团有限公司","usage":"main","highspeed":"yes","bridge":"yes","status":"operational","color":"#E54848","dataOrigin":"datum-2026-08-01","sourceKey":"way:1498207931"}},{"type":"Feature","geometry":{"type":"LineString","coordinates":[[112.9204615,22.3952324],[112.9194827,22.3940722]]},"properties":{"key":"way:1498207932@detail:451_89","osmType":"way","osmId":1498207932,"sourceRegion":"guangdong","featureType":"infrastructure","railClass":"highspeed","mode":"rail","name":"深湛线","nameEn":"Shenzhen-Zhanjiang Railway","ref":"3071","operator":"中国铁路广州局集团有限公司","usage":"main","highspeed":"yes","tunnel":"yes","status":"operational","color":"#E54848","dataOrigin":"datum-2026-08-01","sourceKey":"way:1498207932"}},{"type":"Feature","geometry":{"type":"LineString","coordinates":[[112.9204319,22.3952695],[112.9194437,22.3940982]]},"properties":{"key":"way:1498207933@detail:451_89","osmType":"way","osmId":1498207933,"sourceRegion":"guangdong","featureType":"infrastructure","railClass":"highspeed","mode":"rail","name":"深湛线","nameEn":"Shenzhen-Zhanjiang Railway","ref":"3071","operator":"中国铁路广州局集团有限公司","usage":"main","highspeed":"yes","tunnel":"yes","status":"operational","color":"#E54848","dataOrigin":"datum-2026-08-01","sourceKey":"way:1498207933"}},{"type":"Feature","geometry":{"type":"LineString","coordinates":[[112.9194827,22.3940722],[112.918725,22.3931741]]},"properties":{"key":"way:1498207934@detail:451_89","osmType":"way","osmId":1498207934,"sourceRegion":"guangdong","featureType":"infrastructure","railClass":"highspeed","mode":"rail","name":"深湛线","nameEn":"Shenzhen-Zhanjiang Railway","ref":"3071","operator":"中国铁路广州局集团有限公司","usage":"main","highspeed":"yes","status":"operational","color":"#E54848","dataOrigin":"datum-2026-08-01","sourceKey":"way:1498207934"}},{"type":"Feature","geometry":{"type":"LineString","coordinates":[[112.9194437,22.3940982],[112.9186879,22.3932024]]},"properties":{"key":"way:1498207935@detail:451_89","osmType":"way","osmId":1498207935,"sourceRegion":"guangdong","featureType":"infrastructure","railClass":"highspeed","mode":"rail","name":"深湛线","nameEn":"Shenzhen-Zhanjiang Railway","ref":"3071","operator":"中国铁路广州局集团有限公司","usage":"main","highspeed":"yes","status":"operational","color":"#E54848","dataOrigin":"datum-2026-08-01","sourceKey":"way:1498207935"}}]}