{"type":"FeatureCollection","features":[{"type":"Feature","geometry":{"type":"LineString","coordinates":[[112.8422295106438,25.25],[112.842168,25.2504585],[112.8421607,25.2508328],[112.8422043,25.2513057],[112.8422841,25.2517129],[112.8424076,25.2521332],[112.8426327,25.2526192],[112.8436856,25.2549834],[112.8456606,25.259206],[112.8458857,25.2595606],[112.8461689,25.2599218],[112.8464594,25.2602108],[112.8468006,25.2604997],[112.8482238,25.2615438],[112.8485143,25.2618262],[112.848812,25.2622005],[112.8490371,25.2625486],[112.8496906,25.2635664],[112.8509541,25.2655233],[112.8511937,25.2659764],[112.8513752,25.2664426],[112.8515059,25.2669089],[112.8515931,25.2673882],[112.8516149,25.2676574],[112.8516294,25.2679201],[112.8516294,25.2682681],[112.8516076,25.268603],[112.8515059,25.2691152],[112.8511429,25.2710392],[112.8510557,25.2713543],[112.8509178,25.2716498],[112.8506564,25.2722671],[112.8505547,25.2725494],[112.8504894,25.272904],[112.8504894,25.2732651],[112.8505475,25.2735803],[112.8509759,25.274736],[112.8510848,25.2751825],[112.8511211,25.2754779],[112.8511138,25.2757997],[112.8510122,25.2762068],[112.8506055,25.2773821],[112.8504748,25.2776776],[112.8502933,25.277973],[112.8500319,25.2783013],[112.8497269,25.2786362],[112.8494074,25.2788988],[112.8490589,25.2791418],[112.8486886,25.279319],[112.8481658,25.2795029],[112.8476647,25.2796342],[112.8471056,25.2797064],[112.8464666,25.2796999],[112.8458204,25.2796539],[112.8453411,25.2795685],[112.8448691,25.2794898],[112.8444189,25.2794832],[112.8440051,25.2795423],[112.843642,25.2796736],[112.8433152,25.2798246],[112.8421317,25.2804746],[112.8415798,25.2807176],[112.841057,25.2808948],[112.8404761,25.2810262],[112.8392562,25.2812954],[112.8388205,25.2813282],[112.8382977,25.2814595],[112.8379056,25.2815974],[112.8375571,25.2818009],[112.8372013,25.2820701],[112.8369616,25.282359],[112.8367438,25.2826873],[112.8362355,25.2836328],[112.8361338,25.2839151],[112.8360395,25.2842499],[112.8360177,25.284611],[112.8361048,25.2850509],[112.8368019,25.289115],[112.8368237,25.2894695],[112.8368019,25.2897321],[112.8366712,25.2900998],[112.8365623,25.290323],[112.836388,25.2906316],[112.8361048,25.2909139],[112.8357998,25.2911699],[112.8354222,25.2913734],[112.835081,25.2914982],[112.834471,25.2916032],[112.8338829,25.2915966],[112.8331858,25.2915507],[112.832216,25.2914095],[112.8315065,25.2912638]]},"properties":{"key":"way:156071980@detail:451_101","osmType":"way","osmId":156071980,"sourceRegion":"guangdong","featureType":"infrastructure","railClass":"national","mode":"rail","name":"坪木线","usage":"branch","status":"operational","color":"#E54848","dataOrigin":"datum-2026-08-01","sourceKey":"way:156071980"}},{"type":"Feature","geometry":{"type":"LineString","coordinates":[[112.77165,25.2848117],[112.7721876,25.2849234],[112.7730229,25.2850153],[112.7739301,25.285065],[112.774098,25.2850876],[112.7745484,25.2851795],[112.7748826,25.2852912],[112.7753039,25.2855145],[112.7766187,25.2863421],[112.7769965,25.2864932],[112.7772943,25.2866245],[112.7777665,25.2867296],[112.7782096,25.2867362],[112.7786455,25.2866968],[112.7790595,25.286572],[112.7795317,25.2863618],[112.780585,25.2856984],[112.7809845,25.2855079],[112.7813768,25.2854094],[112.7817546,25.2853766],[112.782125,25.2853832],[112.7834471,25.285613],[112.7839484,25.2857313],[112.7843479,25.2858823],[112.7860623,25.2868807],[112.7865272,25.2870778],[112.7871083,25.2872354],[112.787486,25.2872682],[112.7883868,25.2872748],[112.7887646,25.2872879],[112.7892585,25.2873339],[112.7897162,25.2874259],[112.7906097,25.2876952],[112.7924257,25.288214],[112.7931086,25.2883782],[112.7935807,25.2884636],[112.7940384,25.2885162],[112.7944016,25.288503],[112.7949028,25.2883979],[112.7953532,25.2882403],[112.7957164,25.2880367],[112.7977577,25.2867756],[112.7981354,25.2865326],[112.7984623,25.2862699],[112.7986948,25.2859809],[112.7989054,25.285659],[112.7995084,25.2844045],[112.7996972,25.2840761],[112.7999152,25.2837936],[112.8001985,25.2835243],[112.8005689,25.283255],[112.8010121,25.2829988],[112.8015641,25.2827821],[112.802247,25.2826113],[112.8031332,25.2824799],[112.804034,25.2823289],[112.8047096,25.2822829],[112.8054578,25.2822895],[112.8060171,25.282342],[112.8083126,25.2828412],[112.8088865,25.28292],[112.811182,25.2831434],[112.8118503,25.2832419],[112.8122135,25.2833338],[112.8125695,25.2834718],[112.8128964,25.2836623],[112.8131651,25.2838593],[112.8136518,25.2843257],[112.8139497,25.2845687],[112.8144001,25.2848446],[112.8148722,25.2850679],[112.8166956,25.285751],[112.8183809,25.2863947],[112.8199136,25.2870515],[112.8206764,25.2872945],[112.8209815,25.2874324],[112.8212684,25.2876327],[112.8215662,25.2879086],[112.8217842,25.2882239],[112.8221038,25.2886968],[112.8223871,25.2889793],[112.8226704,25.2892026],[112.8230046,25.2894062],[112.8233606,25.2895441],[112.8236802,25.2896229],[112.8242541,25.2897543],[112.826045,25.2901313],[112.8264939,25.290221],[112.830951,25.2911121],[112.8315065,25.2912638]]},"properties":{"key":"way:156072068@detail:451_101","osmType":"way","osmId":156072068,"sourceRegion":"guangdong","featureType":"infrastructure","railClass":"national","mode":"rail","name":"栗浆铁路","usage":"branch","status":"operational","color":"#E54848","dataOrigin":"datum-2026-08-01","sourceKey":"way:156072068"}},{"type":"Feature","geometry":{"type":"LineString","coordinates":[[112.8315065,25.2912638],[112.8308771,25.2911369],[112.8259838,25.2901665],[112.8242396,25.2897937],[112.8237093,25.2897083],[112.8231354,25.2896755],[112.8225978,25.2897215],[112.8222854,25.2897806]]},"properties":{"key":"way:156072075@detail:451_101","osmType":"way","osmId":156072075,"sourceRegion":"guangdong","featureType":"infrastructure","railClass":"national","mode":"rail","name":"坪木线","usage":"branch","status":"operational","color":"#E54848","dataOrigin":"datum-2026-08-01","sourceKey":"way:156072075"}},{"type":"Feature","geometry":{"type":"LineString","coordinates":[[112.830951,25.2911121],[112.8305957,25.2909809],[112.8267735,25.2902315],[112.8264939,25.290221]]},"properties":{"key":"way:592647786@detail:451_101","osmType":"way","osmId":592647786,"sourceRegion":"guangdong","featureType":"infrastructure","railClass":"minor","mode":"rail","name":"未命名","service":"siding","status":"operational","color":"#52636F","dataOrigin":"datum-2026-08-01","sourceKey":"way:592647786"}},{"type":"Feature","geometry":{"type":"LineString","coordinates":[[112.8259838,25.2901665],[112.8264543,25.2903067],[112.8305608,25.291107],[112.8308771,25.2911369]]},"properties":{"key":"way:592647787@detail:451_101","osmType":"way","osmId":592647787,"sourceRegion":"guangdong","featureType":"infrastructure","railClass":"minor","mode":"rail","name":"未命名","service":"siding","status":"operational","color":"#52636F","dataOrigin":"datum-2026-08-01","sourceKey":"way:592647787"}}]}