{"type":"FeatureCollection","features":[{"type":"Feature","geometry":{"type":"Point","coordinates":[112.7656057,23.250955]},"properties":{"key":"node:5652369315","osmType":"node","osmId":5652369315,"sourceRegion":"guangzhou","featureType":"station","railClass":"station","mode":"station","name":"大沙","nameEn":"Dasha","status":"operational","color":"#126d75","sourceKey":"node:5652369315","stationGroup":"大沙","hasOperationalRail":true,"hasConstructionRail":false}},{"type":"Feature","geometry":{"type":"Point","coordinates":[112.8071078,23.2563323]},"properties":{"key":"node:6169134982","osmType":"node","osmId":6169134982,"sourceRegion":"guangzhou","featureType":"station","railClass":"station","mode":"station","name":"大旺","nameEn":"Dawang","status":"operational","color":"#126d75","sourceKey":"node:6169134982","stationGroup":"大旺","hasOperationalRail":true,"hasConstructionRail":false}},{"type":"Feature","geometry":{"type":"LineString","coordinates":[[112.7523657,23.2730662],[112.7529775,23.2730441],[112.7541319,23.2729792],[112.7586165,23.2728165],[112.7615723,23.2724075],[112.7630797,23.2720527],[112.7650109,23.2714811],[112.7662877,23.2710326],[112.7676878,23.2704117],[112.7692434,23.2695493],[112.770885,23.2685538],[112.7756653,23.2654503],[112.7797564,23.2627878],[112.7819893,23.2613574],[112.7826465,23.2609422],[112.7832553,23.2605787],[112.7841029,23.2601364],[112.7847909,23.2598074],[112.7856854,23.2594107],[112.7864606,23.2591186],[112.7873537,23.2588316],[112.7884038,23.2585149],[112.7892299,23.2582956],[112.7905013,23.2580381],[112.7912818,23.257921],[112.7921629,23.2578126],[112.792753,23.2577633],[112.793213,23.2577473],[112.7946158,23.2576795],[112.8008365,23.2574602],[112.8016526,23.2574171],[112.8023634,23.2573623],[112.8029159,23.2573124],[112.8039539,23.2571608],[112.8047358,23.2570043],[112.8054828,23.2568478],[112.806036,23.256708],[112.8071175,23.2563599],[112.8080671,23.2560544],[112.8095463,23.2554974],[112.8109451,23.2549614],[112.8128293,23.2542221],[112.813701,23.2538463],[112.8145231,23.2534495],[112.8152017,23.253059],[112.8158844,23.2526388],[112.816689,23.2520597],[112.8173341,23.2515101],[112.8189475,23.2501535],[112.81913460336285,23.25]]},"properties":{"key":"way:408323108@detail:451_93","osmType":"way","osmId":408323108,"sourceRegion":"guangzhou","featureType":"infrastructure","railClass":"intercity","mode":"rail","name":"广肇城际线","nameEn":"Guangzhou–Foshan–Zhaoqing Intercity Railway","ref":"3060","operator":"广东城际铁路运营有限公司","usage":"main","bridge":"viaduct","status":"operational","color":"#C97932","sourceKey":"way:408323108"}},{"type":"Feature","geometry":{"type":"LineString","coordinates":[[112.75,23.27325206578318],[112.7504438,23.2732453],[112.7523657,23.2730662]]},"properties":{"key":"way:592176919@detail:451_93","osmType":"way","osmId":592176919,"sourceRegion":"guangzhou","featureType":"infrastructure","railClass":"intercity","mode":"rail","name":"广肇城际线","nameEn":"Guangzhou–Foshan–Zhaoqing Intercity Railway","operator":"广东城际铁路运营有限公司","service":"siding","bridge":"viaduct","status":"operational","color":"#C97932","sourceKey":"way:592176919"}},{"type":"Feature","geometry":{"type":"LineString","coordinates":[[112.7524087,23.2730245],[112.7515355,23.2730211],[112.7504546,23.272957],[112.75,23.27296598811724]]},"properties":{"key":"way:592176922@detail:451_93","osmType":"way","osmId":592176922,"sourceRegion":"guangzhou","featureType":"infrastructure","railClass":"intercity","mode":"rail","name":"广肇城际线","nameEn":"Guangzhou–Foshan–Zhaoqing Intercity Railway","operator":"广东城际铁路运营有限公司","service":"siding","bridge":"viaduct","status":"operational","color":"#C97932","sourceKey":"way:592176922"}},{"type":"Feature","geometry":{"type":"LineString","coordinates":[[112.75,23.25395559134652],[112.7508969,23.2542001]]},"properties":{"key":"way:592176940@detail:451_93","osmType":"way","osmId":592176940,"sourceRegion":"guangzhou","featureType":"infrastructure","railClass":"national","mode":"rail","name":"广茂线","nameEn":"Guangmao Line","ref":"0708","operator":"中国铁路广州局集团有限公司","usage":"main","status":"operational","color":"#E54848","sourceKey":"way:592176940"}},{"type":"Feature","geometry":{"type":"LineString","coordinates":[[112.7508969,23.2542001],[112.7532907,23.2548054]]},"properties":{"key":"way:592176942@detail:451_93","osmType":"way","osmId":592176942,"sourceRegion":"guangzhou","featureType":"infrastructure","railClass":"national","mode":"rail","name":"广茂线","nameEn":"Guangmao Line","ref":"0708","operator":"中国铁路广州局集团有限公司","usage":"main","bridge":"yes","status":"operational","color":"#E54848","sourceKey":"way:592176942"}},{"type":"Feature","geometry":{"type":"LineString","coordinates":[[112.7532907,23.2548054],[112.7537106,23.2548907],[112.754624,23.255038],[112.7553071,23.2550702],[112.7556817,23.2550711],[112.7559596,23.2550624],[112.7568448,23.2549733],[112.7570341,23.2549543],[112.7573528,23.2549051],[112.7574891,23.2548821]]},"properties":{"key":"way:592176943@detail:451_93","osmType":"way","osmId":592176943,"sourceRegion":"guangzhou","featureType":"infrastructure","railClass":"national","mode":"rail","name":"广茂线","nameEn":"Guangmao Line","ref":"0708","operator":"中国铁路广州局集团有限公司","usage":"main","status":"operational","color":"#E54848","sourceKey":"way:592176943"}},{"type":"Feature","geometry":{"type":"LineString","coordinates":[[112.7577412,23.2548305],[112.7580596,23.2547632],[112.7584745,23.2546633],[112.7589268,23.2545213],[112.7594218,23.2543383],[112.75965,23.254241],[112.7600458,23.2540604],[112.7605873,23.2537894],[112.7612747,23.2533709],[112.7640513,23.2515886],[112.764391,23.2513705],[112.76650839261146,23.25]]},"properties":{"key":"way:592176950@detail:451_93","osmType":"way","osmId":592176950,"sourceRegion":"guangzhou","featureType":"infrastructure","railClass":"national","mode":"rail","name":"广茂线","nameEn":"Guangmao Line","ref":"0708","operator":"中国铁路广州局集团有限公司","usage":"main","status":"operational","color":"#E54848","sourceKey":"way:592176950"}},{"type":"Feature","geometry":{"type":"LineString","coordinates":[[112.7574891,23.2548821],[112.7577412,23.2548305]]},"properties":{"key":"way:592176951@detail:451_93","osmType":"way","osmId":592176951,"sourceRegion":"guangzhou","featureType":"infrastructure","railClass":"national","mode":"rail","name":"广茂线","nameEn":"Guangmao Line","ref":"0708","operator":"中国铁路广州局集团有限公司","usage":"main","bridge":"yes","status":"operational","color":"#E54848","sourceKey":"way:592176951"}},{"type":"Feature","geometry":{"type":"LineString","coordinates":[[112.76643015442656,23.25],[112.7647367,23.2511078],[112.764391,23.2513705]]},"properties":{"key":"way:592176957@detail:451_93","osmType":"way","osmId":592176957,"sourceRegion":"guangzhou","featureType":"infrastructure","railClass":"minor","mode":"rail","name":"未命名","service":"siding","status":"operational","color":"#52636f","sourceKey":"way:592176957"}},{"type":"Feature","geometry":{"type":"LineString","coordinates":[[112.7656808,23.2517387],[112.7637979,23.2520221],[112.7634332,23.2521527],[112.7626875,23.2525322]]},"properties":{"key":"way:592176960@detail:451_93","osmType":"way","osmId":592176960,"sourceRegion":"guangzhou","featureType":"infrastructure","railClass":"minor","mode":"rail","name":"未命名","service":"siding","status":"operational","color":"#52636f","sourceKey":"way:592176960"}},{"type":"Feature","geometry":{"type":"LineString","coordinates":[[112.7637557,23.2518878],[112.7641493,23.2517855],[112.7656513,23.2515342]]},"properties":{"key":"way:592176961@detail:451_93","osmType":"way","osmId":592176961,"sourceRegion":"guangzhou","featureType":"infrastructure","railClass":"minor","mode":"rail","name":"未命名","service":"siding","status":"operational","color":"#52636f","sourceKey":"way:592176961"}},{"type":"Feature","geometry":{"type":"LineString","coordinates":[[112.76668152419451,23.25],[112.7662092,23.2504424],[112.7660832,23.2505238],[112.7646804,23.2514233],[112.7637557,23.2518878],[112.763366,23.2520836]]},"properties":{"key":"way:592176962@detail:451_93","osmType":"way","osmId":592176962,"sourceRegion":"guangzhou","featureType":"infrastructure","railClass":"minor","mode":"rail","name":"未命名","service":"siding","status":"operational","color":"#52636f","sourceKey":"way:592176962"}},{"type":"Feature","geometry":{"type":"LineString","coordinates":[[112.7640513,23.2515886],[112.7643344,23.2514775]]},"properties":{"key":"way:592176963@detail:451_93","osmType":"way","osmId":592176963,"sourceRegion":"guangzhou","featureType":"infrastructure","railClass":"minor","mode":"rail","name":"未命名","service":"siding","status":"operational","color":"#52636f","sourceKey":"way:592176963"}},{"type":"Feature","geometry":{"type":"LineString","coordinates":[[112.76665509523657,23.25],[112.765308,23.2508811],[112.7643344,23.2514775],[112.763366,23.2520836],[112.7626875,23.2525322],[112.7610058,23.253619]]},"properties":{"key":"way:592176965@detail:451_93","osmType":"way","osmId":592176965,"sourceRegion":"guangzhou","featureType":"infrastructure","railClass":"minor","mode":"rail","name":"未命名","service":"siding","status":"operational","color":"#52636f","sourceKey":"way:592176965"}},{"type":"Feature","geometry":{"type":"LineString","coordinates":[[112.81906476210222,23.25],[112.8189163,23.2501218],[112.8173031,23.2514782],[112.8166593,23.2520267],[112.815857,23.2526042],[112.8151762,23.2530232],[112.8144997,23.2534125],[112.8136803,23.253808],[112.8128103,23.2541831],[112.810927,23.254922],[112.8095285,23.2554579],[112.8080437,23.2559965],[112.807098,23.2563047],[112.8060072,23.2566601],[112.8054715,23.2568063],[112.8047257,23.2569626],[112.8039448,23.2571189],[112.8029095,23.25727],[112.8023592,23.2573197],[112.8016493,23.2573745],[112.8008343,23.2574175],[112.7946137,23.2576368],[112.7932109,23.2577046],[112.79275,23.2577206],[112.7921577,23.2577701],[112.791275,23.2578787],[112.7904925,23.2579961],[112.7892184,23.2582542],[112.7883901,23.258474],[112.7873388,23.2587911],[112.7864441,23.2590786],[112.7856664,23.2593716],[112.78477,23.2597692],[112.7840807,23.2600988],[112.7832311,23.2605422],[112.7826206,23.2609067],[112.7819628,23.2613223],[112.7797296,23.2627528],[112.7756384,23.2654154],[112.7708588,23.2685185],[112.7692186,23.2695132],[112.7676656,23.2703741],[112.7662692,23.2709933],[112.7649954,23.2714408],[112.7630668,23.2720116],[112.761563,23.2723656],[112.7586121,23.2727739],[112.7541297,23.2729365],[112.7524087,23.2730245]]},"properties":{"key":"way:627398880@detail:451_93","osmType":"way","osmId":627398880,"sourceRegion":"guangzhou","featureType":"infrastructure","railClass":"intercity","mode":"rail","name":"广肇城际线","nameEn":"Guangzhou–Foshan–Zhaoqing Intercity Railway","ref":"3060","operator":"广东城际铁路运营有限公司","usage":"main","bridge":"viaduct","status":"operational","color":"#C97932","sourceKey":"way:627398880"}},{"type":"Feature","geometry":{"type":"LineString","coordinates":[[112.7524087,23.2730245],[112.7515636,23.2730453],[112.75,23.273084498301905]]},"properties":{"key":"way:1434130080@detail:451_93","osmType":"way","osmId":1434130080,"sourceRegion":"guangzhou","featureType":"infrastructure","railClass":"intercity","mode":"rail","name":"广肇城际线","nameEn":"Guangzhou–Foshan–Zhaoqing Intercity Railway","ref":"3060","operator":"广东城际铁路运营有限公司","usage":"main","bridge":"viaduct","status":"operational","color":"#C97932","sourceKey":"way:1434130080"}},{"type":"Feature","geometry":{"type":"LineString","coordinates":[[112.75,23.273126829040006],[112.7523657,23.2730662]]},"properties":{"key":"way:1434130081@detail:451_93","osmType":"way","osmId":1434130081,"sourceRegion":"guangzhou","featureType":"infrastructure","railClass":"intercity","mode":"rail","name":"广肇城际线","nameEn":"Guangzhou–Foshan–Zhaoqing Intercity Railway","ref":"3060","operator":"广东城际铁路运营有限公司","usage":"main","bridge":"viaduct","status":"operational","color":"#C97932","sourceKey":"way:1434130081"}},{"type":"Feature","geometry":{"type":"MultiLineString","coordinates":[[[112.7523657,23.2730662],[112.7529775,23.2730441],[112.7541319,23.2729792],[112.7586165,23.2728165],[112.7615723,23.2724075],[112.7630797,23.2720527],[112.7650109,23.2714811],[112.7662877,23.2710326],[112.7676878,23.2704117],[112.7692434,23.2695493],[112.770885,23.2685538],[112.7756653,23.2654503],[112.7797564,23.2627878],[112.7819893,23.2613574],[112.7826465,23.2609422],[112.7832553,23.2605787],[112.7841029,23.2601364],[112.7847909,23.2598074],[112.7856854,23.2594107],[112.7864606,23.2591186],[112.7873537,23.2588316],[112.7884038,23.2585149],[112.7892299,23.2582956],[112.7905013,23.2580381],[112.7912818,23.257921],[112.7921629,23.2578126],[112.792753,23.2577633],[112.793213,23.2577473],[112.7946158,23.2576795],[112.8008365,23.2574602],[112.8016526,23.2574171],[112.8023634,23.2573623],[112.8029159,23.2573124],[112.8039539,23.2571608],[112.8047358,23.2570043],[112.8054828,23.2568478],[112.806036,23.256708],[112.8071175,23.2563599],[112.8080671,23.2560544],[112.8095463,23.2554974],[112.8109451,23.2549614],[112.8128293,23.2542221],[112.813701,23.2538463],[112.8145231,23.2534495],[112.8152017,23.253059],[112.8158844,23.2526388],[112.816689,23.2520597],[112.8173341,23.2515101],[112.8189475,23.2501535],[112.81913460336285,23.25]],[[112.75,23.273126829040006],[112.7523657,23.2730662]]]},"properties":{"key":"relation:17641022@detail:451_93","osmType":"relation","osmId":17641022,"sourceRegion":"guangzhou","featureType":"service","railClass":"intercity","mode":"train","name":"广肇-广惠城际快车: 肇庆=>惠州北","nameEn":"Guangzhao - Guanghui Intercity Railway Express:Zhaoqing => Huizhoubei","operator":"广东城际","network":"珠三角城际","status":"operational","color":"#2C956F","sourceKey":"relation:17641022"}},{"type":"Feature","geometry":{"type":"MultiLineString","coordinates":[[[112.81906476210222,23.25],[112.8189163,23.2501218],[112.8173031,23.2514782],[112.8166593,23.2520267],[112.815857,23.2526042],[112.8151762,23.2530232],[112.8144997,23.2534125],[112.8136803,23.253808],[112.8128103,23.2541831],[112.810927,23.254922],[112.8095285,23.2554579],[112.8080437,23.2559965],[112.807098,23.2563047],[112.8060072,23.2566601],[112.8054715,23.2568063],[112.8047257,23.2569626],[112.8039448,23.2571189],[112.8029095,23.25727],[112.8023592,23.2573197],[112.8016493,23.2573745],[112.8008343,23.2574175],[112.7946137,23.2576368],[112.7932109,23.2577046],[112.79275,23.2577206],[112.7921577,23.2577701],[112.791275,23.2578787],[112.7904925,23.2579961],[112.7892184,23.2582542],[112.7883901,23.258474],[112.7873388,23.2587911],[112.7864441,23.2590786],[112.7856664,23.2593716],[112.78477,23.2597692],[112.7840807,23.2600988],[112.7832311,23.2605422],[112.7826206,23.2609067],[112.7819628,23.2613223],[112.7797296,23.2627528],[112.7756384,23.2654154],[112.7708588,23.2685185],[112.7692186,23.2695132],[112.7676656,23.2703741],[112.7662692,23.2709933],[112.7649954,23.2714408],[112.7630668,23.2720116],[112.761563,23.2723656],[112.7586121,23.2727739],[112.7541297,23.2729365],[112.7524087,23.2730245]],[[112.7524087,23.2730245],[112.7515636,23.2730453],[112.75,23.273084498301905]]]},"properties":{"key":"relation:17641023@detail:451_93","osmType":"relation","osmId":17641023,"sourceRegion":"guangzhou","featureType":"service","railClass":"intercity","mode":"train","name":"广肇-广惠城际快车: 惠州北=>肇庆","nameEn":"Guangzhao - Guanghui Intercity Railway Express: Huizhoubei => Zhaoqing","operator":"广东城际","network":"珠三角城际","status":"operational","color":"#2C956F","sourceKey":"relation:17641023"}},{"type":"Feature","geometry":{"type":"MultiLineString","coordinates":[[[112.8079612,23.2559793],[112.8079736,23.2560115],[112.8060453,23.2566378],[112.806031,23.2566007],[112.806343,23.2564994],[112.8063274,23.2564588],[112.8077314,23.2560028],[112.8077489,23.2560483],[112.8079612,23.2559793]],[[112.7504695,23.2729821],[112.7504705,23.2730245],[112.75,23.27303386535922]],[[112.75,23.27299137656869],[112.7504695,23.2729821]],[[112.81906476210222,23.25],[112.8189163,23.2501218],[112.8173031,23.2514782],[112.8166593,23.2520267],[112.815857,23.2526042],[112.8151762,23.2530232],[112.8144997,23.2534125],[112.8136803,23.253808],[112.8128103,23.2541831],[112.810927,23.254922],[112.8095285,23.2554579],[112.8080437,23.2559965],[112.807098,23.2563047],[112.8060072,23.2566601],[112.8054715,23.2568063],[112.8047257,23.2569626],[112.8039448,23.2571189],[112.8029095,23.25727],[112.8023592,23.2573197],[112.8016493,23.2573745],[112.8008343,23.2574175],[112.7946137,23.2576368],[112.7932109,23.2577046],[112.79275,23.2577206],[112.7921577,23.2577701],[112.791275,23.2578787],[112.7904925,23.2579961],[112.7892184,23.2582542],[112.7883901,23.258474],[112.7873388,23.2587911],[112.7864441,23.2590786],[112.7856664,23.2593716],[112.78477,23.2597692],[112.7840807,23.2600988],[112.7832311,23.2605422],[112.7826206,23.2609067],[112.7819628,23.2613223],[112.7797296,23.2627528],[112.7756384,23.2654154],[112.7708588,23.2685185],[112.7692186,23.2695132],[112.7676656,23.2703741],[112.7662692,23.2709933],[112.7649954,23.2714408],[112.7630668,23.2720116],[112.761563,23.2723656],[112.7586121,23.2727739],[112.7541297,23.2729365],[112.7524087,23.2730245]],[[112.7524087,23.2730245],[112.7515355,23.2730211],[112.7504546,23.272957],[112.75,23.27296598811724]]]},"properties":{"key":"relation:20107347@detail:451_93","osmType":"relation","osmId":20107347,"sourceRegion":"guangzhou","featureType":"service","railClass":"intercity","mode":"train","name":"广州东环-广佛南环-广肇城际：花都=>肇庆","nameEn":"Guangzhou East Ring - Guangzhou-Foshan South Ring - Guangzhou-Zhaoqing ICR Trains: Huadu => Zhaoqing","operator":"广东城际铁路运营有限公司","network":"珠三角城际","status":"operational","color":"#C97932","sourceKey":"relation:20107347"}},{"type":"Feature","geometry":{"type":"Point","coordinates":[112.8071175,23.2563599]},"properties":{"key":"node:4102769490","osmType":"node","osmId":4102769490,"sourceRegion":"guangdong","featureType":"station","railClass":"minor","mode":"stop","name":"大旺","nameEn":"Dawang","status":"operational","color":"#52636F","dataOrigin":"datum-2026-08-01","sourceKey":"node:4102769490","stationGroup":"大旺","hasOperationalRail":true,"hasConstructionRail":false}},{"type":"Feature","geometry":{"type":"Point","coordinates":[112.807098,23.2563047]},"properties":{"key":"node:5922621673","osmType":"node","osmId":5922621673,"sourceRegion":"guangdong","featureType":"station","railClass":"minor","mode":"stop","name":"大旺","nameEn":"Dawang","status":"operational","color":"#52636F","dataOrigin":"datum-2026-08-01","sourceKey":"node:5922621673","stationGroup":"大旺","hasOperationalRail":true,"hasConstructionRail":false}},{"type":"Feature","geometry":{"type":"MultiLineString","coordinates":[[[112.75,23.27325206578318],[112.7504438,23.2732453],[112.7523657,23.2730662]],[[112.7523657,23.2730662],[112.7529775,23.2730441],[112.7541319,23.2729792],[112.7586165,23.2728165],[112.7615723,23.2724075],[112.7630797,23.2720527],[112.7650109,23.2714811],[112.7662877,23.2710326],[112.7676878,23.2704117],[112.7692434,23.2695493],[112.770885,23.2685538],[112.7756653,23.2654503],[112.7797564,23.2627878],[112.7819893,23.2613574],[112.7826465,23.2609422],[112.7832553,23.2605787],[112.7841029,23.2601364],[112.7847909,23.2598074],[112.7856854,23.2594107],[112.7864606,23.2591186],[112.7873537,23.2588316],[112.7884038,23.2585149],[112.7892299,23.2582956],[112.7905013,23.2580381],[112.7912818,23.257921],[112.7921629,23.2578126],[112.792753,23.2577633],[112.793213,23.2577473],[112.7946158,23.2576795],[112.8008365,23.2574602],[112.8016526,23.2574171],[112.8023634,23.2573623],[112.8029159,23.2573124],[112.8039539,23.2571608],[112.8047358,23.2570043],[112.8054828,23.2568478],[112.806036,23.256708],[112.8071175,23.2563599],[112.8080671,23.2560544],[112.8095463,23.2554974],[112.8109451,23.2549614],[112.8128293,23.2542221],[112.813701,23.2538463],[112.8145231,23.2534495],[112.8152017,23.253059],[112.8158844,23.2526388],[112.816689,23.2520597],[112.8173341,23.2515101],[112.8189475,23.2501535],[112.81913460336285,23.25]]]},"properties":{"key":"relation:20107348@detail:451_93","osmType":"relation","osmId":20107348,"sourceRegion":"guangdong","featureType":"service","railClass":"intercity","mode":"train","name":"广州东环-广佛南环-广肇城际：肇庆=>花都","nameEn":"Guangzhou East Ring - Guangzhou-Foshan South Ring - Guangzhou-Zhaoqing ICR Trains: Zhaoqing => Huadu","operator":"广东城际铁路运营有限公司","status":"operational","color":"#C97932","dataOrigin":"datum-2026-08-01","sourceKey":"relation:20107348"}}]}