{"type":"FeatureCollection","features":[{"type":"Feature","geometry":{"type":"LineString","coordinates":[[112.9138622,24.1248709],[112.9137482,24.1249493],[112.9137146,24.1249676],[112.9135846,24.124975],[112.9133566,24.1249627],[112.9129609,24.1249358],[112.9127477,24.1249076],[112.912509,24.1248636],[112.9123762,24.1248672],[112.9122019,24.124904],[112.9120235,24.1249493],[112.9117566,24.1250594],[112.9115964,24.1251267],[112.9115575,24.1251359],[112.9115038,24.1251384],[112.9114515,24.1251218],[112.9114321,24.1251114],[112.9113302,24.1249884],[112.911306,24.1248807],[112.9113489,24.1246714],[112.9114522,24.124587],[112.9115179,24.124538]]},"properties":{"key":"way:1150789186@detail:451_96","osmType":"way","osmId":1150789186,"sourceRegion":"guangdong","featureType":"infrastructure","railClass":"minor","mode":"narrow_gauge","name":"未命名","status":"operational","color":"#52636F","dataOrigin":"datum-2026-08-01","sourceKey":"way:1150789186"}},{"type":"Feature","geometry":{"type":"LineString","coordinates":[[112.9115179,24.124538],[112.9117218,24.1244474],[112.9120114,24.1242638],[112.9121992,24.1241096],[112.912387,24.1238868],[112.9124835,24.1234903],[112.9124808,24.1233826],[112.9124165,24.1232773],[112.9122609,24.1231647],[112.9119739,24.1230031],[112.9119471,24.1229174],[112.9119685,24.1227804],[112.9120785,24.1224842],[112.912108,24.1224474]]},"properties":{"key":"way:1150789187@detail:451_96","osmType":"way","osmId":1150789187,"sourceRegion":"guangdong","featureType":"infrastructure","railClass":"minor","mode":"narrow_gauge","name":"未命名","status":"operational","color":"#52636F","dataOrigin":"datum-2026-08-01","sourceKey":"way:1150789187"}},{"type":"Feature","geometry":{"type":"LineString","coordinates":[[112.912108,24.1224474],[112.9121643,24.122423],[112.9125667,24.1224279],[112.9129046,24.1225503],[112.913146,24.1228195],[112.913366,24.1230594],[112.9135483,24.1236763],[112.9138783,24.1241781],[112.9139909,24.1243005],[112.9140365,24.1244719],[112.9140365,24.1246041],[112.9140151,24.1247045],[112.9139131,24.1248073],[112.9138622,24.1248709]]},"properties":{"key":"way:1150789217@detail:451_96","osmType":"way","osmId":1150789217,"sourceRegion":"guangdong","featureType":"infrastructure","railClass":"minor","mode":"narrow_gauge","name":"未命名","bridge":"yes","status":"operational","color":"#52636F","dataOrigin":"datum-2026-08-01","sourceKey":"way:1150789217"}}]}