{"type":"FeatureCollection","features":[{"type":"Feature","geometry":{"type":"Point","coordinates":[113.216406,21.9662496]},"properties":{"key":"node:7707072352","osmType":"node","osmId":7707072352,"sourceRegion":"guangdong","featureType":"station","railClass":"minor","mode":"station","name":"高栏港","nameEn":"Gaolangang","status":"operational","color":"#52636F","dataOrigin":"datum-2026-08-01","sourceKey":"node:7707072352","stationGroup":"高栏港","hasOperationalRail":true,"hasConstructionRail":false}},{"type":"Feature","geometry":{"type":"LineString","coordinates":[[113.2452054,21.9042854],[113.2379948,21.9078451],[113.2324931,21.9105826],[113.2310178,21.9117232],[113.2298499,21.9133201],[113.2290815,21.9150595],[113.2284668,21.9188518],[113.2289585,21.9216462],[113.2292352,21.922416],[113.2298499,21.9242408],[113.2308334,21.9259231],[113.2364887,21.9328799],[113.2397467,21.9367288],[113.2408224,21.9388386],[113.2412855,21.9420787],[113.2411913,21.9437422],[113.24103,21.945006],[113.2405223,21.9463483],[113.2398927,21.9474988],[113.239029,21.9485487],[113.2380393,21.9493658]]},"properties":{"key":"way:196801616@detail:452_87","osmType":"way","osmId":196801616,"sourceRegion":"guangdong","featureType":"infrastructure","railClass":"construction","mode":"construction","name":"广珠铁路","ref":"广珠线","usage":"branch","bridge":"viaduct","status":"construction","color":"#8A9298","dataOrigin":"datum-2026-08-01","sourceKey":"way:196801616"}},{"type":"Feature","geometry":{"type":"LineString","coordinates":[[113.1889588,21.987813],[113.1869453,21.9895395],[113.1855112,21.9907284],[113.1844247,21.9915634],[113.1839016,21.9919218],[113.1833371,21.9922609],[113.1825766,21.9926854],[113.181852,21.9930615],[113.1798363,21.9940701],[113.1769448,21.995606],[113.1734804,21.9973818],[113.1705969,21.9988397],[113.16888038763224,22.0]]},"properties":{"key":"way:196828774@detail:452_87","osmType":"way","osmId":196828774,"sourceRegion":"guangdong","featureType":"infrastructure","railClass":"national","mode":"rail","name":"广珠线","nameEn":"Guangzhu Line","ref":"0710","usage":"main","bridge":"viaduct","status":"operational","color":"#E54848","dataOrigin":"datum-2026-08-01","sourceKey":"way:196828774"}},{"type":"Feature","geometry":{"type":"LineString","coordinates":[[113.1989521,21.9792979],[113.189793,21.9870859]]},"properties":{"key":"way:196828783@detail:452_87","osmType":"way","osmId":196828783,"sourceRegion":"guangdong","featureType":"infrastructure","railClass":"national","mode":"rail","name":"广珠线","nameEn":"Guangzhu Line","ref":"0710","usage":"main","tunnel":"yes","status":"operational","color":"#E54848","dataOrigin":"datum-2026-08-01","sourceKey":"way:196828783"}},{"type":"Feature","geometry":{"type":"LineString","coordinates":[[113.2380393,21.9493658],[113.2377386,21.9496132],[113.2372537,21.9500121],[113.2369216,21.9502853],[113.2366057,21.9505949],[113.2364812,21.9507061],[113.2316486,21.9546636],[113.2313606,21.9548887],[113.231043,21.9551096],[113.2302646,21.9555842],[113.2284006,21.9567225],[113.2247726,21.9589299],[113.2244955,21.9591127],[113.2242098,21.9593192],[113.2239687,21.9594939],[113.223217,21.9601035],[113.2222753,21.9608821],[113.2221834,21.960956],[113.2216895,21.961353],[113.2216061,21.9614237],[113.2213563,21.9616301],[113.212739,21.9686837],[113.2126046,21.9687937],[113.211292,21.969865],[113.2104601,21.9705521],[113.2095907,21.9712657],[113.2064283,21.9738246]]},"properties":{"key":"way:667930943@detail:452_87","osmType":"way","osmId":667930943,"sourceRegion":"guangdong","featureType":"infrastructure","railClass":"national","mode":"rail","name":"广珠线","nameEn":"Guangzhu Line","ref":"0710","usage":"main","status":"operational","color":"#E54848","dataOrigin":"datum-2026-08-01","sourceKey":"way:667930943"}},{"type":"Feature","geometry":{"type":"LineString","coordinates":[[113.2064283,21.9738246],[113.2056248,21.9744642],[113.2051225,21.9748423],[113.2043341,21.9753462],[113.2032536,21.9759721]]},"properties":{"key":"way:667949429@detail:452_87","osmType":"way","osmId":667949429,"sourceRegion":"guangdong","featureType":"infrastructure","railClass":"national","mode":"rail","name":"广珠线","nameEn":"Guangzhu Line","ref":"0710","usage":"main","bridge":"viaduct","status":"operational","color":"#E54848","dataOrigin":"datum-2026-08-01","sourceKey":"way:667949429"}},{"type":"Feature","geometry":{"type":"LineString","coordinates":[[113.2032536,21.9759721],[113.2026956,21.9763154],[113.2020253,21.9767501],[113.2012759,21.9773005],[113.2005984,21.9778395],[113.1989521,21.9792979]]},"properties":{"key":"way:667949430@detail:452_87","osmType":"way","osmId":667949430,"sourceRegion":"guangdong","featureType":"infrastructure","railClass":"national","mode":"rail","name":"广珠线","nameEn":"Guangzhu Line","ref":"0710","usage":"main","status":"operational","color":"#E54848","dataOrigin":"datum-2026-08-01","sourceKey":"way:667949430"}},{"type":"Feature","geometry":{"type":"LineString","coordinates":[[113.2212448,21.9620198],[113.222288,21.9609535],[113.2224896,21.9607662],[113.2227921,21.9605127],[113.2240681,21.9594713]]},"properties":{"key":"way:667949431@detail:452_87","osmType":"way","osmId":667949431,"sourceRegion":"guangdong","featureType":"infrastructure","railClass":"minor","mode":"rail","name":"未命名","service":"yard","status":"operational","color":"#52636F","dataOrigin":"datum-2026-08-01","sourceKey":"way:667949431"}},{"type":"Feature","geometry":{"type":"LineString","coordinates":[[113.2089979,21.971606],[113.2092726,21.9714035],[113.210244,21.9706069],[113.2107201,21.9702125],[113.2109811,21.9700025],[113.2114594,21.9696108],[113.2115371,21.9695472],[113.2120755,21.9691063],[113.2122864,21.9689336]]},"properties":{"key":"way:667949432@detail:452_87","osmType":"way","osmId":667949432,"sourceRegion":"guangdong","featureType":"infrastructure","railClass":"minor","mode":"rail","name":"未命名","service":"yard","status":"operational","color":"#52636F","dataOrigin":"datum-2026-08-01","sourceKey":"way:667949432"}},{"type":"Feature","geometry":{"type":"LineString","coordinates":[[113.2059483,21.9738908],[113.2062887,21.9735663],[113.2064898,21.9733822],[113.2068399,21.9730974],[113.2073334,21.9726945],[113.2075842,21.9725079],[113.2079521,21.97227],[113.2084026,21.971976],[113.2089979,21.971606],[113.2093813,21.9713562],[113.2095937,21.9711966],[113.2109175,21.9701126],[113.211008,21.9700391],[113.211489,21.9696485],[113.2117479,21.9694383]]},"properties":{"key":"way:667949433@detail:452_87","osmType":"way","osmId":667949433,"sourceRegion":"guangdong","featureType":"infrastructure","railClass":"minor","mode":"rail","name":"未命名","service":"yard","status":"operational","color":"#52636F","dataOrigin":"datum-2026-08-01","sourceKey":"way:667949433"}},{"type":"Feature","geometry":{"type":"LineString","coordinates":[[113.212739,21.9686837],[113.2130907,21.9684404],[113.2136336,21.9680876],[113.2139982,21.9678523],[113.21419,21.9677035],[113.220028,21.9629272],[113.2202348,21.9627356],[113.2209312,21.9620411]]},"properties":{"key":"way:667949434@detail:452_87","osmType":"way","osmId":667949434,"sourceRegion":"guangdong","featureType":"infrastructure","railClass":"minor","mode":"rail","name":"未命名","service":"siding","status":"operational","color":"#52636F","dataOrigin":"datum-2026-08-01","sourceKey":"way:667949434"}},{"type":"Feature","geometry":{"type":"LineString","coordinates":[[113.2136336,21.9680876],[113.2139061,21.9678843],[113.2200027,21.9628895],[113.2202081,21.9627008],[113.2206032,21.962308]]},"properties":{"key":"way:667949435@detail:452_87","osmType":"way","osmId":667949435,"sourceRegion":"guangdong","featureType":"infrastructure","railClass":"minor","mode":"rail","name":"未命名","service":"siding","status":"operational","color":"#52636F","dataOrigin":"datum-2026-08-01","sourceKey":"way:667949435"}},{"type":"Feature","geometry":{"type":"LineString","coordinates":[[113.2211515,21.9618557],[113.2209312,21.9620411],[113.2206032,21.962308],[113.2133215,21.9682694],[113.2130907,21.9684404]]},"properties":{"key":"way:667949436@detail:452_87","osmType":"way","osmId":667949436,"sourceRegion":"guangdong","featureType":"infrastructure","railClass":"minor","mode":"rail","name":"未命名","service":"siding","status":"operational","color":"#52636F","dataOrigin":"datum-2026-08-01","sourceKey":"way:667949436"}},{"type":"Feature","geometry":{"type":"LineString","coordinates":[[113.2352262,21.9513744],[113.2359539,21.9507793],[113.2360769,21.950697],[113.2365564,21.950434],[113.2368384,21.9502514]]},"properties":{"key":"way:667949441@detail:452_87","osmType":"way","osmId":667949441,"sourceRegion":"guangdong","featureType":"infrastructure","railClass":"minor","mode":"rail","name":"未命名","service":"yard","status":"operational","color":"#52636F","dataOrigin":"datum-2026-08-01","sourceKey":"way:667949441"}},{"type":"Feature","geometry":{"type":"LineString","coordinates":[[113.2352594,21.9514203],[113.2360313,21.9507848],[113.2362127,21.950651],[113.2365564,21.950434]]},"properties":{"key":"way:667949442@detail:452_87","osmType":"way","osmId":667949442,"sourceRegion":"guangdong","featureType":"infrastructure","railClass":"minor","mode":"rail","name":"未命名","service":"yard","status":"operational","color":"#52636F","dataOrigin":"datum-2026-08-01","sourceKey":"way:667949442"}},{"type":"Feature","geometry":{"type":"LineString","coordinates":[[113.2006679,21.9575381],[113.2129651,21.9644953],[113.2134127,21.9646501],[113.2137541,21.9647486],[113.214141,21.9648155],[113.2146588,21.9648306],[113.2150438,21.9647943],[113.2156218,21.9646925],[113.2160563,21.9645532],[113.2164854,21.9643691],[113.2169307,21.9640905],[113.2188673,21.9625507],[113.219119,21.9623615],[113.2204753,21.9614649],[113.2209569,21.961155],[113.2220211,21.9604622],[113.2223152,21.9602746],[113.2236291,21.9594684],[113.2283458,21.9565928],[113.2301634,21.9554838],[113.2309717,21.9549932],[113.2312801,21.9547817],[113.231559,21.9545592],[113.2365857,21.9504373],[113.2368384,21.9502514],[113.237181,21.9500128]]},"properties":{"key":"way:667949460@detail:452_87","osmType":"way","osmId":667949460,"sourceRegion":"guangdong","featureType":"infrastructure","railClass":"minor","mode":"rail","name":"未命名","service":"yard","status":"operational","color":"#52636F","dataOrigin":"datum-2026-08-01","sourceKey":"way:667949460"}},{"type":"Feature","geometry":{"type":"LineString","coordinates":[[113.211248,21.9697231],[113.2114577,21.9695258],[113.2122619,21.9686922],[113.2125275,21.9683627],[113.2127325,21.9680158],[113.2128238,21.9678479],[113.212919,21.9676824],[113.2130665,21.9674622],[113.2131806,21.9673192],[113.2133415,21.9671599],[113.2134974,21.9670196],[113.2179415,21.9633318],[113.2191525,21.9623952],[113.2193001,21.9622856],[113.219654,21.9620532],[113.2199866,21.9618317],[113.2204753,21.9614649]]},"properties":{"key":"way:667949462@detail:452_87","osmType":"way","osmId":667949462,"sourceRegion":"guangdong","featureType":"infrastructure","railClass":"minor","mode":"rail","name":"未命名","service":"yard","status":"operational","color":"#52636F","dataOrigin":"datum-2026-08-01","sourceKey":"way:667949462"}},{"type":"Feature","geometry":{"type":"LineString","coordinates":[[113.2128077,21.9680506],[113.2131739,21.9675505],[113.2132865,21.9674149],[113.2133979,21.9673005],[113.213596,21.9671201],[113.2180863,21.9634163],[113.2192597,21.9624885],[113.2200075,21.9618832]]},"properties":{"key":"way:667949463@detail:452_87","osmType":"way","osmId":667949463,"sourceRegion":"guangdong","featureType":"infrastructure","railClass":"minor","mode":"rail","name":"未命名","service":"yard","status":"operational","color":"#52636F","dataOrigin":"datum-2026-08-01","sourceKey":"way:667949463"}},{"type":"Feature","geometry":{"type":"LineString","coordinates":[[113.21954,21.9621912],[113.2199866,21.9618317]]},"properties":{"key":"way:667949464@detail:452_87","osmType":"way","osmId":667949464,"sourceRegion":"guangdong","featureType":"infrastructure","railClass":"minor","mode":"rail","name":"未命名","service":"yard","status":"operational","color":"#52636F","dataOrigin":"datum-2026-08-01","sourceKey":"way:667949464"}},{"type":"Feature","geometry":{"type":"LineString","coordinates":[[113.2125275,21.9683627],[113.2131363,21.9675195],[113.213265,21.967374],[113.2133858,21.9672482],[113.2135647,21.9670881],[113.2180353,21.963389],[113.2192182,21.9624624],[113.21954,21.9621912],[113.2197547,21.9620408],[113.2200075,21.9618832],[113.2203206,21.9616775],[113.2217364,21.9607584],[113.221864,21.9606717],[113.2220722,21.9605368],[113.2226635,21.9601576],[113.2236492,21.9595134],[113.2289077,21.9563018],[113.2290017,21.9562427],[113.2295542,21.955905],[113.2296489,21.955849],[113.2310012,21.9550244],[113.2313123,21.9548141],[113.2315885,21.954594],[113.237181,21.9500128],[113.2372265,21.9499754],[113.2377052,21.949582],[113.2380178,21.949325]]},"properties":{"key":"way:667949465@detail:452_87","osmType":"way","osmId":667949465,"sourceRegion":"guangdong","featureType":"infrastructure","railClass":"minor","mode":"rail","name":"未命名","service":"yard","status":"operational","color":"#52636F","dataOrigin":"datum-2026-08-01","sourceKey":"way:667949465"}},{"type":"Feature","geometry":{"type":"LineString","coordinates":[[113.2117479,21.9694383],[113.211292,21.969865]]},"properties":{"key":"way:667949466@detail:452_87","osmType":"way","osmId":667949466,"sourceRegion":"guangdong","featureType":"infrastructure","railClass":"national","mode":"rail","name":"未命名","status":"operational","color":"#E54848","dataOrigin":"datum-2026-08-01","sourceKey":"way:667949466"}},{"type":"Feature","geometry":{"type":"LineString","coordinates":[[113.221864,21.9606717],[113.2209569,21.961155]]},"properties":{"key":"way:667949499@detail:452_87","osmType":"way","osmId":667949499,"sourceRegion":"guangdong","featureType":"infrastructure","railClass":"minor","mode":"rail","name":"未命名","service":"yard","status":"operational","color":"#52636F","dataOrigin":"datum-2026-08-01","sourceKey":"way:667949499"}},{"type":"Feature","geometry":{"type":"LineString","coordinates":[[113.221065,21.9612671],[113.2217364,21.9607584]]},"properties":{"key":"way:667949500@detail:452_87","osmType":"way","osmId":667949500,"sourceRegion":"guangdong","featureType":"infrastructure","railClass":"minor","mode":"rail","name":"未命名","service":"yard","status":"operational","color":"#52636F","dataOrigin":"datum-2026-08-01","sourceKey":"way:667949500"}},{"type":"Feature","geometry":{"type":"LineString","coordinates":[[113.2369216,21.9502853],[113.231621,21.9546284],[113.2313365,21.9548526],[113.2310204,21.9550684],[113.2296771,21.9558857],[113.2295772,21.95595],[113.2290402,21.9562782],[113.2289479,21.9563364],[113.2241071,21.9592888],[113.2236908,21.959559],[113.2221258,21.9605891],[113.221065,21.9612671],[113.2198096,21.9620955],[113.2192839,21.9625258],[113.2181104,21.9634561],[113.2136354,21.9671603],[113.2134032,21.967384],[113.2131846,21.967619],[113.2129996,21.9678241],[113.2128077,21.9680506],[113.2126803,21.9682234],[113.2121707,21.9689087],[113.2119937,21.9691028],[113.2115149,21.969507],[113.211248,21.9697231],[113.210691,21.9701821],[113.21045,21.9703813],[113.2101953,21.9705703],[113.2041661,21.9743967]]},"properties":{"key":"way:667963885@detail:452_87","osmType":"way","osmId":667963885,"sourceRegion":"guangdong","featureType":"infrastructure","railClass":"minor","mode":"rail","name":"未命名","service":"yard","status":"operational","color":"#52636F","dataOrigin":"datum-2026-08-01","sourceKey":"way:667963885"}},{"type":"Feature","geometry":{"type":"LineString","coordinates":[[113.2377052,21.949582],[113.2372537,21.9500121]]},"properties":{"key":"way:1050589390@detail:452_87","osmType":"way","osmId":1050589390,"sourceRegion":"guangdong","featureType":"infrastructure","railClass":"minor","mode":"rail","name":"未命名","service":"yard","status":"operational","color":"#52636F","dataOrigin":"datum-2026-08-01","sourceKey":"way:1050589390"}},{"type":"Feature","geometry":{"type":"LineString","coordinates":[[113.2372265,21.9499754],[113.2377386,21.9496132]]},"properties":{"key":"way:1050589391@detail:452_87","osmType":"way","osmId":1050589391,"sourceRegion":"guangdong","featureType":"infrastructure","railClass":"minor","mode":"rail","name":"未命名","service":"yard","status":"operational","color":"#52636F","dataOrigin":"datum-2026-08-01","sourceKey":"way:1050589391"}},{"type":"Feature","geometry":{"type":"LineString","coordinates":[[113.2296489,21.955849],[113.2301634,21.9554838]]},"properties":{"key":"way:1050589392@detail:452_87","osmType":"way","osmId":1050589392,"sourceRegion":"guangdong","featureType":"infrastructure","railClass":"minor","mode":"rail","name":"未命名","service":"yard","status":"operational","color":"#52636F","dataOrigin":"datum-2026-08-01","sourceKey":"way:1050589392"}},{"type":"Feature","geometry":{"type":"LineString","coordinates":[[113.2296771,21.9558857],[113.2302646,21.9555842]]},"properties":{"key":"way:1050589393@detail:452_87","osmType":"way","osmId":1050589393,"sourceRegion":"guangdong","featureType":"infrastructure","railClass":"minor","mode":"rail","name":"未命名","service":"yard","status":"operational","color":"#52636F","dataOrigin":"datum-2026-08-01","sourceKey":"way:1050589393"}},{"type":"Feature","geometry":{"type":"LineString","coordinates":[[113.2290017,21.9562427],[113.2295772,21.95595]]},"properties":{"key":"way:1050589394@detail:452_87","osmType":"way","osmId":1050589394,"sourceRegion":"guangdong","featureType":"infrastructure","railClass":"minor","mode":"rail","name":"未命名","service":"yard","status":"operational","color":"#52636F","dataOrigin":"datum-2026-08-01","sourceKey":"way:1050589394"}},{"type":"Feature","geometry":{"type":"LineString","coordinates":[[113.2290402,21.9562782],[113.2295542,21.955905]]},"properties":{"key":"way:1050589395@detail:452_87","osmType":"way","osmId":1050589395,"sourceRegion":"guangdong","featureType":"infrastructure","railClass":"minor","mode":"rail","name":"未命名","service":"yard","status":"operational","color":"#52636F","dataOrigin":"datum-2026-08-01","sourceKey":"way:1050589395"}},{"type":"Feature","geometry":{"type":"LineString","coordinates":[[113.2283458,21.9565928],[113.2289077,21.9563018]]},"properties":{"key":"way:1050589396@detail:452_87","osmType":"way","osmId":1050589396,"sourceRegion":"guangdong","featureType":"infrastructure","railClass":"minor","mode":"rail","name":"未命名","service":"yard","status":"operational","color":"#52636F","dataOrigin":"datum-2026-08-01","sourceKey":"way:1050589396"}},{"type":"Feature","geometry":{"type":"LineString","coordinates":[[113.2284006,21.9567225],[113.2289479,21.9563364]]},"properties":{"key":"way:1050589397@detail:452_87","osmType":"way","osmId":1050589397,"sourceRegion":"guangdong","featureType":"infrastructure","railClass":"minor","mode":"rail","name":"未命名","service":"yard","status":"operational","color":"#52636F","dataOrigin":"datum-2026-08-01","sourceKey":"way:1050589397"}},{"type":"Feature","geometry":{"type":"LineString","coordinates":[[113.2207431,21.9620712],[113.2203086,21.9623739],[113.2201729,21.962478],[113.2122864,21.9689336]]},"properties":{"key":"way:1050589402@detail:452_87","osmType":"way","osmId":1050589402,"sourceRegion":"guangdong","featureType":"infrastructure","railClass":"minor","mode":"rail","name":"未命名","service":"siding","status":"operational","color":"#52636F","dataOrigin":"datum-2026-08-01","sourceKey":"way:1050589402"}},{"type":"Feature","geometry":{"type":"LineString","coordinates":[[113.2216572,21.9613249],[113.2208385,21.961993],[113.2207431,21.9620712],[113.2120917,21.9691557],[113.2118231,21.9693765],[113.2117479,21.9694383]]},"properties":{"key":"way:1050589403@detail:452_87","osmType":"way","osmId":1050589403,"sourceRegion":"guangdong","featureType":"infrastructure","railClass":"minor","mode":"rail","name":"未命名","service":"siding","status":"operational","color":"#52636F","dataOrigin":"datum-2026-08-01","sourceKey":"way:1050589403"}},{"type":"Feature","geometry":{"type":"LineString","coordinates":[[113.2216572,21.9613249],[113.2221478,21.9609246],[113.2225821,21.9605624],[113.2227601,21.9604262],[113.223217,21.9601035]]},"properties":{"key":"way:1050589404@detail:452_87","osmType":"way","osmId":1050589404,"sourceRegion":"guangdong","featureType":"infrastructure","railClass":"minor","mode":"rail","name":"未命名","service":"yard","status":"operational","color":"#52636F","dataOrigin":"datum-2026-08-01","sourceKey":"way:1050589404"}},{"type":"Feature","geometry":{"type":"LineString","coordinates":[[113.2216572,21.9613249],[113.2221834,21.960956]]},"properties":{"key":"way:1050589405@detail:452_87","osmType":"way","osmId":1050589405,"sourceRegion":"guangdong","featureType":"infrastructure","railClass":"minor","mode":"rail","name":"未命名","service":"siding","status":"operational","color":"#52636F","dataOrigin":"datum-2026-08-01","sourceKey":"way:1050589405"}},{"type":"Feature","geometry":{"type":"LineString","coordinates":[[113.2211515,21.9618557],[113.2224896,21.9607662]]},"properties":{"key":"way:1050589406@detail:452_87","osmType":"way","osmId":1050589406,"sourceRegion":"guangdong","featureType":"infrastructure","railClass":"minor","mode":"rail","name":"未命名","service":"yard","status":"operational","color":"#52636F","dataOrigin":"datum-2026-08-01","sourceKey":"way:1050589406"}},{"type":"Feature","geometry":{"type":"LineString","coordinates":[[113.2213563,21.9616301],[113.2208385,21.961993]]},"properties":{"key":"way:1050589407@detail:452_87","osmType":"way","osmId":1050589407,"sourceRegion":"guangdong","featureType":"infrastructure","railClass":"minor","mode":"rail","name":"未命名","service":"siding","status":"operational","color":"#52636F","dataOrigin":"datum-2026-08-01","sourceKey":"way:1050589407"}},{"type":"Feature","geometry":{"type":"LineString","coordinates":[[113.2216895,21.961353],[113.2221478,21.9609246]]},"properties":{"key":"way:1050589408@detail:452_87","osmType":"way","osmId":1050589408,"sourceRegion":"guangdong","featureType":"infrastructure","railClass":"minor","mode":"rail","name":"未命名","service":"yard","status":"operational","color":"#52636F","dataOrigin":"datum-2026-08-01","sourceKey":"way:1050589408"}},{"type":"Feature","geometry":{"type":"LineString","coordinates":[[113.2211515,21.9618557],[113.2216061,21.9614237]]},"properties":{"key":"way:1050589409@detail:452_87","osmType":"way","osmId":1050589409,"sourceRegion":"guangdong","featureType":"infrastructure","railClass":"minor","mode":"rail","name":"未命名","service":"siding","status":"operational","color":"#52636F","dataOrigin":"datum-2026-08-01","sourceKey":"way:1050589409"}},{"type":"Feature","geometry":{"type":"LineString","coordinates":[[113.2227921,21.9605127],[113.2222753,21.9608821]]},"properties":{"key":"way:1050589410@detail:452_87","osmType":"way","osmId":1050589410,"sourceRegion":"guangdong","featureType":"infrastructure","railClass":"minor","mode":"rail","name":"未命名","service":"yard","status":"operational","color":"#52636F","dataOrigin":"datum-2026-08-01","sourceKey":"way:1050589410"}},{"type":"Feature","geometry":{"type":"LineString","coordinates":[[113.2127325,21.9680158],[113.2129405,21.9677035],[113.2131014,21.9674909],[113.2132221,21.9673429],[113.2133657,21.967201],[113.2135312,21.967054],[113.2180032,21.9633566],[113.219182,21.9624312],[113.2193322,21.9622993],[113.219654,21.9620532]]},"properties":{"key":"way:1050589412@detail:452_87","osmType":"way","osmId":1050589412,"sourceRegion":"guangdong","featureType":"infrastructure","railClass":"minor","mode":"rail","name":"未命名","service":"yard","status":"operational","color":"#52636F","dataOrigin":"datum-2026-08-01","sourceKey":"way:1050589412"}},{"type":"Feature","geometry":{"type":"LineString","coordinates":[[113.2122619,21.9686922],[113.2124698,21.9684696],[113.2126803,21.9682234]]},"properties":{"key":"way:1050589413@detail:452_87","osmType":"way","osmId":1050589413,"sourceRegion":"guangdong","featureType":"infrastructure","railClass":"minor","mode":"rail","name":"未命名","service":"yard","status":"operational","color":"#52636F","dataOrigin":"datum-2026-08-01","sourceKey":"way:1050589413"}},{"type":"Feature","geometry":{"type":"LineString","coordinates":[[113.2115371,21.9695472],[113.2119937,21.9691028]]},"properties":{"key":"way:1050589414@detail:452_87","osmType":"way","osmId":1050589414,"sourceRegion":"guangdong","featureType":"infrastructure","railClass":"minor","mode":"rail","name":"未命名","service":"yard","status":"operational","color":"#52636F","dataOrigin":"datum-2026-08-01","sourceKey":"way:1050589414"}},{"type":"Feature","geometry":{"type":"LineString","coordinates":[[113.2122864,21.9689336],[113.2118231,21.9693765]]},"properties":{"key":"way:1050589415@detail:452_87","osmType":"way","osmId":1050589415,"sourceRegion":"guangdong","featureType":"infrastructure","railClass":"minor","mode":"rail","name":"未命名","service":"siding","status":"operational","color":"#52636F","dataOrigin":"datum-2026-08-01","sourceKey":"way:1050589415"}},{"type":"Feature","geometry":{"type":"LineString","coordinates":[[113.2115149,21.969507],[113.2120755,21.9691063]]},"properties":{"key":"way:1050589416@detail:452_87","osmType":"way","osmId":1050589416,"sourceRegion":"guangdong","featureType":"infrastructure","railClass":"minor","mode":"rail","name":"未命名","service":"yard","status":"operational","color":"#52636F","dataOrigin":"datum-2026-08-01","sourceKey":"way:1050589416"}},{"type":"Feature","geometry":{"type":"LineString","coordinates":[[113.2109811,21.9700025],[113.211489,21.9696485]]},"properties":{"key":"way:1050589417@detail:452_87","osmType":"way","osmId":1050589417,"sourceRegion":"guangdong","featureType":"infrastructure","railClass":"minor","mode":"rail","name":"未命名","service":"yard","status":"operational","color":"#52636F","dataOrigin":"datum-2026-08-01","sourceKey":"way:1050589417"}},{"type":"Feature","geometry":{"type":"LineString","coordinates":[[113.211008,21.9700391],[113.2114594,21.9696108]]},"properties":{"key":"way:1050589418@detail:452_87","osmType":"way","osmId":1050589418,"sourceRegion":"guangdong","featureType":"infrastructure","railClass":"minor","mode":"rail","name":"未命名","service":"yard","status":"operational","color":"#52636F","dataOrigin":"datum-2026-08-01","sourceKey":"way:1050589418"}},{"type":"Feature","geometry":{"type":"LineString","coordinates":[[113.2120917,21.9691557],[113.2126046,21.9687937]]},"properties":{"key":"way:1050589419@detail:452_87","osmType":"way","osmId":1050589419,"sourceRegion":"guangdong","featureType":"infrastructure","railClass":"minor","mode":"rail","name":"未命名","service":"siding","status":"operational","color":"#52636F","dataOrigin":"datum-2026-08-01","sourceKey":"way:1050589419"}},{"type":"Feature","geometry":{"type":"LineString","coordinates":[[113.2104601,21.9705521],[113.2109175,21.9701126]]},"properties":{"key":"way:1050589420@detail:452_87","osmType":"way","osmId":1050589420,"sourceRegion":"guangdong","featureType":"infrastructure","railClass":"minor","mode":"rail","name":"未命名","service":"yard","status":"operational","color":"#52636F","dataOrigin":"datum-2026-08-01","sourceKey":"way:1050589420"}},{"type":"Feature","geometry":{"type":"LineString","coordinates":[[113.210244,21.9706069],[113.210691,21.9701821]]},"properties":{"key":"way:1050589421@detail:452_87","osmType":"way","osmId":1050589421,"sourceRegion":"guangdong","featureType":"infrastructure","railClass":"minor","mode":"rail","name":"未命名","service":"yard","status":"operational","color":"#52636F","dataOrigin":"datum-2026-08-01","sourceKey":"way:1050589421"}},{"type":"Feature","geometry":{"type":"LineString","coordinates":[[113.2101953,21.9705703],[113.2107201,21.9702125]]},"properties":{"key":"way:1050589422@detail:452_87","osmType":"way","osmId":1050589422,"sourceRegion":"guangdong","featureType":"infrastructure","railClass":"minor","mode":"rail","name":"未命名","service":"yard","status":"operational","color":"#52636F","dataOrigin":"datum-2026-08-01","sourceKey":"way:1050589422"}},{"type":"Feature","geometry":{"type":"LineString","coordinates":[[113.205374,21.9740787],[113.2065636,21.9732976],[113.2068399,21.9730974]]},"properties":{"key":"way:1050589423@detail:452_87","osmType":"way","osmId":1050589423,"sourceRegion":"guangdong","featureType":"infrastructure","railClass":"minor","mode":"rail","name":"未命名","service":"yard","status":"operational","color":"#52636F","dataOrigin":"datum-2026-08-01","sourceKey":"way:1050589423"}},{"type":"Feature","geometry":{"type":"LineString","coordinates":[[113.2084026,21.971976],[113.2080321,21.9722579],[113.2062873,21.9736857],[113.206109,21.9738212],[113.2056707,21.9741172]]},"properties":{"key":"way:1050589424@detail:452_87","osmType":"way","osmId":1050589424,"sourceRegion":"guangdong","featureType":"infrastructure","railClass":"minor","mode":"rail","name":"未命名","service":"yard","status":"operational","color":"#52636F","dataOrigin":"datum-2026-08-01","sourceKey":"way:1050589424"}},{"type":"Feature","geometry":{"type":"LineString","coordinates":[[113.2051264,21.9745609],[113.2056707,21.9741172],[113.2059483,21.9738908],[113.207721,21.9724457],[113.2079521,21.97227]]},"properties":{"key":"way:1050589425@detail:452_87","osmType":"way","osmId":1050589425,"sourceRegion":"guangdong","featureType":"infrastructure","railClass":"minor","mode":"rail","name":"未命名","service":"yard","status":"operational","color":"#52636F","dataOrigin":"datum-2026-08-01","sourceKey":"way:1050589425"}},{"type":"Feature","geometry":{"type":"LineString","coordinates":[[113.189793,21.9870859],[113.1889588,21.987813]]},"properties":{"key":"way:1050601357@detail:452_87","osmType":"way","osmId":1050601357,"sourceRegion":"guangdong","featureType":"infrastructure","railClass":"national","mode":"rail","name":"广珠线","nameEn":"Guangzhu Line","ref":"0710","usage":"main","status":"operational","color":"#E54848","dataOrigin":"datum-2026-08-01","sourceKey":"way:1050601357"}}]}