{"type":"FeatureCollection","features":[{"type":"Feature","geometry":{"type":"Point","coordinates":[113.1594373,22.0203993]},"properties":{"key":"node:6254779325","osmType":"node","osmId":6254779325,"sourceRegion":"guangdong","featureType":"station","railClass":"minor","mode":"halt","name":"珠海西","nameEn":"Zhuhaixi","status":"operational","color":"#52636F","dataOrigin":"datum-2026-08-01","sourceKey":"node:6254779325","stationGroup":"珠海西","hasOperationalRail":true,"hasConstructionRail":false}},{"type":"Feature","geometry":{"type":"Point","coordinates":[113.1306088,22.1690003]},"properties":{"key":"node:7707072351","osmType":"node","osmId":7707072351,"sourceRegion":"guangdong","featureType":"station","railClass":"minor","mode":"halt","name":"斗门","nameEn":"Doumen","status":"operational","color":"#52636F","dataOrigin":"datum-2026-08-01","sourceKey":"node:7707072351","stationGroup":"斗门","hasOperationalRail":true,"hasConstructionRail":false}},{"type":"Feature","geometry":{"type":"LineString","coordinates":[[113.1329151,22.1369766],[113.1317297,22.1427901],[113.1315213,22.1439343],[113.1308381,22.14739],[113.1302841,22.1504072],[113.1299208,22.1532288],[113.1298376,22.154998],[113.1298681,22.1570832],[113.129963,22.1587512],[113.1302138,22.1627586],[113.1304276,22.1671637],[113.1305405,22.1705785],[113.1309789,22.1787591],[113.1310666,22.1806631],[113.1312937,22.1852317],[113.1315564,22.1899889],[113.1316415,22.1917538],[113.131984,22.1935186],[113.133249,22.1968193],[113.1351372,22.201898],[113.1360225,22.2041308],[113.1369063,22.2064167],[113.137641,22.2087241],[113.1380395,22.210353],[113.1381273,22.2120915],[113.1379349,22.2139335],[113.1376308,22.2153343],[113.1373055,22.216269],[113.1367284,22.2182996],[113.1360795,22.2199193],[113.1353478,22.2220313],[113.1342274,22.2251328],[113.1334047,22.2274828],[113.1321415,22.2312079],[113.1317148,22.2323075],[113.1302329,22.2364554]]},"properties":{"key":"way:196802057@detail:452_88","osmType":"way","osmId":196802057,"sourceRegion":"guangdong","featureType":"infrastructure","railClass":"national","mode":"rail","name":"广珠线","nameEn":"Guangzhu Line","ref":"0710","usage":"main","bridge":"viaduct","status":"operational","color":"#E54848","dataOrigin":"datum-2026-08-01","sourceKey":"way:196802057"}},{"type":"Feature","geometry":{"type":"LineString","coordinates":[[113.16888038763224,22.0],[113.1678003,22.0007301],[113.1669723,22.0014091],[113.1662937,22.0021487],[113.1654548,22.0030974],[113.1647661,22.004046],[113.1640605,22.0052533]]},"properties":{"key":"way:196828774@detail:452_88","osmType":"way","osmId":196828774,"sourceRegion":"guangdong","featureType":"infrastructure","railClass":"national","mode":"rail","name":"广珠线","nameEn":"Guangzhu Line","ref":"0710","usage":"main","bridge":"viaduct","status":"operational","color":"#E54848","dataOrigin":"datum-2026-08-01","sourceKey":"way:196828774"}},{"type":"Feature","geometry":{"type":"LineString","coordinates":[[113.1302329,22.2364554],[113.1280946,22.2427679],[113.1272608,22.2460276],[113.127191,22.2489318],[113.12726196606481,22.25]]},"properties":{"key":"way:281895150@detail:452_88","osmType":"way","osmId":281895150,"sourceRegion":"guangdong","featureType":"infrastructure","railClass":"national","mode":"rail","name":"广珠线","nameEn":"Guangzhu Line","ref":"0710","usage":"main","tunnel":"yes","status":"operational","color":"#E54848","dataOrigin":"datum-2026-08-01","sourceKey":"way:281895150"}},{"type":"Feature","geometry":{"type":"LineString","coordinates":[[113.1610366,22.0139945],[113.1597026,22.0158684],[113.1595709,22.0162737],[113.1574122,22.0229194],[113.1572901,22.0232953],[113.157199,22.0238298],[113.157236,22.0257502]]},"properties":{"key":"way:667963895@detail:452_88","osmType":"way","osmId":667963895,"sourceRegion":"guangdong","featureType":"infrastructure","railClass":"national","mode":"rail","name":"未命名","status":"operational","color":"#E54848","dataOrigin":"datum-2026-08-01","sourceKey":"way:667963895"}},{"type":"Feature","geometry":{"type":"LineString","coordinates":[[113.1534559,22.037653],[113.1515251,22.0435904],[113.1510926,22.0450312],[113.1508073,22.0459401],[113.150572,22.0470317],[113.1502002,22.0490598],[113.1499194,22.0505353],[113.1496279,22.0517301],[113.14925,22.0537283],[113.1487157,22.056488],[113.1478794,22.0606486],[113.1475594,22.0621475],[113.1467383,22.0667723],[113.1456451,22.0719176],[113.144998,22.0755681],[113.1446287,22.0774526],[113.1444589,22.0782816],[113.1431575,22.0850837],[113.1425064,22.0886256],[113.1406041,22.097833],[113.1392974,22.1043083],[113.1384536,22.1087157],[113.1380908,22.1107132],[113.1380241,22.1110809]]},"properties":{"key":"way:667963896@detail:452_88","osmType":"way","osmId":667963896,"sourceRegion":"guangdong","featureType":"infrastructure","railClass":"national","mode":"rail","name":"广珠线","nameEn":"Guangzhu Line","ref":"0710","usage":"main","bridge":"yes","status":"operational","color":"#E54848","dataOrigin":"datum-2026-08-01","sourceKey":"way:667963896"}},{"type":"Feature","geometry":{"type":"LineString","coordinates":[[113.1640605,22.0052533],[113.1638919,22.0056048],[113.1633496,22.0068553],[113.1625623,22.0093119]]},"properties":{"key":"way:1003741020@detail:452_88","osmType":"way","osmId":1003741020,"sourceRegion":"guangdong","featureType":"infrastructure","railClass":"national","mode":"rail","name":"广珠线","nameEn":"Guangzhu Line","ref":"0710","usage":"main","status":"operational","color":"#E54848","dataOrigin":"datum-2026-08-01","sourceKey":"way:1003741020"}},{"type":"Feature","geometry":{"type":"LineString","coordinates":[[113.1625623,22.0093119],[113.1610366,22.0139945],[113.1603618,22.016229],[113.1583014,22.0225686],[113.157236,22.0257502],[113.1560749,22.0294502],[113.1541481,22.0355036]]},"properties":{"key":"way:1003741021@detail:452_88","osmType":"way","osmId":1003741021,"sourceRegion":"guangdong","featureType":"infrastructure","railClass":"national","mode":"rail","name":"广珠线","nameEn":"Guangzhu Line","ref":"0710","usage":"main","status":"operational","color":"#E54848","dataOrigin":"datum-2026-08-01","sourceKey":"way:1003741021"}},{"type":"Feature","geometry":{"type":"LineString","coordinates":[[113.1541481,22.0355036],[113.1539796,22.0360329]]},"properties":{"key":"way:1003741022@detail:452_88","osmType":"way","osmId":1003741022,"sourceRegion":"guangdong","featureType":"infrastructure","railClass":"national","mode":"rail","name":"广珠线","nameEn":"Guangzhu Line","ref":"0710","usage":"main","bridge":"yes","status":"operational","color":"#E54848","dataOrigin":"datum-2026-08-01","sourceKey":"way:1003741022"}},{"type":"Feature","geometry":{"type":"LineString","coordinates":[[113.1539796,22.0360329],[113.1538379,22.0364782],[113.1534559,22.037653]]},"properties":{"key":"way:1003741023@detail:452_88","osmType":"way","osmId":1003741023,"sourceRegion":"guangdong","featureType":"infrastructure","railClass":"national","mode":"rail","name":"广珠线","nameEn":"Guangzhu Line","ref":"0710","usage":"main","status":"operational","color":"#E54848","dataOrigin":"datum-2026-08-01","sourceKey":"way:1003741023"}},{"type":"Feature","geometry":{"type":"LineString","coordinates":[[113.1362376,22.1199671],[113.1353596,22.1245386]]},"properties":{"key":"way:1003741024@detail:452_88","osmType":"way","osmId":1003741024,"sourceRegion":"guangdong","featureType":"infrastructure","railClass":"national","mode":"rail","name":"广珠线","nameEn":"Guangzhu Line","ref":"0710","usage":"main","status":"operational","color":"#E54848","dataOrigin":"datum-2026-08-01","sourceKey":"way:1003741024"}},{"type":"Feature","geometry":{"type":"LineString","coordinates":[[113.1380241,22.1110809],[113.137814,22.1121576],[113.1371986,22.1152046]]},"properties":{"key":"way:1003741025@detail:452_88","osmType":"way","osmId":1003741025,"sourceRegion":"guangdong","featureType":"infrastructure","railClass":"national","mode":"rail","name":"广珠线","nameEn":"Guangzhu Line","ref":"0710","usage":"main","status":"operational","color":"#E54848","dataOrigin":"datum-2026-08-01","sourceKey":"way:1003741025"}},{"type":"Feature","geometry":{"type":"LineString","coordinates":[[113.1371986,22.1152046],[113.1367472,22.1175266],[113.1362376,22.1199671]]},"properties":{"key":"way:1003741026@detail:452_88","osmType":"way","osmId":1003741026,"sourceRegion":"guangdong","featureType":"infrastructure","railClass":"national","mode":"rail","name":"广珠线","nameEn":"Guangzhu Line","ref":"0710","usage":"main","bridge":"yes","status":"operational","color":"#E54848","dataOrigin":"datum-2026-08-01","sourceKey":"way:1003741026"}},{"type":"Feature","geometry":{"type":"LineString","coordinates":[[113.1353596,22.1245386],[113.1352508,22.1250992]]},"properties":{"key":"way:1003741067@detail:452_88","osmType":"way","osmId":1003741067,"sourceRegion":"guangdong","featureType":"infrastructure","railClass":"national","mode":"rail","name":"广珠线","nameEn":"Guangzhu Line","ref":"0710","usage":"main","bridge":"viaduct","status":"operational","color":"#E54848","dataOrigin":"datum-2026-08-01","sourceKey":"way:1003741067"}},{"type":"Feature","geometry":{"type":"LineString","coordinates":[[113.1352508,22.1250992],[113.1345415,22.1287936],[113.1344968,22.1290263]]},"properties":{"key":"way:1003741068@detail:452_88","osmType":"way","osmId":1003741068,"sourceRegion":"guangdong","featureType":"infrastructure","railClass":"national","mode":"rail","name":"广珠线","nameEn":"Guangzhu Line","ref":"0710","usage":"main","status":"operational","color":"#E54848","dataOrigin":"datum-2026-08-01","sourceKey":"way:1003741068"}},{"type":"Feature","geometry":{"type":"LineString","coordinates":[[113.1344968,22.1290263],[113.1343811,22.1295961]]},"properties":{"key":"way:1003741069@detail:452_88","osmType":"way","osmId":1003741069,"sourceRegion":"guangdong","featureType":"infrastructure","railClass":"national","mode":"rail","name":"广珠线","nameEn":"Guangzhu Line","ref":"0710","usage":"main","bridge":"viaduct","status":"operational","color":"#E54848","dataOrigin":"datum-2026-08-01","sourceKey":"way:1003741069"}},{"type":"Feature","geometry":{"type":"LineString","coordinates":[[113.1343811,22.1295961],[113.1337461,22.1327217],[113.1329151,22.1369766]]},"properties":{"key":"way:1003741070@detail:452_88","osmType":"way","osmId":1003741070,"sourceRegion":"guangdong","featureType":"infrastructure","railClass":"national","mode":"rail","name":"广珠线","nameEn":"Guangzhu Line","ref":"0710","usage":"main","status":"operational","color":"#E54848","dataOrigin":"datum-2026-08-01","sourceKey":"way:1003741070"}}]}