{"type":"FeatureCollection","features":[{"type":"Feature","geometry":{"type":"LineString","coordinates":[[113.123242,24.9771881],[113.1229505,24.9757936],[113.122616,24.9744152],[113.1226217,24.9741467],[113.122674,24.9739121],[113.1228041,24.9737298],[113.1235603,24.9728895],[113.1236904,24.9726536],[113.1237229,24.9724104],[113.1236579,24.9721082],[113.1235216,24.971806],[113.123292,24.9714826],[113.1225232,24.9706064],[113.1221671,24.9702522],[113.1217755,24.9699622],[113.1215753,24.9697611],[113.1214654,24.9695758],[113.1213975,24.9694031],[113.1213731,24.9691377],[113.1214718,24.9688114],[113.1218772,24.9683638],[113.1222322,24.9680187],[113.1223614,24.9678102],[113.1224626,24.9675677],[113.1224579,24.9673221],[113.1220187,24.9660649],[113.1218504,24.9658565],[113.1216602,24.9657312],[113.1214586,24.9656839],[113.1187948,24.9656051],[113.118511,24.9656291],[113.1180882,24.9657765],[113.1156681,24.9670894],[113.1154689,24.9671896],[113.1152261,24.9672655],[113.1143154,24.9675161],[113.1139983,24.9675456],[113.1136812,24.9674793],[113.1134698,24.9673539],[113.1122258,24.966322],[113.1120063,24.9660714],[113.1112518,24.9647558],[113.1111491,24.9645225],[113.1110582,24.9643695],[113.1107278,24.9640815],[113.1104496,24.9638871],[113.1098574,24.9634157],[113.1097389,24.9632556],[113.109683,24.9630718],[113.1096645,24.9628796],[113.1097052,24.962769],[113.1101078,24.9623988],[113.1102257,24.9622487],[113.1105409,24.9617858],[113.1107931,24.9614683],[113.1111153,24.9608755],[113.1117737,24.9589999],[113.1118018,24.958784],[113.1117645,24.9585385],[113.1107276,24.9547993],[113.1106109,24.9544738],[113.1088773,24.9516835],[113.108568,24.951137],[113.1083569,24.9507218]]},"properties":{"key":"way:628993865@detail:452_99","osmType":"way","osmId":628993865,"sourceRegion":"guangdong","featureType":"infrastructure","railClass":"minor","mode":"abandoned","name":"Y860","ref":"Y860","status":"operational","color":"#52636F","dataOrigin":"datum-2026-08-01","sourceKey":"way:628993865"}},{"type":"Feature","geometry":{"type":"LineString","coordinates":[[113.1286584,24.983105],[113.1258532,24.9823358],[113.1256132,24.9822526],[113.1254307,24.9821102]]},"properties":{"key":"way:628993866@detail:452_99","osmType":"way","osmId":628993866,"sourceRegion":"guangdong","featureType":"infrastructure","railClass":"minor","mode":"abandoned","name":"乳阳森林铁路","status":"operational","color":"#52636F","dataOrigin":"datum-2026-08-01","sourceKey":"way:628993866"}},{"type":"Feature","geometry":{"type":"LineString","coordinates":[[113.1233482,24.9776678],[113.123242,24.9771881]]},"properties":{"key":"way:1157075694@detail:452_99","osmType":"way","osmId":1157075694,"sourceRegion":"guangdong","featureType":"infrastructure","railClass":"minor","mode":"abandoned","name":"Y860","ref":"Y860","bridge":"yes","status":"operational","color":"#52636F","dataOrigin":"datum-2026-08-01","sourceKey":"way:1157075694"}},{"type":"Feature","geometry":{"type":"LineString","coordinates":[[113.1314674,24.9831223],[113.1306718,24.9834378],[113.1303355,24.9834971],[113.1300366,24.9834886],[113.129607,24.9833701],[113.1286584,24.983105]]},"properties":{"key":"way:1279812128@detail:452_99","osmType":"way","osmId":1279812128,"sourceRegion":"guangdong","featureType":"infrastructure","railClass":"minor","mode":"abandoned","name":"乳阳森林铁路","status":"operational","color":"#52636F","dataOrigin":"datum-2026-08-01","sourceKey":"way:1279812128"}},{"type":"Feature","geometry":{"type":"LineString","coordinates":[[113.1408694,24.999073],[113.139459,24.9947407],[113.1393371,24.9941143],[113.139207,24.9929204],[113.1390118,24.9919623],[113.1379385,24.9892871],[113.1376748,24.9888696],[113.1373089,24.9884642],[113.1369796,24.9882468],[113.1366543,24.9881068],[113.1358168,24.9877614],[113.1352477,24.9874076],[113.1348411,24.9870391],[113.134711,24.9867443],[113.1347436,24.9865085],[113.1351257,24.9854767],[113.1353534,24.9849092],[113.1354591,24.9845923],[113.1354835,24.9843417],[113.1354184,24.984069],[113.1351393,24.98329],[113.1350089,24.9830673],[113.1347876,24.9828542],[113.1342792,24.9826325],[113.1337466,24.9824478],[113.133383,24.9823429],[113.1332123,24.9823022],[113.1330308,24.9823393],[113.1327751,24.9824791],[113.1314674,24.9831223]]},"properties":{"key":"way:1279812129@detail:452_99","osmType":"way","osmId":1279812129,"sourceRegion":"guangdong","featureType":"infrastructure","railClass":"minor","mode":"abandoned","name":"乳阳森林铁路","status":"operational","color":"#52636F","dataOrigin":"datum-2026-08-01","sourceKey":"way:1279812129"}},{"type":"Feature","geometry":{"type":"LineString","coordinates":[[113.1235151,24.9781266],[113.1233482,24.9776678]]},"properties":{"key":"way:1279812131@detail:452_99","osmType":"way","osmId":1279812131,"sourceRegion":"guangdong","featureType":"infrastructure","railClass":"minor","mode":"abandoned","name":"Y860","ref":"Y860","status":"operational","color":"#52636F","dataOrigin":"datum-2026-08-01","sourceKey":"way:1279812131"}},{"type":"Feature","geometry":{"type":"LineString","coordinates":[[113.1254307,24.9821102],[113.1252624,24.9819486],[113.1241825,24.9804517],[113.1240464,24.9802607],[113.1239244,24.9799862],[113.1238686,24.9797612],[113.1235151,24.9781266]]},"properties":{"key":"way:1466464648@detail:452_99","osmType":"way","osmId":1466464648,"sourceRegion":"guangdong","featureType":"infrastructure","railClass":"minor","mode":"abandoned","name":"乳阳森林铁路","status":"operational","color":"#52636F","dataOrigin":"datum-2026-08-01","sourceKey":"way:1466464648"}}]}