{"type":"FeatureCollection","features":[{"type":"Feature","geometry":{"type":"Point","coordinates":[113.0037403,25.1901657]},"properties":{"key":"node:5655797101","osmType":"node","osmId":5655797101,"sourceRegion":"guangdong","featureType":"station","railClass":"minor","mode":"station","name":"葫芦口","status":"operational","color":"#52636F","dataOrigin":"datum-2026-08-01","sourceKey":"node:5655797101","stationGroup":"葫芦口","hasOperationalRail":true,"hasConstructionRail":false}},{"type":"Feature","geometry":{"type":"Point","coordinates":[113.065761,25.2406759]},"properties":{"key":"node:5655797145","osmType":"node","osmId":5655797145,"sourceRegion":"guangdong","featureType":"station","railClass":"minor","mode":"station","name":"罗家祠","status":"operational","color":"#52636F","dataOrigin":"datum-2026-08-01","sourceKey":"node:5655797145","stationGroup":"罗家祠","hasOperationalRail":true,"hasConstructionRail":false}},{"type":"Feature","geometry":{"type":"Point","coordinates":[113.0546745,25.2177694]},"properties":{"key":"node:5655797146","osmType":"node","osmId":5655797146,"sourceRegion":"guangdong","featureType":"station","railClass":"minor","mode":"station","name":"关春","status":"operational","color":"#52636F","dataOrigin":"datum-2026-08-01","sourceKey":"node:5655797146","stationGroup":"关春","hasOperationalRail":true,"hasConstructionRail":false}},{"type":"Feature","geometry":{"type":"LineString","coordinates":[[113.0054301,25.1817978],[113.006165,25.1812141],[113.006741,25.1809079],[113.0073616,25.1807297],[113.0078978,25.1806946],[113.008579,25.1807869],[113.0091598,25.181032],[113.0096361,25.1813457],[113.011052,25.1824035],[113.0113694,25.1827627],[113.0115831,25.1831123],[113.0117044,25.1834931],[113.0117709,25.1840638],[113.0116921,25.1844843],[113.0115144,25.1848928],[113.0113452,25.1851222],[113.0109861,25.1854899],[113.0104455,25.1858435],[113.008188,25.187071],[113.0071911,25.1876207],[113.0067766,25.1879327],[113.0064462,25.1882114],[113.0061575,25.1885474],[113.0059719,25.188923],[113.005828,25.1894207],[113.0057651,25.1897507],[113.0056194,25.1901123],[113.0054672,25.1903649],[113.0053142,25.1905428],[113.0049402,25.1909091],[113.0047052,25.1911709],[113.0044347,25.191574],[113.0038372,25.1926441],[113.0036506,25.1929995],[113.0035562,25.1933073],[113.0035031,25.1935929],[113.0035066,25.1938929],[113.0035611,25.1941971],[113.0036795,25.1945614],[113.0038976,25.1949206],[113.0044022,25.1954409],[113.0048092,25.1958029],[113.0054908,25.1964305],[113.0057175,25.196672],[113.0059807,25.1970359],[113.0062145,25.1974572],[113.0063895,25.1978502],[113.006782,25.1990431],[113.0069071,25.1994562],[113.0071353,25.1999179],[113.0073456,25.2002348],[113.0076323,25.2005281],[113.0081637,25.2008758],[113.008723,25.2010954],[113.0106125,25.2019399],[113.0112108,25.2022293],[113.0129074,25.2032177],[113.0134238,25.2035258],[113.0139166,25.2039268],[113.0145541,25.2045],[113.0151569,25.2049883],[113.0156053,25.20529],[113.0162328,25.2057314],[113.0168067,25.2060277],[113.0179325,25.2065539],[113.0188349,25.2068811],[113.0195406,25.20709],[113.0213244,25.2074903],[113.0219164,25.2076244],[113.0224794,25.2078267],[113.022924,25.2080594],[113.0248522,25.2093446],[113.0253455,25.2097141],[113.0257429,25.2101793],[113.0259326,25.2105615],[113.0273169,25.2140512],[113.0274913,25.2143254],[113.0279982,25.2148374],[113.0286232,25.2152208],[113.0292213,25.2153955],[113.0299374,25.215461],[113.0310479,25.2154174],[113.0328664,25.2153373],[113.0336979,25.2153567],[113.0343953,25.2154902],[113.0351195,25.2157886],[113.0356827,25.2161526],[113.036069,25.2165166],[113.0373967,25.2182128],[113.0377936,25.2186326],[113.0382898,25.2189529],[113.0408648,25.2201249],[113.0415621,25.2204428],[113.0421898,25.2205496],[113.0429623,25.2205229],[113.0436757,25.2202948],[113.0441827,25.2199332],[113.046146,25.217776],[113.046653,25.2173101],[113.0470794,25.2169752],[113.0476239,25.2167083],[113.0483213,25.2165894],[113.0488443,25.2165069],[113.0502793,25.2161672],[113.0509579,25.2161187],[113.0516794,25.216257],[113.0523285,25.2164826],[113.052932,25.2166307],[113.0536401,25.2168855],[113.0543348,25.2172883],[113.0547452,25.2176644],[113.0559549,25.2191956],[113.0562928,25.2196663],[113.0569692,25.2209739],[113.057135,25.2212945],[113.0576495,25.2222498],[113.0579129,25.2226509],[113.0584574,25.2232745],[113.0589026,25.2237137],[113.0601981,25.2246528],[113.0610269,25.2251793],[113.0614293,25.2256063],[113.0636179,25.2293867],[113.0649134,25.2314854],[113.0653667,25.2322982],[113.0666569,25.23586],[113.0667508,25.2362797],[113.0667776,25.2368208],[113.0666757,25.2374297],[113.0662733,25.2387908],[113.0661339,25.2390892],[113.065922,25.239851],[113.0657744,25.2402999],[113.0643073,25.2428958],[113.0637824,25.2438255],[113.0636018,25.2441452],[113.0634597,25.2445383],[113.0633417,25.2453777],[113.0633283,25.2461322],[113.0634329,25.2466926],[113.0636984,25.2471826],[113.0641356,25.2476169],[113.0645567,25.2478886],[113.0659434,25.2483762],[113.066445,25.2485994],[113.0667293,25.248808],[113.0670994,25.2492326],[113.067365,25.2496595],[113.0674353513687,25.25]]},"properties":{"key":"way:480355645@detail:452_100","osmType":"way","osmId":480355645,"sourceRegion":"guangdong","featureType":"infrastructure","railClass":"national","mode":"rail","name":"坪木线","usage":"branch","status":"operational","color":"#E54848","dataOrigin":"datum-2026-08-01","sourceKey":"way:480355645"}},{"type":"Feature","geometry":{"type":"LineString","coordinates":[[113.0619442,25.2475562],[113.0623466,25.2470565],[113.0626164,25.2468275]]},"properties":{"key":"way:592647790@detail:452_100","osmType":"way","osmId":592647790,"sourceRegion":"guangdong","featureType":"infrastructure","railClass":"minor","mode":"rail","name":"未命名","service":"yard","status":"operational","color":"#52636F","dataOrigin":"datum-2026-08-01","sourceKey":"way:592647790"}},{"type":"Feature","geometry":{"type":"LineString","coordinates":[[113.0636018,25.2441452],[113.0633014,25.2447251],[113.0631968,25.2452103],[113.0631782,25.2454868],[113.0631754,25.2455281],[113.0630735,25.2460691],[113.0627811,25.2466222],[113.0626164,25.2468275],[113.0620006,25.247595]]},"properties":{"key":"way:592647791@detail:452_100","osmType":"way","osmId":592647791,"sourceRegion":"guangdong","featureType":"infrastructure","railClass":"minor","mode":"rail","name":"未命名","service":"yard","status":"operational","color":"#52636F","dataOrigin":"datum-2026-08-01","sourceKey":"way:592647791"}},{"type":"Feature","geometry":{"type":"LineString","coordinates":[[113.0640436,25.2434971],[113.0637824,25.2438255]]},"properties":{"key":"way:592647792@detail:452_100","osmType":"way","osmId":592647792,"sourceRegion":"guangdong","featureType":"infrastructure","railClass":"national","mode":"rail","name":"未命名","status":"operational","color":"#E54848","dataOrigin":"datum-2026-08-01","sourceKey":"way:592647792"}},{"type":"Feature","geometry":{"type":"LineString","coordinates":[[113.0661473,25.2393319],[113.0659461,25.2399942],[113.0657691,25.240426],[113.0643207,25.2430098],[113.0640436,25.2434971],[113.0636501,25.2441889]]},"properties":{"key":"way:592647793@detail:452_100","osmType":"way","osmId":592647793,"sourceRegion":"guangdong","featureType":"infrastructure","railClass":"national","mode":"rail","name":"未命名","status":"operational","color":"#E54848","dataOrigin":"datum-2026-08-01","sourceKey":"way:592647793"}},{"type":"Feature","geometry":{"type":"LineString","coordinates":[[113.0662733,25.2387908],[113.0661473,25.2393319],[113.065981,25.2400621],[113.0657664,25.2405158],[113.0645969,25.2426508],[113.0643207,25.2430098]]},"properties":{"key":"way:592647794@detail:452_100","osmType":"way","osmId":592647794,"sourceRegion":"guangdong","featureType":"infrastructure","railClass":"national","mode":"rail","name":"未命名","status":"operational","color":"#E54848","dataOrigin":"datum-2026-08-01","sourceKey":"way:592647794"}},{"type":"Feature","geometry":{"type":"LineString","coordinates":[[113.0568373,25.2205981],[113.0567434,25.2202996],[113.0563599,25.2195959],[113.0548552,25.2175989],[113.0543911,25.2172131],[113.0536991,25.2168054],[113.053109,25.2165797],[113.0524009,25.216439]]},"properties":{"key":"way:592647795@detail:452_100","osmType":"way","osmId":592647795,"sourceRegion":"guangdong","featureType":"infrastructure","railClass":"national","mode":"rail","name":"未命名","status":"operational","color":"#E54848","dataOrigin":"datum-2026-08-01","sourceKey":"way:592647795"}},{"type":"Feature","geometry":{"type":"LineString","coordinates":[[113.0516794,25.216257],[113.0524009,25.216439],[113.0530474,25.2166161],[113.0536938,25.2168539],[113.0543938,25.2172664],[113.0547988,25.2176304],[113.0563384,25.2196518],[113.0568373,25.2205981],[113.0569692,25.2209739]]},"properties":{"key":"way:592647796@detail:452_100","osmType":"way","osmId":592647796,"sourceRegion":"guangdong","featureType":"infrastructure","railClass":"national","mode":"rail","name":"未命名","status":"operational","color":"#E54848","dataOrigin":"datum-2026-08-01","sourceKey":"way:592647796"}},{"type":"Feature","geometry":{"type":"LineString","coordinates":[[113.0289933,25.2241772],[113.0279982,25.2228984],[113.0277139,25.2224228]]},"properties":{"key":"way:592647797@detail:452_100","osmType":"way","osmId":592647797,"sourceRegion":"guangdong","featureType":"infrastructure","railClass":"minor","mode":"rail","name":"未命名","service":"spur","status":"operational","color":"#52636F","dataOrigin":"datum-2026-08-01","sourceKey":"way:592647797"}},{"type":"Feature","geometry":{"type":"LineString","coordinates":[[113.0273464,25.2178318],[113.0276039,25.2173732],[113.0277407,25.2170723]]},"properties":{"key":"way:592647798@detail:452_100","osmType":"way","osmId":592647798,"sourceRegion":"guangdong","featureType":"infrastructure","railClass":"national","mode":"rail","name":"未命名","status":"operational","color":"#E54848","dataOrigin":"datum-2026-08-01","sourceKey":"way:592647798"}},{"type":"Feature","geometry":{"type":"LineString","coordinates":[[113.0314314,25.2154465],[113.0305597,25.2154877],[113.0298328,25.2155945],[113.0292883,25.2157425],[113.0288377,25.2159464],[113.0283603,25.216337],[113.0280009,25.2167205],[113.0277407,25.2170723],[113.0273169,25.2176935],[113.0270326,25.2185501],[113.0269682,25.2194382],[113.0271184,25.2213794],[113.027333,25.2219036],[113.0277139,25.2224228],[113.0290416,25.2241311]]},"properties":{"key":"way:592647799@detail:452_100","osmType":"way","osmId":592647799,"sourceRegion":"guangdong","featureType":"infrastructure","railClass":"minor","mode":"rail","name":"未命名","service":"spur","status":"operational","color":"#52636F","dataOrigin":"datum-2026-08-01","sourceKey":"way:592647799"}},{"type":"Feature","geometry":{"type":"LineString","coordinates":[[113.0310479,25.2154174],[113.0305597,25.2154877]]},"properties":{"key":"way:592647800@detail:452_100","osmType":"way","osmId":592647800,"sourceRegion":"guangdong","featureType":"infrastructure","railClass":"minor","mode":"rail","name":"未命名","service":"spur","status":"operational","color":"#52636F","dataOrigin":"datum-2026-08-01","sourceKey":"way:592647800"}},{"type":"Feature","geometry":{"type":"LineString","coordinates":[[113.0029264,25.1919474],[113.0031425,25.1916366],[113.0033797,25.1912263],[113.0044887,25.1891467],[113.0046667,25.1887476]]},"properties":{"key":"way:593311345@detail:452_100","osmType":"way","osmId":593311345,"sourceRegion":"guangdong","featureType":"infrastructure","railClass":"minor","mode":"rail","name":"未命名","service":"siding","status":"operational","color":"#52636F","dataOrigin":"datum-2026-08-01","sourceKey":"way:593311345"}},{"type":"Feature","geometry":{"type":"LineString","coordinates":[[113.25,25.191813805508133],[113.16097651796869,25.25]]},"properties":{"key":"way:790310576@detail:452_100","osmType":"way","osmId":790310576,"sourceRegion":"guangdong","featureType":"infrastructure","railClass":"national","mode":"rail","name":"京广线","nameEn":"Beijing–Guangzhou Railway","ref":"0001","usage":"main","tunnel":"yes","status":"operational","color":"#E54848","dataOrigin":"datum-2026-08-01","sourceKey":"way:790310576"}},{"type":"Feature","geometry":{"type":"LineString","coordinates":[[113.25,25.191980319439544],[113.16113277752329,25.25]]},"properties":{"key":"way:914216769@detail:452_100","osmType":"way","osmId":914216769,"sourceRegion":"guangdong","featureType":"infrastructure","railClass":"national","mode":"rail","name":"京广线","nameEn":"Beijing–Guangzhou Railway","ref":"0001","usage":"main","tunnel":"yes","status":"operational","color":"#E54848","dataOrigin":"datum-2026-08-01","sourceKey":"way:914216769"}},{"type":"Feature","geometry":{"type":"LineString","coordinates":[[113.0745431,25.2316361],[113.074565,25.2311303],[113.0744716,25.2307079],[113.0742381,25.2302432],[113.0725288,25.2281309],[113.071324,25.2264665],[113.0704554,25.2248949],[113.0696895,25.2228079],[113.0679896,25.2194365],[113.0673825,25.2172818],[113.067588,25.216572],[113.0679896,25.2159213],[113.069073,25.2145609],[113.0692405,25.214171],[113.069306,25.2137524],[113.0692762,25.2134],[113.0692131,25.2131159],[113.0684192,25.2099471],[113.0681857,25.2095076],[113.0676814,25.2090513],[113.067149,25.2087894],[113.0632218,25.2080606],[113.0621801,25.2078513],[113.0617225,25.2076485],[113.0613675,25.2073359],[113.061078,25.2069218],[113.0576035,25.1968905],[113.0572766,25.1961721],[113.0572393,25.1956144],[113.0572571,25.1953594]]},"properties":{"key":"way:1279676941@detail:452_100","osmType":"way","osmId":1279676941,"sourceRegion":"guangdong","featureType":"infrastructure","railClass":"minor","mode":"abandoned","name":"乳阳森林铁路","status":"operational","color":"#52636F","dataOrigin":"datum-2026-08-01","sourceKey":"way:1279676941"}},{"type":"Feature","geometry":{"type":"LineString","coordinates":[[113.0574575,25.1949334],[113.0578744,25.1943382],[113.0583881,25.1937973],[113.059154,25.1930958],[113.0612648,25.1908139],[113.0628246,25.1888277],[113.0634971,25.1878811],[113.0642069,25.1867063],[113.0645058,25.1861653],[113.0645431,25.185523],[113.06388,25.1842467],[113.0622081,25.1812969],[113.0614609,25.1801135],[113.0613022,25.1796994],[113.0613956,25.1792852],[113.0616571,25.1789894],[113.0620867,25.1788034],[113.0665606,25.1780427],[113.0670369,25.1779581],[113.0673458,25.1778092],[113.0675319,25.1776031],[113.0677094,25.1772397],[113.067672,25.1768339],[113.0666913,25.1714325],[113.0665326,25.1709],[113.0661776,25.1706126],[113.065748,25.1704182],[113.0651626,25.1702992],[113.0628433,25.1696405],[113.0625444,25.1694461],[113.0623015,25.1691248],[113.0589205,25.1583803],[113.0586403,25.1573067],[113.0585002,25.1562499],[113.0585002,25.1553284],[113.0586029,25.1541955],[113.058771,25.1527329],[113.0589485,25.1523948],[113.0592287,25.1522003],[113.0598264,25.1519129],[113.0631048,25.150408],[113.0635438,25.1502304],[113.063908,25.1501966],[113.0643283,25.1502812],[113.0645805,25.1504756],[113.0647673,25.1509491],[113.0651035,25.151896],[113.0656079,25.1527499],[113.066215,25.1536629],[113.0665699,25.1538489],[113.0670535,25.1540078],[113.0674666,25.154018],[113.0729024,25.1529612],[113.0733975,25.1528259],[113.0737617,25.1525554],[113.0739672,25.1522595],[113.0739929,25.1520346],[113.0739178,25.1515574],[113.0735656,25.1504925],[113.0732119,25.1498042]]},"properties":{"key":"way:1279676942@detail:452_100","osmType":"way","osmId":1279676942,"sourceRegion":"guangdong","featureType":"infrastructure","railClass":"minor","mode":"abandoned","name":"乳阳森林铁路","status":"operational","color":"#52636F","dataOrigin":"datum-2026-08-01","sourceKey":"way:1279676942"}},{"type":"Feature","geometry":{"type":"LineString","coordinates":[[113.0687555,25.13688],[113.068599,25.1364997],[113.0684671,25.1363649],[113.0682138,25.1362036],[113.0666913,25.1354848],[113.0661029,25.1353157],[113.0654678,25.1352481],[113.0648794,25.1351635],[113.0645618,25.134969],[113.0643096,25.1346646],[113.0642536,25.1343518],[113.064375,25.1340897],[113.0645338,25.1337853],[113.065225,25.1330412],[113.0661216,25.1324323],[113.067205,25.1320096],[113.0677281,25.1320096],[113.0681017,25.1320011],[113.0683632,25.1319335],[113.0686901,25.131739],[113.0693346,25.1314176],[113.0706515,25.1309526],[113.0714454,25.1306904],[113.0720899,25.1303353],[113.0737057,25.1292868],[113.0741727,25.1288048],[113.0748732,25.1279676],[113.0752748,25.1277224],[113.0755786,25.1276133],[113.0758976,25.1275647],[113.076196,25.1275723],[113.0764475,25.1276298],[113.0767951,25.1277843],[113.0773872,25.1282792],[113.0776313,25.1285194],[113.0778354,25.1286804],[113.0781702,25.1287879],[113.0785345,25.1287794],[113.0789174,25.1286695],[113.0792536,25.1284581],[113.0795525,25.1281367],[113.0796833,25.12779],[113.0796646,25.1275194],[113.0795525,25.1272066],[113.0793377,25.1269106],[113.0789828,25.1267584],[113.0784597,25.1266654],[113.0779647,25.1265639],[113.077423,25.126344],[113.0770681,25.1262764],[113.0767599,25.1263102],[113.076078,25.126454],[113.0756951,25.1264624],[113.0753028,25.1263102],[113.075116,25.1260227],[113.0750226,25.1256253],[113.0751254,25.1252616],[113.0753962,25.1248219],[113.0768719,25.1233421],[113.0784411,25.1221497],[113.0795058,25.1212279],[113.0803464,25.120433],[113.0810189,25.1198749],[113.082149,25.1189616],[113.0833815,25.1182752]]},"properties":{"key":"way:1279676943@detail:452_100","osmType":"way","osmId":1279676943,"sourceRegion":"guangdong","featureType":"infrastructure","railClass":"minor","mode":"abandoned","name":"乳阳森林铁路","status":"operational","color":"#52636F","dataOrigin":"datum-2026-08-01","sourceKey":"way:1279676943"}},{"type":"Feature","geometry":{"type":"LineString","coordinates":[[113.1037738,25.1118416],[113.1041722,25.1100525],[113.1045137,25.1081456],[113.1050178,25.1056202],[113.1052048,25.1050974],[113.1053918,25.1046925],[113.1057496,25.104236],[113.1063838,25.1034629],[113.106766,25.103161],[113.1070261,25.1030653],[113.1073839,25.1030653],[113.1076685,25.1031684],[113.1080506,25.1034481],[113.108506,25.1037206],[113.1087824,25.1038384],[113.1090345,25.1038826],[113.1093516,25.1038384],[113.1107582,25.1032862],[113.1111485,25.1031684],[113.1114006,25.1031536],[113.111799,25.1033009],[113.1120917,25.1035733],[113.1128885,25.1047661],[113.1131975,25.1049943],[113.1135553,25.1051269],[113.1139944,25.1051563],[113.1144741,25.1050827],[113.11484,25.1050238],[113.1152709,25.1050459],[113.1161409,25.1051563],[113.1164011,25.105252],[113.1166857,25.1054435],[113.1168646,25.105657],[113.1169459,25.1059662],[113.1169215,25.1069823],[113.116954,25.1074093],[113.1171085,25.1079836],[113.1173036,25.1084401],[113.1178159,25.1094046],[113.1180354,25.1096402],[113.1183769,25.1098243],[113.1187916,25.1098611],[113.1215968,25.1100672],[113.1219383,25.1100525],[113.1222554,25.1099126],[113.122727,25.1096107],[113.1237352,25.1090217],[113.1238978,25.1088082],[113.1240117,25.1085211],[113.1239873,25.1082413],[113.1238978,25.1079468],[113.1232067,25.1061577],[113.1230603,25.105657],[113.1230116,25.1051122],[113.1230847,25.1044421],[113.1232311,25.1029622],[113.1233043,25.1014233],[113.1235076,25.0995678],[113.1234994,25.0988536],[113.1233531,25.0981615],[113.1231335,25.0972558],[113.1229059,25.0965489],[113.1227595,25.0960114],[113.1227188,25.0955622],[113.1228489,25.0925726],[113.1229465,25.0920425],[113.1231335,25.091527],[113.1233856,25.0911735],[113.1238572,25.0907096],[113.1241011,25.0903562],[113.1241499,25.0900322],[113.1241092,25.0897744],[113.123971,25.0893621],[113.1239385,25.0890086],[113.1240361,25.0887067],[113.1242068,25.0884711],[113.1243857,25.0883459],[113.1246296,25.0882354],[113.1249061,25.0881839],[113.1252557,25.0882281],[113.1254996,25.0883238],[113.1257354,25.0885962],[113.1258493,25.0888466],[113.1258737,25.0892148],[113.1258005,25.0923959],[113.1258899,25.0927052],[113.1260851,25.0930071],[113.126329,25.0932206],[113.1266542,25.0932869],[113.1270039,25.093228],[113.1284349,25.0929997],[113.1311506,25.0928156],[113.1314759,25.0928156],[113.1317848,25.0929408],[113.1320125,25.0930734],[113.1321995,25.0933311],[113.1330939,25.0948774],[113.1332891,25.0951646],[113.1334761,25.0952677],[113.1337363,25.0953634],[113.1340696,25.0954076],[113.1343624,25.0953634],[113.1346469,25.0952088],[113.1348583,25.0949879],[113.1351998,25.0942442],[113.1353868,25.0939643],[113.1356877,25.0938097],[113.1360048,25.093795],[113.1362813,25.0938833],[113.1373789,25.0944209],[113.1378343,25.0945755],[113.1391352,25.0948406],[113.1394198,25.0948774],[113.1397938,25.0947964],[113.1400784,25.0945902],[113.1402735,25.0943325],[113.1403549,25.0940527],[113.1405906,25.0931838],[113.1409647,25.0919394],[113.141046,25.091608],[113.1411029,25.0910852],[113.1411029,25.0906655],[113.1409254,25.089285],[113.1408546,25.0886824],[113.14089,25.0884004],[113.1409891,25.0881504],[113.141159,25.0879581],[113.1413359,25.0878683],[113.1415695,25.0877721],[113.1424118,25.0875606],[113.1433037,25.0873683],[113.1434665,25.0873234],[113.1437001,25.0871952],[113.1449388,25.0864644],[113.1452078,25.0862528],[113.1455122,25.0859579],[113.1457033,25.0857079],[113.1460071,25.0852015],[113.1461488,25.0847606],[113.1462197,25.0844453],[113.1462382,25.0839823],[113.1461744,25.0831488],[113.1462028,25.0826616],[113.146316,25.0820526],[113.1466204,25.0812961],[113.1475618,25.0794369],[113.1477283,25.0790467],[113.1477791,25.0788709],[113.1478076,25.0786905],[113.1477753,25.0757838],[113.1477682,25.0753222],[113.1478178,25.0749632],[113.1479381,25.0746362],[113.1484194,25.0736809],[113.1486459,25.0733219],[113.1489432,25.0728795],[113.1490919,25.0725974],[113.1491768,25.0722961],[113.1492334,25.0718473],[113.1493255,25.0696417],[113.1493184,25.0690518],[113.1491768,25.0675708],[113.1491273,25.0673079],[113.1489786,25.0670322],[113.1487309,25.066827],[113.1483911,25.0666795],[113.146487,25.0659678],[113.1461968,25.0658011],[113.1460128,25.0655447],[113.1459208,25.0653202],[113.1458854,25.0650317],[113.1457509,25.0620245],[113.1458004,25.0614346],[113.1459349,25.0609922],[113.1461756,25.0603446],[113.1462747,25.0598124],[113.1461827,25.0590878],[113.1459278,25.0584081],[113.1457155,25.0579208],[113.1456872,25.0574463],[113.1459137,25.0565678],[113.1459845,25.0561126],[113.1459278,25.0558048],[113.145673,25.0552661],[113.1448839,25.054245],[113.1445053,25.0539195],[113.1422421,25.0523193],[113.1419146,25.052075],[113.1416696,25.0519925],[113.141426,25.0519894],[113.1409871,25.0520535],[113.1405978,25.0520471],[113.140258,25.0518804],[113.1400174,25.0515277],[113.1399537,25.0512007],[113.1400386,25.0508865],[113.1402455,25.0506362],[113.1404578,25.0505068],[113.1407745,25.0504324],[113.141028,25.0504661],[113.1412625,25.0506231],[113.1414354,25.0507965],[113.1416363,25.0511132],[113.1417914,25.0514356],[113.1419217,25.0517022],[113.1421174,25.052036],[113.1423934,25.0523187],[113.1426807,25.0524781],[113.1429847,25.0525708],[113.143824,25.0528442],[113.1440468,25.0529253],[113.1442757,25.0529281],[113.1444555,25.0528423],[113.1446279,25.0526948],[113.144739,25.0525191],[113.1447623,25.0523216],[113.1447055,25.0521688],[113.1446095,25.0520165],[113.1444381,25.0518908],[113.1441983,25.0518341],[113.14394,25.0518276],[113.143231,25.0518034],[113.1427709,25.0517586],[113.142509,25.0516495],[113.1423179,25.0514764],[113.142063,25.0511365],[113.1415392,25.0502773],[113.1413481,25.0500785],[113.1411216,25.0499182],[113.1408526,25.0498669],[113.1405766,25.0498797],[113.1401448,25.0500592],[113.1396139,25.0503606],[113.1393378,25.0506043],[113.1391963,25.0508608],[113.1391113,25.0511237],[113.1391467,25.0532591],[113.1392175,25.053522],[113.1394582,25.0538618],[113.1397201,25.0541889],[113.139897,25.0544069],[113.1399961,25.0546441],[113.1400103,25.0548493],[113.1399112,25.0551443],[113.1397555,25.0552854],[113.1394723,25.0554136],[113.1391963,25.0554329],[113.1389485,25.0553623],[113.138722,25.0552277],[113.1385734,25.0550609],[113.1383656,25.0547993],[113.1381487,25.0545287],[113.1380354,25.0543043],[113.1379222,25.0540029],[113.1379009,25.0535476],[113.1379151,25.0515534],[113.1378797,25.0510147],[113.1379576,25.0504953],[113.1380708,25.0501298],[113.1382265,25.0498861],[113.1383186,25.0495429],[113.1383893,25.0492128],[113.1385734,25.0489434],[113.1388778,25.0487575],[113.1390335,25.0486356],[113.1391113,25.0484881],[113.1392175,25.0481611],[113.1393591,25.047834],[113.1394582,25.0475262],[113.1394157,25.047103],[113.1387953,25.0454579],[113.1386962,25.0449449],[113.138852,25.0441176],[113.1391997,25.043069],[113.1394023,25.0425048],[113.1395679,25.041907],[113.1398366,25.0409455]]},"properties":{"key":"way:1279676944@detail:452_100","osmType":"way","osmId":1279676944,"sourceRegion":"guangdong","featureType":"infrastructure","railClass":"minor","mode":"abandoned","name":"乳阳森林铁路","status":"operational","color":"#52636F","dataOrigin":"datum-2026-08-01","sourceKey":"way:1279676944"}},{"type":"Feature","geometry":{"type":"LineString","coordinates":[[113.1407177,25.0385542],[113.1407029,25.0377271],[113.1406095,25.0367455],[113.1379196,25.0275804],[113.1376861,25.0269541],[113.1376487,25.0264294],[113.1377515,25.0260316],[113.1378916,25.0256846],[113.139414,25.0236873],[113.1407216,25.0217915],[113.1410018,25.0210298],[113.1412913,25.0197772],[113.1414128,25.0187616],[113.1413941,25.0176782],[113.1409196,25.0137089]]},"properties":{"key":"way:1279812127@detail:452_100","osmType":"way","osmId":1279812127,"sourceRegion":"guangdong","featureType":"infrastructure","railClass":"minor","mode":"abandoned","name":"乳阳森林铁路","status":"operational","color":"#52636F","dataOrigin":"datum-2026-08-01","sourceKey":"way:1279812127"}},{"type":"Feature","geometry":{"type":"LineString","coordinates":[[113.0964803,25.105495],[113.0967324,25.1053257],[113.0970007,25.1052005],[113.0973747,25.1051416],[113.0977325,25.1052226],[113.0980089,25.105414],[113.0982529,25.1056864],[113.0985456,25.1062239],[113.0987326,25.106835],[113.0987732,25.107402],[113.0987245,25.1078364],[113.0984561,25.1088966],[113.0980658,25.1106415],[113.0980089,25.1111274],[113.0980008,25.1116133],[113.0980496,25.1122465],[113.098074,25.1129607],[113.0981228,25.1134834],[113.0980984,25.1140061],[113.0980496,25.1144773],[113.0979032,25.1149853],[113.0978219,25.1154491],[113.0977487,25.1167301],[113.0978057,25.1171203],[113.0979601,25.117378],[113.0981959,25.1175915],[113.0984317,25.1176798],[113.0987082,25.1176725],[113.0991798,25.1175841],[113.099879,25.1175326],[113.1001799,25.1174442],[113.1003181,25.1173338],[113.1004726,25.1171203],[113.1007084,25.1167964],[113.100993,25.1165461],[113.1012694,25.1164504],[113.1019443,25.1163547]]},"properties":{"key":"way:1279812132@detail:452_100","osmType":"way","osmId":1279812132,"sourceRegion":"guangdong","featureType":"infrastructure","railClass":"minor","mode":"abandoned","name":"乳阳森林铁路","status":"operational","color":"#52636F","dataOrigin":"datum-2026-08-01","sourceKey":"way:1279812132"}},{"type":"Feature","geometry":{"type":"LineString","coordinates":[[113.1019443,25.1163547],[113.1025135,25.1162221]]},"properties":{"key":"way:1279812133@detail:452_100","osmType":"way","osmId":1279812133,"sourceRegion":"guangdong","featureType":"infrastructure","railClass":"minor","mode":"abandoned","name":"乳阳森林铁路","tunnel":"yes","status":"operational","color":"#52636F","dataOrigin":"datum-2026-08-01","sourceKey":"way:1279812133"}},{"type":"Feature","geometry":{"type":"LineString","coordinates":[[113.1025135,25.1162221],[113.1027737,25.1160602],[113.1029607,25.1157583],[113.1033997,25.1139325],[113.1035299,25.1131153]]},"properties":{"key":"way:1279812134@detail:452_100","osmType":"way","osmId":1279812134,"sourceRegion":"guangdong","featureType":"infrastructure","railClass":"minor","mode":"abandoned","name":"乳阳森林铁路","status":"operational","color":"#52636F","dataOrigin":"datum-2026-08-01","sourceKey":"way:1279812134"}},{"type":"Feature","geometry":{"type":"LineString","coordinates":[[113.1035299,25.1131153],[113.1037738,25.1118416]]},"properties":{"key":"way:1279812135@detail:452_100","osmType":"way","osmId":1279812135,"sourceRegion":"guangdong","featureType":"infrastructure","railClass":"minor","mode":"abandoned","name":"乳阳森林铁路","tunnel":"yes","status":"operational","color":"#52636F","dataOrigin":"datum-2026-08-01","sourceKey":"way:1279812135"}},{"type":"Feature","geometry":{"type":"LineString","coordinates":[[113.0623953,25.2270116],[113.0624095,25.2262688],[113.062636,25.2256636],[113.0629562,25.2253325]]},"properties":{"key":"way:1279812136@detail:452_100","osmType":"way","osmId":1279812136,"sourceRegion":"guangdong","featureType":"infrastructure","railClass":"minor","mode":"abandoned","name":"乳阳森林铁路","status":"operational","color":"#52636F","dataOrigin":"datum-2026-08-01","sourceKey":"way:1279812136"}},{"type":"Feature","geometry":{"type":"LineString","coordinates":[[113.0045982,25.1888751],[113.0044263,25.189146],[113.0033235,25.1911679],[113.0031673,25.1915377]]},"properties":{"key":"way:1349000356@detail:452_100","osmType":"way","osmId":1349000356,"sourceRegion":"guangdong","featureType":"infrastructure","railClass":"minor","mode":"rail","name":"未命名","service":"yard","status":"operational","color":"#52636F","dataOrigin":"datum-2026-08-01","sourceKey":"way:1349000356"}},{"type":"Feature","geometry":{"type":"LineString","coordinates":[[113.0,25.197821761788607],[113.000008,25.1978059],[113.0001274,25.1974202],[113.0002322,25.1968194],[113.0005222,25.1948493],[113.0006377,25.1944436],[113.000825,25.1941308],[113.001085,25.193777],[113.0015723,25.1933695],[113.0022651,25.1928616],[113.0026272,25.1924693],[113.0029264,25.1919474],[113.0030315,25.1917905],[113.0031673,25.1915377],[113.0045982,25.1888751],[113.0046667,25.1887476],[113.0048153,25.1884553],[113.005089,25.1877802],[113.0052114,25.1874992],[113.005311,25.1872257],[113.0053599,25.1868795],[113.005356,25.1866136],[113.0053206,25.1863404],[113.0052617,25.1861042],[113.0051428,25.1858558],[113.0049817,25.1855921],[113.0045543,25.1849653],[113.004347,25.1846031],[113.0042291,25.1843271],[113.0041589,25.183964],[113.0041514,25.1836435],[113.0041705,25.1833454],[113.0042577,25.1830483],[113.0043861,25.1827785],[113.004663,25.1824034],[113.0050285,25.1821168],[113.0050565,25.1820946]]},"properties":{"key":"way:1469768996@detail:452_100","osmType":"way","osmId":1469768996,"sourceRegion":"guangdong","featureType":"infrastructure","railClass":"national","mode":"rail","name":"坪木线","usage":"branch","status":"operational","color":"#E54848","dataOrigin":"datum-2026-08-01","sourceKey":"way:1469768996"}},{"type":"Feature","geometry":{"type":"LineString","coordinates":[[113.0050565,25.1820946],[113.0054301,25.1817978]]},"properties":{"key":"way:1469768997@detail:452_100","osmType":"way","osmId":1469768997,"sourceRegion":"guangdong","featureType":"infrastructure","railClass":"national","mode":"rail","name":"坪木线","usage":"branch","bridge":"yes","status":"operational","color":"#E54848","dataOrigin":"datum-2026-08-01","sourceKey":"way:1469768997"}}]}