{"type":"FeatureCollection","features":[{"type":"Feature","geometry":{"type":"Point","coordinates":[113.2007426,22.6008861]},"properties":{"key":"node:1732229867","osmType":"node","osmId":1732229867,"sourceRegion":"guangzhou","featureType":"station","railClass":"station","mode":"station","name":"古镇","nameEn":"Guzhen","status":"operational","color":"#126d75","sourceKey":"node:1732229867","stationGroup":"古镇","hasOperationalRail":true,"hasConstructionRail":false}},{"type":"Feature","geometry":{"type":"Point","coordinates":[113.0723451,22.5481535]},"properties":{"key":"node:1759460640","osmType":"node","osmId":1759460640,"sourceRegion":"guangzhou","featureType":"station","railClass":"station","mode":"station","name":"礼乐","nameEn":"Liyue","status":"operational","color":"#126d75","sourceKey":"node:1759460640","stationGroup":"礼乐","hasOperationalRail":true,"hasConstructionRail":false}},{"type":"Feature","geometry":{"type":"Point","coordinates":[113.1584361,22.58565]},"properties":{"key":"node:1759460681","osmType":"node","osmId":1759460681,"sourceRegion":"guangzhou","featureType":"station","railClass":"station","mode":"station","name":"江海","nameEn":"Jianghai","status":"operational","color":"#126d75","sourceKey":"node:1759460681","stationGroup":"江海","hasOperationalRail":true,"hasConstructionRail":false}},{"type":"Feature","geometry":{"type":"Point","coordinates":[113.0976874,22.5638778]},"properties":{"key":"node:7707072349","osmType":"node","osmId":7707072349,"sourceRegion":"guangzhou","featureType":"station","railClass":"station","mode":"station","name":"江门东","nameEn":"Jiangmendong","status":"operational","color":"#126d75","sourceKey":"node:7707072349","stationGroup":"江门东","hasOperationalRail":true,"hasConstructionRail":false}},{"type":"Feature","geometry":{"type":"Point","coordinates":[113.0658864,22.5203259]},"properties":{"key":"node:8401400286","osmType":"node","osmId":8401400286,"sourceRegion":"guangzhou","featureType":"station","railClass":"station","mode":"station","name":"新会","nameEn":"Xinhui","status":"operational","color":"#126d75","sourceKey":"node:8401400286","stationGroup":"新会","hasOperationalRail":true,"hasConstructionRail":false}},{"type":"Feature","geometry":{"type":"Point","coordinates":[113.1834397,22.6918439]},"properties":{"key":"node:9676218792","osmType":"node","osmId":9676218792,"sourceRegion":"guangzhou","featureType":"station","railClass":"station","mode":"station","name":"均安","status":"operational","color":"#126d75","sourceKey":"node:9676218792","stationGroup":"均安","hasOperationalRail":true,"hasConstructionRail":false}},{"type":"Feature","geometry":{"type":"Point","coordinates":[113.2467926,22.7107018]},"properties":{"key":"node:9758623232","osmType":"node","osmId":9758623232,"sourceRegion":"guangzhou","featureType":"station","railClass":"station","mode":"station","name":"东凤","status":"operational","color":"#126d75","sourceKey":"node:9758623232","stationGroup":"东凤","hasOperationalRail":true,"hasConstructionRail":false}},{"type":"Feature","geometry":{"type":"Point","coordinates":[113.2449027,22.5126378]},"properties":{"key":"node:11597434457","osmType":"node","osmId":11597434457,"sourceRegion":"guangzhou","featureType":"station","railClass":"station","mode":"station","name":"中山西","status":"operational","color":"#126d75","sourceKey":"node:11597434457","stationGroup":"中山西","hasOperationalRail":true,"hasConstructionRail":false}},{"type":"Feature","geometry":{"type":"Point","coordinates":[113.0447718,22.6991589]},"properties":{"key":"node:11964159322","osmType":"node","osmId":11964159322,"sourceRegion":"guangzhou","featureType":"station","railClass":"station","mode":"station","name":"棠下","nameEn":"Tangxia","status":"operational","color":"#126d75","sourceKey":"node:11964159322","stationGroup":"棠下","hasOperationalRail":true,"hasConstructionRail":false}},{"type":"Feature","geometry":{"type":"LineString","coordinates":[[113.2444719,22.6290522],[113.2413581,22.6257068],[113.2388206,22.6229616],[113.2354048,22.6193006],[113.2317555,22.6153128],[113.2305405,22.6140535],[113.2293936,22.6129938],[113.2284292,22.6122377],[113.2272553,22.6113433],[113.2259278,22.6104933],[113.2247544,22.6097868],[113.223416,22.6091074],[113.2215175,22.6082843],[113.2190944,22.6074226],[113.2173048,22.6067947],[113.2156585,22.6061767],[113.2131113,22.6052831],[113.2114036,22.6046712]]},"properties":{"key":"way:154395104@detail:452_90","osmType":"way","osmId":154395104,"sourceRegion":"guangzhou","featureType":"infrastructure","railClass":"highspeed","mode":"rail","name":"江门线","ref":"0720","usage":"main","highspeed":"yes","bridge":"yes","status":"operational","color":"#E54848","sourceKey":"way:154395104"}},{"type":"Feature","geometry":{"type":"LineString","coordinates":[[113.169088,22.5903237],[113.165097,22.5884999],[113.1631076,22.5876502],[113.1608403,22.5866775],[113.1594631,22.5860697]]},"properties":{"key":"way:161234149@detail:452_90","osmType":"way","osmId":161234149,"sourceRegion":"guangzhou","featureType":"infrastructure","railClass":"highspeed","mode":"rail","name":"江门线","ref":"0720","usage":"main","highspeed":"yes","bridge":"yes","status":"operational","color":"#E54848","sourceKey":"way:161234149"}},{"type":"Feature","geometry":{"type":"LineString","coordinates":[[113.1748115,22.5927966],[113.169088,22.5903237]]},"properties":{"key":"way:161234151@detail:452_90","osmType":"way","osmId":161234151,"sourceRegion":"guangzhou","featureType":"infrastructure","railClass":"highspeed","mode":"rail","name":"江门线","ref":"0720","usage":"main","highspeed":"yes","bridge":"yes","status":"operational","color":"#E54848","sourceKey":"way:161234151"}},{"type":"Feature","geometry":{"type":"LineString","coordinates":[[113.1594631,22.5860697],[113.157428,22.585185]]},"properties":{"key":"way:164295941@detail:452_90","osmType":"way","osmId":164295941,"sourceRegion":"guangzhou","featureType":"infrastructure","railClass":"highspeed","mode":"rail","name":"江门线","ref":"0720","usage":"main","highspeed":"yes","bridge":"viaduct","status":"operational","color":"#E54848","sourceKey":"way:164295941"}},{"type":"Feature","geometry":{"type":"LineString","coordinates":[[113.2017706,22.6012514],[113.2007426,22.6008861],[113.1996343,22.6004932]]},"properties":{"key":"way:164295942@detail:452_90","osmType":"way","osmId":164295942,"sourceRegion":"guangzhou","featureType":"infrastructure","railClass":"highspeed","mode":"rail","name":"江门线","ref":"0720","usage":"main","highspeed":"yes","bridge":"viaduct","status":"operational","color":"#E54848","sourceKey":"way:164295942"}},{"type":"Feature","geometry":{"type":"LineString","coordinates":[[113.157428,22.585185],[113.1548622,22.5841242],[113.1507295,22.5824773],[113.1489699,22.581764],[113.1464521,22.5806939],[113.145353,22.5802214],[113.142237,22.5789692],[113.1388816,22.5775496],[113.1374608,22.5770062],[113.1361726,22.5765542],[113.1347448,22.5761421],[113.1321804,22.5756096],[113.1294182,22.5751631],[113.126146,22.5744604],[113.125046,22.5741943],[113.1240401,22.5738976],[113.1225978,22.5734038],[113.1207805,22.5726586],[113.1158572,22.570681],[113.1107234,22.5686126],[113.1086804,22.5677958],[113.1065759,22.5670245],[113.1025234,22.5655869],[113.1000309,22.564645],[113.0928756,22.562253],[113.0883212,22.5606033],[113.086905,22.5599891],[113.0855317,22.5592707],[113.0841691,22.558488],[113.0826134,22.5573932],[113.0815098,22.5564982],[113.0792872,22.5548232],[113.078018,22.5538473],[113.0767521,22.5528389],[113.0761359,22.5523363],[113.0752874,22.5515106],[113.0737859,22.5498008],[113.0734043,22.5493531],[113.0723451,22.5481535],[113.0711501,22.5467685],[113.0700565,22.5452849],[113.0689826,22.543451],[113.0683745,22.5421888],[113.0676289,22.5402474],[113.0674677,22.539654],[113.0666617,22.5362308],[113.0661685,22.5341954],[113.0657256,22.5320264],[113.0654968,22.5301921],[113.0653866,22.528467],[113.0655452,22.5258223],[113.0656676,22.5242316],[113.0656915,22.5239749],[113.0658026,22.5223663],[113.0659063,22.5203568],[113.0662382,22.5161705]]},"properties":{"key":"way:164295943@detail:452_90","osmType":"way","osmId":164295943,"sourceRegion":"guangzhou","featureType":"infrastructure","railClass":"highspeed","mode":"rail","name":"江门线","ref":"0720","usage":"main","highspeed":"yes","bridge":"yes","status":"operational","color":"#E54848","sourceKey":"way:164295943"}},{"type":"Feature","geometry":{"type":"LineString","coordinates":[[113.1996343,22.6004932],[113.1967017,22.5995223],[113.1940052,22.598563],[113.1921215,22.5979326],[113.1903097,22.5973998],[113.1886052,22.5968998],[113.1862078,22.5962793],[113.1832723,22.5955675],[113.1818953,22.5952455],[113.1803181,22.594844],[113.1789343,22.5944491],[113.1775134,22.5939412],[113.1748115,22.5927966]]},"properties":{"key":"way:164295944@detail:452_90","osmType":"way","osmId":164295944,"sourceRegion":"guangzhou","featureType":"infrastructure","railClass":"highspeed","mode":"rail","name":"江门线","ref":"0720","usage":"main","highspeed":"yes","bridge":"yes","status":"operational","color":"#E54848","sourceKey":"way:164295944"}},{"type":"Feature","geometry":{"type":"LineString","coordinates":[[113.031605,22.5896453],[113.0312423,22.5915248]]},"properties":{"key":"way:194279537@detail:452_90","osmType":"way","osmId":194279537,"sourceRegion":"guangzhou","featureType":"infrastructure","railClass":"national","mode":"rail","name":"广珠线","nameEn":"Guangzhu Line","ref":"0710","usage":"main","status":"operational","color":"#E54848","sourceKey":"way:194279537"}},{"type":"Feature","geometry":{"type":"LineString","coordinates":[[113.06695747926668,22.5],[113.0670123,22.5007495],[113.0670639,22.5014557],[113.0670727,22.501575],[113.0673116,22.5048421],[113.0673483,22.5052785],[113.0673938,22.5056979],[113.0674442,22.5060709],[113.0675275,22.5065146],[113.0676222,22.5069493],[113.0677408,22.5073998],[113.067907,22.5079531],[113.0680787,22.5084337],[113.0682989,22.5089816],[113.0685823,22.5096037],[113.069615,22.5117085],[113.0699799,22.5124522]]},"properties":{"key":"way:196802059@detail:452_90","osmType":"way","osmId":196802059,"sourceRegion":"guangzhou","featureType":"infrastructure","railClass":"national","mode":"rail","name":"广珠线","nameEn":"Guangzhu Line","ref":"0710","usage":"main","status":"operational","color":"#E54848","sourceKey":"way:196802059"}},{"type":"Feature","geometry":{"type":"LineString","coordinates":[[113.0520257,22.5544355],[113.0501671,22.5566704],[113.0367849,22.5764134],[113.0342729,22.581069],[113.0320289,22.5868477],[113.031605,22.5896453]]},"properties":{"key":"way:196828781@detail:452_90","osmType":"way","osmId":196828781,"sourceRegion":"guangzhou","featureType":"infrastructure","railClass":"national","mode":"rail","name":"广珠线","nameEn":"Guangzhu Line","ref":"0710","usage":"main","tunnel":"yes","status":"operational","color":"#E54848","sourceKey":"way:196828781"}},{"type":"Feature","geometry":{"type":"LineString","coordinates":[[113.0458791,22.6994259],[113.0472976,22.6997415],[113.0481256,22.6999258],[113.0494807,22.7002444],[113.0512407,22.7006348],[113.0528782,22.7010126],[113.0546647,22.7013632],[113.0558613,22.7015565],[113.0572861,22.7017467],[113.05855,22.7018946],[113.0597893,22.701997],[113.0608292,22.702076],[113.0619582,22.7021363],[113.0628841,22.7021587],[113.063971,22.7021548],[113.0661993,22.7021005],[113.0684405,22.7019273],[113.0697606,22.7017921],[113.0709464,22.7016333],[113.0759911,22.7009322],[113.08032,22.7003764],[113.0812493,22.700301],[113.0822278,22.7002369],[113.083953,22.7001692],[113.0853823,22.7001598],[113.0881847,22.7001864],[113.0892601,22.7002063],[113.1010638,22.7004166],[113.1042578,22.7004052],[113.1057608,22.700376],[113.1076821,22.7002292],[113.1089786,22.7000813],[113.109988,22.6999207],[113.1119361,22.6995457],[113.1130551,22.6992736],[113.1139563,22.6990244],[113.1153702,22.6986],[113.1165726,22.698194],[113.1190212,22.6972532],[113.1256515,22.6946645],[113.1285034,22.6935525],[113.129585,22.6931355],[113.1301335,22.6928935],[113.1307314,22.6925849],[113.1317809,22.6919291],[113.1350847,22.6899046],[113.1360036,22.6894464],[113.1366854,22.6891542],[113.1374872,22.6888451],[113.1383382,22.6885834],[113.1389947,22.6883986],[113.1396962,22.6882404],[113.1410862,22.6880115],[113.1424295,22.687859],[113.1429604,22.6878385],[113.1445054,22.6878472],[113.1450269,22.6878727],[113.1455167,22.6879083],[113.1460552,22.6879611],[113.1472367,22.6881423]]},"properties":{"key":"way:308853799@detail:452_90","osmType":"way","osmId":308853799,"sourceRegion":"guangzhou","featureType":"infrastructure","railClass":"construction","mode":"rail","name":"南沙港线","nameEn":"Nanshagang Line","usage":"main","bridge":"viaduct","status":"construction","color":"#52636f","sourceKey":"way:308853799"}},{"type":"Feature","geometry":{"type":"LineString","coordinates":[[113.0075564,22.6306558],[113.0045768,22.6328763],[113.0019472,22.6350202],[113.0,22.637490080748083]]},"properties":{"key":"way:309829051@detail:452_90","osmType":"way","osmId":309829051,"sourceRegion":"guangzhou","featureType":"infrastructure","railClass":"national","mode":"rail","name":"广珠线","nameEn":"Guangzhu Line","ref":"0710","usage":"main","tunnel":"yes","status":"operational","color":"#E54848","sourceKey":"way:309829051"}},{"type":"Feature","geometry":{"type":"LineString","coordinates":[[113.0672627,22.5017317],[113.0673012,22.5008183],[113.0673193,22.5005818],[113.067347,22.5003579],[113.067382,22.5001389],[113.06741774299674,22.5]]},"properties":{"key":"way:387629113@detail:452_90","osmType":"way","osmId":387629113,"sourceRegion":"guangzhou","featureType":"infrastructure","railClass":"minor","mode":"rail","name":"未命名","service":"yard","status":"operational","color":"#52636f","sourceKey":"way:387629113"}},{"type":"Feature","geometry":{"type":"LineString","coordinates":[[113.0657002697742,22.5],[113.0659519,22.5050508],[113.0659936,22.5055298],[113.0660603,22.5059308],[113.0661821,22.5063796],[113.0663884,22.5068955],[113.066574,22.5072904],[113.0667964,22.5076706],[113.0670627,22.5080448],[113.0673918,22.5084197],[113.0677417,22.5087882],[113.0680676,22.509181],[113.0683521,22.5095514],[113.0686712,22.510042],[113.0689273,22.510483],[113.069615,22.5117085]]},"properties":{"key":"way:570736616@detail:452_90","osmType":"way","osmId":570736616,"sourceRegion":"guangzhou","featureType":"infrastructure","railClass":"minor","mode":"rail","name":"未命名","service":"yard","status":"operational","color":"#52636f","sourceKey":"way:570736616"}},{"type":"Feature","geometry":{"type":"LineString","coordinates":[[113.1996176,22.6005348],[113.2007254,22.6009275],[113.2017532,22.6012928]]},"properties":{"key":"way:627789142@detail:452_90","osmType":"way","osmId":627789142,"sourceRegion":"guangzhou","featureType":"infrastructure","railClass":"highspeed","mode":"rail","name":"江门线","ref":"0720","usage":"main","highspeed":"yes","bridge":"viaduct","status":"operational","color":"#E54848","sourceKey":"way:627789142"}},{"type":"Feature","geometry":{"type":"LineString","coordinates":[[113.1747913,22.5928369],[113.1774947,22.5939821],[113.1789185,22.5944911],[113.1803046,22.5948866],[113.181883,22.5952884],[113.1832603,22.5956105],[113.1861952,22.5963221],[113.1885914,22.5969423],[113.1902951,22.5974421],[113.192106,22.5979746],[113.1939884,22.5986046],[113.1966849,22.5995639],[113.1996176,22.6005348]]},"properties":{"key":"way:627789143@detail:452_90","osmType":"way","osmId":627789143,"sourceRegion":"guangzhou","featureType":"infrastructure","railClass":"highspeed","mode":"rail","name":"江门线","ref":"0720","usage":"main","highspeed":"yes","bridge":"yes","status":"operational","color":"#E54848","sourceKey":"way:627789143"}},{"type":"Feature","geometry":{"type":"LineString","coordinates":[[113.1690671,22.5903637],[113.1747913,22.5928369]]},"properties":{"key":"way:627789144@detail:452_90","osmType":"way","osmId":627789144,"sourceRegion":"guangzhou","featureType":"infrastructure","railClass":"highspeed","mode":"rail","name":"江门线","ref":"0720","usage":"main","highspeed":"yes","bridge":"yes","status":"operational","color":"#E54848","sourceKey":"way:627789144"}},{"type":"Feature","geometry":{"type":"LineString","coordinates":[[113.1594425,22.5861098],[113.1608198,22.5867177],[113.1630874,22.5876905],[113.1650762,22.5885399],[113.1690671,22.5903637]]},"properties":{"key":"way:627789145@detail:452_90","osmType":"way","osmId":627789145,"sourceRegion":"guangzhou","featureType":"infrastructure","railClass":"highspeed","mode":"rail","name":"江门线","ref":"0720","usage":"main","highspeed":"yes","bridge":"yes","status":"operational","color":"#E54848","sourceKey":"way:627789145"}},{"type":"Feature","geometry":{"type":"LineString","coordinates":[[113.1574079,22.5852253],[113.1584357,22.5856722],[113.1594425,22.5861098]]},"properties":{"key":"way:627789146@detail:452_90","osmType":"way","osmId":627789146,"sourceRegion":"guangzhou","featureType":"infrastructure","railClass":"highspeed","mode":"rail","name":"江门线","ref":"0720","usage":"main","highspeed":"yes","bridge":"viaduct","status":"operational","color":"#E54848","sourceKey":"way:627789146"}},{"type":"Feature","geometry":{"type":"LineString","coordinates":[[113.0661902,22.5161676],[113.0658583,22.5203535],[113.0657463,22.5223588],[113.0656436,22.5239715],[113.0655321,22.5253258],[113.0653385,22.5284661],[113.0654488,22.530195],[113.0656781,22.5320335],[113.0661214,22.5342043],[113.0666146,22.5362399],[113.0674209,22.5396641],[113.0675828,22.5402603],[113.0683298,22.5422053],[113.0689394,22.5434706],[113.0700154,22.545308],[113.0711114,22.5467949],[113.0723077,22.5481814],[113.0733668,22.5493809],[113.0737483,22.5498285],[113.0752512,22.5515399],[113.0761025,22.5523683],[113.0767205,22.5528724],[113.0779869,22.5538812],[113.0792566,22.5548575],[113.0814787,22.5565321],[113.0825829,22.5574276],[113.0841418,22.5585246],[113.0855071,22.5593089],[113.0868829,22.5600286],[113.0883022,22.5606441],[113.0928586,22.5622946],[113.1000136,22.5646864],[113.1025057,22.5656282],[113.1065584,22.5670659],[113.108662,22.5678368],[113.1107042,22.5686533],[113.1127369,22.5694723],[113.115838,22.5707217],[113.1207612,22.5726992],[113.1225797,22.5734449],[113.1240244,22.5739396],[113.1250326,22.574237],[113.1261345,22.5745035],[113.1294086,22.5752066],[113.132171,22.5756532],[113.1347323,22.576185],[113.1361569,22.5765962],[113.1374431,22.5770475],[113.1388624,22.5775903],[113.1422174,22.5790097],[113.1453333,22.5802619],[113.1464319,22.5807342],[113.14805,22.5814219],[113.1489502,22.5818045],[113.1507103,22.582518],[113.1548428,22.5841648],[113.1574079,22.5852253]]},"properties":{"key":"way:627789147@detail:452_90","osmType":"way","osmId":627789147,"sourceRegion":"guangzhou","featureType":"infrastructure","railClass":"highspeed","mode":"rail","name":"江门线","ref":"0720","usage":"main","highspeed":"yes","bridge":"yes","status":"operational","color":"#E54848","sourceKey":"way:627789147"}},{"type":"Feature","geometry":{"type":"LineString","coordinates":[[113.0710301,22.514642],[113.0712073,22.515057],[113.0713829,22.5154993],[113.0715141,22.5159128],[113.0717263,22.516597],[113.0718161,22.5169773],[113.0718924,22.5174058],[113.0719703,22.5178383],[113.0720224,22.5183089],[113.0720401,22.5187303],[113.0720361,22.5194959],[113.071997,22.5201164],[113.0716859,22.5227081],[113.0714606,22.523927],[113.071061,22.5251807],[113.0707123,22.5259587],[113.070149,22.5269522],[113.0696045,22.5277227],[113.0638001,22.5348944],[113.0625498,22.5367091],[113.0616672,22.5382527],[113.0605831,22.54076],[113.0584073,22.5462751],[113.0575481,22.5480122],[113.0564401,22.5496892],[113.0543324,22.5521318],[113.0520257,22.5544355]]},"properties":{"key":"way:684861865@detail:452_90","osmType":"way","osmId":684861865,"sourceRegion":"guangzhou","featureType":"infrastructure","railClass":"national","mode":"rail","name":"广珠线","nameEn":"Guangzhu Line","ref":"0710","usage":"main","tunnel":"yes","status":"operational","color":"#E54848","sourceKey":"way:684861865"}},{"type":"Feature","geometry":{"type":"LineString","coordinates":[[113.0311438,22.5920353],[113.0306802,22.5943359]]},"properties":{"key":"way:684861866@detail:452_90","osmType":"way","osmId":684861866,"sourceRegion":"guangzhou","featureType":"infrastructure","railClass":"national","mode":"rail","name":"广珠线","nameEn":"Guangzhu Line","ref":"0710","usage":"main","status":"operational","color":"#E54848","sourceKey":"way:684861866"}},{"type":"Feature","geometry":{"type":"LineString","coordinates":[[113.0312423,22.5915248],[113.0311944,22.591773],[113.0311438,22.5920353]]},"properties":{"key":"way:684861867@detail:452_90","osmType":"way","osmId":684861867,"sourceRegion":"guangzhou","featureType":"infrastructure","railClass":"national","mode":"rail","name":"广珠线","nameEn":"Guangzhu Line","ref":"0710","usage":"main","bridge":"yes","status":"operational","color":"#E54848","sourceKey":"way:684861867"}},{"type":"Feature","geometry":{"type":"LineString","coordinates":[[113.0306802,22.5943359],[113.0300469,22.5972532],[113.0297194,22.5982504]]},"properties":{"key":"way:684861868@detail:452_90","osmType":"way","osmId":684861868,"sourceRegion":"guangzhou","featureType":"infrastructure","railClass":"national","mode":"rail","name":"广珠线","nameEn":"Guangzhu Line","ref":"0710","usage":"main","status":"operational","color":"#E54848","sourceKey":"way:684861868"}},{"type":"Feature","geometry":{"type":"LineString","coordinates":[[113.0297194,22.5982504],[113.0295429,22.5987693]]},"properties":{"key":"way:684861869@detail:452_90","osmType":"way","osmId":684861869,"sourceRegion":"guangzhou","featureType":"infrastructure","railClass":"national","mode":"rail","name":"广珠线","nameEn":"Guangzhu Line","ref":"0710","usage":"main","bridge":"yes","status":"operational","color":"#E54848","sourceKey":"way:684861869"}},{"type":"Feature","geometry":{"type":"LineString","coordinates":[[113.0295429,22.5987693],[113.0282663,22.6025927]]},"properties":{"key":"way:684861870@detail:452_90","osmType":"way","osmId":684861870,"sourceRegion":"guangzhou","featureType":"infrastructure","railClass":"national","mode":"rail","name":"广珠线","nameEn":"Guangzhu Line","ref":"0710","usage":"main","status":"operational","color":"#E54848","sourceKey":"way:684861870"}},{"type":"Feature","geometry":{"type":"LineString","coordinates":[[113.0282663,22.6025927],[113.0281159,22.6031329],[113.0272241,22.6057798],[113.0263991,22.6077127],[113.0245707,22.611519],[113.0243231,22.6121349],[113.0229237,22.6164512]]},"properties":{"key":"way:684861871@detail:452_90","osmType":"way","osmId":684861871,"sourceRegion":"guangzhou","featureType":"infrastructure","railClass":"national","mode":"rail","name":"广珠线","nameEn":"Guangzhu Line","ref":"0710","usage":"main","bridge":"yes","status":"operational","color":"#E54848","sourceKey":"way:684861871"}},{"type":"Feature","geometry":{"type":"LineString","coordinates":[[113.0229237,22.6164512],[113.0225582,22.6176167],[113.0222556,22.6184417],[113.0218672,22.6191726],[113.0213101,22.6202718],[113.0208094,22.6211474],[113.0202441,22.6219571],[113.019656,22.6226432],[113.0191162,22.6232047],[113.0186314,22.6236777],[113.0179353,22.6242449]]},"properties":{"key":"way:684861872@detail:452_90","osmType":"way","osmId":684861872,"sourceRegion":"guangzhou","featureType":"infrastructure","railClass":"national","mode":"rail","name":"广珠线","nameEn":"Guangzhu Line","ref":"0710","usage":"main","status":"operational","color":"#E54848","sourceKey":"way:684861872"}},{"type":"Feature","geometry":{"type":"LineString","coordinates":[[113.0179353,22.6242449],[113.0172309,22.6248401],[113.0162563,22.6255167],[113.0155209,22.6259653]]},"properties":{"key":"way:684861873@detail:452_90","osmType":"way","osmId":684861873,"sourceRegion":"guangzhou","featureType":"infrastructure","railClass":"national","mode":"rail","name":"广珠线","nameEn":"Guangzhu Line","ref":"0710","usage":"main","bridge":"yes","status":"operational","color":"#E54848","sourceKey":"way:684861873"}},{"type":"Feature","geometry":{"type":"LineString","coordinates":[[113.0155209,22.6259653],[113.0107778,22.6287122],[113.0075564,22.6306558]]},"properties":{"key":"way:684861874@detail:452_90","osmType":"way","osmId":684861874,"sourceRegion":"guangzhou","featureType":"infrastructure","railClass":"national","mode":"rail","name":"广珠线","nameEn":"Guangzhu Line","ref":"0710","usage":"main","status":"operational","color":"#E54848","sourceKey":"way:684861874"}},{"type":"Feature","geometry":{"type":"LineString","coordinates":[[113.211373,22.6047078],[113.2130941,22.6053245],[113.2156409,22.606218],[113.2172872,22.606836],[113.2190772,22.6074641],[113.2214986,22.6083252],[113.2233942,22.609147],[113.2247296,22.6098249],[113.225901,22.6105301],[113.2272262,22.6113787],[113.2283983,22.6122717],[113.229361,22.6130265],[113.2305055,22.614084],[113.2317192,22.6153419],[113.2353682,22.6193294],[113.2387841,22.6229905],[113.2413216,22.6257357],[113.2444354,22.6290811],[113.2454497,22.6301413],[113.2471662,22.6320078],[113.25,22.635050543778803]]},"properties":{"key":"way:826364289@detail:452_90","osmType":"way","osmId":826364289,"sourceRegion":"guangzhou","featureType":"infrastructure","railClass":"highspeed","mode":"rail","name":"江门线","ref":"0720","usage":"main","highspeed":"yes","bridge":"yes","status":"operational","color":"#E54848","sourceKey":"way:826364289"}},{"type":"Feature","geometry":{"type":"LineString","coordinates":[[113.25,22.633809769533052],[113.2492512,22.633213],[113.2485217,22.6326213],[113.2477006,22.6319607],[113.2465154,22.6309923],[113.2458499,22.6303911],[113.2444719,22.6290522]]},"properties":{"key":"way:826364290@detail:452_90","osmType":"way","osmId":826364290,"sourceRegion":"guangzhou","featureType":"infrastructure","railClass":"highspeed","mode":"rail","name":"江门线","ref":"0720","usage":"main","highspeed":"yes","bridge":"yes","status":"operational","color":"#E54848","sourceKey":"way:826364290"}},{"type":"Feature","geometry":{"type":"LineString","coordinates":[[113.0520629,22.5544645],[113.0543693,22.5521611],[113.05648,22.549715],[113.0575912,22.5480333],[113.0584524,22.5462922],[113.0606286,22.540776],[113.0617114,22.5382716],[113.0625919,22.5367317],[113.0638402,22.53492],[113.0696444,22.5277485],[113.070191,22.526975],[113.0707564,22.5259778],[113.0711069,22.5251957],[113.0715081,22.5239372],[113.071734,22.5227147],[113.0720416,22.5201211],[113.0720817,22.5195046],[113.0720924,22.518734],[113.0720739,22.5183102],[113.0720267,22.5178247],[113.0719471,22.5173993],[113.0718644,22.5169699],[113.0717812,22.5165994],[113.0715569,22.5158989],[113.0714245,22.5154944],[113.0712435,22.515036],[113.0710654,22.5146192]]},"properties":{"key":"way:904648345@detail:452_90","osmType":"way","osmId":904648345,"sourceRegion":"guangzhou","featureType":"infrastructure","railClass":"national","mode":"rail","name":"广珠线","nameEn":"Guangzhu Line","ref":"0710","usage":"main","tunnel":"yes","status":"operational","color":"#E54848","sourceKey":"way:904648345"}},{"type":"Feature","geometry":{"type":"LineString","coordinates":[[113.0316531,22.5896524],[113.0320764,22.5868585],[113.0343177,22.5810867],[113.0368274,22.5764354],[113.0502071,22.5566961],[113.0520629,22.5544645]]},"properties":{"key":"way:904648346@detail:452_90","osmType":"way","osmId":904648346,"sourceRegion":"guangzhou","featureType":"infrastructure","railClass":"national","mode":"rail","name":"广珠线","nameEn":"Guangzhu Line","ref":"0710","usage":"main","tunnel":"yes","status":"operational","color":"#E54848","sourceKey":"way:904648346"}},{"type":"Feature","geometry":{"type":"LineString","coordinates":[[113.0312902,22.5915327],[113.0316531,22.5896524]]},"properties":{"key":"way:904648347@detail:452_90","osmType":"way","osmId":904648347,"sourceRegion":"guangzhou","featureType":"infrastructure","railClass":"national","mode":"rail","name":"广珠线","nameEn":"Guangzhu Line","ref":"0710","usage":"main","status":"operational","color":"#E54848","sourceKey":"way:904648347"}},{"type":"Feature","geometry":{"type":"LineString","coordinates":[[113.0311917,22.5920433],[113.0312902,22.5915327]]},"properties":{"key":"way:904648348@detail:452_90","osmType":"way","osmId":904648348,"sourceRegion":"guangzhou","featureType":"infrastructure","railClass":"national","mode":"rail","name":"广珠线","nameEn":"Guangzhu Line","ref":"0710","usage":"main","bridge":"yes","status":"operational","color":"#E54848","sourceKey":"way:904648348"}},{"type":"Feature","geometry":{"type":"LineString","coordinates":[[113.030728,22.5943444],[113.0311917,22.5920433]]},"properties":{"key":"way:904648349@detail:452_90","osmType":"way","osmId":904648349,"sourceRegion":"guangzhou","featureType":"infrastructure","railClass":"national","mode":"rail","name":"广珠线","nameEn":"Guangzhu Line","ref":"0710","usage":"main","status":"operational","color":"#E54848","sourceKey":"way:904648349"}},{"type":"Feature","geometry":{"type":"LineString","coordinates":[[113.0297659,22.5982636],[113.0300941,22.5972642],[113.030728,22.5943444]]},"properties":{"key":"way:904648350@detail:452_90","osmType":"way","osmId":904648350,"sourceRegion":"guangzhou","featureType":"infrastructure","railClass":"national","mode":"rail","name":"广珠线","nameEn":"Guangzhu Line","ref":"0710","usage":"main","status":"operational","color":"#E54848","sourceKey":"way:904648350"}},{"type":"Feature","geometry":{"type":"LineString","coordinates":[[113.0295894,22.5987826],[113.0297659,22.5982636]]},"properties":{"key":"way:904648351@detail:452_90","osmType":"way","osmId":904648351,"sourceRegion":"guangzhou","featureType":"infrastructure","railClass":"national","mode":"rail","name":"广珠线","nameEn":"Guangzhu Line","ref":"0710","usage":"main","bridge":"yes","status":"operational","color":"#E54848","sourceKey":"way:904648351"}},{"type":"Feature","geometry":{"type":"LineString","coordinates":[[113.0283131,22.6026049],[113.0295894,22.5987826]]},"properties":{"key":"way:904648352@detail:452_90","osmType":"way","osmId":904648352,"sourceRegion":"guangzhou","featureType":"infrastructure","railClass":"national","mode":"rail","name":"广珠线","nameEn":"Guangzhu Line","ref":"0710","usage":"main","status":"operational","color":"#E54848","sourceKey":"way:904648352"}},{"type":"Feature","geometry":{"type":"LineString","coordinates":[[113.0229703,22.6164641],[113.0243693,22.6121492],[113.0246158,22.6115359],[113.026444,22.60773],[113.02727,22.6057947],[113.0281627,22.6031452],[113.0283131,22.6026049]]},"properties":{"key":"way:904648353@detail:452_90","osmType":"way","osmId":904648353,"sourceRegion":"guangzhou","featureType":"infrastructure","railClass":"national","mode":"rail","name":"广珠线","nameEn":"Guangzhu Line","ref":"0710","usage":"main","bridge":"yes","status":"operational","color":"#E54848","sourceKey":"way:904648353"}},{"type":"Feature","geometry":{"type":"LineString","coordinates":[[113.0179679,22.6242784],[113.0186653,22.6237101],[113.0191521,22.6232351],[113.0196934,22.6226721],[113.0202838,22.6219833],[113.0208515,22.6211701],[113.0213537,22.6202918],[113.0219111,22.619192],[113.0223007,22.6184589],[113.0226047,22.6176302],[113.0229703,22.6164641]]},"properties":{"key":"way:904648354@detail:452_90","osmType":"way","osmId":904648354,"sourceRegion":"guangzhou","featureType":"infrastructure","railClass":"national","mode":"rail","name":"广珠线","nameEn":"Guangzhu Line","ref":"0710","usage":"main","status":"operational","color":"#E54848","sourceKey":"way:904648354"}},{"type":"Feature","geometry":{"type":"LineString","coordinates":[[113.0155473,22.6260031],[113.0162844,22.6255535],[113.0172621,22.6248747],[113.0179679,22.6242784]]},"properties":{"key":"way:904648355@detail:452_90","osmType":"way","osmId":904648355,"sourceRegion":"guangzhou","featureType":"infrastructure","railClass":"national","mode":"rail","name":"广珠线","nameEn":"Guangzhu Line","ref":"0710","usage":"main","bridge":"yes","status":"operational","color":"#E54848","sourceKey":"way:904648355"}},{"type":"Feature","geometry":{"type":"LineString","coordinates":[[113.0075851,22.6306922],[113.0108041,22.6287501],[113.0155473,22.6260031]]},"properties":{"key":"way:904648356@detail:452_90","osmType":"way","osmId":904648356,"sourceRegion":"guangzhou","featureType":"infrastructure","railClass":"national","mode":"rail","name":"广珠线","nameEn":"Guangzhu Line","ref":"0710","usage":"main","status":"operational","color":"#E54848","sourceKey":"way:904648356"}},{"type":"Feature","geometry":{"type":"LineString","coordinates":[[113.0,22.637566496072008],[113.0019835,22.6350506],[113.0046083,22.6329107],[113.0075851,22.6306922]]},"properties":{"key":"way:904648357@detail:452_90","osmType":"way","osmId":904648357,"sourceRegion":"guangzhou","featureType":"infrastructure","railClass":"national","mode":"rail","name":"广珠线","nameEn":"Guangzhu Line","ref":"0710","usage":"main","tunnel":"yes","status":"operational","color":"#E54848","sourceKey":"way:904648357"}},{"type":"Feature","geometry":{"type":"LineString","coordinates":[[113.070025,22.5124363],[113.0686175,22.5095872],[113.0683414,22.5089682],[113.0681175,22.5084207],[113.0679431,22.507915],[113.0677826,22.5073773],[113.0676691,22.5069385],[113.0675728,22.5065061],[113.0674908,22.5060742],[113.0674404,22.5056928],[113.0673933,22.5052776],[113.0673583,22.5048384],[113.0672162,22.5028938],[113.06700475096045,22.5]]},"properties":{"key":"way:960179719@detail:452_90","osmType":"way","osmId":960179719,"sourceRegion":"guangzhou","featureType":"infrastructure","railClass":"national","mode":"rail","name":"广珠线","nameEn":"Guangzhu Line","ref":"0710","usage":"main","status":"operational","color":"#E54848","sourceKey":"way:960179719"}},{"type":"Feature","geometry":{"type":"LineString","coordinates":[[113.070156,22.5128026],[113.0710301,22.514642]]},"properties":{"key":"way:1050576128@detail:452_90","osmType":"way","osmId":1050576128,"sourceRegion":"guangzhou","featureType":"infrastructure","railClass":"national","mode":"rail","name":"广珠线","nameEn":"Guangzhu Line","ref":"0710","usage":"main","status":"operational","color":"#E54848","sourceKey":"way:1050576128"}},{"type":"Feature","geometry":{"type":"LineString","coordinates":[[113.0699799,22.5124522],[113.070156,22.5128026]]},"properties":{"key":"way:1050576129@detail:452_90","osmType":"way","osmId":1050576129,"sourceRegion":"guangzhou","featureType":"infrastructure","railClass":"national","mode":"rail","name":"广珠线","nameEn":"Guangzhu Line","ref":"0710","usage":"main","bridge":"yes","status":"operational","color":"#E54848","sourceKey":"way:1050576129"}},{"type":"Feature","geometry":{"type":"LineString","coordinates":[[113.0702001,22.5127881],[113.070025,22.5124363]]},"properties":{"key":"way:1050576130@detail:452_90","osmType":"way","osmId":1050576130,"sourceRegion":"guangzhou","featureType":"infrastructure","railClass":"national","mode":"rail","name":"广珠线","nameEn":"Guangzhu Line","ref":"0710","usage":"main","bridge":"yes","status":"operational","color":"#E54848","sourceKey":"way:1050576130"}},{"type":"Feature","geometry":{"type":"LineString","coordinates":[[113.0710654,22.5146192],[113.0702001,22.5127881]]},"properties":{"key":"way:1050576131@detail:452_90","osmType":"way","osmId":1050576131,"sourceRegion":"guangzhou","featureType":"infrastructure","railClass":"national","mode":"rail","name":"广珠线","nameEn":"Guangzhu Line","ref":"0710","usage":"main","status":"operational","color":"#E54848","sourceKey":"way:1050576131"}},{"type":"Feature","geometry":{"type":"LineString","coordinates":[[113.0661902,22.5161676],[113.0658402,22.5186498],[113.0656189,22.5220442],[113.0656269,22.5224183],[113.0656417,22.5231232],[113.0656436,22.5239715]]},"properties":{"key":"way:1050604580@detail:452_90","osmType":"way","osmId":1050604580,"sourceRegion":"guangzhou","featureType":"infrastructure","railClass":"highspeed","mode":"rail","name":"未命名","service":"siding","highspeed":"yes","bridge":"yes","status":"operational","color":"#E54848","sourceKey":"way:1050604580"}},{"type":"Feature","geometry":{"type":"LineString","coordinates":[[113.0656915,22.5239749],[113.0657677,22.5232867],[113.0657932,22.5230947],[113.0658831,22.5226153],[113.0659139,22.5224146],[113.0661875,22.5186479],[113.0662382,22.5161705]]},"properties":{"key":"way:1050604583@detail:452_90","osmType":"way","osmId":1050604583,"sourceRegion":"guangzhou","featureType":"infrastructure","railClass":"highspeed","mode":"rail","name":"未命名","service":"siding","highspeed":"yes","bridge":"yes","status":"operational","color":"#E54848","sourceKey":"way:1050604583"}},{"type":"Feature","geometry":{"type":"LineString","coordinates":[[113.0655532,22.5266067],[113.06558,22.5260406],[113.0656095,22.5256355]]},"properties":{"key":"way:1050604847@detail:452_90","osmType":"way","osmId":1050604847,"sourceRegion":"guangzhou","featureType":"infrastructure","railClass":"highspeed","mode":"rail","name":"未命名","service":"yard","highspeed":"yes","bridge":"yes","status":"operational","color":"#E54848","sourceKey":"way:1050604847"}},{"type":"Feature","geometry":{"type":"LineString","coordinates":[[113.0655452,22.5258223],[113.0655532,22.5266067],[113.0655518,22.5269176],[113.0655478,22.5272447],[113.0655317,22.5275506],[113.065525,22.5277018],[113.0655102,22.5280858],[113.0655135,22.528784]]},"properties":{"key":"way:1050604848@detail:452_90","osmType":"way","osmId":1050604848,"sourceRegion":"guangzhou","featureType":"infrastructure","railClass":"highspeed","mode":"rail","name":"未命名","service":"yard","highspeed":"yes","bridge":"yes","status":"operational","color":"#E54848","sourceKey":"way:1050604848"}},{"type":"Feature","geometry":{"type":"LineString","coordinates":[[113.0656676,22.5242316],[113.0655321,22.5253258]]},"properties":{"key":"way:1050604849@detail:452_90","osmType":"way","osmId":1050604849,"sourceRegion":"guangzhou","featureType":"infrastructure","railClass":"highspeed","mode":"rail","name":"未命名","service":"crossover","highspeed":"yes","bridge":"yes","status":"operational","color":"#E54848","sourceKey":"way:1050604849"}},{"type":"Feature","geometry":{"type":"LineString","coordinates":[[113.0662382,22.5161705],[113.066337,22.5152186],[113.0665684,22.5129881],[113.0666381,22.5114717],[113.0666327,22.5101882],[113.0666113,22.5093457],[113.0665254,22.5085428],[113.0663431,22.5070958],[113.0661714,22.5053414],[113.0659635,22.5018748]]},"properties":{"key":"way:1082539566@detail:452_90","osmType":"way","osmId":1082539566,"sourceRegion":"guangzhou","featureType":"infrastructure","railClass":"highspeed","mode":"rail","name":"江门线","ref":"0720","operator":"中国铁路广州局集团有限公司","usage":"main","highspeed":"yes","bridge":"yes","status":"operational","color":"#E54848","sourceKey":"way:1082539566"}},{"type":"Feature","geometry":{"type":"LineString","coordinates":[[113.0661902,22.5161676],[113.0665204,22.5129861],[113.06659,22.5114713],[113.0665846,22.5101888],[113.0665633,22.5093484],[113.0664776,22.5085476],[113.0662953,22.5071004],[113.0661234,22.5053446],[113.0659035,22.5018822]]},"properties":{"key":"way:1082539567@detail:452_90","osmType":"way","osmId":1082539567,"sourceRegion":"guangzhou","featureType":"infrastructure","railClass":"highspeed","mode":"rail","name":"江门线","ref":"0720","operator":"中国铁路广州局集团有限公司","usage":"main","highspeed":"yes","bridge":"yes","status":"operational","color":"#E54848","sourceKey":"way:1082539567"}},{"type":"Feature","geometry":{"type":"MultiLineString","coordinates":[[[113.25,22.512463445662046],[113.2356622,22.5132144],[113.2339751,22.5132754],[113.2326039,22.5132808],[113.2311576,22.5132269],[113.2297726,22.5130932],[113.2283939,22.512923],[113.2269327,22.5126765],[113.2256766,22.512395],[113.2244041,22.5120506],[113.2231003,22.5116407],[113.2217927,22.5111606],[113.2204602,22.5106044],[113.2103122,22.5060565],[113.2087938,22.5054165],[113.2075,22.5049123],[113.2060438,22.5044383],[113.2047946,22.5040601],[113.2034487,22.5037434],[113.2016392,22.5034455],[113.1998483,22.503258],[113.197957,22.5031548],[113.1906844,22.502914],[113.1891172,22.5028158],[113.1876983,22.5026909],[113.1862339,22.5025335],[113.1847452,22.5022994],[113.1833827,22.5020294],[113.1818509,22.5016852],[113.1803172,22.5012823],[113.1787544,22.5008037],[113.17629068456446,22.5]],[[113.11534400593433,22.5],[113.1142744,22.5007906],[113.1130491,22.5016206],[113.1116154,22.5024945],[113.1102881,22.5032376],[113.1087939,22.5039922],[113.1074813,22.504629],[113.1057747,22.5054333],[113.1043595,22.5060512],[113.1028965,22.5066677],[113.081231,22.5154099],[113.0803457,22.5157537],[113.0795479,22.5160217],[113.0788141,22.5161971],[113.0780792,22.5163085],[113.077336,22.5163484],[113.0763999,22.5163122],[113.0755025,22.5162184],[113.0745925,22.5160674],[113.0735897,22.5158283],[113.0725792,22.5155018],[113.0718735,22.5151985],[113.0712804,22.5148864],[113.0706704,22.5144729],[113.0700613,22.514028],[113.0695234,22.5135428],[113.0690266,22.5129839],[113.0685785,22.5123975],[113.0681898,22.5117475],[113.0678839,22.5110491],[113.0676193,22.5102928],[113.0674071,22.5095924],[113.0672098,22.5088475],[113.0670442,22.5081361],[113.0669171,22.5074654],[113.0668373,22.5068146],[113.066512,22.5022671]]]},"properties":{"key":"way:1093586123@detail:452_90","osmType":"way","osmId":1093586123,"sourceRegion":"guangzhou","featureType":"infrastructure","railClass":"construction","mode":"construction","name":"深湛线","nameEn":"Shenzhen-Zhanjiang Railway","ref":"3071","operator":"中国铁路广州局集团有限公司","usage":"main","highspeed":"yes","bridge":"yes","status":"construction","color":"#52636f","sourceKey":"way:1093586123"}},{"type":"Feature","geometry":{"type":"LineString","coordinates":[[113.0664501,22.5022709],[113.0663271,22.5005847],[113.06628444148824,22.5]]},"properties":{"key":"way:1193275975@detail:452_90","osmType":"way","osmId":1193275975,"sourceRegion":"guangzhou","featureType":"infrastructure","railClass":"construction","mode":"construction","name":"深湛线","nameEn":"Shenzhen-Zhanjiang Railway","ref":"3071","operator":"中国铁路广州局集团有限公司","usage":"main","highspeed":"yes","status":"construction","color":"#52636f","sourceKey":"way:1193275975"}},{"type":"Feature","geometry":{"type":"LineString","coordinates":[[113.066512,22.5022671],[113.0664606,22.5015671],[113.0664217,22.5010361],[113.06634567262175,22.5]]},"properties":{"key":"way:1193275976@detail:452_90","osmType":"way","osmId":1193275976,"sourceRegion":"guangzhou","featureType":"infrastructure","railClass":"construction","mode":"construction","name":"深湛线","nameEn":"Shenzhen-Zhanjiang Railway","ref":"3071","operator":"中国铁路广州局集团有限公司","usage":"main","highspeed":"yes","status":"construction","color":"#52636f","sourceKey":"way:1193275976"}},{"type":"Feature","geometry":{"type":"LineString","coordinates":[[113.0659635,22.5018748],[113.06583077748262,22.5]]},"properties":{"key":"way:1235551733@detail:452_90","osmType":"way","osmId":1235551733,"sourceRegion":"guangzhou","featureType":"infrastructure","railClass":"highspeed","mode":"rail","name":"江门线","ref":"0720","operator":"中国铁路广州局集团有限公司","usage":"main","highspeed":"yes","status":"operational","color":"#E54848","sourceKey":"way:1235551733"}},{"type":"Feature","geometry":{"type":"LineString","coordinates":[[113.0659035,22.5018822],[113.06577186085295,22.5]]},"properties":{"key":"way:1235551734@detail:452_90","osmType":"way","osmId":1235551734,"sourceRegion":"guangzhou","featureType":"infrastructure","railClass":"highspeed","mode":"rail","name":"江门线","ref":"0720","operator":"中国铁路广州局集团有限公司","usage":"main","highspeed":"yes","status":"operational","color":"#E54848","sourceKey":"way:1235551734"}},{"type":"Feature","geometry":{"type":"LineString","coordinates":[[113.06505339839099,22.5],[113.0652569,22.5028561],[113.0655733,22.50759],[113.0656224,22.5089934],[113.0656106,22.5108473]]},"properties":{"key":"way:1235551756@detail:452_90","osmType":"way","osmId":1235551756,"sourceRegion":"guangzhou","featureType":"infrastructure","railClass":"construction","mode":"construction","name":"南珠高速线","nameEn":"Nanning-Zhuhai Highspeed Railway","usage":"main","highspeed":"yes","status":"construction","color":"#397F9D","sourceKey":"way:1235551756"}},{"type":"Feature","geometry":{"type":"LineString","coordinates":[[113.0689273,22.510483],[113.0693893,22.5115667]]},"properties":{"key":"way:1247555336@detail:452_90","osmType":"way","osmId":1247555336,"sourceRegion":"guangzhou","featureType":"infrastructure","railClass":"minor","mode":"rail","name":"未命名","service":"siding","status":"operational","color":"#52636f","sourceKey":"way:1247555336"}},{"type":"Feature","geometry":{"type":"LineString","coordinates":[[113.066337,22.5152186],[113.0664943,22.514357],[113.0665765,22.5137115],[113.0666496,22.5129899],[113.0666998,22.5123022],[113.0667135,22.5114962],[113.0667226,22.5107325],[113.0667135,22.5099435],[113.066677,22.5092936],[113.066613,22.5085257],[113.0663897,22.506247],[113.066369,22.5058388],[113.0663847,22.5054582],[113.0664221,22.505048],[113.0664778,22.5046632],[113.0666942,22.5035453],[113.0667418,22.5031679],[113.0667659,22.5027245],[113.0667694,22.5022642],[113.0667439,22.5017655],[113.0666767,22.5008029]]},"properties":{"key":"way:1247575942@detail:452_90","osmType":"way","osmId":1247575942,"sourceRegion":"guangzhou","featureType":"infrastructure","railClass":"construction","mode":"construction","name":"未命名","service":"yard","bridge":"yes","status":"construction","color":"#52636f","sourceKey":"way:1247575942"}},{"type":"Feature","geometry":{"type":"LineString","coordinates":[[113.0666767,22.5008029],[113.06661728114585,22.5]]},"properties":{"key":"way:1247575943@detail:452_90","osmType":"way","osmId":1247575943,"sourceRegion":"guangzhou","featureType":"infrastructure","railClass":"construction","mode":"construction","name":"未命名","service":"yard","status":"construction","color":"#52636f","sourceKey":"way:1247575943"}},{"type":"Feature","geometry":{"type":"LineString","coordinates":[[113.0664217,22.5010361],[113.06641105306056,22.5]]},"properties":{"key":"way:1247575944@detail:452_90","osmType":"way","osmId":1247575944,"sourceRegion":"guangzhou","featureType":"infrastructure","railClass":"construction","mode":"construction","name":"未命名","service":"yard","status":"construction","color":"#52636f","sourceKey":"way:1247575944"}},{"type":"Feature","geometry":{"type":"LineString","coordinates":[[113.0664606,22.5015671],[113.0663271,22.5005847]]},"properties":{"key":"way:1247575946@detail:452_90","osmType":"way","osmId":1247575946,"sourceRegion":"guangzhou","featureType":"infrastructure","railClass":"construction","mode":"construction","name":"未命名","service":"crossover","status":"construction","color":"#52636f","sourceKey":"way:1247575946"}},{"type":"Feature","geometry":{"type":"LineString","coordinates":[[113.0670123,22.5007495],[113.06700312678433,22.5]]},"properties":{"key":"way:1247602695@detail:452_90","osmType":"way","osmId":1247602695,"sourceRegion":"guangzhou","featureType":"infrastructure","railClass":"minor","mode":"rail","name":"未命名","service":"crossover","status":"operational","color":"#52636f","sourceKey":"way:1247602695"}},{"type":"Feature","geometry":{"type":"LineString","coordinates":[[113.0679883,22.5078326],[113.0678559,22.5073544],[113.0677507,22.5069127],[113.0676563,22.5064946],[113.067574,22.5060495],[113.0675159,22.5056828],[113.067465,22.505279],[113.0674187,22.5048749],[113.0673799,22.5044527],[113.0671015,22.5006274],[113.0670893,22.5004596],[113.06705583268653,22.5]]},"properties":{"key":"way:1247602705@detail:452_90","osmType":"way","osmId":1247602705,"sourceRegion":"guangzhou","featureType":"infrastructure","railClass":"minor","mode":"rail","name":"未命名","service":"yard","status":"operational","color":"#52636f","sourceKey":"way:1247602705"}},{"type":"Feature","geometry":{"type":"LineString","coordinates":[[113.0670893,22.5004596],[113.06703095661695,22.5]]},"properties":{"key":"way:1247602706@detail:452_90","osmType":"way","osmId":1247602706,"sourceRegion":"guangzhou","featureType":"infrastructure","railClass":"minor","mode":"rail","name":"未命名","service":"yard","status":"operational","color":"#52636f","sourceKey":"way:1247602706"}},{"type":"Feature","geometry":{"type":"LineString","coordinates":[[113.067653,22.5060591],[113.067587,22.5056682],[113.067536,22.5052606],[113.067497,22.5048559],[113.067461,22.5044428],[113.0672627,22.5017317],[113.0672509,22.5015699],[113.0672352,22.5013843],[113.0672098,22.5011774],[113.0671015,22.5006274]]},"properties":{"key":"way:1247617609@detail:452_90","osmType":"way","osmId":1247617609,"sourceRegion":"guangzhou","featureType":"infrastructure","railClass":"minor","mode":"rail","name":"未命名","service":"yard","status":"operational","color":"#52636f","sourceKey":"way:1247617609"}},{"type":"Feature","geometry":{"type":"LineString","coordinates":[[113.0656844,22.5108649],[113.0656866,22.5089663],[113.0656433,22.5075793],[113.06510339507399,22.5]]},"properties":{"key":"way:1247617610@detail:452_90","osmType":"way","osmId":1247617610,"sourceRegion":"guangzhou","featureType":"infrastructure","railClass":"construction","mode":"construction","name":"南珠高速线","nameEn":"Nanning-Zhuhai Highspeed Railway","usage":"main","highspeed":"yes","status":"construction","color":"#397F9D","sourceKey":"way:1247617610"}},{"type":"Feature","geometry":{"type":"LineString","coordinates":[[113.0672162,22.5028938],[113.0670727,22.501575]]},"properties":{"key":"way:1247619220@detail:452_90","osmType":"way","osmId":1247619220,"sourceRegion":"guangzhou","featureType":"infrastructure","railClass":"minor","mode":"rail","name":"未命名","service":"crossover","status":"operational","color":"#52636f","sourceKey":"way:1247619220"}},{"type":"Feature","geometry":{"type":"LineString","coordinates":[[113.0670639,22.5014557],[113.0668587701205,22.5]]},"properties":{"key":"way:1247619221@detail:452_90","osmType":"way","osmId":1247619221,"sourceRegion":"guangzhou","featureType":"infrastructure","railClass":"construction","mode":"construction","name":"未命名","service":"yard","status":"construction","color":"#52636f","sourceKey":"way:1247619221"}},{"type":"Feature","geometry":{"type":"LineString","coordinates":[[113.0656106,22.5108473],[113.0655785,22.5131313],[113.06553,22.5145005],[113.0654256,22.5159695],[113.0652626,22.5179536],[113.0650296,22.5200641],[113.0647358,22.5220184],[113.0643139,22.5245131],[113.0638906,22.5265992]]},"properties":{"key":"way:1248726491@detail:452_90","osmType":"way","osmId":1248726491,"sourceRegion":"guangzhou","featureType":"infrastructure","railClass":"construction","mode":"construction","name":"南珠高速线","nameEn":"Nanning-Zhuhai Highspeed Railway","usage":"main","highspeed":"yes","bridge":"yes","status":"construction","color":"#397F9D","sourceKey":"way:1248726491"}},{"type":"Feature","geometry":{"type":"LineString","coordinates":[[113.0634313,22.5286356],[113.0597773,22.5413493],[113.0593986,22.5425297],[113.0589641,22.5437603],[113.0585287,22.5448792],[113.0581034,22.5459402],[113.0576031,22.5470558],[113.0570828,22.5481176],[113.0564825,22.5491735],[113.055997,22.5499157],[113.0555446,22.5505342],[113.055155,22.5510096],[113.0546975,22.5515291],[113.0541887,22.5520615],[113.0536691,22.5525866],[113.0473932,22.5587451],[113.0465177,22.5596679],[113.0456371,22.5606713],[113.0447478,22.5617391],[113.0439339,22.5628192],[113.0431928,22.5639068],[113.0424865,22.5649863],[113.0417886,22.5661135],[113.041032,22.5673886],[113.0363694,22.5754733],[113.0355908,22.576834],[113.0348981,22.5781088],[113.0342108,22.5794689],[113.0336318,22.5807493],[113.0331047,22.5821014],[113.0326786,22.5832941],[113.0241672,22.6083464],[113.0236624,22.6097953],[113.0230766,22.6113161],[113.0224748,22.6127641],[113.0218238,22.6141606],[113.0212677,22.6152616],[113.0205721,22.6164741],[113.008207,22.6365251],[113.0073599,22.6378694],[113.0064429,22.6392458],[113.0055143,22.6405694],[113.004537,22.641887],[113.0034802,22.6431957],[113.0025082,22.6443087],[113.0013297,22.645464],[113.0003293,22.6463964],[113.0,22.646686133253073]]},"properties":{"key":"way:1248726493@detail:452_90","osmType":"way","osmId":1248726493,"sourceRegion":"guangzhou","featureType":"infrastructure","railClass":"construction","mode":"construction","name":"南珠高速线","nameEn":"Nanning-Zhuhai Highspeed Railway","usage":"main","highspeed":"yes","tunnel":"yes","status":"construction","color":"#397F9D","sourceKey":"way:1248726493"}},{"type":"Feature","geometry":{"type":"LineString","coordinates":[[113.25,22.71259786547544],[113.2493645,22.7121731],[113.2444485,22.708891],[113.2420969,22.7073155],[113.239384,22.7054865],[113.236963,22.7038603],[113.2320948,22.700591],[113.2303265,22.6993726],[113.2255125,22.69603],[113.2241867,22.695108],[113.223587,22.6947501],[113.2230795,22.6945049],[113.2224158,22.6942275],[113.2217038,22.6940086],[113.2210352,22.6938603],[113.2200196,22.6937425],[113.2194991,22.6937143],[113.2189811,22.6937237],[113.2156436,22.6939362],[113.2147055,22.6939461],[113.2134357,22.6939091],[113.2081033,22.6936257],[113.2055498,22.6933763],[113.2009798,22.6928045]]},"properties":{"key":"way:1252198320@detail:452_90","osmType":"way","osmId":1252198320,"sourceRegion":"guangzhou","featureType":"infrastructure","railClass":"construction","mode":"rail","name":"南沙港线","nameEn":"Nanshagang Line","usage":"main","bridge":"viaduct","status":"construction","color":"#52636f","sourceKey":"way:1252198320"}},{"type":"Feature","geometry":{"type":"LineString","coordinates":[[113.2444485,22.708891],[113.2451721,22.7093256],[113.2456935,22.7096561],[113.2479862,22.7111887],[113.2485313,22.7115569],[113.2493645,22.7121731]]},"properties":{"key":"way:1252198322@detail:452_90","osmType":"way","osmId":1252198322,"sourceRegion":"guangzhou","featureType":"infrastructure","railClass":"minor","mode":"rail","name":"未命名","service":"yard","bridge":"yes","status":"operational","color":"#52636f","sourceKey":"way:1252198322"}},{"type":"Feature","geometry":{"type":"LineString","coordinates":[[113.2444179,22.7089281],[113.2453083,22.709573],[113.2458586,22.7099535],[113.2482227,22.711542],[113.2486084,22.711787],[113.2493391,22.7122138]]},"properties":{"key":"way:1252198323@detail:452_90","osmType":"way","osmId":1252198323,"sourceRegion":"guangzhou","featureType":"infrastructure","railClass":"minor","mode":"rail","name":"未命名","service":"yard","bridge":"yes","status":"operational","color":"#52636f","sourceKey":"way:1252198323"}},{"type":"Feature","geometry":{"type":"LineString","coordinates":[[113.2009681,22.6928738],[113.2045629,22.6933104],[113.2055193,22.6934507],[113.2081595,22.6937039],[113.2096293,22.6937774],[113.2106678,22.6938053],[113.2134505,22.6939524],[113.2147012,22.6939924],[113.2157244,22.6939778],[113.2171561,22.6938919],[113.218989,22.6937677],[113.2195849,22.6937728],[113.2200181,22.6937954],[113.2210242,22.6939145],[113.2216784,22.6940444],[113.2223997,22.6942669],[113.2230672,22.6945542],[113.2235661,22.6947976],[113.2241252,22.6951259],[113.227881,22.697736],[113.2317861,22.7004431],[113.2355952,22.7030067],[113.2393646,22.7055265],[113.2430094,22.7079877],[113.2444179,22.7089281],[113.2493391,22.7122138],[113.25,22.712658382099125]]},"properties":{"key":"way:1252198325@detail:452_90","osmType":"way","osmId":1252198325,"sourceRegion":"guangzhou","featureType":"infrastructure","railClass":"construction","mode":"rail","name":"南沙港线","nameEn":"Nanshagang Line","usage":"main","bridge":"viaduct","status":"construction","color":"#52636f","sourceKey":"way:1252198325"}},{"type":"Feature","geometry":{"type":"LineString","coordinates":[[113.2009798,22.6928045],[113.2000437,22.6926874],[113.198993,22.6926386],[113.1982184,22.6926917],[113.1924768,22.693564],[113.1914745,22.6936056],[113.1909778,22.6935612],[113.1904781,22.6934945],[113.1897259,22.6933172],[113.188574,22.6929257],[113.1878506,22.6926799],[113.1855677,22.6918899],[113.1850094,22.6917177],[113.1845457,22.6916108],[113.1841519,22.6915447],[113.1836025,22.6914886],[113.1831425,22.6914985],[113.1827738,22.6915101],[113.1822583,22.6915745],[113.1819165,22.6916488],[113.1814815,22.6917594],[113.181154,22.6918717],[113.1806797,22.6920599],[113.1793049,22.6926815],[113.1773877,22.6935738],[113.1770851,22.6937146],[113.1765561,22.6939434],[113.176017,22.6941419],[113.1756377,22.6942654],[113.1750325,22.6943826],[113.1743992,22.6944343],[113.1739191,22.6944309],[113.1733027,22.6943861],[113.1727012,22.6942896],[113.172124,22.6941276],[113.1702018,22.6934865],[113.1692473,22.6932366],[113.1686532,22.6930918],[113.167398,22.6928144],[113.1640389,22.692024],[113.1601259,22.6910993],[113.1577844,22.6905429],[113.1548709,22.689882],[113.147863,22.6882373],[113.1472411,22.688111],[113.1461838,22.6879438],[113.1454559,22.6878647],[113.1446103,22.6878091],[113.1438037,22.6877911],[113.1430524,22.6878031],[113.1424582,22.6878181],[113.1410938,22.6879617],[113.1396691,22.6881959],[113.1389877,22.6883492],[113.1380719,22.6886212],[113.1374113,22.6888372],[113.1366398,22.6891306],[113.1356889,22.6895549],[113.1350611,22.6898714],[113.1342855,22.6903485],[113.1307259,22.6925469],[113.1302428,22.6927994],[113.1296932,22.693054],[113.1292002,22.6932451],[113.1284854,22.6935134],[113.1273343,22.6939523],[113.1236442,22.6954036],[113.1196646,22.6969649],[113.1165255,22.6981695],[113.1153982,22.698552],[113.1139348,22.6990002],[113.1130808,22.6992199],[113.1119156,22.6995148],[113.1105552,22.6997801],[113.109164,22.7000096],[113.1075494,22.700182],[113.1057711,22.7003164],[113.1045083,22.7003578],[113.1009329,22.7003578],[113.0908628,22.7001852],[113.0853832,22.7001244],[113.0840966,22.7001281],[113.0821032,22.7002093],[113.0803501,22.700334],[113.0781571,22.7006072],[113.0709355,22.7015949],[113.0697521,22.7017498],[113.0684167,22.7018947],[113.0661335,22.7020567],[113.0639609,22.7021107],[113.0628844,22.7021077],[113.0619542,22.7020837],[113.060832,22.7020185],[113.059692,22.7019516],[113.058573,22.7018606],[113.0573131,22.7017133],[113.0558786,22.7015176],[113.0546758,22.7013245],[113.0528592,22.7009652],[113.0512623,22.7005998],[113.0495545,22.7002221],[113.0491932,22.7001351],[113.0475344,22.6997357],[113.0473119,22.6996866],[113.0458912,22.6993733]]},"properties":{"key":"way:1252198326@detail:452_90","osmType":"way","osmId":1252198326,"sourceRegion":"guangzhou","featureType":"infrastructure","railClass":"construction","mode":"rail","name":"南沙港线","nameEn":"Nanshagang Line","usage":"main","bridge":"viaduct","status":"construction","color":"#52636f","sourceKey":"way:1252198326"}},{"type":"Feature","geometry":{"type":"LineString","coordinates":[[113.1472367,22.6881423],[113.1479136,22.6882908],[113.1527747,22.6894417],[113.160204,22.6911601],[113.1620415,22.6915849],[113.1664838,22.6926531],[113.167021,22.6927866],[113.1692636,22.6932752],[113.170207,22.6935371],[113.1721501,22.6941797],[113.1727024,22.6943288],[113.1732945,22.6944279],[113.1739083,22.694474],[113.1743964,22.6944748],[113.1750417,22.6944253],[113.1756553,22.6943007],[113.1760574,22.6941795],[113.1764595,22.6940304],[113.1770469,22.6937814],[113.1778707,22.6933942],[113.1781376,22.6932708],[113.178353,22.6931713],[113.18029,22.6922761],[113.1809112,22.6920018],[113.1813197,22.6918521],[113.1816798,22.6917469],[113.1820705,22.6916503],[113.1824589,22.6915968],[113.1828347,22.6915558],[113.1833054,22.6915302],[113.1837171,22.6915477],[113.184113,22.6915789],[113.1844758,22.6916281],[113.1849172,22.6917356],[113.1852828,22.6918401],[113.1876593,22.6926554],[113.1878509,22.6927221],[113.189114,22.6931622],[113.1897807,22.6933802],[113.190466,22.6935486],[113.1910014,22.69362],[113.1915206,22.6936524],[113.1919696,22.69364],[113.1925073,22.6935979],[113.1945056,22.6933282],[113.1982323,22.6927347],[113.198992,22.6926901],[113.2000721,22.6927592],[113.2009681,22.6928738]]},"properties":{"key":"way:1252198327@detail:452_90","osmType":"way","osmId":1252198327,"sourceRegion":"guangzhou","featureType":"infrastructure","railClass":"construction","mode":"rail","name":"南沙港线","nameEn":"Nanshagang Line","usage":"main","bridge":"viaduct","status":"construction","color":"#52636f","sourceKey":"way:1252198327"}},{"type":"Feature","geometry":{"type":"LineString","coordinates":[[113.178353,22.6931713],[113.1791623,22.6928547],[113.1804617,22.6922603],[113.1809503,22.6920638],[113.1813619,22.6919118],[113.1817449,22.691793],[113.1821047,22.6917038],[113.1823911,22.6916592],[113.1826935,22.6916229],[113.1830282,22.6915915],[113.1833146,22.6915816],[113.1836207,22.6915981],[113.183975,22.6916328],[113.1843545,22.6916757],[113.184716,22.6917517],[113.1851152,22.6918607],[113.1854427,22.6919581],[113.1858132,22.6920786],[113.1863125,22.692257],[113.186624,22.6923639],[113.1869347,22.6924562],[113.1876593,22.6926554]]},"properties":{"key":"way:1252198329@detail:452_90","osmType":"way","osmId":1252198329,"sourceRegion":"guangzhou","featureType":"infrastructure","railClass":"minor","mode":"rail","name":"未命名","service":"yard","bridge":"yes","status":"operational","color":"#52636f","sourceKey":"way:1252198329"}},{"type":"Feature","geometry":{"type":"LineString","coordinates":[[113.1878509,22.6927221],[113.188574,22.6929257]]},"properties":{"key":"way:1252198330@detail:452_90","osmType":"way","osmId":1252198330,"sourceRegion":"guangzhou","featureType":"infrastructure","railClass":"minor","mode":"rail","name":"未命名","service":"crossover","bridge":"yes","status":"operational","color":"#52636f","sourceKey":"way:1252198330"}},{"type":"Feature","geometry":{"type":"LineString","coordinates":[[113.1773877,22.6935738],[113.1781376,22.6932708]]},"properties":{"key":"way:1252198331@detail:452_90","osmType":"way","osmId":1252198331,"sourceRegion":"guangzhou","featureType":"infrastructure","railClass":"minor","mode":"rail","name":"未命名","service":"crossover","bridge":"yes","status":"operational","color":"#52636f","sourceKey":"way:1252198331"}},{"type":"Feature","geometry":{"type":"LineString","coordinates":[[113.0,22.695070015766195],[113.0003446,22.6949803],[113.0008539,22.6948936],[113.0014564,22.6948109],[113.0021978,22.6947734],[113.0025051,22.6947973],[113.0029562,22.6948154],[113.003397,22.694874],[113.0038035,22.6949456],[113.006088,22.6954762],[113.0074605,22.6958316],[113.0079633,22.6959951],[113.008512,22.6962065],[113.0091396,22.6964626],[113.0097372,22.6967404],[113.0126165,22.6981843],[113.0138978,22.6988146],[113.0143592,22.6990423],[113.01485,22.699213],[113.0153945,22.6993639],[113.0158765,22.6994564],[113.0163577,22.6994956],[113.0168734,22.699522],[113.0174518,22.6994926],[113.0179095,22.6994224],[113.0183583,22.6993392],[113.0188304,22.6991908],[113.0238279,22.6974582],[113.0248794,22.697083],[113.0255158,22.696882],[113.0258267,22.6967889]]},"properties":{"key":"way:1290408712@detail:452_90","osmType":"way","osmId":1290408712,"sourceRegion":"guangzhou","featureType":"infrastructure","railClass":"construction","mode":"rail","name":"南沙港线","nameEn":"Nanshagang Line","usage":"main","bridge":"yes","status":"construction","color":"#52636f","sourceKey":"way:1290408712"}},{"type":"Feature","geometry":{"type":"LineString","coordinates":[[113.0315275,22.6963266],[113.0321758,22.6963733],[113.032734,22.6964604],[113.033243,22.6965759]]},"properties":{"key":"way:1290408713@detail:452_90","osmType":"way","osmId":1290408713,"sourceRegion":"guangzhou","featureType":"infrastructure","railClass":"construction","mode":"rail","name":"南沙港线","nameEn":"Nanshagang Line","usage":"main","status":"construction","color":"#52636f","sourceKey":"way:1290408713"}},{"type":"Feature","geometry":{"type":"LineString","coordinates":[[113.0271075,22.6965063],[113.028998,22.6963099],[113.0306176,22.6962734],[113.0315476,22.6962767]]},"properties":{"key":"way:1290408714@detail:452_90","osmType":"way","osmId":1290408714,"sourceRegion":"guangzhou","featureType":"infrastructure","railClass":"construction","mode":"rail","name":"南沙港线","nameEn":"Nanshagang Line","usage":"main","bridge":"viaduct","status":"construction","color":"#52636f","sourceKey":"way:1290408714"}},{"type":"Feature","geometry":{"type":"LineString","coordinates":[[113.0315476,22.6962767],[113.0321959,22.6963234],[113.0327541,22.6964105],[113.0332514,22.6965191]]},"properties":{"key":"way:1290408715@detail:452_90","osmType":"way","osmId":1290408715,"sourceRegion":"guangzhou","featureType":"infrastructure","railClass":"construction","mode":"rail","name":"南沙港线","nameEn":"Nanshagang Line","usage":"main","status":"construction","color":"#52636f","sourceKey":"way:1290408715"}},{"type":"Feature","geometry":{"type":"LineString","coordinates":[[113.0438918,22.6988796],[113.0459008,22.6993157]]},"properties":{"key":"way:1290408716@detail:452_90","osmType":"way","osmId":1290408716,"sourceRegion":"guangzhou","featureType":"infrastructure","railClass":"minor","mode":"rail","name":"未命名","service":"yard","status":"operational","color":"#52636f","sourceKey":"way:1290408716"}},{"type":"Feature","geometry":{"type":"LineString","coordinates":[[113.0458607,22.699488],[113.0438491,22.6990292]]},"properties":{"key":"way:1290408717@detail:452_90","osmType":"way","osmId":1290408717,"sourceRegion":"guangzhou","featureType":"infrastructure","railClass":"minor","mode":"rail","name":"未命名","service":"yard","status":"operational","color":"#52636f","sourceKey":"way:1290408717"}},{"type":"Feature","geometry":{"type":"LineString","coordinates":[[113.0431956,22.6988801],[113.0430184,22.6988397],[113.0421563,22.6985975]]},"properties":{"key":"way:1290408718@detail:452_90","osmType":"way","osmId":1290408718,"sourceRegion":"guangzhou","featureType":"infrastructure","railClass":"minor","mode":"rail","name":"未命名","service":"yard","status":"operational","color":"#52636f","sourceKey":"way:1290408718"}},{"type":"Feature","geometry":{"type":"LineString","coordinates":[[113.033243,22.6965759],[113.034581,22.6968641],[113.0371421,22.6974818],[113.0408637,22.6983099]]},"properties":{"key":"way:1290408719@detail:452_90","osmType":"way","osmId":1290408719,"sourceRegion":"guangzhou","featureType":"infrastructure","railClass":"construction","mode":"rail","name":"南沙港线","nameEn":"Nanshagang Line","usage":"main","bridge":"viaduct","status":"construction","color":"#52636f","sourceKey":"way:1290408719"}},{"type":"Feature","geometry":{"type":"LineString","coordinates":[[113.0472976,22.6997415],[113.0464362,22.6996102],[113.0458607,22.699488]]},"properties":{"key":"way:1290408720@detail:452_90","osmType":"way","osmId":1290408720,"sourceRegion":"guangzhou","featureType":"infrastructure","railClass":"minor","mode":"rail","name":"未命名","service":"yard","bridge":"yes","status":"operational","color":"#52636f","sourceKey":"way:1290408720"}},{"type":"Feature","geometry":{"type":"LineString","coordinates":[[113.0438645,22.6989776],[113.0458791,22.6994259]]},"properties":{"key":"way:1290408721@detail:452_90","osmType":"way","osmId":1290408721,"sourceRegion":"guangzhou","featureType":"infrastructure","railClass":"construction","mode":"rail","name":"南沙港线","nameEn":"Nanshagang Line","usage":"main","status":"construction","color":"#52636f","sourceKey":"way:1290408721"}},{"type":"Feature","geometry":{"type":"LineString","coordinates":[[113.0459008,22.6993157],[113.0465041,22.6994466],[113.0473119,22.6996866]]},"properties":{"key":"way:1290408722@detail:452_90","osmType":"way","osmId":1290408722,"sourceRegion":"guangzhou","featureType":"infrastructure","railClass":"minor","mode":"rail","name":"未命名","service":"yard","bridge":"yes","status":"operational","color":"#52636f","sourceKey":"way:1290408722"}},{"type":"Feature","geometry":{"type":"LineString","coordinates":[[113.040874,22.6982667],[113.0371534,22.6974462],[113.0345689,22.6968196],[113.0332514,22.6965191]]},"properties":{"key":"way:1290408723@detail:452_90","osmType":"way","osmId":1290408723,"sourceRegion":"guangzhou","featureType":"infrastructure","railClass":"construction","mode":"rail","name":"南沙港线","nameEn":"Nanshagang Line","usage":"main","bridge":"viaduct","status":"construction","color":"#52636f","sourceKey":"way:1290408723"}},{"type":"Feature","geometry":{"type":"LineString","coordinates":[[113.0458912,22.6993733],[113.0438793,22.6989296]]},"properties":{"key":"way:1290408724@detail:452_90","osmType":"way","osmId":1290408724,"sourceRegion":"guangzhou","featureType":"infrastructure","railClass":"construction","mode":"rail","name":"南沙港线","nameEn":"Nanshagang Line","usage":"main","status":"construction","color":"#52636f","sourceKey":"way:1290408724"}},{"type":"Feature","geometry":{"type":"LineString","coordinates":[[113.0438491,22.6990292],[113.0431956,22.6988801]]},"properties":{"key":"way:1290408725@detail:452_90","osmType":"way","osmId":1290408725,"sourceRegion":"guangzhou","featureType":"infrastructure","railClass":"minor","mode":"rail","name":"未命名","service":"yard","bridge":"yes","status":"operational","color":"#52636f","sourceKey":"way:1290408725"}},{"type":"Feature","geometry":{"type":"LineString","coordinates":[[113.0432078,22.6988315],[113.0437384,22.6989495],[113.0438645,22.6989776]]},"properties":{"key":"way:1290408726@detail:452_90","osmType":"way","osmId":1290408726,"sourceRegion":"guangzhou","featureType":"infrastructure","railClass":"construction","mode":"rail","name":"南沙港线","nameEn":"Nanshagang Line","usage":"main","bridge":"yes","status":"construction","color":"#52636f","sourceKey":"way:1290408726"}},{"type":"Feature","geometry":{"type":"LineString","coordinates":[[113.0438793,22.6989296],[113.0432203,22.6987842]]},"properties":{"key":"way:1290408727@detail:452_90","osmType":"way","osmId":1290408727,"sourceRegion":"guangzhou","featureType":"infrastructure","railClass":"construction","mode":"rail","name":"南沙港线","nameEn":"Nanshagang Line","usage":"main","bridge":"yes","status":"construction","color":"#52636f","sourceKey":"way:1290408727"}},{"type":"Feature","geometry":{"type":"LineString","coordinates":[[113.0421701,22.6985526],[113.0429569,22.6986766],[113.0432282,22.6987355]]},"properties":{"key":"way:1290408728@detail:452_90","osmType":"way","osmId":1290408728,"sourceRegion":"guangzhou","featureType":"infrastructure","railClass":"minor","mode":"rail","name":"未命名","service":"yard","status":"operational","color":"#52636f","sourceKey":"way:1290408728"}},{"type":"Feature","geometry":{"type":"LineString","coordinates":[[113.0432282,22.6987355],[113.0437664,22.6988523],[113.0438918,22.6988796]]},"properties":{"key":"way:1290408729@detail:452_90","osmType":"way","osmId":1290408729,"sourceRegion":"guangzhou","featureType":"infrastructure","railClass":"minor","mode":"rail","name":"未命名","service":"yard","bridge":"yes","status":"operational","color":"#52636f","sourceKey":"way:1290408729"}},{"type":"Feature","geometry":{"type":"LineString","coordinates":[[113.0408637,22.6983099],[113.0421563,22.6985975],[113.0432078,22.6988315]]},"properties":{"key":"way:1290408730@detail:452_90","osmType":"way","osmId":1290408730,"sourceRegion":"guangzhou","featureType":"infrastructure","railClass":"construction","mode":"rail","name":"南沙港线","nameEn":"Nanshagang Line","usage":"main","status":"construction","color":"#52636f","sourceKey":"way:1290408730"}},{"type":"Feature","geometry":{"type":"LineString","coordinates":[[113.0432203,22.6987842],[113.0421701,22.6985526],[113.040874,22.6982667]]},"properties":{"key":"way:1290408731@detail:452_90","osmType":"way","osmId":1290408731,"sourceRegion":"guangzhou","featureType":"infrastructure","railClass":"construction","mode":"rail","name":"南沙港线","nameEn":"Nanshagang Line","usage":"main","status":"construction","color":"#52636f","sourceKey":"way:1290408731"}},{"type":"Feature","geometry":{"type":"LineString","coordinates":[[113.0,22.69501422987805],[113.000071,22.6949928],[113.0007062,22.6948736],[113.0014249,22.6947536],[113.002212,22.6947296],[113.0029666,22.6947656],[113.0037601,22.6948856],[113.0060816,22.6954341],[113.0073365,22.6957534],[113.0080206,22.6959587],[113.0089089,22.6963071],[113.009763,22.6966753],[113.0119479,22.6978072],[113.0143262,22.6989722],[113.0147934,22.699142],[113.0152521,22.6992831],[113.0157929,22.6994006],[113.0162286,22.6994566],[113.0168686,22.6994946],[113.0174604,22.6994502],[113.0178624,22.699398],[113.0183721,22.6992961],[113.0193687,22.6989617],[113.0214636,22.698234],[113.0237559,22.6974335],[113.0247138,22.6970865],[113.0255703,22.6968169],[113.025817,22.6967515]]},"properties":{"key":"way:1290408741@detail:452_90","osmType":"way","osmId":1290408741,"sourceRegion":"guangzhou","featureType":"infrastructure","railClass":"construction","mode":"rail","name":"南沙港线","nameEn":"Nanshagang Line","usage":"main","bridge":"yes","status":"construction","color":"#52636f","sourceKey":"way:1290408741"}},{"type":"Feature","geometry":{"type":"LineString","coordinates":[[113.0271151,22.6965472],[113.0285453,22.6963846],[113.0291705,22.6963341],[113.0297956,22.6963177],[113.0310768,22.6963153],[113.0315275,22.6963266]]},"properties":{"key":"way:1290408742@detail:452_90","osmType":"way","osmId":1290408742,"sourceRegion":"guangzhou","featureType":"infrastructure","railClass":"construction","mode":"rail","name":"南沙港线","nameEn":"Nanshagang Line","usage":"main","bridge":"viaduct","status":"construction","color":"#52636f","sourceKey":"way:1290408742"}},{"type":"Feature","geometry":{"type":"LineString","coordinates":[[113.025817,22.6967515],[113.0260636,22.696686],[113.0265545,22.6965858],[113.0271075,22.6965063]]},"properties":{"key":"way:1290408743@detail:452_90","osmType":"way","osmId":1290408743,"sourceRegion":"guangzhou","featureType":"infrastructure","railClass":"construction","mode":"rail","name":"南沙港线","nameEn":"Nanshagang Line","usage":"main","status":"construction","color":"#52636f","sourceKey":"way:1290408743"}},{"type":"Feature","geometry":{"type":"LineString","coordinates":[[113.0258267,22.6967889],[113.0260931,22.6967231],[113.0266366,22.6966163],[113.0271151,22.6965472]]},"properties":{"key":"way:1290408744@detail:452_90","osmType":"way","osmId":1290408744,"sourceRegion":"guangzhou","featureType":"infrastructure","railClass":"construction","mode":"rail","name":"南沙港线","nameEn":"Nanshagang Line","usage":"main","status":"construction","color":"#52636f","sourceKey":"way:1290408744"}},{"type":"Feature","geometry":{"type":"LineString","coordinates":[[113.2017532,22.6012928],[113.2033111,22.601859]]},"properties":{"key":"way:1355579058@detail:452_90","osmType":"way","osmId":1355579058,"sourceRegion":"guangzhou","featureType":"infrastructure","railClass":"highspeed","mode":"rail","name":"江门线","ref":"0720","usage":"main","highspeed":"yes","bridge":"yes","status":"operational","color":"#E54848","sourceKey":"way:1355579058"}},{"type":"Feature","geometry":{"type":"LineString","coordinates":[[113.2033282,22.6018175],[113.2017706,22.6012514]]},"properties":{"key":"way:1355579059@detail:452_90","osmType":"way","osmId":1355579059,"sourceRegion":"guangzhou","featureType":"infrastructure","railClass":"highspeed","mode":"rail","name":"江门线","ref":"0720","usage":"main","highspeed":"yes","bridge":"yes","status":"operational","color":"#E54848","sourceKey":"way:1355579059"}},{"type":"Feature","geometry":{"type":"LineString","coordinates":[[113.2033111,22.601859],[113.2051911,22.6025422],[113.2095696,22.6040617],[113.211373,22.6047078]]},"properties":{"key":"way:1355579060@detail:452_90","osmType":"way","osmId":1355579060,"sourceRegion":"guangzhou","featureType":"infrastructure","railClass":"highspeed","mode":"rail","name":"江门线","ref":"0720","usage":"main","highspeed":"yes","bridge":"yes","status":"operational","color":"#E54848","sourceKey":"way:1355579060"}},{"type":"Feature","geometry":{"type":"LineString","coordinates":[[113.2114036,22.6046712],[113.2095868,22.6040202],[113.2052084,22.6025008],[113.2033282,22.6018175]]},"properties":{"key":"way:1355579061@detail:452_90","osmType":"way","osmId":1355579061,"sourceRegion":"guangzhou","featureType":"infrastructure","railClass":"highspeed","mode":"rail","name":"江门线","ref":"0720","usage":"main","highspeed":"yes","bridge":"yes","status":"operational","color":"#E54848","sourceKey":"way:1355579061"}},{"type":"Feature","geometry":{"type":"LineString","coordinates":[[113.064981,22.5067316],[113.0651882,22.5043107],[113.0652569,22.5028561]]},"properties":{"key":"way:1433656742@detail:452_90","osmType":"way","osmId":1433656742,"sourceRegion":"guangzhou","featureType":"infrastructure","railClass":"national","mode":"rail","name":"未命名","status":"operational","color":"#E54848","sourceKey":"way:1433656742"}},{"type":"Feature","geometry":{"type":"LineString","coordinates":[[113.0712358,22.517107],[113.0704951,22.5161295],[113.0696486,22.5156017],[113.0686328,22.5152205],[113.0682519,22.5149859],[113.0676488,22.5144483],[113.0671092,22.5136858],[113.066887,22.5128941],[113.0669187,22.5122685],[113.0671092,22.5112812],[113.0671303,22.5105286],[113.0670442,22.5081361]]},"properties":{"key":"way:1433656743@detail:452_90","osmType":"way","osmId":1433656743,"sourceRegion":"guangzhou","featureType":"infrastructure","railClass":"national","mode":"rail","name":"未命名","bridge":"yes","status":"operational","color":"#E54848","sourceKey":"way:1433656743"}},{"type":"Feature","geometry":{"type":"LineString","coordinates":[[113.0638906,22.5265992],[113.0634313,22.5286356]]},"properties":{"key":"way:1491419606@detail:452_90","osmType":"way","osmId":1491419606,"sourceRegion":"guangzhou","featureType":"infrastructure","railClass":"construction","mode":"construction","name":"南珠高速线","nameEn":"Nanning-Zhuhai Highspeed Railway","usage":"main","highspeed":"yes","status":"construction","color":"#397F9D","sourceKey":"way:1491419606"}},{"type":"Feature","geometry":{"type":"LineString","coordinates":[[113.0012894,22.5823041],[113.0053821,22.5769512]]},"properties":{"key":"way:282628714@detail:452_90","osmType":"way","osmId":282628714,"sourceRegion":"guangdong","featureType":"infrastructure","railClass":"light_rail","mode":"funicular","name":"未命名","status":"operational","color":"#3387c8","dataOrigin":"datum-2026-08-01","sourceKey":"way:282628714"}},{"type":"Feature","geometry":{"type":"LineString","coordinates":[[113.06615759231524,22.5],[113.0661631,22.5001319],[113.0664002,22.5034017]]},"properties":{"key":"way:1540728612@detail:452_90","osmType":"way","osmId":1540728612,"sourceRegion":"guangdong","featureType":"infrastructure","railClass":"construction","mode":"construction","name":"未命名","service":"yard","status":"construction","color":"#8A9298","dataOrigin":"datum-2026-08-01","sourceKey":"way:1540728612"}},{"type":"Feature","geometry":{"type":"LineString","coordinates":[[113.0664002,22.5034017],[113.0667447,22.5082801],[113.0668049,22.5088151],[113.0668902,22.5092245],[113.0670366,22.5097278],[113.0671138,22.5100996],[113.0671545,22.5104639],[113.0671545,22.5108282],[113.0671138,22.511185],[113.0670569,22.511493],[113.0669797,22.511831],[113.0669268,22.5121427],[113.0669154,22.5124921],[113.0669402,22.5128681],[113.0670039,22.5131787],[113.0671136,22.5135154],[113.0672693,22.5138522],[113.0674463,22.5141399],[113.0676763,22.5144276],[113.0679205,22.5146728],[113.0682001,22.5148919],[113.0685328,22.5151174],[113.0688655,22.5152907],[113.0694318,22.5155294],[113.0697609,22.5156863],[113.0700724,22.5158661]]},"properties":{"key":"way:1540728614@detail:452_90","osmType":"way","osmId":1540728614,"sourceRegion":"guangdong","featureType":"infrastructure","railClass":"construction","mode":"construction","name":"未命名","service":"yard","bridge":"yes","status":"construction","color":"#8A9298","dataOrigin":"datum-2026-08-01","sourceKey":"way:1540728614"}},{"type":"Feature","geometry":{"type":"LineString","coordinates":[[113.0694386,22.5115809],[113.0711089,22.5155316],[113.0712919,22.5160686],[113.0714707,22.5166695],[113.0715927,22.5172366],[113.0716862,22.517845],[113.0717269,22.5185022],[113.0716781,22.5213003],[113.0716374,22.5217923],[113.071548,22.5222955],[113.0714138,22.5226936],[113.0712228,22.5230954],[113.0708487,22.5237301]]},"properties":{"key":"way:1540728616@detail:452_90","osmType":"way","osmId":1540728616,"sourceRegion":"guangdong","featureType":"infrastructure","railClass":"construction","mode":"construction","name":"未命名","service":"yard","status":"construction","color":"#8A9298","dataOrigin":"datum-2026-08-01","sourceKey":"way:1540728616"}},{"type":"Feature","geometry":{"type":"LineString","coordinates":[[113.0700724,22.5158661],[113.0703627,22.5160926],[113.0706677,22.5163818],[113.0709563,22.5167236],[113.0711799,22.5170691],[113.071371,22.5174259],[113.0715295,22.517824],[113.0716271,22.5182709],[113.0716637,22.5187365],[113.071619,22.521309],[113.0715783,22.521786],[113.0714889,22.5222817],[113.0713588,22.5226835],[113.0711718,22.5230778],[113.0708099,22.5236975]]},"properties":{"key":"way:1540728617@detail:452_90","osmType":"way","osmId":1540728617,"sourceRegion":"guangdong","featureType":"infrastructure","railClass":"construction","mode":"construction","name":"未命名","service":"yard","status":"construction","color":"#8A9298","dataOrigin":"datum-2026-08-01","sourceKey":"way:1540728617"}},{"type":"Feature","geometry":{"type":"LineString","coordinates":[[113.2431305,22.5128998],[113.2444974,22.5128785],[113.2451167,22.5128556],[113.2499289,22.5126064],[113.25,22.512601256595744]]},"properties":{"key":"way:1540728618@detail:452_90","osmType":"way","osmId":1540728618,"sourceRegion":"guangdong","featureType":"infrastructure","railClass":"construction","mode":"construction","name":"未命名","service":"siding","bridge":"yes","status":"construction","color":"#8A9298","dataOrigin":"datum-2026-08-01","sourceKey":"way:1540728618"}},{"type":"Feature","geometry":{"type":"LineString","coordinates":[[113.25,22.512431789539185],[113.2499324,22.5124347],[113.2451167,22.5126823],[113.2444943,22.512725],[113.2431311,22.5128413]]},"properties":{"key":"way:1540728619@detail:452_90","osmType":"way","osmId":1540728619,"sourceRegion":"guangdong","featureType":"infrastructure","railClass":"construction","mode":"construction","name":"未命名","service":"siding","bridge":"yes","status":"construction","color":"#8A9298","dataOrigin":"datum-2026-08-01","sourceKey":"way:1540728619"}}]}