{"type":"FeatureCollection","features":[{"type":"Feature","geometry":{"type":"Point","coordinates":[113.2248402,23.7502325]},"properties":{"key":"node:8015596086","osmType":"node","osmId":8015596086,"sourceRegion":"guangzhou","featureType":"station","railClass":"station","mode":"station","name":"潖江口","nameEn":"Pajiangkou","status":"operational","color":"#126d75","sourceKey":"node:8015596086","stationGroup":"潖江口","hasOperationalRail":true,"hasConstructionRail":false}},{"type":"Feature","geometry":{"type":"LineString","coordinates":[[113.1543817,23.7501212],[113.15433015221544,23.75]]},"properties":{"key":"way:232654508@detail:452_95","osmType":"way","osmId":232654508,"sourceRegion":"guangzhou","featureType":"infrastructure","railClass":"highspeed","mode":"rail","name":"京广高速线","nameEn":"Beijing-Guangzhou High-speed Line","ref":"3001","usage":"main","highspeed":"yes","bridge":"yes","status":"operational","color":"#E54848","sourceKey":"way:232654508"}},{"type":"Feature","geometry":{"type":"LineString","coordinates":[[113.2325776,23.7710495],[113.2325248,23.7708835],[113.2307276,23.7657783],[113.23014,23.7640259],[113.2297433,23.7631858],[113.2292456,23.7624051],[113.2281859,23.7607175],[113.2273594,23.7593189],[113.2271239,23.7588518],[113.2269284,23.7583832],[113.2265815,23.7574471],[113.2264853,23.7571646],[113.2259476,23.7554086],[113.2258636,23.7551342],[113.2256348,23.7544753],[113.225438,23.753808],[113.2252312,23.7531415],[113.2251262,23.7526386],[113.2250658,23.7522126],[113.2250074,23.7517933],[113.2249789,23.7512602],[113.2249828,23.750885],[113.224996,23.7504767],[113.2250456,23.750074],[113.22505715390335,23.75]]},"properties":{"key":"way:326422497@detail:452_95","osmType":"way","osmId":326422497,"sourceRegion":"guangzhou","featureType":"infrastructure","railClass":"national","mode":"rail","name":"京广线","nameEn":"Beijing–Guangzhou Railway","ref":"0001","usage":"main","status":"operational","color":"#E54848","sourceKey":"way:326422497"}},{"type":"Feature","geometry":{"type":"LineString","coordinates":[[113.1673659,23.7761532],[113.165716,23.7734271]]},"properties":{"key":"way:326531925@detail:452_95","osmType":"way","osmId":326531925,"sourceRegion":"guangzhou","featureType":"infrastructure","railClass":"highspeed","mode":"rail","name":"京广高速线","nameEn":"Beijing-Guangzhou High-speed Line","ref":"3001","usage":"main","highspeed":"yes","tunnel":"yes","status":"operational","color":"#E54848","sourceKey":"way:326531925"}},{"type":"Feature","geometry":{"type":"LineString","coordinates":[[113.1681279,23.7775261],[113.1673659,23.7761532]]},"properties":{"key":"way:326532065@detail:452_95","osmType":"way","osmId":326532065,"sourceRegion":"guangzhou","featureType":"infrastructure","railClass":"highspeed","mode":"rail","name":"京广高速线","nameEn":"Beijing-Guangzhou High-speed Line","ref":"3001","usage":"main","highspeed":"yes","status":"operational","color":"#E54848","sourceKey":"way:326532065"}},{"type":"Feature","geometry":{"type":"LineString","coordinates":[[113.165716,23.7734271],[113.1651959,23.7725654]]},"properties":{"key":"way:326532189@detail:452_95","osmType":"way","osmId":326532189,"sourceRegion":"guangzhou","featureType":"infrastructure","railClass":"highspeed","mode":"rail","name":"京广高速线","nameEn":"Beijing-Guangzhou High-speed Line","ref":"3001","usage":"main","highspeed":"yes","status":"operational","color":"#E54848","sourceKey":"way:326532189"}},{"type":"Feature","geometry":{"type":"LineString","coordinates":[[113.1741226,23.7896837],[113.1734453,23.7881096],[113.1720637,23.7850122],[113.1705502,23.7819653],[113.1696694,23.7803618],[113.1688521,23.7787717],[113.1681279,23.7775261]]},"properties":{"key":"way:326532195@detail:452_95","osmType":"way","osmId":326532195,"sourceRegion":"guangzhou","featureType":"infrastructure","railClass":"highspeed","mode":"rail","name":"京广高速线","nameEn":"Beijing-Guangzhou High-speed Line","ref":"3001","usage":"main","highspeed":"yes","bridge":"yes","status":"operational","color":"#E54848","sourceKey":"way:326532195"}},{"type":"Feature","geometry":{"type":"LineString","coordinates":[[113.157988,23.7591434],[113.1571241,23.757114]]},"properties":{"key":"way:375516755@detail:452_95","osmType":"way","osmId":375516755,"sourceRegion":"guangzhou","featureType":"infrastructure","railClass":"highspeed","mode":"rail","name":"京广高速线","nameEn":"Beijing-Guangzhou High-speed Line","ref":"3001","usage":"main","highspeed":"yes","bridge":"viaduct","status":"operational","color":"#E54848","sourceKey":"way:375516755"}},{"type":"Feature","geometry":{"type":"LineString","coordinates":[[113.1559367,23.754082],[113.1545326,23.7504967],[113.1543817,23.7501212]]},"properties":{"key":"way:375516757@detail:452_95","osmType":"way","osmId":375516757,"sourceRegion":"guangzhou","featureType":"infrastructure","railClass":"highspeed","mode":"rail","name":"京广高速线","nameEn":"Beijing-Guangzhou High-speed Line","ref":"3001","usage":"main","highspeed":"yes","status":"operational","color":"#E54848","sourceKey":"way:375516757"}},{"type":"Feature","geometry":{"type":"LineString","coordinates":[[113.163399,23.7696141],[113.162882,23.7687319]]},"properties":{"key":"way:384797221@detail:452_95","osmType":"way","osmId":384797221,"sourceRegion":"guangzhou","featureType":"infrastructure","railClass":"highspeed","mode":"rail","name":"京广高速线","nameEn":"Beijing-Guangzhou High-speed Line","ref":"3001","usage":"main","highspeed":"yes","bridge":"yes","status":"operational","color":"#E54848","sourceKey":"way:384797221"}},{"type":"Feature","geometry":{"type":"LineString","coordinates":[[113.1605175,23.7644681],[113.1582243,23.759727],[113.157988,23.7591434]]},"properties":{"key":"way:384797226@detail:452_95","osmType":"way","osmId":384797226,"sourceRegion":"guangzhou","featureType":"infrastructure","railClass":"highspeed","mode":"rail","name":"京广高速线","nameEn":"Beijing-Guangzhou High-speed Line","ref":"3001","usage":"main","highspeed":"yes","status":"operational","color":"#E54848","sourceKey":"way:384797226"}},{"type":"Feature","geometry":{"type":"LineString","coordinates":[[113.162882,23.7687319],[113.1616671,23.7666389]]},"properties":{"key":"way:384797233@detail:452_95","osmType":"way","osmId":384797233,"sourceRegion":"guangzhou","featureType":"infrastructure","railClass":"highspeed","mode":"rail","name":"京广高速线","nameEn":"Beijing-Guangzhou High-speed Line","ref":"3001","usage":"main","highspeed":"yes","status":"operational","color":"#E54848","sourceKey":"way:384797233"}},{"type":"Feature","geometry":{"type":"LineString","coordinates":[[113.1616671,23.7666389],[113.1605175,23.7644681]]},"properties":{"key":"way:384797235@detail:452_95","osmType":"way","osmId":384797235,"sourceRegion":"guangzhou","featureType":"infrastructure","railClass":"highspeed","mode":"rail","name":"京广高速线","nameEn":"Beijing-Guangzhou High-speed Line","ref":"3001","usage":"main","highspeed":"yes","bridge":"viaduct","status":"operational","color":"#E54848","sourceKey":"way:384797235"}},{"type":"Feature","geometry":{"type":"LineString","coordinates":[[113.224992471745,23.75],[113.2249848,23.7500463],[113.224933,23.7505504],[113.2249195,23.7508978],[113.2249218,23.7513383],[113.2249634,23.7518033],[113.2250045,23.7522413],[113.2250599,23.7526309],[113.2251852,23.753155],[113.2258336,23.7552084],[113.2260241,23.7558322],[113.2261589,23.7562737],[113.2262931,23.7567134],[113.2264565,23.7572228],[113.2265335,23.7574539],[113.2268839,23.7583978],[113.2270766,23.7588585],[113.2273169,23.7593397],[113.228145,23.7607391],[113.229204,23.7624256],[113.2297114,23.763238],[113.230096,23.7640421],[113.2306825,23.7657913],[113.2324796,23.7708962],[113.2325336,23.7710661]]},"properties":{"key":"way:631438545@detail:452_95","osmType":"way","osmId":631438545,"sourceRegion":"guangzhou","featureType":"infrastructure","railClass":"national","mode":"rail","name":"京广线","nameEn":"Beijing–Guangzhou Railway","ref":"0001","usage":"main","status":"operational","color":"#E54848","sourceKey":"way:631438545"}},{"type":"Feature","geometry":{"type":"LineString","coordinates":[[113.1616188,23.7666603],[113.1604687,23.7644879]]},"properties":{"key":"way:688282539@detail:452_95","osmType":"way","osmId":688282539,"sourceRegion":"guangzhou","featureType":"infrastructure","railClass":"highspeed","mode":"rail","name":"京广高速线","nameEn":"Beijing-Guangzhou High-speed Line","ref":"3001","usage":"main","highspeed":"yes","bridge":"viaduct","status":"operational","color":"#E54848","sourceKey":"way:688282539"}},{"type":"Feature","geometry":{"type":"LineString","coordinates":[[113.1633513,23.7696375],[113.1628336,23.7687555]]},"properties":{"key":"way:688282540@detail:452_95","osmType":"way","osmId":688282540,"sourceRegion":"guangzhou","featureType":"infrastructure","railClass":"highspeed","mode":"rail","name":"京广高速线","nameEn":"Beijing-Guangzhou High-speed Line","ref":"3001","usage":"main","highspeed":"yes","bridge":"yes","status":"operational","color":"#E54848","sourceKey":"way:688282540"}},{"type":"Feature","geometry":{"type":"LineString","coordinates":[[113.167318,23.7761775],[113.165669,23.773451]]},"properties":{"key":"way:688282541@detail:452_95","osmType":"way","osmId":688282541,"sourceRegion":"guangzhou","featureType":"infrastructure","railClass":"highspeed","mode":"rail","name":"京广高速线","nameEn":"Beijing-Guangzhou High-speed Line","ref":"3001","usage":"main","highspeed":"yes","tunnel":"yes","status":"operational","color":"#E54848","sourceKey":"way:688282541"}},{"type":"Feature","geometry":{"type":"LineString","coordinates":[[113.1543304,23.7501395],[113.15427105245034,23.75]]},"properties":{"key":"way:688282542@detail:452_95","osmType":"way","osmId":688282542,"sourceRegion":"guangzhou","featureType":"infrastructure","railClass":"highspeed","mode":"rail","name":"京广高速线","nameEn":"Beijing-Guangzhou High-speed Line","ref":"3001","usage":"main","highspeed":"yes","bridge":"yes","status":"operational","color":"#E54848","sourceKey":"way:688282542"}},{"type":"Feature","geometry":{"type":"LineString","coordinates":[[113.1604687,23.7644879],[113.1581749,23.7597454],[113.1579383,23.7591611]]},"properties":{"key":"way:688282543@detail:452_95","osmType":"way","osmId":688282543,"sourceRegion":"guangzhou","featureType":"infrastructure","railClass":"highspeed","mode":"rail","name":"京广高速线","nameEn":"Beijing-Guangzhou High-speed Line","ref":"3001","usage":"main","highspeed":"yes","status":"operational","color":"#E54848","sourceKey":"way:688282543"}},{"type":"Feature","geometry":{"type":"LineString","coordinates":[[113.165669,23.773451],[113.165153,23.7725838]]},"properties":{"key":"way:688282545@detail:452_95","osmType":"way","osmId":688282545,"sourceRegion":"guangzhou","featureType":"infrastructure","railClass":"highspeed","mode":"rail","name":"京广高速线","nameEn":"Beijing-Guangzhou High-speed Line","ref":"3001","usage":"main","highspeed":"yes","status":"operational","color":"#E54848","sourceKey":"way:688282545"}},{"type":"Feature","geometry":{"type":"LineString","coordinates":[[113.1628336,23.7687555],[113.1616188,23.7666603]]},"properties":{"key":"way:688282547@detail:452_95","osmType":"way","osmId":688282547,"sourceRegion":"guangzhou","featureType":"infrastructure","railClass":"highspeed","mode":"rail","name":"京广高速线","nameEn":"Beijing-Guangzhou High-speed Line","ref":"3001","usage":"main","highspeed":"yes","status":"operational","color":"#E54848","sourceKey":"way:688282547"}},{"type":"Feature","geometry":{"type":"LineString","coordinates":[[113.1752401,23.7927304],[113.1740413,23.7897271],[113.1733939,23.7881284],[113.1720087,23.7850257],[113.1704998,23.7819862],[113.1696194,23.7803834],[113.1688026,23.7787944],[113.1680793,23.7775487]]},"properties":{"key":"way:688282548@detail:452_95","osmType":"way","osmId":688282548,"sourceRegion":"guangzhou","featureType":"infrastructure","railClass":"highspeed","mode":"rail","name":"京广高速线","nameEn":"Beijing-Guangzhou High-speed Line","ref":"3001","usage":"main","highspeed":"yes","bridge":"yes","status":"operational","color":"#E54848","sourceKey":"way:688282548"}},{"type":"Feature","geometry":{"type":"LineString","coordinates":[[113.155879,23.7540816],[113.1544817,23.7505136],[113.1543304,23.7501395]]},"properties":{"key":"way:688282551@detail:452_95","osmType":"way","osmId":688282551,"sourceRegion":"guangzhou","featureType":"infrastructure","railClass":"highspeed","mode":"rail","name":"京广高速线","nameEn":"Beijing-Guangzhou High-speed Line","ref":"3001","usage":"main","highspeed":"yes","status":"operational","color":"#E54848","sourceKey":"way:688282551"}},{"type":"Feature","geometry":{"type":"LineString","coordinates":[[113.1680793,23.7775487],[113.167318,23.7761775]]},"properties":{"key":"way:688282555@detail:452_95","osmType":"way","osmId":688282555,"sourceRegion":"guangzhou","featureType":"infrastructure","railClass":"highspeed","mode":"rail","name":"京广高速线","nameEn":"Beijing-Guangzhou High-speed Line","ref":"3001","usage":"main","highspeed":"yes","status":"operational","color":"#E54848","sourceKey":"way:688282555"}},{"type":"Feature","geometry":{"type":"LineString","coordinates":[[113.1579383,23.7591611],[113.1570732,23.7571307]]},"properties":{"key":"way:688282562@detail:452_95","osmType":"way","osmId":688282562,"sourceRegion":"guangzhou","featureType":"infrastructure","railClass":"highspeed","mode":"rail","name":"京广高速线","nameEn":"Beijing-Guangzhou High-speed Line","ref":"3001","usage":"main","highspeed":"yes","bridge":"viaduct","status":"operational","color":"#E54848","sourceKey":"way:688282562"}},{"type":"Feature","geometry":{"type":"LineString","coordinates":[[113.22447131524824,23.75],[113.2244332,23.7501743],[113.2243901,23.7504196],[113.2243654,23.7507496],[113.2243469,23.7510936],[113.2243593,23.7514546],[113.2244086,23.7518974],[113.2245164,23.7524078],[113.2247629,23.7533074],[113.2249077,23.7539137],[113.2250956,23.7544326],[113.2252559,23.7547964],[113.2255054,23.755163],[113.2258197,23.7555775],[113.2259517,23.755806],[113.2260331,23.7559778],[113.2261589,23.7562737]]},"properties":{"key":"way:788604015@detail:452_95","osmType":"way","osmId":788604015,"sourceRegion":"guangzhou","featureType":"infrastructure","railClass":"national","mode":"rail","name":"未命名","usage":"main","service":"yard","status":"operational","color":"#E54848","sourceKey":"way:788604015"}},{"type":"Feature","geometry":{"type":"LineString","coordinates":[[113.2418266,23.7825146],[113.2409305,23.7822953],[113.239983,23.782005],[113.2391642,23.7816591],[113.2383867,23.7812453],[113.237647,23.7807708],[113.2367346,23.7800181],[113.2360157,23.7793159],[113.2355111,23.7786581],[113.2349788,23.7778547],[113.234482,23.776836],[113.2339972,23.7755141],[113.2326106,23.7711535]]},"properties":{"key":"way:865870698@detail:452_95","osmType":"way","osmId":865870698,"sourceRegion":"guangzhou","featureType":"infrastructure","railClass":"national","mode":"rail","name":"京广线","nameEn":"Beijing–Guangzhou Railway","ref":"0001","usage":"main","status":"operational","color":"#E54848","sourceKey":"way:865870698"}},{"type":"Feature","geometry":{"type":"LineString","coordinates":[[113.2326106,23.7711535],[113.2325776,23.7710495]]},"properties":{"key":"way:865870699@detail:452_95","osmType":"way","osmId":865870699,"sourceRegion":"guangzhou","featureType":"infrastructure","railClass":"national","mode":"rail","name":"京广线","nameEn":"Beijing–Guangzhou Railway","ref":"0001","usage":"main","bridge":"yes","status":"operational","color":"#E54848","sourceKey":"way:865870699"}},{"type":"Feature","geometry":{"type":"LineString","coordinates":[[113.2325667,23.7711701],[113.2339521,23.775527],[113.2344379,23.7768517],[113.2349369,23.7778748],[113.2354715,23.7786818],[113.2359789,23.7793432],[113.2367015,23.780049],[113.2376175,23.7808047],[113.2383608,23.7812815],[113.2391525,23.7816975],[113.2399661,23.7820454],[113.2409169,23.7823367],[113.241815,23.7825565]]},"properties":{"key":"way:865870700@detail:452_95","osmType":"way","osmId":865870700,"sourceRegion":"guangzhou","featureType":"infrastructure","railClass":"national","mode":"rail","name":"京广线","nameEn":"Beijing–Guangzhou Railway","ref":"0001","usage":"main","status":"operational","color":"#E54848","sourceKey":"way:865870700"}},{"type":"Feature","geometry":{"type":"LineString","coordinates":[[113.2325336,23.7710661],[113.2325667,23.7711701]]},"properties":{"key":"way:865870701@detail:452_95","osmType":"way","osmId":865870701,"sourceRegion":"guangzhou","featureType":"infrastructure","railClass":"national","mode":"rail","name":"京广线","nameEn":"Beijing–Guangzhou Railway","ref":"0001","usage":"main","bridge":"yes","status":"operational","color":"#E54848","sourceKey":"way:865870701"}},{"type":"Feature","geometry":{"type":"LineString","coordinates":[[113.22435834710805,23.75],[113.2242917,23.7503368],[113.2242353,23.7507677],[113.2242139,23.7511691],[113.2242259,23.7514784],[113.2242849,23.7519412],[113.2243399,23.752264],[113.2244164,23.7525377],[113.2245263,23.7528827],[113.2247114,23.7533823],[113.224808,23.7536511],[113.2249077,23.7539137]]},"properties":{"key":"way:894997518@detail:452_95","osmType":"way","osmId":894997518,"sourceRegion":"guangzhou","featureType":"infrastructure","railClass":"national","mode":"rail","name":"未命名","usage":"main","service":"yard","status":"operational","color":"#E54848","sourceKey":"way:894997518"}},{"type":"Feature","geometry":{"type":"LineString","coordinates":[[113.22441329481609,23.75],[113.224348,23.7503589],[113.224293,23.7507787],[113.2242769,23.7511408],[113.2242876,23.7514735],[113.2243413,23.7519314],[113.2243922,23.7522616],[113.224462,23.7525341],[113.2245706,23.7528422],[113.2246551,23.7530754],[113.2247629,23.7533074]]},"properties":{"key":"way:894997519@detail:452_95","osmType":"way","osmId":894997519,"sourceRegion":"guangzhou","featureType":"infrastructure","railClass":"national","mode":"rail","name":"未命名","usage":"main","service":"yard","status":"operational","color":"#E54848","sourceKey":"way:894997519"}},{"type":"Feature","geometry":{"type":"LineString","coordinates":[[113.2262931,23.7567134],[113.2264853,23.7571646]]},"properties":{"key":"way:1024404958@detail:452_95","osmType":"way","osmId":1024404958,"sourceRegion":"guangzhou","featureType":"infrastructure","railClass":"national","mode":"rail","name":"未命名","usage":"main","service":"crossover","status":"operational","color":"#E54848","sourceKey":"way:1024404958"}},{"type":"Feature","geometry":{"type":"LineString","coordinates":[[113.22511643232373,23.75],[113.2250663,23.7504155],[113.225032,23.7508692],[113.2250363,23.751317],[113.2250648,23.7517914],[113.2251056,23.7521767],[113.2251643,23.7525271],[113.2252269,23.7528509],[113.225288,23.7531268],[113.2254102,23.75353],[113.2255451,23.7540591],[113.2256348,23.7544753]]},"properties":{"key":"way:1024404962@detail:452_95","osmType":"way","osmId":1024404962,"sourceRegion":"guangzhou","featureType":"infrastructure","railClass":"national","mode":"rail","name":"未命名","usage":"main","service":"yard","status":"operational","color":"#E54848","sourceKey":"way:1024404962"}},{"type":"Feature","geometry":{"type":"LineString","coordinates":[[113.2260241,23.7558322],[113.2259476,23.7554086]]},"properties":{"key":"way:1024404963@detail:452_95","osmType":"way","osmId":1024404963,"sourceRegion":"guangzhou","featureType":"infrastructure","railClass":"national","mode":"rail","name":"未命名","usage":"main","service":"crossover","status":"operational","color":"#E54848","sourceKey":"way:1024404963"}},{"type":"Feature","geometry":{"type":"LineString","coordinates":[[113.165153,23.7725838],[113.1644315,23.7714142]]},"properties":{"key":"way:1321556831@detail:452_95","osmType":"way","osmId":1321556831,"sourceRegion":"guangzhou","featureType":"infrastructure","railClass":"highspeed","mode":"rail","name":"京广高速线","nameEn":"Beijing-Guangzhou High-speed Line","ref":"3001","usage":"main","highspeed":"yes","bridge":"yes","status":"operational","color":"#E54848","sourceKey":"way:1321556831"}},{"type":"Feature","geometry":{"type":"LineString","coordinates":[[113.1651959,23.7725654],[113.164473,23.7713859]]},"properties":{"key":"way:1321556832@detail:452_95","osmType":"way","osmId":1321556832,"sourceRegion":"guangzhou","featureType":"infrastructure","railClass":"highspeed","mode":"rail","name":"京广高速线","nameEn":"Beijing-Guangzhou High-speed Line","ref":"3001","usage":"main","highspeed":"yes","bridge":"yes","status":"operational","color":"#E54848","sourceKey":"way:1321556832"}},{"type":"Feature","geometry":{"type":"LineString","coordinates":[[113.164473,23.7713859],[113.163399,23.7696141]]},"properties":{"key":"way:1321556833@detail:452_95","osmType":"way","osmId":1321556833,"sourceRegion":"guangzhou","featureType":"infrastructure","railClass":"highspeed","mode":"rail","name":"京广高速线","nameEn":"Beijing-Guangzhou High-speed Line","ref":"3001","usage":"main","highspeed":"yes","status":"operational","color":"#E54848","sourceKey":"way:1321556833"}},{"type":"Feature","geometry":{"type":"LineString","coordinates":[[113.1644315,23.7714142],[113.1633513,23.7696375]]},"properties":{"key":"way:1321556834@detail:452_95","osmType":"way","osmId":1321556834,"sourceRegion":"guangzhou","featureType":"infrastructure","railClass":"highspeed","mode":"rail","name":"京广高速线","nameEn":"Beijing-Guangzhou High-speed Line","ref":"3001","usage":"main","highspeed":"yes","status":"operational","color":"#E54848","sourceKey":"way:1321556834"}},{"type":"Feature","geometry":{"type":"LineString","coordinates":[[113.1563132,23.7550434],[113.1559367,23.754082]]},"properties":{"key":"way:1321556835@detail:452_95","osmType":"way","osmId":1321556835,"sourceRegion":"guangzhou","featureType":"infrastructure","railClass":"highspeed","mode":"rail","name":"京广高速线","nameEn":"Beijing-Guangzhou High-speed Line","ref":"3001","usage":"main","highspeed":"yes","bridge":"yes","status":"operational","color":"#E54848","sourceKey":"way:1321556835"}},{"type":"Feature","geometry":{"type":"LineString","coordinates":[[113.1562649,23.7550668],[113.155879,23.7540816]]},"properties":{"key":"way:1321556836@detail:452_95","osmType":"way","osmId":1321556836,"sourceRegion":"guangzhou","featureType":"infrastructure","railClass":"highspeed","mode":"rail","name":"京广高速线","nameEn":"Beijing-Guangzhou High-speed Line","ref":"3001","usage":"main","highspeed":"yes","bridge":"yes","status":"operational","color":"#E54848","sourceKey":"way:1321556836"}},{"type":"Feature","geometry":{"type":"LineString","coordinates":[[113.1570732,23.7571307],[113.1562649,23.7550668]]},"properties":{"key":"way:1321556837@detail:452_95","osmType":"way","osmId":1321556837,"sourceRegion":"guangzhou","featureType":"infrastructure","railClass":"highspeed","mode":"rail","name":"京广高速线","nameEn":"Beijing-Guangzhou High-speed Line","ref":"3001","usage":"main","highspeed":"yes","status":"operational","color":"#E54848","sourceKey":"way:1321556837"}},{"type":"Feature","geometry":{"type":"LineString","coordinates":[[113.1571241,23.757114],[113.1563132,23.7550434]]},"properties":{"key":"way:1321556838@detail:452_95","osmType":"way","osmId":1321556838,"sourceRegion":"guangzhou","featureType":"infrastructure","railClass":"highspeed","mode":"rail","name":"京广高速线","nameEn":"Beijing-Guangzhou High-speed Line","ref":"3001","usage":"main","highspeed":"yes","status":"operational","color":"#E54848","sourceKey":"way:1321556838"}},{"type":"Feature","geometry":{"type":"Point","coordinates":[113.2250456,23.750074]},"properties":{"key":"node:479736669","osmType":"node","osmId":479736669,"sourceRegion":"guangdong","featureType":"station","railClass":"minor","mode":"stop","name":"潖江口","status":"operational","color":"#52636F","dataOrigin":"datum-2026-08-01","sourceKey":"node:479736669","stationGroup":"潖江口","hasOperationalRail":true,"hasConstructionRail":false}},{"type":"Feature","geometry":{"type":"Point","coordinates":[113.2249848,23.7500463]},"properties":{"key":"node:5963251022","osmType":"node","osmId":5963251022,"sourceRegion":"guangdong","featureType":"station","railClass":"minor","mode":"stop","name":"潖江口","status":"operational","color":"#52636F","dataOrigin":"datum-2026-08-01","sourceKey":"node:5963251022","stationGroup":"潖江口","hasOperationalRail":true,"hasConstructionRail":false}},{"type":"Feature","geometry":{"type":"LineString","coordinates":[[113.183062,23.8117049],[113.1819857,23.8094278],[113.1807711,23.8064102]]},"properties":{"key":"way:232654468@detail:452_95","osmType":"way","osmId":232654468,"sourceRegion":"guangdong","featureType":"infrastructure","railClass":"highspeed","mode":"rail","name":"京广高速线","nameEn":"Beijing-Guangzhou High-speed Line","ref":"3001","usage":"main","highspeed":"yes","bridge":"yes","status":"operational","color":"#E54848","dataOrigin":"datum-2026-08-01","sourceKey":"way:232654468"}},{"type":"Feature","geometry":{"type":"LineString","coordinates":[[113.2381862,23.9322252],[113.2379526,23.931329]]},"properties":{"key":"way:232654469@detail:452_95","osmType":"way","osmId":232654469,"sourceRegion":"guangdong","featureType":"infrastructure","railClass":"highspeed","mode":"rail","name":"京广高速线","nameEn":"Beijing-Guangzhou High-speed Line","ref":"3001","usage":"main","highspeed":"yes","status":"operational","color":"#E54848","dataOrigin":"datum-2026-08-01","sourceKey":"way:232654469"}},{"type":"Feature","geometry":{"type":"LineString","coordinates":[[113.2417516,23.9446576],[113.2415352,23.9439184]]},"properties":{"key":"way:232654470@detail:452_95","osmType":"way","osmId":232654470,"sourceRegion":"guangdong","featureType":"infrastructure","railClass":"highspeed","mode":"rail","name":"京广高速线","nameEn":"Beijing-Guangzhou High-speed Line","ref":"3001","usage":"main","highspeed":"yes","status":"operational","color":"#E54848","dataOrigin":"datum-2026-08-01","sourceKey":"way:232654470"}},{"type":"Feature","geometry":{"type":"LineString","coordinates":[[113.2379526,23.931329],[113.2375349,23.9294593],[113.2368427,23.9270028]]},"properties":{"key":"way:232654473@detail:452_95","osmType":"way","osmId":232654473,"sourceRegion":"guangdong","featureType":"infrastructure","railClass":"highspeed","mode":"rail","name":"京广高速线","nameEn":"Beijing-Guangzhou High-speed Line","ref":"3001","usage":"main","highspeed":"yes","tunnel":"yes","status":"operational","color":"#E54848","dataOrigin":"datum-2026-08-01","sourceKey":"way:232654473"}},{"type":"Feature","geometry":{"type":"LineString","coordinates":[[113.2413711,23.9433578],[113.2399689,23.938827]]},"properties":{"key":"way:232654474@detail:452_95","osmType":"way","osmId":232654474,"sourceRegion":"guangdong","featureType":"infrastructure","railClass":"highspeed","mode":"rail","name":"京广高速线","nameEn":"Beijing-Guangzhou High-speed Line","ref":"3001","usage":"main","highspeed":"yes","tunnel":"yes","status":"operational","color":"#E54848","dataOrigin":"datum-2026-08-01","sourceKey":"way:232654474"}},{"type":"Feature","geometry":{"type":"LineString","coordinates":[[113.239851,23.9383676],[113.2392828,23.9363647],[113.2386034,23.9339493],[113.2381862,23.9322252]]},"properties":{"key":"way:232654477@detail:452_95","osmType":"way","osmId":232654477,"sourceRegion":"guangdong","featureType":"infrastructure","railClass":"highspeed","mode":"rail","name":"京广高速线","nameEn":"Beijing-Guangzhou High-speed Line","ref":"3001","usage":"main","highspeed":"yes","bridge":"yes","status":"operational","color":"#E54848","dataOrigin":"datum-2026-08-01","sourceKey":"way:232654477"}},{"type":"Feature","geometry":{"type":"LineString","coordinates":[[113.2399689,23.938827],[113.239851,23.9383676]]},"properties":{"key":"way:232654478@detail:452_95","osmType":"way","osmId":232654478,"sourceRegion":"guangdong","featureType":"infrastructure","railClass":"highspeed","mode":"rail","name":"京广高速线","nameEn":"Beijing-Guangzhou High-speed Line","ref":"3001","usage":"main","highspeed":"yes","status":"operational","color":"#E54848","dataOrigin":"datum-2026-08-01","sourceKey":"way:232654478"}},{"type":"Feature","geometry":{"type":"LineString","coordinates":[[113.2442057,23.9522681],[113.244018,23.9516295]]},"properties":{"key":"way:232654483@detail:452_95","osmType":"way","osmId":232654483,"sourceRegion":"guangdong","featureType":"infrastructure","railClass":"highspeed","mode":"rail","name":"京广高速线","nameEn":"Beijing-Guangzhou High-speed Line","ref":"3001","usage":"main","highspeed":"yes","status":"operational","color":"#E54848","dataOrigin":"datum-2026-08-01","sourceKey":"way:232654483"}},{"type":"Feature","geometry":{"type":"LineString","coordinates":[[113.2446293,23.9537097],[113.2442057,23.9522681]]},"properties":{"key":"way:232654485@detail:452_95","osmType":"way","osmId":232654485,"sourceRegion":"guangdong","featureType":"infrastructure","railClass":"highspeed","mode":"rail","name":"京广高速线","nameEn":"Beijing-Guangzhou High-speed Line","ref":"3001","usage":"main","highspeed":"yes","bridge":"yes","status":"operational","color":"#E54848","dataOrigin":"datum-2026-08-01","sourceKey":"way:232654485"}},{"type":"Feature","geometry":{"type":"LineString","coordinates":[[113.2322749,23.9129613],[113.2185171,23.8772448]]},"properties":{"key":"way:232654489@detail:452_95","osmType":"way","osmId":232654489,"sourceRegion":"guangdong","featureType":"infrastructure","railClass":"highspeed","mode":"rail","name":"京广高速线","nameEn":"Beijing-Guangzhou High-speed Line","ref":"3001","usage":"main","highspeed":"yes","tunnel":"yes","status":"operational","color":"#E54848","dataOrigin":"datum-2026-08-01","sourceKey":"way:232654489"}},{"type":"Feature","geometry":{"type":"LineString","coordinates":[[113.1870616,23.8190346],[113.1869214,23.8188286]]},"properties":{"key":"way:232654491@detail:452_95","osmType":"way","osmId":232654491,"sourceRegion":"guangdong","featureType":"infrastructure","railClass":"highspeed","mode":"rail","name":"京广高速线","nameEn":"Beijing-Guangzhou High-speed Line","ref":"3001","usage":"main","highspeed":"yes","status":"operational","color":"#E54848","dataOrigin":"datum-2026-08-01","sourceKey":"way:232654491"}},{"type":"Feature","geometry":{"type":"LineString","coordinates":[[113.235827,23.9232797],[113.2355702,23.9223094]]},"properties":{"key":"way:232654492@detail:452_95","osmType":"way","osmId":232654492,"sourceRegion":"guangdong","featureType":"infrastructure","railClass":"highspeed","mode":"rail","name":"京广高速线","nameEn":"Beijing-Guangzhou High-speed Line","ref":"3001","usage":"main","highspeed":"yes","tunnel":"yes","status":"operational","color":"#E54848","dataOrigin":"datum-2026-08-01","sourceKey":"way:232654492"}},{"type":"Feature","geometry":{"type":"LineString","coordinates":[[113.2448258,23.9543786],[113.2446293,23.9537097]]},"properties":{"key":"way:232654495@detail:452_95","osmType":"way","osmId":232654495,"sourceRegion":"guangdong","featureType":"infrastructure","railClass":"highspeed","mode":"rail","name":"京广高速线","nameEn":"Beijing-Guangzhou High-speed Line","ref":"3001","usage":"main","highspeed":"yes","status":"operational","color":"#E54848","dataOrigin":"datum-2026-08-01","sourceKey":"way:232654495"}},{"type":"Feature","geometry":{"type":"LineString","coordinates":[[113.2363966,23.9253498],[113.235827,23.9232797]]},"properties":{"key":"way:232654496@detail:452_95","osmType":"way","osmId":232654496,"sourceRegion":"guangdong","featureType":"infrastructure","railClass":"highspeed","mode":"rail","name":"京广高速线","nameEn":"Beijing-Guangzhou High-speed Line","ref":"3001","usage":"main","highspeed":"yes","status":"operational","color":"#E54848","dataOrigin":"datum-2026-08-01","sourceKey":"way:232654496"}},{"type":"Feature","geometry":{"type":"LineString","coordinates":[[113.2470926,23.9616218],[113.2461059,23.9584691],[113.2448258,23.9543786]]},"properties":{"key":"way:232654497@detail:452_95","osmType":"way","osmId":232654497,"sourceRegion":"guangdong","featureType":"infrastructure","railClass":"highspeed","mode":"rail","name":"京广高速线","nameEn":"Beijing-Guangzhou High-speed Line","ref":"3001","usage":"main","highspeed":"yes","bridge":"yes","status":"operational","color":"#E54848","dataOrigin":"datum-2026-08-01","sourceKey":"way:232654497"}},{"type":"Feature","geometry":{"type":"LineString","coordinates":[[113.2422915,23.9464362],[113.2417516,23.9446576]]},"properties":{"key":"way:232654498@detail:452_95","osmType":"way","osmId":232654498,"sourceRegion":"guangdong","featureType":"infrastructure","railClass":"highspeed","mode":"rail","name":"京广高速线","nameEn":"Beijing-Guangzhou High-speed Line","ref":"3001","usage":"main","highspeed":"yes","tunnel":"yes","status":"operational","color":"#E54848","dataOrigin":"datum-2026-08-01","sourceKey":"way:232654498"}},{"type":"Feature","geometry":{"type":"LineString","coordinates":[[113.2477976,23.9639744],[113.2470926,23.9616218]]},"properties":{"key":"way:232654499@detail:452_95","osmType":"way","osmId":232654499,"sourceRegion":"guangdong","featureType":"infrastructure","railClass":"highspeed","mode":"rail","name":"京广高速线","nameEn":"Beijing-Guangzhou High-speed Line","ref":"3001","usage":"main","highspeed":"yes","status":"operational","color":"#E54848","dataOrigin":"datum-2026-08-01","sourceKey":"way:232654499"}},{"type":"Feature","geometry":{"type":"LineString","coordinates":[[113.244018,23.9516295],[113.2422915,23.9464362]]},"properties":{"key":"way:232654501@detail:452_95","osmType":"way","osmId":232654501,"sourceRegion":"guangdong","featureType":"infrastructure","railClass":"highspeed","mode":"rail","name":"京广高速线","nameEn":"Beijing-Guangzhou High-speed Line","ref":"3001","usage":"main","highspeed":"yes","bridge":"yes","status":"operational","color":"#E54848","dataOrigin":"datum-2026-08-01","sourceKey":"way:232654501"}},{"type":"Feature","geometry":{"type":"LineString","coordinates":[[113.25,23.971116299084695],[113.2477976,23.9639744]]},"properties":{"key":"way:232654505@detail:452_95","osmType":"way","osmId":232654505,"sourceRegion":"guangdong","featureType":"infrastructure","railClass":"highspeed","mode":"rail","name":"京广高速线","nameEn":"Beijing-Guangzhou High-speed Line","ref":"3001","usage":"main","highspeed":"yes","tunnel":"yes","status":"operational","color":"#E54848","dataOrigin":"datum-2026-08-01","sourceKey":"way:232654505"}},{"type":"Feature","geometry":{"type":"LineString","coordinates":[[113.1869214,23.8188286],[113.1851566,23.8158874],[113.1836154,23.8128272]]},"properties":{"key":"way:232654507@detail:452_95","osmType":"way","osmId":232654507,"sourceRegion":"guangdong","featureType":"infrastructure","railClass":"highspeed","mode":"rail","name":"京广高速线","nameEn":"Beijing-Guangzhou High-speed Line","ref":"3001","usage":"main","highspeed":"yes","bridge":"yes","status":"operational","color":"#E54848","dataOrigin":"datum-2026-08-01","sourceKey":"way:232654507"}},{"type":"Feature","geometry":{"type":"LineString","coordinates":[[113.2355702,23.9223094],[113.2341244,23.9180646],[113.232333,23.9131018]]},"properties":{"key":"way:232654509@detail:452_95","osmType":"way","osmId":232654509,"sourceRegion":"guangdong","featureType":"infrastructure","railClass":"highspeed","mode":"rail","name":"京广高速线","nameEn":"Beijing-Guangzhou High-speed Line","ref":"3001","usage":"main","highspeed":"yes","bridge":"yes","status":"operational","color":"#E54848","dataOrigin":"datum-2026-08-01","sourceKey":"way:232654509"}},{"type":"Feature","geometry":{"type":"LineString","coordinates":[[113.2185171,23.8772448],[113.2179405,23.8759478]]},"properties":{"key":"way:232654514@detail:452_95","osmType":"way","osmId":232654514,"sourceRegion":"guangdong","featureType":"infrastructure","railClass":"highspeed","mode":"rail","name":"京广高速线","nameEn":"Beijing-Guangzhou High-speed Line","ref":"3001","usage":"main","highspeed":"yes","status":"operational","color":"#E54848","dataOrigin":"datum-2026-08-01","sourceKey":"way:232654514"}},{"type":"Feature","geometry":{"type":"LineString","coordinates":[[113.244227,23.7830365],[113.2418266,23.7825146]]},"properties":{"key":"way:326422464@detail:452_95","osmType":"way","osmId":326422464,"sourceRegion":"guangdong","featureType":"infrastructure","railClass":"national","mode":"rail","name":"京广线","nameEn":"Beijing–Guangzhou Railway","ref":"0001","usage":"main","bridge":"yes","status":"operational","color":"#E54848","dataOrigin":"datum-2026-08-01","sourceKey":"way:326422464"}},{"type":"Feature","geometry":{"type":"LineString","coordinates":[[113.2481651,23.7838378],[113.2476081,23.7837413]]},"properties":{"key":"way:326422486@detail:452_95","osmType":"way","osmId":326422486,"sourceRegion":"guangdong","featureType":"infrastructure","railClass":"national","mode":"rail","name":"京广线","nameEn":"Beijing–Guangzhou Railway","ref":"0001","usage":"main","bridge":"yes","status":"operational","color":"#E54848","dataOrigin":"datum-2026-08-01","sourceKey":"way:326422486"}},{"type":"Feature","geometry":{"type":"LineString","coordinates":[[113.2476081,23.7837413],[113.2456214,23.7833104],[113.244227,23.7830365]]},"properties":{"key":"way:326422538@detail:452_95","osmType":"way","osmId":326422538,"sourceRegion":"guangdong","featureType":"infrastructure","railClass":"national","mode":"rail","name":"京广线","nameEn":"Beijing–Guangzhou Railway","ref":"0001","usage":"main","status":"operational","color":"#E54848","dataOrigin":"datum-2026-08-01","sourceKey":"way:326422538"}},{"type":"Feature","geometry":{"type":"LineString","coordinates":[[113.1752921,23.7927123],[113.1741226,23.7896837]]},"properties":{"key":"way:326422610@detail:452_95","osmType":"way","osmId":326422610,"sourceRegion":"guangdong","featureType":"infrastructure","railClass":"highspeed","mode":"rail","name":"京广高速线","nameEn":"Beijing-Guangzhou High-speed Line","ref":"3001","usage":"main","highspeed":"yes","bridge":"yes","status":"operational","color":"#E54848","dataOrigin":"datum-2026-08-01","sourceKey":"way:326422610"}},{"type":"Feature","geometry":{"type":"LineString","coordinates":[[113.25,23.783998741755425],[113.249451,23.783962],[113.2481651,23.7838378]]},"properties":{"key":"way:326422617@detail:452_95","osmType":"way","osmId":326422617,"sourceRegion":"guangdong","featureType":"infrastructure","railClass":"national","mode":"rail","name":"京广线","nameEn":"Beijing–Guangzhou Railway","ref":"0001","usage":"main","status":"operational","color":"#E54848","dataOrigin":"datum-2026-08-01","sourceKey":"way:326422617"}},{"type":"Feature","geometry":{"type":"LineString","coordinates":[[113.2070051,23.8492424],[113.2042576,23.8443485]]},"properties":{"key":"way:326531818@detail:452_95","osmType":"way","osmId":326531818,"sourceRegion":"guangdong","featureType":"infrastructure","railClass":"highspeed","mode":"rail","name":"京广高速线","nameEn":"Beijing-Guangzhou High-speed Line","ref":"3001","usage":"main","highspeed":"yes","bridge":"yes","status":"operational","color":"#E54848","dataOrigin":"datum-2026-08-01","sourceKey":"way:326531818"}},{"type":"Feature","geometry":{"type":"LineString","coordinates":[[113.2170587,23.8736499],[113.2166296,23.8723902]]},"properties":{"key":"way:326531829@detail:452_95","osmType":"way","osmId":326531829,"sourceRegion":"guangdong","featureType":"infrastructure","railClass":"highspeed","mode":"rail","name":"京广高速线","nameEn":"Beijing-Guangzhou High-speed Line","ref":"3001","usage":"main","highspeed":"yes","status":"operational","color":"#E54848","dataOrigin":"datum-2026-08-01","sourceKey":"way:326531829"}},{"type":"Feature","geometry":{"type":"LineString","coordinates":[[113.2368427,23.9270028],[113.2367575,23.9266868]]},"properties":{"key":"way:326531853@detail:452_95","osmType":"way","osmId":326531853,"sourceRegion":"guangdong","featureType":"infrastructure","railClass":"highspeed","mode":"rail","name":"京广高速线","nameEn":"Beijing-Guangzhou High-speed Line","ref":"3001","usage":"main","highspeed":"yes","status":"operational","color":"#E54848","dataOrigin":"datum-2026-08-01","sourceKey":"way:326531853"}},{"type":"Feature","geometry":{"type":"LineString","coordinates":[[113.1764535,23.7955995],[113.1759156,23.7942623]]},"properties":{"key":"way:326531880@detail:452_95","osmType":"way","osmId":326531880,"sourceRegion":"guangdong","featureType":"infrastructure","railClass":"highspeed","mode":"rail","name":"京广高速线","nameEn":"Beijing-Guangzhou High-speed Line","ref":"3001","usage":"main","highspeed":"yes","status":"operational","color":"#E54848","dataOrigin":"datum-2026-08-01","sourceKey":"way:326531880"}},{"type":"Feature","geometry":{"type":"LineString","coordinates":[[113.1951364,23.8309838],[113.1940022,23.8293643]]},"properties":{"key":"way:326531883@detail:452_95","osmType":"way","osmId":326531883,"sourceRegion":"guangdong","featureType":"infrastructure","railClass":"highspeed","mode":"rail","name":"京广高速线","nameEn":"Beijing-Guangzhou High-speed Line","ref":"3001","usage":"main","highspeed":"yes","status":"operational","color":"#E54848","dataOrigin":"datum-2026-08-01","sourceKey":"way:326531883"}},{"type":"Feature","geometry":{"type":"LineString","coordinates":[[113.2017453,23.8404925],[113.2004882,23.838667]]},"properties":{"key":"way:326531909@detail:452_95","osmType":"way","osmId":326531909,"sourceRegion":"guangdong","featureType":"infrastructure","railClass":"highspeed","mode":"rail","name":"京广高速线","nameEn":"Beijing-Guangzhou High-speed Line","ref":"3001","usage":"main","highspeed":"yes","status":"operational","color":"#E54848","dataOrigin":"datum-2026-08-01","sourceKey":"way:326531909"}},{"type":"Feature","geometry":{"type":"LineString","coordinates":[[113.1960031,23.8322213],[113.1951364,23.8309838]]},"properties":{"key":"way:326531913@detail:452_95","osmType":"way","osmId":326531913,"sourceRegion":"guangdong","featureType":"infrastructure","railClass":"highspeed","mode":"rail","name":"京广高速线","nameEn":"Beijing-Guangzhou High-speed Line","ref":"3001","usage":"main","highspeed":"yes","bridge":"yes","status":"operational","color":"#E54848","dataOrigin":"datum-2026-08-01","sourceKey":"way:326531913"}},{"type":"Feature","geometry":{"type":"LineString","coordinates":[[113.202305,23.8413052],[113.2017453,23.8404925]]},"properties":{"key":"way:326531915@detail:452_95","osmType":"way","osmId":326531915,"sourceRegion":"guangdong","featureType":"infrastructure","railClass":"highspeed","mode":"rail","name":"京广高速线","nameEn":"Beijing-Guangzhou High-speed Line","ref":"3001","usage":"main","highspeed":"yes","bridge":"yes","status":"operational","color":"#E54848","dataOrigin":"datum-2026-08-01","sourceKey":"way:326531915"}},{"type":"Feature","geometry":{"type":"LineString","coordinates":[[113.2179405,23.8759478],[113.2170587,23.8736499]]},"properties":{"key":"way:326531952@detail:452_95","osmType":"way","osmId":326531952,"sourceRegion":"guangdong","featureType":"infrastructure","railClass":"highspeed","mode":"rail","name":"京广高速线","nameEn":"Beijing-Guangzhou High-speed Line","ref":"3001","usage":"main","highspeed":"yes","bridge":"yes","status":"operational","color":"#E54848","dataOrigin":"datum-2026-08-01","sourceKey":"way:326531952"}},{"type":"Feature","geometry":{"type":"LineString","coordinates":[[113.1927991,23.8276258],[113.1923572,23.8269722]]},"properties":{"key":"way:326531957@detail:452_95","osmType":"way","osmId":326531957,"sourceRegion":"guangdong","featureType":"infrastructure","railClass":"highspeed","mode":"rail","name":"京广高速线","nameEn":"Beijing-Guangzhou High-speed Line","ref":"3001","usage":"main","highspeed":"yes","status":"operational","color":"#E54848","dataOrigin":"datum-2026-08-01","sourceKey":"way:326531957"}},{"type":"Feature","geometry":{"type":"LineString","coordinates":[[113.2075271,23.8501722],[113.2070051,23.8492424]]},"properties":{"key":"way:326531963@detail:452_95","osmType":"way","osmId":326531963,"sourceRegion":"guangdong","featureType":"infrastructure","railClass":"highspeed","mode":"rail","name":"京广高速线","nameEn":"Beijing-Guangzhou High-speed Line","ref":"3001","usage":"main","highspeed":"yes","status":"operational","color":"#E54848","dataOrigin":"datum-2026-08-01","sourceKey":"way:326531963"}},{"type":"Feature","geometry":{"type":"LineString","coordinates":[[113.232333,23.9131018],[113.2322749,23.9129613]]},"properties":{"key":"way:326531972@detail:452_95","osmType":"way","osmId":326531972,"sourceRegion":"guangdong","featureType":"infrastructure","railClass":"highspeed","mode":"rail","name":"京广高速线","nameEn":"Beijing-Guangzhou High-speed Line","ref":"3001","usage":"main","highspeed":"yes","status":"operational","color":"#E54848","dataOrigin":"datum-2026-08-01","sourceKey":"way:326531972"}},{"type":"Feature","geometry":{"type":"LineString","coordinates":[[113.2042576,23.8443485],[113.2032865,23.8428371]]},"properties":{"key":"way:326531980@detail:452_95","osmType":"way","osmId":326531980,"sourceRegion":"guangdong","featureType":"infrastructure","railClass":"highspeed","mode":"rail","name":"京广高速线","nameEn":"Beijing-Guangzhou High-speed Line","ref":"3001","usage":"main","highspeed":"yes","status":"operational","color":"#E54848","dataOrigin":"datum-2026-08-01","sourceKey":"way:326531980"}},{"type":"Feature","geometry":{"type":"LineString","coordinates":[[113.1969735,23.8336444],[113.1960031,23.8322213]]},"properties":{"key":"way:326531998@detail:452_95","osmType":"way","osmId":326531998,"sourceRegion":"guangdong","featureType":"infrastructure","railClass":"highspeed","mode":"rail","name":"京广高速线","nameEn":"Beijing-Guangzhou High-speed Line","ref":"3001","usage":"main","highspeed":"yes","status":"operational","color":"#E54848","dataOrigin":"datum-2026-08-01","sourceKey":"way:326531998"}},{"type":"Feature","geometry":{"type":"LineString","coordinates":[[113.2367575,23.9266868],[113.2363966,23.9253498]]},"properties":{"key":"way:326532013@detail:452_95","osmType":"way","osmId":326532013,"sourceRegion":"guangdong","featureType":"infrastructure","railClass":"highspeed","mode":"rail","name":"京广高速线","nameEn":"Beijing-Guangzhou High-speed Line","ref":"3001","usage":"main","highspeed":"yes","tunnel":"yes","status":"operational","color":"#E54848","dataOrigin":"datum-2026-08-01","sourceKey":"way:326532013"}},{"type":"Feature","geometry":{"type":"LineString","coordinates":[[113.1920259,23.8264822],[113.1911984,23.8252581]]},"properties":{"key":"way:326532028@detail:452_95","osmType":"way","osmId":326532028,"sourceRegion":"guangdong","featureType":"infrastructure","railClass":"highspeed","mode":"rail","name":"京广高速线","nameEn":"Beijing-Guangzhou High-speed Line","ref":"3001","usage":"main","highspeed":"yes","status":"operational","color":"#E54848","dataOrigin":"datum-2026-08-01","sourceKey":"way:326532028"}},{"type":"Feature","geometry":{"type":"LineString","coordinates":[[113.1789124,23.801872],[113.1764535,23.7955995]]},"properties":{"key":"way:326532035@detail:452_95","osmType":"way","osmId":326532035,"sourceRegion":"guangdong","featureType":"infrastructure","railClass":"highspeed","mode":"rail","name":"京广高速线","nameEn":"Beijing-Guangzhou High-speed Line","ref":"3001","usage":"main","highspeed":"yes","tunnel":"yes","status":"operational","color":"#E54848","dataOrigin":"datum-2026-08-01","sourceKey":"way:326532035"}},{"type":"Feature","geometry":{"type":"LineString","coordinates":[[113.2032865,23.8428371],[113.2026448,23.8418356]]},"properties":{"key":"way:326532049@detail:452_95","osmType":"way","osmId":326532049,"sourceRegion":"guangdong","featureType":"infrastructure","railClass":"highspeed","mode":"rail","name":"京广高速线","nameEn":"Beijing-Guangzhou High-speed Line","ref":"3001","usage":"main","highspeed":"yes","bridge":"yes","status":"operational","color":"#E54848","dataOrigin":"datum-2026-08-01","sourceKey":"way:326532049"}},{"type":"Feature","geometry":{"type":"LineString","coordinates":[[113.1923572,23.8269722],[113.1920259,23.8264822]]},"properties":{"key":"way:326532068@detail:452_95","osmType":"way","osmId":326532068,"sourceRegion":"guangdong","featureType":"infrastructure","railClass":"highspeed","mode":"rail","name":"京广高速线","nameEn":"Beijing-Guangzhou High-speed Line","ref":"3001","usage":"main","highspeed":"yes","bridge":"yes","status":"operational","color":"#E54848","dataOrigin":"datum-2026-08-01","sourceKey":"way:326532068"}},{"type":"Feature","geometry":{"type":"LineString","coordinates":[[113.2026448,23.8418356],[113.202305,23.8413052]]},"properties":{"key":"way:326532070@detail:452_95","osmType":"way","osmId":326532070,"sourceRegion":"guangdong","featureType":"infrastructure","railClass":"highspeed","mode":"rail","name":"京广高速线","nameEn":"Beijing-Guangzhou High-speed Line","ref":"3001","usage":"main","highspeed":"yes","status":"operational","color":"#E54848","dataOrigin":"datum-2026-08-01","sourceKey":"way:326532070"}},{"type":"Feature","geometry":{"type":"LineString","coordinates":[[113.1940022,23.8293643],[113.1932004,23.8282193],[113.1927991,23.8276258]]},"properties":{"key":"way:326532128@detail:452_95","osmType":"way","osmId":326532128,"sourceRegion":"guangdong","featureType":"infrastructure","railClass":"highspeed","mode":"rail","name":"京广高速线","nameEn":"Beijing-Guangzhou High-speed Line","ref":"3001","usage":"main","highspeed":"yes","bridge":"yes","status":"operational","color":"#E54848","dataOrigin":"datum-2026-08-01","sourceKey":"way:326532128"}},{"type":"Feature","geometry":{"type":"LineString","coordinates":[[113.1911984,23.8252581],[113.189208,23.8224644],[113.1870616,23.8190346]]},"properties":{"key":"way:326532146@detail:452_95","osmType":"way","osmId":326532146,"sourceRegion":"guangdong","featureType":"infrastructure","railClass":"highspeed","mode":"rail","name":"京广高速线","nameEn":"Beijing-Guangzhou High-speed Line","ref":"3001","usage":"main","highspeed":"yes","tunnel":"yes","status":"operational","color":"#E54848","dataOrigin":"datum-2026-08-01","sourceKey":"way:326532146"}},{"type":"Feature","geometry":{"type":"LineString","coordinates":[[113.2004882,23.838667],[113.1984301,23.8357806],[113.1969735,23.8336444]]},"properties":{"key":"way:326532162@detail:452_95","osmType":"way","osmId":326532162,"sourceRegion":"guangdong","featureType":"infrastructure","railClass":"highspeed","mode":"rail","name":"京广高速线","nameEn":"Beijing-Guangzhou High-speed Line","ref":"3001","usage":"main","highspeed":"yes","bridge":"yes","status":"operational","color":"#E54848","dataOrigin":"datum-2026-08-01","sourceKey":"way:326532162"}},{"type":"Feature","geometry":{"type":"LineString","coordinates":[[113.2166296,23.8723902],[113.2123237,23.8602891],[113.2075271,23.8501722]]},"properties":{"key":"way:326532165@detail:452_95","osmType":"way","osmId":326532165,"sourceRegion":"guangdong","featureType":"infrastructure","railClass":"highspeed","mode":"rail","name":"京广高速线","nameEn":"Beijing-Guangzhou High-speed Line","ref":"3001","usage":"main","highspeed":"yes","tunnel":"yes","status":"operational","color":"#E54848","dataOrigin":"datum-2026-08-01","sourceKey":"way:326532165"}},{"type":"Feature","geometry":{"type":"LineString","coordinates":[[113.2481582,23.7838806],[113.2494468,23.7840051],[113.25,23.784042116398293]]},"properties":{"key":"way:631438541@detail:452_95","osmType":"way","osmId":631438541,"sourceRegion":"guangdong","featureType":"infrastructure","railClass":"national","mode":"rail","name":"京广线","nameEn":"Beijing–Guangzhou Railway","ref":"0001","usage":"main","status":"operational","color":"#E54848","dataOrigin":"datum-2026-08-01","sourceKey":"way:631438541"}},{"type":"Feature","geometry":{"type":"LineString","coordinates":[[113.2475983,23.7837836],[113.2481582,23.7838806]]},"properties":{"key":"way:631438542@detail:452_95","osmType":"way","osmId":631438542,"sourceRegion":"guangdong","featureType":"infrastructure","railClass":"national","mode":"rail","name":"京广线","nameEn":"Beijing–Guangzhou Railway","ref":"0001","usage":"main","bridge":"yes","status":"operational","color":"#E54848","dataOrigin":"datum-2026-08-01","sourceKey":"way:631438542"}},{"type":"Feature","geometry":{"type":"LineString","coordinates":[[113.2442166,23.7830787],[113.245611,23.7833526],[113.2475983,23.7837836]]},"properties":{"key":"way:631438543@detail:452_95","osmType":"way","osmId":631438543,"sourceRegion":"guangdong","featureType":"infrastructure","railClass":"national","mode":"rail","name":"京广线","nameEn":"Beijing–Guangzhou Railway","ref":"0001","usage":"main","status":"operational","color":"#E54848","dataOrigin":"datum-2026-08-01","sourceKey":"way:631438543"}},{"type":"Feature","geometry":{"type":"LineString","coordinates":[[113.241815,23.7825565],[113.2442166,23.7830787]]},"properties":{"key":"way:631438544@detail:452_95","osmType":"way","osmId":631438544,"sourceRegion":"guangdong","featureType":"infrastructure","railClass":"national","mode":"rail","name":"京广线","nameEn":"Beijing–Guangzhou Railway","ref":"0001","usage":"main","bridge":"yes","status":"operational","color":"#E54848","dataOrigin":"datum-2026-08-01","sourceKey":"way:631438544"}},{"type":"Feature","geometry":{"type":"LineString","coordinates":[[113.1807711,23.8064102],[113.1801519,23.8049048]]},"properties":{"key":"way:674187187@detail:452_95","osmType":"way","osmId":674187187,"sourceRegion":"guangdong","featureType":"infrastructure","railClass":"highspeed","mode":"rail","name":"京广高速线","nameEn":"Beijing-Guangzhou High-speed Line","ref":"3001","usage":"main","highspeed":"yes","status":"operational","color":"#E54848","dataOrigin":"datum-2026-08-01","sourceKey":"way:674187187"}},{"type":"Feature","geometry":{"type":"LineString","coordinates":[[113.1836154,23.8128272],[113.183062,23.8117049]]},"properties":{"key":"way:674187188@detail:452_95","osmType":"way","osmId":674187188,"sourceRegion":"guangdong","featureType":"infrastructure","railClass":"highspeed","mode":"rail","name":"京广高速线","nameEn":"Beijing-Guangzhou High-speed Line","ref":"3001","usage":"main","highspeed":"yes","status":"operational","color":"#E54848","dataOrigin":"datum-2026-08-01","sourceKey":"way:674187188"}},{"type":"Feature","geometry":{"type":"LineString","coordinates":[[113.178861,23.8018889],[113.176402,23.7956175]]},"properties":{"key":"way:688282538@detail:452_95","osmType":"way","osmId":688282538,"sourceRegion":"guangdong","featureType":"infrastructure","railClass":"highspeed","mode":"rail","name":"京广高速线","nameEn":"Beijing-Guangzhou High-speed Line","ref":"3001","usage":"main","highspeed":"yes","tunnel":"yes","status":"operational","color":"#E54848","dataOrigin":"datum-2026-08-01","sourceKey":"way:688282538"}},{"type":"Feature","geometry":{"type":"LineString","coordinates":[[113.1807202,23.8064278],[113.1801036,23.8049269]]},"properties":{"key":"way:688282557@detail:452_95","osmType":"way","osmId":688282557,"sourceRegion":"guangdong","featureType":"infrastructure","railClass":"highspeed","mode":"rail","name":"京广高速线","nameEn":"Beijing-Guangzhou High-speed Line","ref":"3001","usage":"main","highspeed":"yes","status":"operational","color":"#E54848","dataOrigin":"datum-2026-08-01","sourceKey":"way:688282557"}},{"type":"Feature","geometry":{"type":"LineString","coordinates":[[113.176402,23.7956175],[113.1758651,23.7942835]]},"properties":{"key":"way:688282559@detail:452_95","osmType":"way","osmId":688282559,"sourceRegion":"guangdong","featureType":"infrastructure","railClass":"highspeed","mode":"rail","name":"京广高速线","nameEn":"Beijing-Guangzhou High-speed Line","ref":"3001","usage":"main","highspeed":"yes","status":"operational","color":"#E54848","dataOrigin":"datum-2026-08-01","sourceKey":"way:688282559"}},{"type":"Feature","geometry":{"type":"LineString","coordinates":[[113.1830113,23.811725],[113.1819345,23.8094468],[113.1807202,23.8064278]]},"properties":{"key":"way:688290119@detail:452_95","osmType":"way","osmId":688290119,"sourceRegion":"guangdong","featureType":"infrastructure","railClass":"highspeed","mode":"rail","name":"京广高速线","nameEn":"Beijing-Guangzhou High-speed Line","ref":"3001","usage":"main","highspeed":"yes","bridge":"yes","status":"operational","color":"#E54848","dataOrigin":"datum-2026-08-01","sourceKey":"way:688290119"}},{"type":"Feature","geometry":{"type":"LineString","coordinates":[[113.1835644,23.8128483],[113.1830113,23.811725]]},"properties":{"key":"way:688290123@detail:452_95","osmType":"way","osmId":688290123,"sourceRegion":"guangdong","featureType":"infrastructure","railClass":"highspeed","mode":"rail","name":"京广高速线","nameEn":"Beijing-Guangzhou High-speed Line","ref":"3001","usage":"main","highspeed":"yes","status":"operational","color":"#E54848","dataOrigin":"datum-2026-08-01","sourceKey":"way:688290123"}},{"type":"Feature","geometry":{"type":"LineString","coordinates":[[113.1911481,23.8252881],[113.1891568,23.8224931],[113.1870107,23.8190636]]},"properties":{"key":"way:688290125@detail:452_95","osmType":"way","osmId":688290125,"sourceRegion":"guangdong","featureType":"infrastructure","railClass":"highspeed","mode":"rail","name":"京广高速线","nameEn":"Beijing-Guangzhou High-speed Line","ref":"3001","usage":"main","highspeed":"yes","tunnel":"yes","status":"operational","color":"#E54848","dataOrigin":"datum-2026-08-01","sourceKey":"way:688290125"}},{"type":"Feature","geometry":{"type":"LineString","coordinates":[[113.1868721,23.8188533],[113.1851064,23.8159106],[113.1835644,23.8128483]]},"properties":{"key":"way:688290127@detail:452_95","osmType":"way","osmId":688290127,"sourceRegion":"guangdong","featureType":"infrastructure","railClass":"highspeed","mode":"rail","name":"京广高速线","nameEn":"Beijing-Guangzhou High-speed Line","ref":"3001","usage":"main","highspeed":"yes","bridge":"yes","status":"operational","color":"#E54848","dataOrigin":"datum-2026-08-01","sourceKey":"way:688290127"}},{"type":"Feature","geometry":{"type":"LineString","coordinates":[[113.1919789,23.8265088],[113.1911481,23.8252881]]},"properties":{"key":"way:688290128@detail:452_95","osmType":"way","osmId":688290128,"sourceRegion":"guangdong","featureType":"infrastructure","railClass":"highspeed","mode":"rail","name":"京广高速线","nameEn":"Beijing-Guangzhou High-speed Line","ref":"3001","usage":"main","highspeed":"yes","status":"operational","color":"#E54848","dataOrigin":"datum-2026-08-01","sourceKey":"way:688290128"}},{"type":"Feature","geometry":{"type":"LineString","coordinates":[[113.1870107,23.8190636],[113.1868721,23.8188533]]},"properties":{"key":"way:688290129@detail:452_95","osmType":"way","osmId":688290129,"sourceRegion":"guangdong","featureType":"infrastructure","railClass":"highspeed","mode":"rail","name":"京广高速线","nameEn":"Beijing-Guangzhou High-speed Line","ref":"3001","usage":"main","highspeed":"yes","status":"operational","color":"#E54848","dataOrigin":"datum-2026-08-01","sourceKey":"way:688290129"}},{"type":"Feature","geometry":{"type":"LineString","coordinates":[[113.2178774,23.8759681],[113.2169954,23.8736679]]},"properties":{"key":"way:688547746@detail:452_95","osmType":"way","osmId":688547746,"sourceRegion":"guangdong","featureType":"infrastructure","railClass":"highspeed","mode":"rail","name":"京广高速线","nameEn":"Beijing-Guangzhou High-speed Line","ref":"3001","usage":"main","highspeed":"yes","bridge":"yes","status":"operational","color":"#E54848","dataOrigin":"datum-2026-08-01","sourceKey":"way:688547746"}},{"type":"Feature","geometry":{"type":"LineString","coordinates":[[113.216568,23.8724085],[113.212263,23.8603101],[113.2074684,23.8501997]]},"properties":{"key":"way:688547747@detail:452_95","osmType":"way","osmId":688547747,"sourceRegion":"guangdong","featureType":"infrastructure","railClass":"highspeed","mode":"rail","name":"京广高速线","nameEn":"Beijing-Guangzhou High-speed Line","ref":"3001","usage":"main","highspeed":"yes","tunnel":"yes","status":"operational","color":"#E54848","dataOrigin":"datum-2026-08-01","sourceKey":"way:688547747"}},{"type":"Feature","geometry":{"type":"LineString","coordinates":[[113.2367741,23.9270183],[113.2366873,23.9267026]]},"properties":{"key":"way:688547748@detail:452_95","osmType":"way","osmId":688547748,"sourceRegion":"guangdong","featureType":"infrastructure","railClass":"highspeed","mode":"rail","name":"京广高速线","nameEn":"Beijing-Guangzhou High-speed Line","ref":"3001","usage":"main","highspeed":"yes","status":"operational","color":"#E54848","dataOrigin":"datum-2026-08-01","sourceKey":"way:688547748"}},{"type":"Feature","geometry":{"type":"LineString","coordinates":[[113.204203,23.8443778],[113.2032369,23.8428637]]},"properties":{"key":"way:688547749@detail:452_95","osmType":"way","osmId":688547749,"sourceRegion":"guangdong","featureType":"infrastructure","railClass":"highspeed","mode":"rail","name":"京广高速线","nameEn":"Beijing-Guangzhou High-speed Line","ref":"3001","usage":"main","highspeed":"yes","status":"operational","color":"#E54848","dataOrigin":"datum-2026-08-01","sourceKey":"way:688547749"}},{"type":"Feature","geometry":{"type":"LineString","coordinates":[[113.2069479,23.8492692],[113.204203,23.8443778]]},"properties":{"key":"way:688547750@detail:452_95","osmType":"way","osmId":688547750,"sourceRegion":"guangdong","featureType":"infrastructure","railClass":"highspeed","mode":"rail","name":"京广高速线","nameEn":"Beijing-Guangzhou High-speed Line","ref":"3001","usage":"main","highspeed":"yes","bridge":"yes","status":"operational","color":"#E54848","dataOrigin":"datum-2026-08-01","sourceKey":"way:688547750"}},{"type":"Feature","geometry":{"type":"LineString","coordinates":[[113.2032369,23.8428637],[113.2025953,23.8418621]]},"properties":{"key":"way:688547751@detail:452_95","osmType":"way","osmId":688547751,"sourceRegion":"guangdong","featureType":"infrastructure","railClass":"highspeed","mode":"rail","name":"京广高速线","nameEn":"Beijing-Guangzhou High-speed Line","ref":"3001","usage":"main","highspeed":"yes","bridge":"yes","status":"operational","color":"#E54848","dataOrigin":"datum-2026-08-01","sourceKey":"way:688547751"}},{"type":"Feature","geometry":{"type":"LineString","coordinates":[[113.2322085,23.9129826],[113.2184524,23.8772689]]},"properties":{"key":"way:688547752@detail:452_95","osmType":"way","osmId":688547752,"sourceRegion":"guangdong","featureType":"infrastructure","railClass":"highspeed","mode":"rail","name":"京广高速线","nameEn":"Beijing-Guangzhou High-speed Line","ref":"3001","usage":"main","highspeed":"yes","tunnel":"yes","status":"operational","color":"#E54848","dataOrigin":"datum-2026-08-01","sourceKey":"way:688547752"}},{"type":"Feature","geometry":{"type":"LineString","coordinates":[[113.2381165,23.9322341],[113.2378847,23.9313417]]},"properties":{"key":"way:688547753@detail:452_95","osmType":"way","osmId":688547753,"sourceRegion":"guangdong","featureType":"infrastructure","railClass":"highspeed","mode":"rail","name":"京广高速线","nameEn":"Beijing-Guangzhou High-speed Line","ref":"3001","usage":"main","highspeed":"yes","status":"operational","color":"#E54848","dataOrigin":"datum-2026-08-01","sourceKey":"way:688547753"}},{"type":"Feature","geometry":{"type":"LineString","coordinates":[[113.2022594,23.8413315],[113.2016981,23.8405197]]},"properties":{"key":"way:688547754@detail:452_95","osmType":"way","osmId":688547754,"sourceRegion":"guangdong","featureType":"infrastructure","railClass":"highspeed","mode":"rail","name":"京广高速线","nameEn":"Beijing-Guangzhou High-speed Line","ref":"3001","usage":"main","highspeed":"yes","bridge":"yes","status":"operational","color":"#E54848","dataOrigin":"datum-2026-08-01","sourceKey":"way:688547754"}},{"type":"Feature","geometry":{"type":"LineString","coordinates":[[113.2322651,23.913121],[113.2322085,23.9129826]]},"properties":{"key":"way:688547755@detail:452_95","osmType":"way","osmId":688547755,"sourceRegion":"guangdong","featureType":"infrastructure","railClass":"highspeed","mode":"rail","name":"京广高速线","nameEn":"Beijing-Guangzhou High-speed Line","ref":"3001","usage":"main","highspeed":"yes","status":"operational","color":"#E54848","dataOrigin":"datum-2026-08-01","sourceKey":"way:688547755"}},{"type":"Feature","geometry":{"type":"LineString","coordinates":[[113.2366873,23.9267026],[113.2363271,23.9253658]]},"properties":{"key":"way:688547756@detail:452_95","osmType":"way","osmId":688547756,"sourceRegion":"guangdong","featureType":"infrastructure","railClass":"highspeed","mode":"rail","name":"京广高速线","nameEn":"Beijing-Guangzhou High-speed Line","ref":"3001","usage":"main","highspeed":"yes","tunnel":"yes","status":"operational","color":"#E54848","dataOrigin":"datum-2026-08-01","sourceKey":"way:688547756"}},{"type":"Feature","geometry":{"type":"LineString","coordinates":[[113.1923085,23.8269997],[113.1919789,23.8265088]]},"properties":{"key":"way:688547757@detail:452_95","osmType":"way","osmId":688547757,"sourceRegion":"guangdong","featureType":"infrastructure","railClass":"highspeed","mode":"rail","name":"京广高速线","nameEn":"Beijing-Guangzhou High-speed Line","ref":"3001","usage":"main","highspeed":"yes","bridge":"yes","status":"operational","color":"#E54848","dataOrigin":"datum-2026-08-01","sourceKey":"way:688547757"}},{"type":"Feature","geometry":{"type":"LineString","coordinates":[[113.2363271,23.9253658],[113.2357555,23.9232992]]},"properties":{"key":"way:688547758@detail:452_95","osmType":"way","osmId":688547758,"sourceRegion":"guangdong","featureType":"infrastructure","railClass":"highspeed","mode":"rail","name":"京广高速线","nameEn":"Beijing-Guangzhou High-speed Line","ref":"3001","usage":"main","highspeed":"yes","status":"operational","color":"#E54848","dataOrigin":"datum-2026-08-01","sourceKey":"way:688547758"}},{"type":"Feature","geometry":{"type":"LineString","coordinates":[[113.2016981,23.8405197],[113.2004404,23.8386955]]},"properties":{"key":"way:688547759@detail:452_95","osmType":"way","osmId":688547759,"sourceRegion":"guangdong","featureType":"infrastructure","railClass":"highspeed","mode":"rail","name":"京广高速线","nameEn":"Beijing-Guangzhou High-speed Line","ref":"3001","usage":"main","highspeed":"yes","status":"operational","color":"#E54848","dataOrigin":"datum-2026-08-01","sourceKey":"way:688547759"}},{"type":"Feature","geometry":{"type":"LineString","coordinates":[[113.2357555,23.9232992],[113.2355013,23.9223282]]},"properties":{"key":"way:688547760@detail:452_95","osmType":"way","osmId":688547760,"sourceRegion":"guangdong","featureType":"infrastructure","railClass":"highspeed","mode":"rail","name":"京广高速线","nameEn":"Beijing-Guangzhou High-speed Line","ref":"3001","usage":"main","highspeed":"yes","tunnel":"yes","status":"operational","color":"#E54848","dataOrigin":"datum-2026-08-01","sourceKey":"way:688547760"}},{"type":"Feature","geometry":{"type":"LineString","coordinates":[[113.2378847,23.9313417],[113.2374673,23.9294735],[113.2367741,23.9270183]]},"properties":{"key":"way:688547761@detail:452_95","osmType":"way","osmId":688547761,"sourceRegion":"guangdong","featureType":"infrastructure","railClass":"highspeed","mode":"rail","name":"京广高速线","nameEn":"Beijing-Guangzhou High-speed Line","ref":"3001","usage":"main","highspeed":"yes","tunnel":"yes","status":"operational","color":"#E54848","dataOrigin":"datum-2026-08-01","sourceKey":"way:688547761"}},{"type":"Feature","geometry":{"type":"LineString","coordinates":[[113.1939531,23.8293931],[113.1931511,23.8282477],[113.1927499,23.8276537]]},"properties":{"key":"way:688547762@detail:452_95","osmType":"way","osmId":688547762,"sourceRegion":"guangdong","featureType":"infrastructure","railClass":"highspeed","mode":"rail","name":"京广高速线","nameEn":"Beijing-Guangzhou High-speed Line","ref":"3001","usage":"main","highspeed":"yes","bridge":"yes","status":"operational","color":"#E54848","dataOrigin":"datum-2026-08-01","sourceKey":"way:688547762"}},{"type":"Feature","geometry":{"type":"LineString","coordinates":[[113.1959542,23.8322499],[113.1950869,23.8310128]]},"properties":{"key":"way:688547763@detail:452_95","osmType":"way","osmId":688547763,"sourceRegion":"guangdong","featureType":"infrastructure","railClass":"highspeed","mode":"rail","name":"京广高速线","nameEn":"Beijing-Guangzhou High-speed Line","ref":"3001","usage":"main","highspeed":"yes","bridge":"yes","status":"operational","color":"#E54848","dataOrigin":"datum-2026-08-01","sourceKey":"way:688547763"}},{"type":"Feature","geometry":{"type":"LineString","coordinates":[[113.2074684,23.8501997],[113.2069479,23.8492692]]},"properties":{"key":"way:688547764@detail:452_95","osmType":"way","osmId":688547764,"sourceRegion":"guangdong","featureType":"infrastructure","railClass":"highspeed","mode":"rail","name":"京广高速线","nameEn":"Beijing-Guangzhou High-speed Line","ref":"3001","usage":"main","highspeed":"yes","status":"operational","color":"#E54848","dataOrigin":"datum-2026-08-01","sourceKey":"way:688547764"}},{"type":"Feature","geometry":{"type":"LineString","coordinates":[[113.2184524,23.8772689],[113.2178774,23.8759681]]},"properties":{"key":"way:688547765@detail:452_95","osmType":"way","osmId":688547765,"sourceRegion":"guangdong","featureType":"infrastructure","railClass":"highspeed","mode":"rail","name":"京广高速线","nameEn":"Beijing-Guangzhou High-speed Line","ref":"3001","usage":"main","highspeed":"yes","status":"operational","color":"#E54848","dataOrigin":"datum-2026-08-01","sourceKey":"way:688547765"}},{"type":"Feature","geometry":{"type":"LineString","coordinates":[[113.2355013,23.9223282],[113.2340559,23.9180846],[113.2322651,23.913121]]},"properties":{"key":"way:688547766@detail:452_95","osmType":"way","osmId":688547766,"sourceRegion":"guangdong","featureType":"infrastructure","railClass":"highspeed","mode":"rail","name":"京广高速线","nameEn":"Beijing-Guangzhou High-speed Line","ref":"3001","usage":"main","highspeed":"yes","bridge":"yes","status":"operational","color":"#E54848","dataOrigin":"datum-2026-08-01","sourceKey":"way:688547766"}},{"type":"Feature","geometry":{"type":"LineString","coordinates":[[113.1927499,23.8276537],[113.1923085,23.8269997]]},"properties":{"key":"way:688547767@detail:452_95","osmType":"way","osmId":688547767,"sourceRegion":"guangdong","featureType":"infrastructure","railClass":"highspeed","mode":"rail","name":"京广高速线","nameEn":"Beijing-Guangzhou High-speed Line","ref":"3001","usage":"main","highspeed":"yes","status":"operational","color":"#E54848","dataOrigin":"datum-2026-08-01","sourceKey":"way:688547767"}},{"type":"Feature","geometry":{"type":"LineString","coordinates":[[113.2169954,23.8736679],[113.216568,23.8724085]]},"properties":{"key":"way:688547768@detail:452_95","osmType":"way","osmId":688547768,"sourceRegion":"guangdong","featureType":"infrastructure","railClass":"highspeed","mode":"rail","name":"京广高速线","nameEn":"Beijing-Guangzhou High-speed Line","ref":"3001","usage":"main","highspeed":"yes","status":"operational","color":"#E54848","dataOrigin":"datum-2026-08-01","sourceKey":"way:688547768"}},{"type":"Feature","geometry":{"type":"LineString","coordinates":[[113.2004404,23.8386955],[113.198382,23.8358087],[113.1969243,23.8336725]]},"properties":{"key":"way:688547769@detail:452_95","osmType":"way","osmId":688547769,"sourceRegion":"guangdong","featureType":"infrastructure","railClass":"highspeed","mode":"rail","name":"京广高速线","nameEn":"Beijing-Guangzhou High-speed Line","ref":"3001","usage":"main","highspeed":"yes","bridge":"yes","status":"operational","color":"#E54848","dataOrigin":"datum-2026-08-01","sourceKey":"way:688547769"}},{"type":"Feature","geometry":{"type":"LineString","coordinates":[[113.1969243,23.8336725],[113.1959542,23.8322499]]},"properties":{"key":"way:688547770@detail:452_95","osmType":"way","osmId":688547770,"sourceRegion":"guangdong","featureType":"infrastructure","railClass":"highspeed","mode":"rail","name":"京广高速线","nameEn":"Beijing-Guangzhou High-speed Line","ref":"3001","usage":"main","highspeed":"yes","status":"operational","color":"#E54848","dataOrigin":"datum-2026-08-01","sourceKey":"way:688547770"}},{"type":"Feature","geometry":{"type":"LineString","coordinates":[[113.2025953,23.8418621],[113.2022594,23.8413315]]},"properties":{"key":"way:688547771@detail:452_95","osmType":"way","osmId":688547771,"sourceRegion":"guangdong","featureType":"infrastructure","railClass":"highspeed","mode":"rail","name":"京广高速线","nameEn":"Beijing-Guangzhou High-speed Line","ref":"3001","usage":"main","highspeed":"yes","status":"operational","color":"#E54848","dataOrigin":"datum-2026-08-01","sourceKey":"way:688547771"}},{"type":"Feature","geometry":{"type":"LineString","coordinates":[[113.1950869,23.8310128],[113.1939531,23.8293931]]},"properties":{"key":"way:688547772@detail:452_95","osmType":"way","osmId":688547772,"sourceRegion":"guangdong","featureType":"infrastructure","railClass":"highspeed","mode":"rail","name":"京广高速线","nameEn":"Beijing-Guangzhou High-speed Line","ref":"3001","usage":"main","highspeed":"yes","status":"operational","color":"#E54848","dataOrigin":"datum-2026-08-01","sourceKey":"way:688547772"}},{"type":"Feature","geometry":{"type":"LineString","coordinates":[[113.2397812,23.9383893],[113.2392124,23.9363819],[113.2385325,23.9339648],[113.2381165,23.9322341]]},"properties":{"key":"way:688547773@detail:452_95","osmType":"way","osmId":688547773,"sourceRegion":"guangdong","featureType":"infrastructure","railClass":"highspeed","mode":"rail","name":"京广高速线","nameEn":"Beijing-Guangzhou High-speed Line","ref":"3001","usage":"main","highspeed":"yes","bridge":"yes","status":"operational","color":"#E54848","dataOrigin":"datum-2026-08-01","sourceKey":"way:688547773"}},{"type":"Feature","geometry":{"type":"LineString","coordinates":[[113.25,23.97135398273923],[113.2477312,23.963991]]},"properties":{"key":"way:902944604@detail:452_95","osmType":"way","osmId":902944604,"sourceRegion":"guangdong","featureType":"infrastructure","railClass":"highspeed","mode":"rail","name":"京广高速线","nameEn":"Beijing-Guangzhou High-speed Line","ref":"3001","usage":"main","highspeed":"yes","tunnel":"yes","status":"operational","color":"#E54848","dataOrigin":"datum-2026-08-01","sourceKey":"way:902944604"}},{"type":"Feature","geometry":{"type":"LineString","coordinates":[[113.2477312,23.963991],[113.2470262,23.9616384]]},"properties":{"key":"way:902944605@detail:452_95","osmType":"way","osmId":902944605,"sourceRegion":"guangdong","featureType":"infrastructure","railClass":"highspeed","mode":"rail","name":"京广高速线","nameEn":"Beijing-Guangzhou High-speed Line","ref":"3001","usage":"main","highspeed":"yes","status":"operational","color":"#E54848","dataOrigin":"datum-2026-08-01","sourceKey":"way:902944605"}},{"type":"Feature","geometry":{"type":"LineString","coordinates":[[113.2470262,23.9616384],[113.2460397,23.9584864],[113.2447596,23.9543959]]},"properties":{"key":"way:902944606@detail:452_95","osmType":"way","osmId":902944606,"sourceRegion":"guangdong","featureType":"infrastructure","railClass":"highspeed","mode":"rail","name":"京广高速线","nameEn":"Beijing-Guangzhou High-speed Line","ref":"3001","usage":"main","highspeed":"yes","bridge":"yes","status":"operational","color":"#E54848","dataOrigin":"datum-2026-08-01","sourceKey":"way:902944606"}},{"type":"Feature","geometry":{"type":"LineString","coordinates":[[113.2447596,23.9543959],[113.2445628,23.953726]]},"properties":{"key":"way:902944607@detail:452_95","osmType":"way","osmId":902944607,"sourceRegion":"guangdong","featureType":"infrastructure","railClass":"highspeed","mode":"rail","name":"京广高速线","nameEn":"Beijing-Guangzhou High-speed Line","ref":"3001","usage":"main","highspeed":"yes","status":"operational","color":"#E54848","dataOrigin":"datum-2026-08-01","sourceKey":"way:902944607"}},{"type":"Feature","geometry":{"type":"LineString","coordinates":[[113.2445628,23.953726],[113.244144,23.9522832]]},"properties":{"key":"way:902944608@detail:452_95","osmType":"way","osmId":902944608,"sourceRegion":"guangdong","featureType":"infrastructure","railClass":"highspeed","mode":"rail","name":"京广高速线","nameEn":"Beijing-Guangzhou High-speed Line","ref":"3001","usage":"main","highspeed":"yes","bridge":"yes","status":"operational","color":"#E54848","dataOrigin":"datum-2026-08-01","sourceKey":"way:902944608"}},{"type":"Feature","geometry":{"type":"LineString","coordinates":[[113.244144,23.9522832],[113.2439569,23.9516465]]},"properties":{"key":"way:902944609@detail:452_95","osmType":"way","osmId":902944609,"sourceRegion":"guangdong","featureType":"infrastructure","railClass":"highspeed","mode":"rail","name":"京广高速线","nameEn":"Beijing-Guangzhou High-speed Line","ref":"3001","usage":"main","highspeed":"yes","status":"operational","color":"#E54848","dataOrigin":"datum-2026-08-01","sourceKey":"way:902944609"}},{"type":"Feature","geometry":{"type":"LineString","coordinates":[[113.2439569,23.9516465],[113.2422299,23.9464518]]},"properties":{"key":"way:902944610@detail:452_95","osmType":"way","osmId":902944610,"sourceRegion":"guangdong","featureType":"infrastructure","railClass":"highspeed","mode":"rail","name":"京广高速线","nameEn":"Beijing-Guangzhou High-speed Line","ref":"3001","usage":"main","highspeed":"yes","bridge":"yes","status":"operational","color":"#E54848","dataOrigin":"datum-2026-08-01","sourceKey":"way:902944610"}},{"type":"Feature","geometry":{"type":"LineString","coordinates":[[113.2422299,23.9464518],[113.2416902,23.9446738]]},"properties":{"key":"way:902944611@detail:452_95","osmType":"way","osmId":902944611,"sourceRegion":"guangdong","featureType":"infrastructure","railClass":"highspeed","mode":"rail","name":"京广高速线","nameEn":"Beijing-Guangzhou High-speed Line","ref":"3001","usage":"main","highspeed":"yes","tunnel":"yes","status":"operational","color":"#E54848","dataOrigin":"datum-2026-08-01","sourceKey":"way:902944611"}},{"type":"Feature","geometry":{"type":"LineString","coordinates":[[113.2416902,23.9446738],[113.2414722,23.9439291]]},"properties":{"key":"way:902944612@detail:452_95","osmType":"way","osmId":902944612,"sourceRegion":"guangdong","featureType":"infrastructure","railClass":"highspeed","mode":"rail","name":"京广高速线","nameEn":"Beijing-Guangzhou High-speed Line","ref":"3001","usage":"main","highspeed":"yes","status":"operational","color":"#E54848","dataOrigin":"datum-2026-08-01","sourceKey":"way:902944612"}},{"type":"Feature","geometry":{"type":"LineString","coordinates":[[113.2413097,23.943374],[113.2398979,23.938845]]},"properties":{"key":"way:902944613@detail:452_95","osmType":"way","osmId":902944613,"sourceRegion":"guangdong","featureType":"infrastructure","railClass":"highspeed","mode":"rail","name":"京广高速线","nameEn":"Beijing-Guangzhou High-speed Line","ref":"3001","usage":"main","highspeed":"yes","tunnel":"yes","status":"operational","color":"#E54848","dataOrigin":"datum-2026-08-01","sourceKey":"way:902944613"}},{"type":"Feature","geometry":{"type":"LineString","coordinates":[[113.2398979,23.938845],[113.2397812,23.9383893]]},"properties":{"key":"way:902944614@detail:452_95","osmType":"way","osmId":902944614,"sourceRegion":"guangdong","featureType":"infrastructure","railClass":"highspeed","mode":"rail","name":"京广高速线","nameEn":"Beijing-Guangzhou High-speed Line","ref":"3001","usage":"main","highspeed":"yes","status":"operational","color":"#E54848","dataOrigin":"datum-2026-08-01","sourceKey":"way:902944614"}},{"type":"Feature","geometry":{"type":"LineString","coordinates":[[113.1801036,23.8049269],[113.1795842,23.8036373]]},"properties":{"key":"way:1321556823@detail:452_95","osmType":"way","osmId":1321556823,"sourceRegion":"guangdong","featureType":"infrastructure","railClass":"highspeed","mode":"rail","name":"京广高速线","nameEn":"Beijing-Guangzhou High-speed Line","ref":"3001","usage":"main","highspeed":"yes","bridge":"yes","status":"operational","color":"#E54848","dataOrigin":"datum-2026-08-01","sourceKey":"way:1321556823"}},{"type":"Feature","geometry":{"type":"LineString","coordinates":[[113.1801519,23.8049048],[113.1796354,23.8036203]]},"properties":{"key":"way:1321556824@detail:452_95","osmType":"way","osmId":1321556824,"sourceRegion":"guangdong","featureType":"infrastructure","railClass":"highspeed","mode":"rail","name":"京广高速线","nameEn":"Beijing-Guangzhou High-speed Line","ref":"3001","usage":"main","highspeed":"yes","bridge":"yes","status":"operational","color":"#E54848","dataOrigin":"datum-2026-08-01","sourceKey":"way:1321556824"}},{"type":"Feature","geometry":{"type":"LineString","coordinates":[[113.1795842,23.8036373],[113.178861,23.8018889]]},"properties":{"key":"way:1321556825@detail:452_95","osmType":"way","osmId":1321556825,"sourceRegion":"guangdong","featureType":"infrastructure","railClass":"highspeed","mode":"rail","name":"京广高速线","nameEn":"Beijing-Guangzhou High-speed Line","ref":"3001","usage":"main","highspeed":"yes","status":"operational","color":"#E54848","dataOrigin":"datum-2026-08-01","sourceKey":"way:1321556825"}},{"type":"Feature","geometry":{"type":"LineString","coordinates":[[113.1796354,23.8036203],[113.1789124,23.801872]]},"properties":{"key":"way:1321556826@detail:452_95","osmType":"way","osmId":1321556826,"sourceRegion":"guangdong","featureType":"infrastructure","railClass":"highspeed","mode":"rail","name":"京广高速线","nameEn":"Beijing-Guangzhou High-speed Line","ref":"3001","usage":"main","highspeed":"yes","status":"operational","color":"#E54848","dataOrigin":"datum-2026-08-01","sourceKey":"way:1321556826"}},{"type":"Feature","geometry":{"type":"LineString","coordinates":[[113.1759156,23.7942623],[113.1754778,23.7931742]]},"properties":{"key":"way:1321556827@detail:452_95","osmType":"way","osmId":1321556827,"sourceRegion":"guangdong","featureType":"infrastructure","railClass":"highspeed","mode":"rail","name":"京广高速线","nameEn":"Beijing-Guangzhou High-speed Line","ref":"3001","usage":"main","highspeed":"yes","bridge":"yes","status":"operational","color":"#E54848","dataOrigin":"datum-2026-08-01","sourceKey":"way:1321556827"}},{"type":"Feature","geometry":{"type":"LineString","coordinates":[[113.1758651,23.7942835],[113.1754269,23.7931946]]},"properties":{"key":"way:1321556828@detail:452_95","osmType":"way","osmId":1321556828,"sourceRegion":"guangdong","featureType":"infrastructure","railClass":"highspeed","mode":"rail","name":"京广高速线","nameEn":"Beijing-Guangzhou High-speed Line","ref":"3001","usage":"main","highspeed":"yes","bridge":"yes","status":"operational","color":"#E54848","dataOrigin":"datum-2026-08-01","sourceKey":"way:1321556828"}},{"type":"Feature","geometry":{"type":"LineString","coordinates":[[113.1754778,23.7931742],[113.1752921,23.7927123]]},"properties":{"key":"way:1321556829@detail:452_95","osmType":"way","osmId":1321556829,"sourceRegion":"guangdong","featureType":"infrastructure","railClass":"highspeed","mode":"rail","name":"京广高速线","nameEn":"Beijing-Guangzhou High-speed Line","ref":"3001","usage":"main","highspeed":"yes","status":"operational","color":"#E54848","dataOrigin":"datum-2026-08-01","sourceKey":"way:1321556829"}},{"type":"Feature","geometry":{"type":"LineString","coordinates":[[113.1754269,23.7931946],[113.1752401,23.7927304]]},"properties":{"key":"way:1321556830@detail:452_95","osmType":"way","osmId":1321556830,"sourceRegion":"guangdong","featureType":"infrastructure","railClass":"highspeed","mode":"rail","name":"京广高速线","nameEn":"Beijing-Guangzhou High-speed Line","ref":"3001","usage":"main","highspeed":"yes","status":"operational","color":"#E54848","dataOrigin":"datum-2026-08-01","sourceKey":"way:1321556830"}},{"type":"Feature","geometry":{"type":"LineString","coordinates":[[113.2415352,23.9439184],[113.2414013,23.9434609]]},"properties":{"key":"way:1321556918@detail:452_95","osmType":"way","osmId":1321556918,"sourceRegion":"guangdong","featureType":"infrastructure","railClass":"highspeed","mode":"rail","name":"京广高速线","nameEn":"Beijing-Guangzhou High-speed Line","ref":"3001","usage":"main","highspeed":"yes","bridge":"yes","status":"operational","color":"#E54848","dataOrigin":"datum-2026-08-01","sourceKey":"way:1321556918"}},{"type":"Feature","geometry":{"type":"LineString","coordinates":[[113.2414722,23.9439291],[113.2413415,23.9434825]]},"properties":{"key":"way:1321556919@detail:452_95","osmType":"way","osmId":1321556919,"sourceRegion":"guangdong","featureType":"infrastructure","railClass":"highspeed","mode":"rail","name":"京广高速线","nameEn":"Beijing-Guangzhou High-speed Line","ref":"3001","usage":"main","highspeed":"yes","bridge":"yes","status":"operational","color":"#E54848","dataOrigin":"datum-2026-08-01","sourceKey":"way:1321556919"}},{"type":"Feature","geometry":{"type":"LineString","coordinates":[[113.2413415,23.9434825],[113.2413097,23.943374]]},"properties":{"key":"way:1321556920@detail:452_95","osmType":"way","osmId":1321556920,"sourceRegion":"guangdong","featureType":"infrastructure","railClass":"highspeed","mode":"rail","name":"京广高速线","nameEn":"Beijing-Guangzhou High-speed Line","ref":"3001","usage":"main","highspeed":"yes","status":"operational","color":"#E54848","dataOrigin":"datum-2026-08-01","sourceKey":"way:1321556920"}},{"type":"Feature","geometry":{"type":"LineString","coordinates":[[113.2414013,23.9434609],[113.2413711,23.9433578]]},"properties":{"key":"way:1321556921@detail:452_95","osmType":"way","osmId":1321556921,"sourceRegion":"guangdong","featureType":"infrastructure","railClass":"highspeed","mode":"rail","name":"京广高速线","nameEn":"Beijing-Guangzhou High-speed Line","ref":"3001","usage":"main","highspeed":"yes","status":"operational","color":"#E54848","dataOrigin":"datum-2026-08-01","sourceKey":"way:1321556921"}}]}