{"type":"FeatureCollection","features":[{"type":"Feature","geometry":{"type":"LineString","coordinates":[[113.4845309,24.7112811],[113.4834977,24.7075107],[113.4832163,24.7062213],[113.4828864,24.704778],[113.4826564,24.7036013],[113.4821753,24.7008877],[113.481912,24.6990347],[113.4816759,24.6972118],[113.481507,24.6956644],[113.4814912,24.6954333],[113.4814262,24.6944817]]},"properties":{"key":"way:324613525@detail:453_98","osmType":"way","osmId":324613525,"sourceRegion":"guangdong","featureType":"infrastructure","railClass":"highspeed","mode":"rail","name":"京广高速线","nameEn":"Beijing-Guangzhou High-speed Line","ref":"3001","usage":"main","highspeed":"yes","bridge":"yes","status":"operational","color":"#E54848","dataOrigin":"datum-2026-08-01","sourceKey":"way:324613525"}},{"type":"Feature","geometry":{"type":"LineString","coordinates":[[113.4819021,24.6641501],[113.4821281,24.6591979]]},"properties":{"key":"way:324613530@detail:453_98","osmType":"way","osmId":324613530,"sourceRegion":"guangdong","featureType":"infrastructure","railClass":"highspeed","mode":"rail","name":"京广高速线","nameEn":"Beijing-Guangzhou High-speed Line","ref":"3001","usage":"main","highspeed":"yes","tunnel":"yes","status":"operational","color":"#E54848","dataOrigin":"datum-2026-08-01","sourceKey":"way:324613530"}},{"type":"Feature","geometry":{"type":"LineString","coordinates":[[113.4813056,24.6922106],[113.4812885,24.6916736]]},"properties":{"key":"way:324613531@detail:453_98","osmType":"way","osmId":324613531,"sourceRegion":"guangdong","featureType":"infrastructure","railClass":"highspeed","mode":"rail","name":"京广高速线","nameEn":"Beijing-Guangzhou High-speed Line","ref":"3001","usage":"main","highspeed":"yes","status":"operational","color":"#E54848","dataOrigin":"datum-2026-08-01","sourceKey":"way:324613531"}},{"type":"Feature","geometry":{"type":"LineString","coordinates":[[113.4974759,24.6121978],[113.497977,24.6110098]]},"properties":{"key":"way:324613538@detail:453_98","osmType":"way","osmId":324613538,"sourceRegion":"guangdong","featureType":"infrastructure","railClass":"highspeed","mode":"rail","name":"京广高速线","nameEn":"Beijing-Guangzhou High-speed Line","ref":"3001","usage":"main","highspeed":"yes","bridge":"yes","status":"operational","color":"#E54848","dataOrigin":"datum-2026-08-01","sourceKey":"way:324613538"}},{"type":"Feature","geometry":{"type":"LineString","coordinates":[[113.4875619,24.7198654],[113.4867503,24.7177734]]},"properties":{"key":"way:324613539@detail:453_98","osmType":"way","osmId":324613539,"sourceRegion":"guangdong","featureType":"infrastructure","railClass":"highspeed","mode":"rail","name":"京广高速线","nameEn":"Beijing-Guangzhou High-speed Line","ref":"3001","usage":"main","highspeed":"yes","tunnel":"yes","status":"operational","color":"#E54848","dataOrigin":"datum-2026-08-01","sourceKey":"way:324613539"}},{"type":"Feature","geometry":{"type":"LineString","coordinates":[[113.4812885,24.6916736],[113.4812164,24.6905592],[113.4812168,24.6894217]]},"properties":{"key":"way:324613540@detail:453_98","osmType":"way","osmId":324613540,"sourceRegion":"guangdong","featureType":"infrastructure","railClass":"highspeed","mode":"rail","name":"京广高速线","nameEn":"Beijing-Guangzhou High-speed Line","ref":"3001","usage":"main","highspeed":"yes","bridge":"yes","status":"operational","color":"#E54848","dataOrigin":"datum-2026-08-01","sourceKey":"way:324613540"}},{"type":"Feature","geometry":{"type":"LineString","coordinates":[[113.4934251,24.7314675],[113.4907478,24.7266909]]},"properties":{"key":"way:324613548@detail:453_98","osmType":"way","osmId":324613548,"sourceRegion":"guangdong","featureType":"infrastructure","railClass":"highspeed","mode":"rail","name":"京广高速线","nameEn":"Beijing-Guangzhou High-speed Line","ref":"3001","usage":"main","highspeed":"yes","tunnel":"yes","status":"operational","color":"#E54848","dataOrigin":"datum-2026-08-01","sourceKey":"way:324613548"}},{"type":"Feature","geometry":{"type":"LineString","coordinates":[[113.4874409,24.5047623],[113.4872698,24.5040128]]},"properties":{"key":"way:324613549@detail:453_98","osmType":"way","osmId":324613549,"sourceRegion":"guangdong","featureType":"infrastructure","railClass":"highspeed","mode":"rail","name":"京广高速线","nameEn":"Beijing-Guangzhou High-speed Line","ref":"3001","usage":"main","highspeed":"yes","status":"operational","color":"#E54848","dataOrigin":"datum-2026-08-01","sourceKey":"way:324613549"}},{"type":"Feature","geometry":{"type":"LineString","coordinates":[[113.4900829,24.7253768],[113.4897361,24.7246916]]},"properties":{"key":"way:324613551@detail:453_98","osmType":"way","osmId":324613551,"sourceRegion":"guangdong","featureType":"infrastructure","railClass":"highspeed","mode":"rail","name":"京广高速线","nameEn":"Beijing-Guangzhou High-speed Line","ref":"3001","usage":"main","highspeed":"yes","status":"operational","color":"#E54848","dataOrigin":"datum-2026-08-01","sourceKey":"way:324613551"}},{"type":"Feature","geometry":{"type":"LineString","coordinates":[[113.4814262,24.6944817],[113.4813056,24.6922106]]},"properties":{"key":"way:324613552@detail:453_98","osmType":"way","osmId":324613552,"sourceRegion":"guangdong","featureType":"infrastructure","railClass":"highspeed","mode":"rail","name":"京广高速线","nameEn":"Beijing-Guangzhou High-speed Line","ref":"3001","usage":"main","highspeed":"yes","tunnel":"yes","status":"operational","color":"#E54848","dataOrigin":"datum-2026-08-01","sourceKey":"way:324613552"}},{"type":"Feature","geometry":{"type":"LineString","coordinates":[[113.4907478,24.7266909],[113.4904097,24.7260227]]},"properties":{"key":"way:324613564@detail:453_98","osmType":"way","osmId":324613564,"sourceRegion":"guangdong","featureType":"infrastructure","railClass":"highspeed","mode":"rail","name":"京广高速线","nameEn":"Beijing-Guangzhou High-speed Line","ref":"3001","usage":"main","highspeed":"yes","status":"operational","color":"#E54848","dataOrigin":"datum-2026-08-01","sourceKey":"way:324613564"}},{"type":"Feature","geometry":{"type":"LineString","coordinates":[[113.4850291,24.7128949],[113.4845309,24.7112811]]},"properties":{"key":"way:324613565@detail:453_98","osmType":"way","osmId":324613565,"sourceRegion":"guangdong","featureType":"infrastructure","railClass":"highspeed","mode":"rail","name":"京广高速线","nameEn":"Beijing-Guangzhou High-speed Line","ref":"3001","usage":"main","highspeed":"yes","status":"operational","color":"#E54848","dataOrigin":"datum-2026-08-01","sourceKey":"way:324613565"}},{"type":"Feature","geometry":{"type":"LineString","coordinates":[[113.4812039,24.6890147],[113.4811945,24.6869947]]},"properties":{"key":"way:324613567@detail:453_98","osmType":"way","osmId":324613567,"sourceRegion":"guangdong","featureType":"infrastructure","railClass":"highspeed","mode":"rail","name":"京广高速线","nameEn":"Beijing-Guangzhou High-speed Line","ref":"3001","usage":"main","highspeed":"yes","tunnel":"yes","status":"operational","color":"#E54848","dataOrigin":"datum-2026-08-01","sourceKey":"way:324613567"}},{"type":"Feature","geometry":{"type":"LineString","coordinates":[[113.4867503,24.7177734],[113.4855017,24.714414]]},"properties":{"key":"way:324613570@detail:453_98","osmType":"way","osmId":324613570,"sourceRegion":"guangdong","featureType":"infrastructure","railClass":"highspeed","mode":"rail","name":"京广高速线","nameEn":"Beijing-Guangzhou High-speed Line","ref":"3001","usage":"main","highspeed":"yes","status":"operational","color":"#E54848","dataOrigin":"datum-2026-08-01","sourceKey":"way:324613570"}},{"type":"Feature","geometry":{"type":"LineString","coordinates":[[113.4812168,24.6894217],[113.4812039,24.6890147]]},"properties":{"key":"way:324613571@detail:453_98","osmType":"way","osmId":324613571,"sourceRegion":"guangdong","featureType":"infrastructure","railClass":"highspeed","mode":"rail","name":"京广高速线","nameEn":"Beijing-Guangzhou High-speed Line","ref":"3001","usage":"main","highspeed":"yes","status":"operational","color":"#E54848","dataOrigin":"datum-2026-08-01","sourceKey":"way:324613571"}},{"type":"Feature","geometry":{"type":"LineString","coordinates":[[113.4904097,24.7260227],[113.4900829,24.7253768]]},"properties":{"key":"way:324613578@detail:453_98","osmType":"way","osmId":324613578,"sourceRegion":"guangdong","featureType":"infrastructure","railClass":"highspeed","mode":"rail","name":"京广高速线","nameEn":"Beijing-Guangzhou High-speed Line","ref":"3001","usage":"main","highspeed":"yes","bridge":"yes","status":"operational","color":"#E54848","dataOrigin":"datum-2026-08-01","sourceKey":"way:324613578"}},{"type":"Feature","geometry":{"type":"LineString","coordinates":[[113.4854053,24.6410565],[113.4867272,24.6371416]]},"properties":{"key":"way:324613581@detail:453_98","osmType":"way","osmId":324613581,"sourceRegion":"guangdong","featureType":"infrastructure","railClass":"highspeed","mode":"rail","name":"京广高速线","nameEn":"Beijing-Guangzhou High-speed Line","ref":"3001","usage":"main","highspeed":"yes","tunnel":"yes","status":"operational","color":"#E54848","dataOrigin":"datum-2026-08-01","sourceKey":"way:324613581"}},{"type":"Feature","geometry":{"type":"LineString","coordinates":[[113.4944113,24.6190938],[113.4959482,24.6155435]]},"properties":{"key":"way:324613585@detail:453_98","osmType":"way","osmId":324613585,"sourceRegion":"guangdong","featureType":"infrastructure","railClass":"highspeed","mode":"rail","name":"京广高速线","nameEn":"Beijing-Guangzhou High-speed Line","ref":"3001","usage":"main","highspeed":"yes","tunnel":"yes","status":"operational","color":"#E54848","dataOrigin":"datum-2026-08-01","sourceKey":"way:324613585"}},{"type":"Feature","geometry":{"type":"LineString","coordinates":[[113.4855017,24.714414],[113.4850291,24.7128949]]},"properties":{"key":"way:324613588@detail:453_98","osmType":"way","osmId":324613588,"sourceRegion":"guangdong","featureType":"infrastructure","railClass":"highspeed","mode":"rail","name":"京广高速线","nameEn":"Beijing-Guangzhou High-speed Line","ref":"3001","usage":"main","highspeed":"yes","tunnel":"yes","status":"operational","color":"#E54848","dataOrigin":"datum-2026-08-01","sourceKey":"way:324613588"}},{"type":"Feature","geometry":{"type":"LineString","coordinates":[[113.4891288,24.5114101],[113.488158,24.5079048],[113.4874409,24.5047623]]},"properties":{"key":"way:324613592@detail:453_98","osmType":"way","osmId":324613592,"sourceRegion":"guangdong","featureType":"infrastructure","railClass":"highspeed","mode":"rail","name":"京广高速线","nameEn":"Beijing-Guangzhou High-speed Line","ref":"3001","usage":"main","highspeed":"yes","bridge":"yes","status":"operational","color":"#E54848","dataOrigin":"datum-2026-08-01","sourceKey":"way:324613592"}},{"type":"Feature","geometry":{"type":"LineString","coordinates":[[113.4889228,24.7230143],[113.4881443,24.7212413],[113.4875619,24.7198654]]},"properties":{"key":"way:324613600@detail:453_98","osmType":"way","osmId":324613600,"sourceRegion":"guangdong","featureType":"infrastructure","railClass":"highspeed","mode":"rail","name":"京广高速线","nameEn":"Beijing-Guangzhou High-speed Line","ref":"3001","usage":"main","highspeed":"yes","status":"operational","color":"#E54848","dataOrigin":"datum-2026-08-01","sourceKey":"way:324613600"}},{"type":"Feature","geometry":{"type":"LineString","coordinates":[[113.4897361,24.7246916],[113.4894407,24.7241417],[113.4889228,24.7230143]]},"properties":{"key":"way:324613601@detail:453_98","osmType":"way","osmId":324613601,"sourceRegion":"guangdong","featureType":"infrastructure","railClass":"highspeed","mode":"rail","name":"京广高速线","nameEn":"Beijing-Guangzhou High-speed Line","ref":"3001","usage":"main","highspeed":"yes","bridge":"yes","status":"operational","color":"#E54848","dataOrigin":"datum-2026-08-01","sourceKey":"way:324613601"}},{"type":"Feature","geometry":{"type":"LineString","coordinates":[[113.4959482,24.6155435],[113.4968633,24.6136648],[113.4974759,24.6121978]]},"properties":{"key":"way:324613603@detail:453_98","osmType":"way","osmId":324613603,"sourceRegion":"guangdong","featureType":"infrastructure","railClass":"highspeed","mode":"rail","name":"京广高速线","nameEn":"Beijing-Guangzhou High-speed Line","ref":"3001","usage":"main","highspeed":"yes","status":"operational","color":"#E54848","dataOrigin":"datum-2026-08-01","sourceKey":"way:324613603"}},{"type":"Feature","geometry":{"type":"LineString","coordinates":[[113.4868035,24.6369192],[113.4880321,24.6336245],[113.4882201,24.6331973]]},"properties":{"key":"way:324613608@detail:453_98","osmType":"way","osmId":324613608,"sourceRegion":"guangdong","featureType":"infrastructure","railClass":"highspeed","mode":"rail","name":"京广高速线","nameEn":"Beijing-Guangzhou High-speed Line","ref":"3001","usage":"main","highspeed":"yes","bridge":"yes","status":"operational","color":"#E54848","dataOrigin":"datum-2026-08-01","sourceKey":"way:324613608"}},{"type":"Feature","geometry":{"type":"LineString","coordinates":[[113.497977,24.6110098],[113.4987893,24.6091122],[113.4999144,24.6061898]]},"properties":{"key":"way:324613614@detail:453_98","osmType":"way","osmId":324613614,"sourceRegion":"guangdong","featureType":"infrastructure","railClass":"highspeed","mode":"rail","name":"京广高速线","nameEn":"Beijing-Guangzhou High-speed Line","ref":"3001","usage":"main","highspeed":"yes","status":"operational","color":"#E54848","dataOrigin":"datum-2026-08-01","sourceKey":"way:324613614"}},{"type":"Feature","geometry":{"type":"LineString","coordinates":[[113.4872698,24.5040128],[113.48630958941332,24.5]]},"properties":{"key":"way:324613619@detail:453_98","osmType":"way","osmId":324613619,"sourceRegion":"guangdong","featureType":"infrastructure","railClass":"highspeed","mode":"rail","name":"京广高速线","nameEn":"Beijing-Guangzhou High-speed Line","ref":"3001","usage":"main","highspeed":"yes","tunnel":"yes","status":"operational","color":"#E54848","dataOrigin":"datum-2026-08-01","sourceKey":"way:324613619"}},{"type":"Feature","geometry":{"type":"LineString","coordinates":[[113.4813184,24.6818491],[113.4814529,24.6775724],[113.4816258,24.6721855],[113.4817673,24.6677763]]},"properties":{"key":"way:324613620@detail:453_98","osmType":"way","osmId":324613620,"sourceRegion":"guangdong","featureType":"infrastructure","railClass":"highspeed","mode":"rail","name":"京广高速线","nameEn":"Beijing-Guangzhou High-speed Line","ref":"3001","usage":"main","highspeed":"yes","bridge":"yes","status":"operational","color":"#E54848","dataOrigin":"datum-2026-08-01","sourceKey":"way:324613620"}},{"type":"Feature","geometry":{"type":"LineString","coordinates":[[113.4821281,24.6591979],[113.4822426,24.6575789],[113.4825597,24.6547323],[113.48277,24.6529781],[113.4833235,24.6496676],[113.4838423,24.647101],[113.4844495,24.6445736],[113.4849767,24.6425097],[113.4854053,24.6410565]]},"properties":{"key":"way:324613622@detail:453_98","osmType":"way","osmId":324613622,"sourceRegion":"guangdong","featureType":"infrastructure","railClass":"highspeed","mode":"rail","name":"京广高速线","nameEn":"Beijing-Guangzhou High-speed Line","ref":"3001","usage":"main","highspeed":"yes","status":"operational","color":"#E54848","dataOrigin":"datum-2026-08-01","sourceKey":"way:324613622"}},{"type":"Feature","geometry":{"type":"LineString","coordinates":[[113.4999144,24.6061898],[113.5,24.605940931058512]]},"properties":{"key":"way:377637958@detail:453_98","osmType":"way","osmId":377637958,"sourceRegion":"guangdong","featureType":"infrastructure","railClass":"highspeed","mode":"rail","name":"京广高速线","nameEn":"Beijing-Guangzhou High-speed Line","ref":"3001","usage":"main","highspeed":"yes","tunnel":"yes","status":"operational","color":"#E54848","dataOrigin":"datum-2026-08-01","sourceKey":"way:377637958"}},{"type":"Feature","geometry":{"type":"LineString","coordinates":[[113.4934912,24.7314369],[113.4908152,24.7266628]]},"properties":{"key":"way:903373474@detail:453_98","osmType":"way","osmId":903373474,"sourceRegion":"guangdong","featureType":"infrastructure","railClass":"highspeed","mode":"rail","name":"京广高速线","nameEn":"Beijing-Guangzhou High-speed Line","ref":"3001","usage":"main","highspeed":"yes","tunnel":"yes","status":"operational","color":"#E54848","dataOrigin":"datum-2026-08-01","sourceKey":"way:903373474"}},{"type":"Feature","geometry":{"type":"LineString","coordinates":[[113.4908152,24.7266628],[113.4904771,24.7259946]]},"properties":{"key":"way:903373475@detail:453_98","osmType":"way","osmId":903373475,"sourceRegion":"guangdong","featureType":"infrastructure","railClass":"highspeed","mode":"rail","name":"京广高速线","nameEn":"Beijing-Guangzhou High-speed Line","ref":"3001","usage":"main","highspeed":"yes","status":"operational","color":"#E54848","dataOrigin":"datum-2026-08-01","sourceKey":"way:903373475"}},{"type":"Feature","geometry":{"type":"LineString","coordinates":[[113.4904771,24.7259946],[113.4901503,24.7253487]]},"properties":{"key":"way:903373476@detail:453_98","osmType":"way","osmId":903373476,"sourceRegion":"guangdong","featureType":"infrastructure","railClass":"highspeed","mode":"rail","name":"京广高速线","nameEn":"Beijing-Guangzhou High-speed Line","ref":"3001","usage":"main","highspeed":"yes","bridge":"yes","status":"operational","color":"#E54848","dataOrigin":"datum-2026-08-01","sourceKey":"way:903373476"}},{"type":"Feature","geometry":{"type":"LineString","coordinates":[[113.4901503,24.7253487],[113.4898072,24.7246601]]},"properties":{"key":"way:903373477@detail:453_98","osmType":"way","osmId":903373477,"sourceRegion":"guangdong","featureType":"infrastructure","railClass":"highspeed","mode":"rail","name":"京广高速线","nameEn":"Beijing-Guangzhou High-speed Line","ref":"3001","usage":"main","highspeed":"yes","status":"operational","color":"#E54848","dataOrigin":"datum-2026-08-01","sourceKey":"way:903373477"}},{"type":"Feature","geometry":{"type":"LineString","coordinates":[[113.4898072,24.7246601],[113.4895128,24.7241121],[113.4889958,24.7229866]]},"properties":{"key":"way:903373478@detail:453_98","osmType":"way","osmId":903373478,"sourceRegion":"guangdong","featureType":"infrastructure","railClass":"highspeed","mode":"rail","name":"京广高速线","nameEn":"Beijing-Guangzhou High-speed Line","ref":"3001","usage":"main","highspeed":"yes","bridge":"yes","status":"operational","color":"#E54848","dataOrigin":"datum-2026-08-01","sourceKey":"way:903373478"}},{"type":"Feature","geometry":{"type":"LineString","coordinates":[[113.4889958,24.7229866],[113.4882088,24.7212184],[113.4876265,24.7198428]]},"properties":{"key":"way:903373479@detail:453_98","osmType":"way","osmId":903373479,"sourceRegion":"guangdong","featureType":"infrastructure","railClass":"highspeed","mode":"rail","name":"京广高速线","nameEn":"Beijing-Guangzhou High-speed Line","ref":"3001","usage":"main","highspeed":"yes","status":"operational","color":"#E54848","dataOrigin":"datum-2026-08-01","sourceKey":"way:903373479"}},{"type":"Feature","geometry":{"type":"LineString","coordinates":[[113.4876265,24.7198428],[113.4868112,24.7177547]]},"properties":{"key":"way:903373480@detail:453_98","osmType":"way","osmId":903373480,"sourceRegion":"guangdong","featureType":"infrastructure","railClass":"highspeed","mode":"rail","name":"京广高速线","nameEn":"Beijing-Guangzhou High-speed Line","ref":"3001","usage":"main","highspeed":"yes","tunnel":"yes","status":"operational","color":"#E54848","dataOrigin":"datum-2026-08-01","sourceKey":"way:903373480"}},{"type":"Feature","geometry":{"type":"LineString","coordinates":[[113.4868112,24.7177547],[113.4855676,24.714414]]},"properties":{"key":"way:903373481@detail:453_98","osmType":"way","osmId":903373481,"sourceRegion":"guangdong","featureType":"infrastructure","railClass":"highspeed","mode":"rail","name":"京广高速线","nameEn":"Beijing-Guangzhou High-speed Line","ref":"3001","usage":"main","highspeed":"yes","status":"operational","color":"#E54848","dataOrigin":"datum-2026-08-01","sourceKey":"way:903373481"}},{"type":"Feature","geometry":{"type":"LineString","coordinates":[[113.4855676,24.714414],[113.4850909,24.7128792]]},"properties":{"key":"way:903373482@detail:453_98","osmType":"way","osmId":903373482,"sourceRegion":"guangdong","featureType":"infrastructure","railClass":"highspeed","mode":"rail","name":"京广高速线","nameEn":"Beijing-Guangzhou High-speed Line","ref":"3001","usage":"main","highspeed":"yes","tunnel":"yes","status":"operational","color":"#E54848","dataOrigin":"datum-2026-08-01","sourceKey":"way:903373482"}},{"type":"Feature","geometry":{"type":"LineString","coordinates":[[113.4850909,24.7128792],[113.4845928,24.7112653]]},"properties":{"key":"way:903373483@detail:453_98","osmType":"way","osmId":903373483,"sourceRegion":"guangdong","featureType":"infrastructure","railClass":"highspeed","mode":"rail","name":"京广高速线","nameEn":"Beijing-Guangzhou High-speed Line","ref":"3001","usage":"main","highspeed":"yes","status":"operational","color":"#E54848","dataOrigin":"datum-2026-08-01","sourceKey":"way:903373483"}},{"type":"Feature","geometry":{"type":"LineString","coordinates":[[113.4845928,24.7112653],[113.4835604,24.707498],[113.4832793,24.7062097],[113.4829495,24.704767],[113.4827198,24.7035916],[113.4822389,24.7008793],[113.4819758,24.6990276],[113.4817398,24.6972055],[113.4815711,24.6956597],[113.4815553,24.6954297],[113.4814904,24.6944789]]},"properties":{"key":"way:903373484@detail:453_98","osmType":"way","osmId":903373484,"sourceRegion":"guangdong","featureType":"infrastructure","railClass":"highspeed","mode":"rail","name":"京广高速线","nameEn":"Beijing-Guangzhou High-speed Line","ref":"3001","usage":"main","highspeed":"yes","bridge":"yes","status":"operational","color":"#E54848","dataOrigin":"datum-2026-08-01","sourceKey":"way:903373484"}},{"type":"Feature","geometry":{"type":"LineString","coordinates":[[113.4814904,24.6944789],[113.4813698,24.6922089]]},"properties":{"key":"way:903373485@detail:453_98","osmType":"way","osmId":903373485,"sourceRegion":"guangdong","featureType":"infrastructure","railClass":"highspeed","mode":"rail","name":"京广高速线","nameEn":"Beijing-Guangzhou High-speed Line","ref":"3001","usage":"main","highspeed":"yes","tunnel":"yes","status":"operational","color":"#E54848","dataOrigin":"datum-2026-08-01","sourceKey":"way:903373485"}},{"type":"Feature","geometry":{"type":"LineString","coordinates":[[113.4813698,24.6922089],[113.4813329,24.6916712]]},"properties":{"key":"way:903373486@detail:453_98","osmType":"way","osmId":903373486,"sourceRegion":"guangdong","featureType":"infrastructure","railClass":"highspeed","mode":"rail","name":"京广高速线","nameEn":"Beijing-Guangzhou High-speed Line","ref":"3001","usage":"main","highspeed":"yes","status":"operational","color":"#E54848","dataOrigin":"datum-2026-08-01","sourceKey":"way:903373486"}},{"type":"Feature","geometry":{"type":"LineString","coordinates":[[113.4813329,24.6916712],[113.4812609,24.690558],[113.4812662,24.6894204]]},"properties":{"key":"way:903373487@detail:453_98","osmType":"way","osmId":903373487,"sourceRegion":"guangdong","featureType":"infrastructure","railClass":"highspeed","mode":"rail","name":"京广高速线","nameEn":"Beijing-Guangzhou High-speed Line","ref":"3001","usage":"main","highspeed":"yes","bridge":"yes","status":"operational","color":"#E54848","dataOrigin":"datum-2026-08-01","sourceKey":"way:903373487"}},{"type":"Feature","geometry":{"type":"LineString","coordinates":[[113.4812662,24.6894204],[113.4812533,24.6890134]]},"properties":{"key":"way:903373488@detail:453_98","osmType":"way","osmId":903373488,"sourceRegion":"guangdong","featureType":"infrastructure","railClass":"highspeed","mode":"rail","name":"京广高速线","nameEn":"Beijing-Guangzhou High-speed Line","ref":"3001","usage":"main","highspeed":"yes","status":"operational","color":"#E54848","dataOrigin":"datum-2026-08-01","sourceKey":"way:903373488"}},{"type":"Feature","geometry":{"type":"LineString","coordinates":[[113.4812533,24.6890134],[113.4812489,24.6869945]]},"properties":{"key":"way:903373489@detail:453_98","osmType":"way","osmId":903373489,"sourceRegion":"guangdong","featureType":"infrastructure","railClass":"highspeed","mode":"rail","name":"京广高速线","nameEn":"Beijing-Guangzhou High-speed Line","ref":"3001","usage":"main","highspeed":"yes","tunnel":"yes","status":"operational","color":"#E54848","dataOrigin":"datum-2026-08-01","sourceKey":"way:903373489"}},{"type":"Feature","geometry":{"type":"LineString","coordinates":[[113.4813693,24.6818637],[113.4815023,24.6775737],[113.4816752,24.6721868],[113.4818167,24.6677785]]},"properties":{"key":"way:903373490@detail:453_98","osmType":"way","osmId":903373490,"sourceRegion":"guangdong","featureType":"infrastructure","railClass":"highspeed","mode":"rail","name":"京广高速线","nameEn":"Beijing-Guangzhou High-speed Line","ref":"3001","usage":"main","highspeed":"yes","bridge":"yes","status":"operational","color":"#E54848","dataOrigin":"datum-2026-08-01","sourceKey":"way:903373490"}},{"type":"Feature","geometry":{"type":"LineString","coordinates":[[113.4819515,24.6641517],[113.4821775,24.6591998]]},"properties":{"key":"way:903373491@detail:453_98","osmType":"way","osmId":903373491,"sourceRegion":"guangdong","featureType":"infrastructure","railClass":"highspeed","mode":"rail","name":"京广高速线","nameEn":"Beijing-Guangzhou High-speed Line","ref":"3001","usage":"main","highspeed":"yes","tunnel":"yes","status":"operational","color":"#E54848","dataOrigin":"datum-2026-08-01","sourceKey":"way:903373491"}},{"type":"Feature","geometry":{"type":"LineString","coordinates":[[113.4821775,24.6591998],[113.4822919,24.6575826],[113.4826088,24.654737],[113.482819,24.6529839],[113.4833722,24.649675],[113.4838908,24.6471099],[113.4844977,24.6445835],[113.4850246,24.6425206],[113.485453,24.6410681]]},"properties":{"key":"way:903373492@detail:453_98","osmType":"way","osmId":903373492,"sourceRegion":"guangdong","featureType":"infrastructure","railClass":"highspeed","mode":"rail","name":"京广高速线","nameEn":"Beijing-Guangzhou High-speed Line","ref":"3001","usage":"main","highspeed":"yes","status":"operational","color":"#E54848","dataOrigin":"datum-2026-08-01","sourceKey":"way:903373492"}},{"type":"Feature","geometry":{"type":"LineString","coordinates":[[113.485453,24.6410681],[113.4867738,24.6371565]]},"properties":{"key":"way:903373493@detail:453_98","osmType":"way","osmId":903373493,"sourceRegion":"guangdong","featureType":"infrastructure","railClass":"highspeed","mode":"rail","name":"京广高速线","nameEn":"Beijing-Guangzhou High-speed Line","ref":"3001","usage":"main","highspeed":"yes","tunnel":"yes","status":"operational","color":"#E54848","dataOrigin":"datum-2026-08-01","sourceKey":"way:903373493"}},{"type":"Feature","geometry":{"type":"LineString","coordinates":[[113.4868464,24.6369265],[113.4880787,24.6336395],[113.488266,24.6332142]]},"properties":{"key":"way:903373494@detail:453_98","osmType":"way","osmId":903373494,"sourceRegion":"guangdong","featureType":"infrastructure","railClass":"highspeed","mode":"rail","name":"京广高速线","nameEn":"Beijing-Guangzhou High-speed Line","ref":"3001","usage":"main","highspeed":"yes","bridge":"yes","status":"operational","color":"#E54848","dataOrigin":"datum-2026-08-01","sourceKey":"way:903373494"}},{"type":"Feature","geometry":{"type":"LineString","coordinates":[[113.494457,24.6191109],[113.4959934,24.6155617]]},"properties":{"key":"way:903373495@detail:453_98","osmType":"way","osmId":903373495,"sourceRegion":"guangdong","featureType":"infrastructure","railClass":"highspeed","mode":"rail","name":"京广高速线","nameEn":"Beijing-Guangzhou High-speed Line","ref":"3001","usage":"main","highspeed":"yes","tunnel":"yes","status":"operational","color":"#E54848","dataOrigin":"datum-2026-08-01","sourceKey":"way:903373495"}},{"type":"Feature","geometry":{"type":"LineString","coordinates":[[113.4959934,24.6155617],[113.496909,24.6136819],[113.4975266,24.6122155]]},"properties":{"key":"way:903373496@detail:453_98","osmType":"way","osmId":903373496,"sourceRegion":"guangdong","featureType":"infrastructure","railClass":"highspeed","mode":"rail","name":"京广高速线","nameEn":"Beijing-Guangzhou High-speed Line","ref":"3001","usage":"main","highspeed":"yes","status":"operational","color":"#E54848","dataOrigin":"datum-2026-08-01","sourceKey":"way:903373496"}},{"type":"Feature","geometry":{"type":"LineString","coordinates":[[113.4975266,24.6122155],[113.4980277,24.6110275]]},"properties":{"key":"way:903373497@detail:453_98","osmType":"way","osmId":903373497,"sourceRegion":"guangdong","featureType":"infrastructure","railClass":"highspeed","mode":"rail","name":"京广高速线","nameEn":"Beijing-Guangzhou High-speed Line","ref":"3001","usage":"main","highspeed":"yes","bridge":"yes","status":"operational","color":"#E54848","dataOrigin":"datum-2026-08-01","sourceKey":"way:903373497"}},{"type":"Feature","geometry":{"type":"LineString","coordinates":[[113.4980277,24.6110275],[113.4988449,24.6091309],[113.499971,24.6062059]]},"properties":{"key":"way:903373498@detail:453_98","osmType":"way","osmId":903373498,"sourceRegion":"guangdong","featureType":"infrastructure","railClass":"highspeed","mode":"rail","name":"京广高速线","nameEn":"Beijing-Guangzhou High-speed Line","ref":"3001","usage":"main","highspeed":"yes","status":"operational","color":"#E54848","dataOrigin":"datum-2026-08-01","sourceKey":"way:903373498"}},{"type":"Feature","geometry":{"type":"LineString","coordinates":[[113.499971,24.6062059],[113.5,24.606121586900965]]},"properties":{"key":"way:903373499@detail:453_98","osmType":"way","osmId":903373499,"sourceRegion":"guangdong","featureType":"infrastructure","railClass":"highspeed","mode":"rail","name":"京广高速线","nameEn":"Beijing-Guangzhou High-speed Line","ref":"3001","usage":"main","highspeed":"yes","tunnel":"yes","status":"operational","color":"#E54848","dataOrigin":"datum-2026-08-01","sourceKey":"way:903373499"}},{"type":"Feature","geometry":{"type":"LineString","coordinates":[[113.4891815,24.511398],[113.4882109,24.5078937],[113.4874941,24.5047523]]},"properties":{"key":"way:903373503@detail:453_98","osmType":"way","osmId":903373503,"sourceRegion":"guangdong","featureType":"infrastructure","railClass":"highspeed","mode":"rail","name":"京广高速线","nameEn":"Beijing-Guangzhou High-speed Line","ref":"3001","usage":"main","highspeed":"yes","bridge":"yes","status":"operational","color":"#E54848","dataOrigin":"datum-2026-08-01","sourceKey":"way:903373503"}},{"type":"Feature","geometry":{"type":"LineString","coordinates":[[113.4874941,24.5047523],[113.4873181,24.5040037]]},"properties":{"key":"way:903373504@detail:453_98","osmType":"way","osmId":903373504,"sourceRegion":"guangdong","featureType":"infrastructure","railClass":"highspeed","mode":"rail","name":"京广高速线","nameEn":"Beijing-Guangzhou High-speed Line","ref":"3001","usage":"main","highspeed":"yes","status":"operational","color":"#E54848","dataOrigin":"datum-2026-08-01","sourceKey":"way:903373504"}},{"type":"Feature","geometry":{"type":"LineString","coordinates":[[113.4873181,24.5040037],[113.48636007960846,24.5]]},"properties":{"key":"way:903373505@detail:453_98","osmType":"way","osmId":903373505,"sourceRegion":"guangdong","featureType":"infrastructure","railClass":"highspeed","mode":"rail","name":"京广高速线","nameEn":"Beijing-Guangzhou High-speed Line","ref":"3001","usage":"main","highspeed":"yes","tunnel":"yes","status":"operational","color":"#E54848","dataOrigin":"datum-2026-08-01","sourceKey":"way:903373505"}},{"type":"Feature","geometry":{"type":"LineString","coordinates":[[113.5,24.741572980840058],[113.4982901,24.7390937],[113.4956506,24.7349561]]},"properties":{"key":"way:975836612@detail:453_98","osmType":"way","osmId":975836612,"sourceRegion":"guangdong","featureType":"infrastructure","railClass":"highspeed","mode":"rail","name":"京广高速线","nameEn":"Beijing-Guangzhou High-speed Line","ref":"3001","usage":"main","highspeed":"yes","bridge":"yes","status":"operational","color":"#E54848","dataOrigin":"datum-2026-08-01","sourceKey":"way:975836612"}},{"type":"Feature","geometry":{"type":"LineString","coordinates":[[113.5,24.74145482404678],[113.4983564,24.7390664],[113.4957112,24.7349183]]},"properties":{"key":"way:975836613@detail:453_98","osmType":"way","osmId":975836613,"sourceRegion":"guangdong","featureType":"infrastructure","railClass":"highspeed","mode":"rail","name":"京广高速线","nameEn":"Beijing-Guangzhou High-speed Line","ref":"3001","usage":"main","highspeed":"yes","bridge":"yes","status":"operational","color":"#E54848","dataOrigin":"datum-2026-08-01","sourceKey":"way:975836613"}},{"type":"Feature","geometry":{"type":"LineString","coordinates":[[113.4956506,24.7349561],[113.4934251,24.7314675]]},"properties":{"key":"way:975836614@detail:453_98","osmType":"way","osmId":975836614,"sourceRegion":"guangdong","featureType":"infrastructure","railClass":"highspeed","mode":"rail","name":"京广高速线","nameEn":"Beijing-Guangzhou High-speed Line","ref":"3001","usage":"main","highspeed":"yes","status":"operational","color":"#E54848","dataOrigin":"datum-2026-08-01","sourceKey":"way:975836614"}},{"type":"Feature","geometry":{"type":"LineString","coordinates":[[113.4957112,24.7349183],[113.4934912,24.7314369]]},"properties":{"key":"way:975836615@detail:453_98","osmType":"way","osmId":975836615,"sourceRegion":"guangdong","featureType":"infrastructure","railClass":"highspeed","mode":"rail","name":"京广高速线","nameEn":"Beijing-Guangzhou High-speed Line","ref":"3001","usage":"main","highspeed":"yes","status":"operational","color":"#E54848","dataOrigin":"datum-2026-08-01","sourceKey":"way:975836615"}},{"type":"Feature","geometry":{"type":"LineString","coordinates":[[113.4976895,24.5329641],[113.4944078,24.5253931],[113.4929264,24.5218046]]},"properties":{"key":"way:1321560144@detail:453_98","osmType":"way","osmId":1321560144,"sourceRegion":"guangdong","featureType":"infrastructure","railClass":"highspeed","mode":"rail","name":"京广高速线","nameEn":"Beijing-Guangzhou High-speed Line","ref":"3001","usage":"main","highspeed":"yes","bridge":"yes","status":"operational","color":"#E54848","dataOrigin":"datum-2026-08-01","sourceKey":"way:1321560144"}},{"type":"Feature","geometry":{"type":"LineString","coordinates":[[113.497735,24.5329309],[113.4944585,24.5253755],[113.4929761,24.5217846]]},"properties":{"key":"way:1321560145@detail:453_98","osmType":"way","osmId":1321560145,"sourceRegion":"guangdong","featureType":"infrastructure","railClass":"highspeed","mode":"rail","name":"京广高速线","nameEn":"Beijing-Guangzhou High-speed Line","ref":"3001","usage":"main","highspeed":"yes","bridge":"yes","status":"operational","color":"#E54848","dataOrigin":"datum-2026-08-01","sourceKey":"way:1321560145"}},{"type":"Feature","geometry":{"type":"LineString","coordinates":[[113.4929761,24.5217846],[113.4915478,24.5183247],[113.4906698,24.5159506],[113.4898828,24.5136959],[113.4891815,24.511398]]},"properties":{"key":"way:1321560146@detail:453_98","osmType":"way","osmId":1321560146,"sourceRegion":"guangdong","featureType":"infrastructure","railClass":"highspeed","mode":"rail","name":"京广高速线","nameEn":"Beijing-Guangzhou High-speed Line","ref":"3001","usage":"main","highspeed":"yes","status":"operational","color":"#E54848","dataOrigin":"datum-2026-08-01","sourceKey":"way:1321560146"}},{"type":"Feature","geometry":{"type":"LineString","coordinates":[[113.4929264,24.5218046],[113.4914966,24.5183413],[113.4906182,24.515966],[113.4898307,24.51371],[113.4891288,24.5114101]]},"properties":{"key":"way:1321560147@detail:453_98","osmType":"way","osmId":1321560147,"sourceRegion":"guangdong","featureType":"infrastructure","railClass":"highspeed","mode":"rail","name":"京广高速线","nameEn":"Beijing-Guangzhou High-speed Line","ref":"3001","usage":"main","highspeed":"yes","status":"operational","color":"#E54848","dataOrigin":"datum-2026-08-01","sourceKey":"way:1321560147"}},{"type":"Feature","geometry":{"type":"LineString","coordinates":[[113.5,24.53849761096602],[113.4999283,24.5383259]]},"properties":{"key":"way:1321560883@detail:453_98","osmType":"way","osmId":1321560883,"sourceRegion":"guangdong","featureType":"infrastructure","railClass":"highspeed","mode":"rail","name":"京广高速线","nameEn":"Beijing-Guangzhou High-speed Line","ref":"3001","usage":"main","highspeed":"yes","bridge":"yes","status":"operational","color":"#E54848","dataOrigin":"datum-2026-08-01","sourceKey":"way:1321560883"}},{"type":"Feature","geometry":{"type":"LineString","coordinates":[[113.5,24.538357811578948],[113.499978,24.5383051]]},"properties":{"key":"way:1321560884@detail:453_98","osmType":"way","osmId":1321560884,"sourceRegion":"guangdong","featureType":"infrastructure","railClass":"highspeed","mode":"rail","name":"京广高速线","nameEn":"Beijing-Guangzhou High-speed Line","ref":"3001","usage":"main","highspeed":"yes","bridge":"yes","status":"operational","color":"#E54848","dataOrigin":"datum-2026-08-01","sourceKey":"way:1321560884"}},{"type":"Feature","geometry":{"type":"LineString","coordinates":[[113.499978,24.5383051],[113.497735,24.5329309]]},"properties":{"key":"way:1321560885@detail:453_98","osmType":"way","osmId":1321560885,"sourceRegion":"guangdong","featureType":"infrastructure","railClass":"highspeed","mode":"rail","name":"京广高速线","nameEn":"Beijing-Guangzhou High-speed Line","ref":"3001","usage":"main","highspeed":"yes","status":"operational","color":"#E54848","dataOrigin":"datum-2026-08-01","sourceKey":"way:1321560885"}},{"type":"Feature","geometry":{"type":"LineString","coordinates":[[113.4999283,24.5383259],[113.4976895,24.5329641]]},"properties":{"key":"way:1321560886@detail:453_98","osmType":"way","osmId":1321560886,"sourceRegion":"guangdong","featureType":"infrastructure","railClass":"highspeed","mode":"rail","name":"京广高速线","nameEn":"Beijing-Guangzhou High-speed Line","ref":"3001","usage":"main","highspeed":"yes","status":"operational","color":"#E54848","dataOrigin":"datum-2026-08-01","sourceKey":"way:1321560886"}},{"type":"Feature","geometry":{"type":"LineString","coordinates":[[113.4867738,24.6371565],[113.4868464,24.6369265]]},"properties":{"key":"way:1321561457@detail:453_98","osmType":"way","osmId":1321561457,"sourceRegion":"guangdong","featureType":"infrastructure","railClass":"highspeed","mode":"rail","name":"京广高速线","nameEn":"Beijing-Guangzhou High-speed Line","ref":"3001","usage":"main","highspeed":"yes","status":"operational","color":"#E54848","dataOrigin":"datum-2026-08-01","sourceKey":"way:1321561457"}},{"type":"Feature","geometry":{"type":"LineString","coordinates":[[113.4867272,24.6371416],[113.4868035,24.6369192]]},"properties":{"key":"way:1321561458@detail:453_98","osmType":"way","osmId":1321561458,"sourceRegion":"guangdong","featureType":"infrastructure","railClass":"highspeed","mode":"rail","name":"京广高速线","nameEn":"Beijing-Guangzhou High-speed Line","ref":"3001","usage":"main","highspeed":"yes","status":"operational","color":"#E54848","dataOrigin":"datum-2026-08-01","sourceKey":"way:1321561458"}},{"type":"Feature","geometry":{"type":"LineString","coordinates":[[113.4882201,24.6331973],[113.4890912,24.6310866]]},"properties":{"key":"way:1321561459@detail:453_98","osmType":"way","osmId":1321561459,"sourceRegion":"guangdong","featureType":"infrastructure","railClass":"highspeed","mode":"rail","name":"京广高速线","nameEn":"Beijing-Guangzhou High-speed Line","ref":"3001","usage":"main","highspeed":"yes","bridge":"yes","status":"operational","color":"#E54848","dataOrigin":"datum-2026-08-01","sourceKey":"way:1321561459"}},{"type":"Feature","geometry":{"type":"LineString","coordinates":[[113.488266,24.6332142],[113.4891365,24.6311045]]},"properties":{"key":"way:1321561460@detail:453_98","osmType":"way","osmId":1321561460,"sourceRegion":"guangdong","featureType":"infrastructure","railClass":"highspeed","mode":"rail","name":"京广高速线","nameEn":"Beijing-Guangzhou High-speed Line","ref":"3001","usage":"main","highspeed":"yes","bridge":"yes","status":"operational","color":"#E54848","dataOrigin":"datum-2026-08-01","sourceKey":"way:1321561460"}},{"type":"Feature","geometry":{"type":"LineString","coordinates":[[113.4890912,24.6310866],[113.4892808,24.630627]]},"properties":{"key":"way:1321561461@detail:453_98","osmType":"way","osmId":1321561461,"sourceRegion":"guangdong","featureType":"infrastructure","railClass":"highspeed","mode":"rail","name":"京广高速线","nameEn":"Beijing-Guangzhou High-speed Line","ref":"3001","usage":"main","highspeed":"yes","status":"operational","color":"#E54848","dataOrigin":"datum-2026-08-01","sourceKey":"way:1321561461"}},{"type":"Feature","geometry":{"type":"LineString","coordinates":[[113.4891365,24.6311045],[113.4893266,24.630644]]},"properties":{"key":"way:1321561462@detail:453_98","osmType":"way","osmId":1321561462,"sourceRegion":"guangdong","featureType":"infrastructure","railClass":"highspeed","mode":"rail","name":"京广高速线","nameEn":"Beijing-Guangzhou High-speed Line","ref":"3001","usage":"main","highspeed":"yes","status":"operational","color":"#E54848","dataOrigin":"datum-2026-08-01","sourceKey":"way:1321561462"}},{"type":"Feature","geometry":{"type":"LineString","coordinates":[[113.4892808,24.630627],[113.4943026,24.6193341]]},"properties":{"key":"way:1321561463@detail:453_98","osmType":"way","osmId":1321561463,"sourceRegion":"guangdong","featureType":"infrastructure","railClass":"highspeed","mode":"rail","name":"京广高速线","nameEn":"Beijing-Guangzhou High-speed Line","ref":"3001","usage":"main","highspeed":"yes","bridge":"yes","status":"operational","color":"#E54848","dataOrigin":"datum-2026-08-01","sourceKey":"way:1321561463"}},{"type":"Feature","geometry":{"type":"LineString","coordinates":[[113.4893266,24.630644],[113.4943457,24.6193571]]},"properties":{"key":"way:1321561464@detail:453_98","osmType":"way","osmId":1321561464,"sourceRegion":"guangdong","featureType":"infrastructure","railClass":"highspeed","mode":"rail","name":"京广高速线","nameEn":"Beijing-Guangzhou High-speed Line","ref":"3001","usage":"main","highspeed":"yes","bridge":"yes","status":"operational","color":"#E54848","dataOrigin":"datum-2026-08-01","sourceKey":"way:1321561464"}},{"type":"Feature","geometry":{"type":"LineString","coordinates":[[113.4943457,24.6193571],[113.494457,24.6191109]]},"properties":{"key":"way:1321561465@detail:453_98","osmType":"way","osmId":1321561465,"sourceRegion":"guangdong","featureType":"infrastructure","railClass":"highspeed","mode":"rail","name":"京广高速线","nameEn":"Beijing-Guangzhou High-speed Line","ref":"3001","usage":"main","highspeed":"yes","status":"operational","color":"#E54848","dataOrigin":"datum-2026-08-01","sourceKey":"way:1321561465"}},{"type":"Feature","geometry":{"type":"LineString","coordinates":[[113.4943026,24.6193341],[113.4944113,24.6190938]]},"properties":{"key":"way:1321561466@detail:453_98","osmType":"way","osmId":1321561466,"sourceRegion":"guangdong","featureType":"infrastructure","railClass":"highspeed","mode":"rail","name":"京广高速线","nameEn":"Beijing-Guangzhou High-speed Line","ref":"3001","usage":"main","highspeed":"yes","status":"operational","color":"#E54848","dataOrigin":"datum-2026-08-01","sourceKey":"way:1321561466"}},{"type":"Feature","geometry":{"type":"LineString","coordinates":[[113.4818167,24.6677785],[113.4818494,24.6667597],[113.4819515,24.6641517]]},"properties":{"key":"way:1321561648@detail:453_98","osmType":"way","osmId":1321561648,"sourceRegion":"guangdong","featureType":"infrastructure","railClass":"highspeed","mode":"rail","name":"京广高速线","nameEn":"Beijing-Guangzhou High-speed Line","ref":"3001","usage":"main","highspeed":"yes","status":"operational","color":"#E54848","dataOrigin":"datum-2026-08-01","sourceKey":"way:1321561648"}},{"type":"Feature","geometry":{"type":"LineString","coordinates":[[113.4817673,24.6677763],[113.4818,24.6667582],[113.4819021,24.6641501]]},"properties":{"key":"way:1321561649@detail:453_98","osmType":"way","osmId":1321561649,"sourceRegion":"guangdong","featureType":"infrastructure","railClass":"highspeed","mode":"rail","name":"京广高速线","nameEn":"Beijing-Guangzhou High-speed Line","ref":"3001","usage":"main","highspeed":"yes","status":"operational","color":"#E54848","dataOrigin":"datum-2026-08-01","sourceKey":"way:1321561649"}},{"type":"Feature","geometry":{"type":"LineString","coordinates":[[113.4812489,24.6869945],[113.4812479,24.6854974],[113.4813693,24.6818637]]},"properties":{"key":"way:1321561650@detail:453_98","osmType":"way","osmId":1321561650,"sourceRegion":"guangdong","featureType":"infrastructure","railClass":"highspeed","mode":"rail","name":"京广高速线","nameEn":"Beijing-Guangzhou High-speed Line","ref":"3001","usage":"main","highspeed":"yes","status":"operational","color":"#E54848","dataOrigin":"datum-2026-08-01","sourceKey":"way:1321561650"}},{"type":"Feature","geometry":{"type":"LineString","coordinates":[[113.4811945,24.6869947],[113.4811985,24.6854967],[113.4813184,24.6818491]]},"properties":{"key":"way:1321561651@detail:453_98","osmType":"way","osmId":1321561651,"sourceRegion":"guangdong","featureType":"infrastructure","railClass":"highspeed","mode":"rail","name":"京广高速线","nameEn":"Beijing-Guangzhou High-speed Line","ref":"3001","usage":"main","highspeed":"yes","status":"operational","color":"#E54848","dataOrigin":"datum-2026-08-01","sourceKey":"way:1321561651"}}]}