{"type":"FeatureCollection","features":[{"type":"Feature","geometry":{"type":"LineString","coordinates":[[113.5,22.114910033510736],[113.4998831,22.1149479],[113.4989053,22.1151816],[113.4978047,22.1153857],[113.4968987,22.1155147],[113.4961719,22.1155972],[113.4952721,22.1157016],[113.494184,22.115793],[113.4929453,22.1158439],[113.4924636,22.1158617],[113.4915013,22.1158617],[113.4904917,22.1158124]]},"properties":{"key":"way:290155015@detail:453_88","osmType":"way","osmId":290155015,"sourceRegion":"macau","featureType":"infrastructure","railClass":"intercity","mode":"rail","name":"珠机城际线","nameEn":"Zhuhai-Zhuhai Airport Intercity Railway","ref":"0711","usage":"main","tunnel":"yes","status":"operational","color":"#4B78B7","sourceKey":"way:290155015"}},{"type":"Feature","geometry":{"type":"LineString","coordinates":[[113.4763794,22.1080356],[113.4757154,22.1069206],[113.4750842,22.105967],[113.4744585,22.1050319],[113.4740226,22.1044234],[113.4736994,22.1040172],[113.4733466,22.1035886],[113.4728593,22.1030767],[113.4724796,22.102721],[113.4721473,22.1024228],[113.4718218,22.1021559],[113.4714685,22.1018825],[113.4711028,22.1016272],[113.470738,22.1013803],[113.4703801,22.1011527],[113.4700456,22.1009631],[113.4696566,22.1007546],[113.4691549,22.1004989],[113.4687415,22.1002988],[113.4665695,22.0993018],[113.460128,22.0963224],[113.4564764,22.0946266],[113.4494291,22.0913798],[113.4444743,22.0891248],[113.4441257,22.0889639],[113.441966,22.0879673],[113.4381498,22.0862061],[113.437104,22.0857082],[113.4354528,22.0849365],[113.4338206,22.0841933],[113.433254,22.0839066],[113.432784,22.0836601],[113.4324024,22.083436],[113.4320102,22.0831893],[113.431735,22.083019],[113.4311871,22.0826346],[113.4306207,22.0822088],[113.4299122,22.0816359],[113.4271536,22.0794756],[113.4243755,22.0772396],[113.4172783,22.0715871],[113.4163621,22.0708357],[113.4157183,22.0702577],[113.4150604,22.069594],[113.4146932,22.0692021],[113.4144987,22.0689848],[113.4142791,22.0687237],[113.4140962,22.0684814],[113.4138953,22.0682252],[113.4136644,22.0679036],[113.4134602,22.0676281],[113.4132982,22.0673831],[113.4131474,22.0671573],[113.4127554,22.0665332],[113.4122687,22.0657486],[113.4119258,22.0652066],[113.407112,22.0574539],[113.402993,22.0507549],[113.4012206,22.0478058],[113.4010655,22.0475453],[113.4006531,22.046769],[113.4000482,22.0456523],[113.3995155,22.0446251],[113.3991121,22.0439456],[113.3987844,22.0433876],[113.3981729,22.0424071],[113.3975176,22.0413832],[113.3972,22.040899],[113.3970476,22.0406552],[113.3965608,22.0398651]]},"properties":{"key":"way:835966824@detail:453_88","osmType":"way","osmId":835966824,"sourceRegion":"macau","featureType":"infrastructure","railClass":"intercity","mode":"rail","name":"珠机城际线","nameEn":"Zhuhai-Zhuhai Airport Intercity Railway","ref":"0711","usage":"main","bridge":"yes","status":"operational","color":"#4B78B7","sourceKey":"way:835966824"}},{"type":"Feature","geometry":{"type":"LineString","coordinates":[[113.3966014,22.0398422],[113.3971031,22.0406388],[113.3972866,22.0409361],[113.3978794,22.0418481],[113.3987662,22.0432846],[113.3994362,22.0444044],[113.3996587,22.0448235],[113.3999499,22.0453872],[113.4004014,22.0462259],[113.4006416,22.0466713],[113.4010724,22.0474578],[113.4012488,22.0477479],[113.4059441,22.0554729],[113.4119551,22.0651829],[113.412469,22.0660027],[113.4130738,22.0669577],[113.413295,22.0672796],[113.4134706,22.0675581],[113.4135975,22.0677412],[113.4138421,22.0680801],[113.4140916,22.0684057],[113.4143342,22.0687216],[113.4145023,22.0689206],[113.4147787,22.0692405],[113.4151279,22.0695838],[113.4157139,22.0701814],[113.4163969,22.0708019],[113.4173172,22.0715604],[113.4227215,22.0758709],[113.4244035,22.0772021],[113.427145,22.0794146],[113.4299532,22.0816179],[113.430642,22.0821635],[113.4311635,22.0825618],[113.4317806,22.0829947],[113.4321407,22.0832238],[113.4325018,22.0834479],[113.4327788,22.0835985],[113.4332578,22.0838581],[113.4338447,22.0841479],[113.4357838,22.0850465],[113.4362907,22.0852814],[113.436835,22.0855337],[113.4370062,22.085613],[113.438216,22.086179],[113.4421948,22.0880155],[113.4430238,22.0883963],[113.444507,22.0890777],[113.4494373,22.0913423],[113.4666047,22.0992688],[113.4687648,22.1002677],[113.4694328,22.1005975],[113.4699057,22.1008364],[113.470315,22.1010694],[113.4708233,22.1013749],[113.4711613,22.1016099],[113.4715474,22.1018833],[113.4719848,22.1022261],[113.4723923,22.1025816],[113.4727706,22.1029269],[113.4733346,22.1035173],[113.4736451,22.1038837],[113.4739893,22.1043099],[113.4743307,22.1047829],[113.4750451,22.1058072],[113.4756493,22.1067219],[113.4760859,22.1074341],[113.4764233,22.1080319]]},"properties":{"key":"way:915916469@detail:453_88","osmType":"way","osmId":915916469,"sourceRegion":"macau","featureType":"infrastructure","railClass":"intercity","mode":"rail","name":"珠机城际线","nameEn":"Zhuhai-Zhuhai Airport Intercity Railway","ref":"0711","usage":"main","bridge":"yes","status":"operational","color":"#4B78B7","sourceKey":"way:915916469"}},{"type":"Feature","geometry":{"type":"LineString","coordinates":[[113.4815935,22.1130888],[113.4813625,22.1129351],[113.4798298,22.1118158],[113.4787044,22.1108789]]},"properties":{"key":"way:919017987@detail:453_88","osmType":"way","osmId":919017987,"sourceRegion":"macau","featureType":"infrastructure","railClass":"intercity","mode":"rail","name":"珠机城际线","nameEn":"Zhuhai-Zhuhai Airport Intercity Railway","ref":"0711","usage":"main","bridge":"yes","status":"operational","color":"#4B78B7","sourceKey":"way:919017987"}},{"type":"Feature","geometry":{"type":"LineString","coordinates":[[113.4764233,22.1080319],[113.47687,22.108767],[113.4772633,22.109306],[113.4775663,22.1096962],[113.4778623,22.1100254],[113.4782052,22.1103528],[113.478733,22.1108517]]},"properties":{"key":"way:919017988@detail:453_88","osmType":"way","osmId":919017988,"sourceRegion":"macau","featureType":"infrastructure","railClass":"intercity","mode":"rail","name":"珠机城际线","nameEn":"Zhuhai-Zhuhai Airport Intercity Railway","ref":"0711","usage":"main","tunnel":"yes","status":"operational","color":"#4B78B7","sourceKey":"way:919017988"}},{"type":"Feature","geometry":{"type":"LineString","coordinates":[[113.4787044,22.1108789],[113.4781419,22.1104056],[113.4776438,22.1098991],[113.4773467,22.1095366],[113.4771095,22.1092177],[113.4768255,22.1088091],[113.4765449,22.1083551],[113.476488,22.1082452],[113.4763794,22.1080356]]},"properties":{"key":"way:919017989@detail:453_88","osmType":"way","osmId":919017989,"sourceRegion":"macau","featureType":"infrastructure","railClass":"construction","mode":"rail","name":"珠机城际线","nameEn":"Zhuhai-Zhuhai Airport Intercity Railway","ref":"0711","usage":"main","tunnel":"yes","status":"construction","color":"#4B78B7","sourceKey":"way:919017989"}},{"type":"Feature","geometry":{"type":"LineString","coordinates":[[113.4904858,22.1157674],[113.4913889,22.1157959],[113.4923277,22.1157863],[113.4935563,22.1157367],[113.4946183,22.1156571],[113.495541,22.1155814],[113.496689,22.115436],[113.4976975,22.1152844],[113.4987712,22.1150958],[113.4998951,22.1148205],[113.5,22.114786963512422]]},"properties":{"key":"way:919017990@detail:453_88","osmType":"way","osmId":919017990,"sourceRegion":"macau","featureType":"infrastructure","railClass":"intercity","mode":"rail","name":"珠机城际线","nameEn":"Zhuhai-Zhuhai Airport Intercity Railway","ref":"0711","usage":"main","tunnel":"yes","status":"operational","color":"#4B78B7","sourceKey":"way:919017990"}},{"type":"Feature","geometry":{"type":"LineString","coordinates":[[113.478733,22.1108517],[113.4798877,22.111808],[113.4806547,22.1123671],[113.4813891,22.1129033],[113.4816078,22.1130509]]},"properties":{"key":"way:919017991@detail:453_88","osmType":"way","osmId":919017991,"sourceRegion":"macau","featureType":"infrastructure","railClass":"intercity","mode":"rail","name":"珠机城际线","nameEn":"Zhuhai-Zhuhai Airport Intercity Railway","ref":"0711","usage":"main","bridge":"yes","status":"operational","color":"#4B78B7","sourceKey":"way:919017991"}},{"type":"Feature","geometry":{"type":"LineString","coordinates":[[113.4816078,22.1130509],[113.4823195,22.1134296],[113.4832649,22.1139395],[113.4839486,22.1142457],[113.4845278,22.1144892],[113.485233,22.1147608],[113.4860193,22.115021],[113.4866877,22.1152141],[113.4874032,22.1153913],[113.4885345,22.1155767]]},"properties":{"key":"way:1021358459@detail:453_88","osmType":"way","osmId":1021358459,"sourceRegion":"macau","featureType":"infrastructure","railClass":"intercity","mode":"rail","name":"珠机城际线","nameEn":"Zhuhai-Zhuhai Airport Intercity Railway","ref":"0711","usage":"main","tunnel":"yes","status":"operational","color":"#4B78B7","sourceKey":"way:1021358459"}},{"type":"Feature","geometry":{"type":"LineString","coordinates":[[113.4885219,22.1156285],[113.4876093,22.1154897],[113.4871445,22.11539],[113.4867171,22.1153052],[113.4862227,22.1151638],[113.4855897,22.1149656],[113.4848885,22.114725],[113.4840897,22.1143928],[113.4831819,22.1139877],[113.4820557,22.1133716],[113.4815935,22.1130888]]},"properties":{"key":"way:1021358460@detail:453_88","osmType":"way","osmId":1021358460,"sourceRegion":"macau","featureType":"infrastructure","railClass":"intercity","mode":"rail","name":"珠机城际线","nameEn":"Zhuhai-Zhuhai Airport Intercity Railway","ref":"0711","usage":"main","tunnel":"yes","status":"operational","color":"#4B78B7","sourceKey":"way:1021358460"}},{"type":"Feature","geometry":{"type":"LineString","coordinates":[[113.4885345,22.1155767],[113.4888224,22.1156234],[113.4893157,22.1156802],[113.4898534,22.1157333],[113.4904858,22.1157674]]},"properties":{"key":"way:1021358461@detail:453_88","osmType":"way","osmId":1021358461,"sourceRegion":"macau","featureType":"infrastructure","railClass":"intercity","mode":"rail","name":"珠机城际线","nameEn":"Zhuhai-Zhuhai Airport Intercity Railway","ref":"0711","usage":"main","bridge":"yes","status":"operational","color":"#4B78B7","sourceKey":"way:1021358461"}},{"type":"Feature","geometry":{"type":"LineString","coordinates":[[113.4904917,22.1158124],[113.4898967,22.1157901],[113.4894254,22.1157465],[113.4891385,22.1157154],[113.4890105,22.1157015],[113.4885219,22.1156285]]},"properties":{"key":"way:1021358462@detail:453_88","osmType":"way","osmId":1021358462,"sourceRegion":"macau","featureType":"infrastructure","railClass":"intercity","mode":"rail","name":"珠机城际线","nameEn":"Zhuhai-Zhuhai Airport Intercity Railway","ref":"0711","usage":"main","bridge":"yes","status":"operational","color":"#4B78B7","sourceKey":"way:1021358462"}},{"type":"Feature","geometry":{"type":"Point","coordinates":[113.4397819,22.0869276]},"properties":{"key":"node:10817239536","osmType":"node","osmId":10817239536,"sourceRegion":"guangdong","featureType":"station","railClass":"minor","mode":"construction","name":"鹤洲南","status":"operational","color":"#52636F","dataOrigin":"datum-2026-08-01","sourceKey":"node:10817239536","stationGroup":"鹤洲南","hasOperationalRail":true,"hasConstructionRail":false}},{"type":"Feature","geometry":{"type":"Point","coordinates":[113.3724143,22.0151865]},"properties":{"key":"node:11581097077","osmType":"node","osmId":11581097077,"sourceRegion":"guangdong","featureType":"station","railClass":"minor","mode":"station","name":"珠海机场","nameEn":"Zhuhai Airport Railway","status":"operational","color":"#52636F","dataOrigin":"datum-2026-08-01","sourceKey":"node:11581097077","stationGroup":"珠海机场","hasOperationalRail":true,"hasConstructionRail":false}},{"type":"Feature","geometry":{"type":"Point","coordinates":[113.3982977,22.0425666]},"properties":{"key":"node:11581097078","osmType":"node","osmId":11581097078,"sourceRegion":"guangdong","featureType":"station","railClass":"minor","mode":"station","name":"三灶东","nameEn":"Sanzaodong","status":"operational","color":"#52636F","dataOrigin":"datum-2026-08-01","sourceKey":"node:11581097078","stationGroup":"三灶东","hasOperationalRail":true,"hasConstructionRail":false}},{"type":"Feature","geometry":{"type":"Point","coordinates":[113.3592888,22.188249]},"properties":{"key":"node:11606949398","osmType":"node","osmId":11606949398,"sourceRegion":"guangdong","featureType":"station","railClass":"minor","mode":"station","name":"珠海鹤洲","status":"operational","color":"#52636F","dataOrigin":"datum-2026-08-01","sourceKey":"node:11606949398","stationGroup":"珠海鹤洲","hasOperationalRail":true,"hasConstructionRail":false}},{"type":"Feature","geometry":{"type":"LineString","coordinates":[[113.3965608,22.0398651],[113.3954323,22.0380899],[113.394793,22.037107],[113.3944877,22.0366313],[113.3941697,22.036113],[113.3939205,22.0356733],[113.3905712,22.0304151],[113.3901301,22.0297015],[113.3898953,22.029325],[113.389537,22.0287674],[113.3892639,22.0284376],[113.3887419,22.0279386],[113.3882431,22.0275159],[113.3753861,22.0175205],[113.3753324,22.0174788],[113.3742959,22.0166729],[113.3735499,22.0160929],[113.3704696,22.0137063],[113.3702667,22.0135491]]},"properties":{"key":"way:835966825@detail:453_88","osmType":"way","osmId":835966825,"sourceRegion":"guangdong","featureType":"infrastructure","railClass":"intercity","mode":"rail","name":"珠机城际线","nameEn":"Zhuhai-Zhuhai Airport Intercity Railway","ref":"0711","operator":"中国铁路广州局集团有限公司","usage":"main","tunnel":"yes","status":"operational","color":"#4B78B7","dataOrigin":"datum-2026-08-01","sourceKey":"way:835966825"}},{"type":"Feature","geometry":{"type":"LineString","coordinates":[[113.4421948,22.0880155],[113.4412653,22.0875453],[113.4383311,22.0861906],[113.4379155,22.0859987],[113.4370062,22.085613]]},"properties":{"key":"way:1163022124@detail:453_88","osmType":"way","osmId":1163022124,"sourceRegion":"guangdong","featureType":"infrastructure","railClass":"minor","mode":"rail","name":"未命名","service":"siding","bridge":"yes","status":"operational","color":"#52636F","dataOrigin":"datum-2026-08-01","sourceKey":"way:1163022124"}},{"type":"Feature","geometry":{"type":"LineString","coordinates":[[113.437104,22.0857082],[113.4381061,22.086227],[113.4411381,22.0876269],[113.441966,22.0879673]]},"properties":{"key":"way:1163022125@detail:453_88","osmType":"way","osmId":1163022125,"sourceRegion":"guangdong","featureType":"infrastructure","railClass":"minor","mode":"rail","name":"未命名","service":"siding","bridge":"yes","status":"operational","color":"#52636F","dataOrigin":"datum-2026-08-01","sourceKey":"way:1163022125"}},{"type":"Feature","geometry":{"type":"LineString","coordinates":[[113.4354528,22.0849365],[113.4362907,22.0852814]]},"properties":{"key":"way:1241127361@detail:453_88","osmType":"way","osmId":1241127361,"sourceRegion":"guangdong","featureType":"infrastructure","railClass":"minor","mode":"rail","name":"未命名","service":"crossover","bridge":"yes","status":"operational","color":"#52636F","dataOrigin":"datum-2026-08-01","sourceKey":"way:1241127361"}},{"type":"Feature","geometry":{"type":"LineString","coordinates":[[113.4441257,22.0889639],[113.4430238,22.0883963]]},"properties":{"key":"way:1241127362@detail:453_88","osmType":"way","osmId":1241127362,"sourceRegion":"guangdong","featureType":"infrastructure","railClass":"minor","mode":"rail","name":"未命名","service":"crossover","bridge":"yes","status":"operational","color":"#52636F","dataOrigin":"datum-2026-08-01","sourceKey":"way:1241127362"}},{"type":"Feature","geometry":{"type":"LineString","coordinates":[[113.3702935,22.0135188],[113.3704922,22.0136724],[113.374326,22.016635],[113.374514,22.0167803],[113.3887903,22.0279029],[113.3892603,22.0283353],[113.389564,22.0286838],[113.3917259,22.0320989],[113.3930528,22.03416],[113.3938048,22.0353396],[113.3944086,22.0363416],[113.396025,22.0389124],[113.3966014,22.0398422]]},"properties":{"key":"way:1241127367@detail:453_88","osmType":"way","osmId":1241127367,"sourceRegion":"guangdong","featureType":"infrastructure","railClass":"intercity","mode":"rail","name":"珠机城际线","nameEn":"Zhuhai-Zhuhai Airport Intercity Railway","ref":"0711","operator":"中国铁路广州局集团有限公司","usage":"main","tunnel":"yes","status":"operational","color":"#4B78B7","dataOrigin":"datum-2026-08-01","sourceKey":"way:1241127367"}},{"type":"Feature","geometry":{"type":"LineString","coordinates":[[113.3742959,22.0166729],[113.3734881,22.0161287],[113.3726728,22.0155924],[113.3719551,22.0150511],[113.3711634,22.0143237],[113.3704696,22.0137063]]},"properties":{"key":"way:1241127368@detail:453_88","osmType":"way","osmId":1241127368,"sourceRegion":"guangdong","featureType":"infrastructure","railClass":"minor","mode":"rail","name":"未命名","service":"siding","tunnel":"yes","status":"operational","color":"#52636F","dataOrigin":"datum-2026-08-01","sourceKey":"way:1241127368"}},{"type":"Feature","geometry":{"type":"LineString","coordinates":[[113.3704922,22.0136724],[113.3711308,22.0141226],[113.3719027,22.0145885],[113.3731319,22.0155421],[113.3738695,22.0162208],[113.374326,22.016635]]},"properties":{"key":"way:1241127369@detail:453_88","osmType":"way","osmId":1241127369,"sourceRegion":"guangdong","featureType":"infrastructure","railClass":"minor","mode":"rail","name":"未命名","service":"siding","tunnel":"yes","status":"operational","color":"#52636F","dataOrigin":"datum-2026-08-01","sourceKey":"way:1241127369"}},{"type":"Feature","geometry":{"type":"LineString","coordinates":[[113.3289992,22.2292322],[113.3238099,22.2362624],[113.322543,22.2380791],[113.3213589,22.2398712],[113.3202002,22.2417506],[113.319205,22.2434329],[113.3182217,22.245237],[113.3175442,22.2466205],[113.3168528,22.2481222],[113.3162073,22.24962],[113.31604348783765,22.25]]},"properties":{"key":"way:1248714813@detail:453_88","osmType":"way","osmId":1248714813,"sourceRegion":"guangdong","featureType":"infrastructure","railClass":"construction","mode":"construction","name":"南珠高速线","nameEn":"Nanning-Zhuhai Highspeed Railway","usage":"main","highspeed":"yes","bridge":"yes","status":"construction","color":"#397F9D","dataOrigin":"datum-2026-08-01","sourceKey":"way:1248714813"}},{"type":"Feature","geometry":{"type":"LineString","coordinates":[[113.3670584,22.1773459],[113.3289992,22.2292322]]},"properties":{"key":"way:1248714815@detail:453_88","osmType":"way","osmId":1248714815,"sourceRegion":"guangdong","featureType":"infrastructure","railClass":"construction","mode":"construction","name":"南珠高速线","nameEn":"Nanning-Zhuhai Highspeed Railway","usage":"main","highspeed":"yes","status":"construction","color":"#397F9D","dataOrigin":"datum-2026-08-01","sourceKey":"way:1248714815"}},{"type":"Feature","geometry":{"type":"LineString","coordinates":[[113.3671186,22.1773838],[113.3290594,22.2292702]]},"properties":{"key":"way:1509798733@detail:453_88","osmType":"way","osmId":1509798733,"sourceRegion":"guangdong","featureType":"infrastructure","railClass":"construction","mode":"construction","name":"南珠高速线","nameEn":"Nanning-Zhuhai Highspeed Railway","usage":"main","highspeed":"yes","status":"construction","color":"#397F9D","dataOrigin":"datum-2026-08-01","sourceKey":"way:1509798733"}},{"type":"Feature","geometry":{"type":"LineString","coordinates":[[113.3290594,22.2292702],[113.3238706,22.2362997],[113.3226047,22.238115],[113.3214216,22.2399055],[113.3202638,22.2417835],[113.3192695,22.2434643],[113.3182874,22.2452661],[113.3176109,22.2466476],[113.3169201,22.2481479],[113.3162749,22.249645],[113.31612186410638,22.25]]},"properties":{"key":"way:1509798735@detail:453_88","osmType":"way","osmId":1509798735,"sourceRegion":"guangdong","featureType":"infrastructure","railClass":"construction","mode":"construction","name":"南珠高速线","nameEn":"Nanning-Zhuhai Highspeed Railway","usage":"main","highspeed":"yes","bridge":"yes","status":"construction","color":"#397F9D","dataOrigin":"datum-2026-08-01","sourceKey":"way:1509798735"}}]}