{"type":"FeatureCollection","features":[{"type":"Feature","geometry":{"type":"LineString","coordinates":[[113.2595094,22.3169883],[113.2614821,22.3145434]]},"properties":{"key":"way:1097489664@detail:453_89","osmType":"way","osmId":1097489664,"sourceRegion":"guangdong","featureType":"infrastructure","railClass":"construction","mode":"construction","name":"南珠高速线","nameEn":"Nanning-Zhuhai Highspeed Railway","usage":"main","highspeed":"yes","tunnel":"yes","status":"construction","color":"#397F9D","dataOrigin":"datum-2026-08-01","sourceKey":"way:1097489664"}},{"type":"Feature","geometry":{"type":"LineString","coordinates":[[113.2594417,22.3169371],[113.2614233,22.3145037]]},"properties":{"key":"way:1245966509@detail:453_89","osmType":"way","osmId":1245966509,"sourceRegion":"guangdong","featureType":"infrastructure","railClass":"construction","mode":"construction","name":"南珠高速线","nameEn":"Nanning-Zhuhai Highspeed Railway","usage":"main","highspeed":"yes","tunnel":"yes","status":"construction","color":"#397F9D","dataOrigin":"datum-2026-08-01","sourceKey":"way:1245966509"}},{"type":"Feature","geometry":{"type":"LineString","coordinates":[[113.2584794,22.3180261],[113.2564723,22.3202343],[113.2551849,22.3215993],[113.2534745,22.3233003],[113.2515792,22.3251221],[113.25,22.326640157954365]]},"properties":{"key":"way:1248714809@detail:453_89","osmType":"way","osmId":1248714809,"sourceRegion":"guangdong","featureType":"infrastructure","railClass":"construction","mode":"construction","name":"南珠高速线","nameEn":"Nanning-Zhuhai Highspeed Railway","usage":"main","highspeed":"yes","bridge":"yes","status":"construction","color":"#397F9D","dataOrigin":"datum-2026-08-01","sourceKey":"way:1248714809"}},{"type":"Feature","geometry":{"type":"LineString","coordinates":[[113.2594417,22.3169371],[113.2584794,22.3180261]]},"properties":{"key":"way:1248714811@detail:453_89","osmType":"way","osmId":1248714811,"sourceRegion":"guangdong","featureType":"infrastructure","railClass":"construction","mode":"construction","name":"南珠高速线","nameEn":"Nanning-Zhuhai Highspeed Railway","usage":"main","highspeed":"yes","status":"construction","color":"#397F9D","dataOrigin":"datum-2026-08-01","sourceKey":"way:1248714811"}},{"type":"Feature","geometry":{"type":"LineString","coordinates":[[113.2925868,22.2856334],[113.2885055,22.289054],[113.2871611,22.2901827],[113.2860435,22.2911192],[113.2848395,22.2921157],[113.2793432,22.2964272],[113.2780373,22.2974815],[113.2769992,22.2983603],[113.2701057,22.3043945],[113.2689527,22.3054589],[113.2678921,22.3065288],[113.2668994,22.3076245],[113.2658635,22.3088701],[113.2614233,22.3145037]]},"properties":{"key":"way:1248714812@detail:453_89","osmType":"way","osmId":1248714812,"sourceRegion":"guangdong","featureType":"infrastructure","railClass":"construction","mode":"construction","name":"南珠高速线","nameEn":"Nanning-Zhuhai Highspeed Railway","usage":"main","highspeed":"yes","bridge":"yes","status":"construction","color":"#397F9D","dataOrigin":"datum-2026-08-01","sourceKey":"way:1248714812"}},{"type":"Feature","geometry":{"type":"LineString","coordinates":[[113.31604348783765,22.25],[113.3137177,22.2553952],[113.3129521,22.2571284],[113.31214,22.2588106],[113.3111552,22.2607208],[113.3102672,22.2623037],[113.3093353,22.2638517],[113.3084016,22.2653014],[113.3074445,22.2667348],[113.3000252,22.277379],[113.2993005,22.278394],[113.2985213,22.2794169],[113.2976624,22.2804655],[113.296736,22.2815363],[113.2956731,22.2826646],[113.2947561,22.2836001],[113.2937425,22.2845947]]},"properties":{"key":"way:1248714813@detail:453_89","osmType":"way","osmId":1248714813,"sourceRegion":"guangdong","featureType":"infrastructure","railClass":"construction","mode":"construction","name":"南珠高速线","nameEn":"Nanning-Zhuhai Highspeed Railway","usage":"main","highspeed":"yes","bridge":"yes","status":"construction","color":"#397F9D","dataOrigin":"datum-2026-08-01","sourceKey":"way:1248714813"}},{"type":"Feature","geometry":{"type":"LineString","coordinates":[[113.2937425,22.2845947],[113.2925868,22.2856334]]},"properties":{"key":"way:1248714814@detail:453_89","osmType":"way","osmId":1248714814,"sourceRegion":"guangdong","featureType":"infrastructure","railClass":"construction","mode":"construction","name":"南珠高速线","nameEn":"Nanning-Zhuhai Highspeed Railway","usage":"main","highspeed":"yes","status":"construction","color":"#397F9D","dataOrigin":"datum-2026-08-01","sourceKey":"way:1248714814"}},{"type":"Feature","geometry":{"type":"LineString","coordinates":[[113.2937944,22.284642],[113.2926366,22.2856826]]},"properties":{"key":"way:1509798734@detail:453_89","osmType":"way","osmId":1509798734,"sourceRegion":"guangdong","featureType":"infrastructure","railClass":"construction","mode":"construction","name":"南珠高速线","nameEn":"Nanning-Zhuhai Highspeed Railway","usage":"main","highspeed":"yes","status":"construction","color":"#397F9D","dataOrigin":"datum-2026-08-01","sourceKey":"way:1509798734"}},{"type":"Feature","geometry":{"type":"LineString","coordinates":[[113.31612186410638,22.25],[113.3137852,22.2554204],[113.3130191,22.2571549],[113.3122061,22.2588389],[113.3112204,22.2607508],[113.3103313,22.2623356],[113.3093984,22.2638854],[113.3084639,22.2653364],[113.3075061,22.2667708],[113.3000862,22.2774158],[113.2993607,22.278432],[113.2985801,22.2794567],[113.2977199,22.2805069],[113.2967919,22.2815795],[113.2957275,22.2827094],[113.2948096,22.2836459],[113.2937944,22.284642]]},"properties":{"key":"way:1509798735@detail:453_89","osmType":"way","osmId":1509798735,"sourceRegion":"guangdong","featureType":"infrastructure","railClass":"construction","mode":"construction","name":"南珠高速线","nameEn":"Nanning-Zhuhai Highspeed Railway","usage":"main","highspeed":"yes","bridge":"yes","status":"construction","color":"#397F9D","dataOrigin":"datum-2026-08-01","sourceKey":"way:1509798735"}},{"type":"Feature","geometry":{"type":"LineString","coordinates":[[113.2926366,22.2856826],[113.2885544,22.2891039],[113.28721,22.2902326],[113.2860922,22.2911693],[113.2848873,22.2921665],[113.2793907,22.2964783],[113.2780858,22.2975317],[113.2770488,22.2984096],[113.2701565,22.3044428],[113.2690053,22.3055055],[113.2679469,22.3065732],[113.2669562,22.3076667],[113.2659218,22.3089105],[113.2614821,22.3145434]]},"properties":{"key":"way:1509798736@detail:453_89","osmType":"way","osmId":1509798736,"sourceRegion":"guangdong","featureType":"infrastructure","railClass":"construction","mode":"construction","name":"南珠高速线","nameEn":"Nanning-Zhuhai Highspeed Railway","usage":"main","highspeed":"yes","bridge":"yes","status":"construction","color":"#397F9D","dataOrigin":"datum-2026-08-01","sourceKey":"way:1509798736"}},{"type":"Feature","geometry":{"type":"LineString","coordinates":[[113.2585467,22.3180778],[113.2565387,22.3202869],[113.2552499,22.3216535],[113.2535381,22.3233559],[113.2516422,22.3251782],[113.25,22.326756822731284]]},"properties":{"key":"way:1509798752@detail:453_89","osmType":"way","osmId":1509798752,"sourceRegion":"guangdong","featureType":"infrastructure","railClass":"construction","mode":"construction","name":"南珠高速线","nameEn":"Nanning-Zhuhai Highspeed Railway","usage":"main","highspeed":"yes","bridge":"yes","status":"construction","color":"#397F9D","dataOrigin":"datum-2026-08-01","sourceKey":"way:1509798752"}},{"type":"Feature","geometry":{"type":"LineString","coordinates":[[113.2595094,22.3169883],[113.2585467,22.3180778]]},"properties":{"key":"way:1509798753@detail:453_89","osmType":"way","osmId":1509798753,"sourceRegion":"guangdong","featureType":"infrastructure","railClass":"construction","mode":"construction","name":"南珠高速线","nameEn":"Nanning-Zhuhai Highspeed Railway","usage":"main","highspeed":"yes","status":"construction","color":"#397F9D","dataOrigin":"datum-2026-08-01","sourceKey":"way:1509798753"}}]}