{"type":"FeatureCollection","features":[{"type":"Feature","geometry":{"type":"Point","coordinates":[113.4831214,24.3505167]},"properties":{"key":"node:8319382860","osmType":"node","osmId":8319382860,"sourceRegion":"guangdong","featureType":"station","railClass":"minor","mode":"station","name":"冬瓜铺","status":"operational","color":"#52636F","dataOrigin":"datum-2026-08-01","sourceKey":"node:8319382860","stationGroup":"冬瓜铺","hasOperationalRail":true,"hasConstructionRail":false}},{"type":"Feature","geometry":{"type":"Point","coordinates":[113.4620064,24.2627034]},"properties":{"key":"node:8320812742","osmType":"node","osmId":8320812742,"sourceRegion":"guangdong","featureType":"station","railClass":"minor","mode":"station","name":"河头","status":"operational","color":"#52636F","dataOrigin":"datum-2026-08-01","sourceKey":"node:8320812742","stationGroup":"河头","hasOperationalRail":true,"hasConstructionRail":false}},{"type":"Feature","geometry":{"type":"Point","coordinates":[113.4831789,24.3503343]},"properties":{"key":"node:9439489350","osmType":"node","osmId":9439489350,"sourceRegion":"guangdong","featureType":"station","railClass":"minor","mode":"stop","name":"冬瓜铺","status":"operational","color":"#52636F","dataOrigin":"datum-2026-08-01","sourceKey":"node:9439489350","stationGroup":"冬瓜铺","hasOperationalRail":true,"hasConstructionRail":false}},{"type":"Feature","geometry":{"type":"Point","coordinates":[113.4830122,24.3504268]},"properties":{"key":"node:9439489393","osmType":"node","osmId":9439489393,"sourceRegion":"guangdong","featureType":"station","railClass":"minor","mode":"stop","name":"冬瓜铺","status":"operational","color":"#52636F","dataOrigin":"datum-2026-08-01","sourceKey":"node:9439489393","stationGroup":"冬瓜铺","hasOperationalRail":true,"hasConstructionRail":false}},{"type":"Feature","geometry":{"type":"Point","coordinates":[113.461779,24.2623689]},"properties":{"key":"node:9439489510","osmType":"node","osmId":9439489510,"sourceRegion":"guangdong","featureType":"station","railClass":"minor","mode":"stop","name":"河头","status":"operational","color":"#52636F","dataOrigin":"datum-2026-08-01","sourceKey":"node:9439489510","stationGroup":"河头","hasOperationalRail":true,"hasConstructionRail":false}},{"type":"Feature","geometry":{"type":"Point","coordinates":[113.4619181,24.2624976]},"properties":{"key":"node:9439489567","osmType":"node","osmId":9439489567,"sourceRegion":"guangdong","featureType":"station","railClass":"minor","mode":"stop","name":"河头","status":"operational","color":"#52636F","dataOrigin":"datum-2026-08-01","sourceKey":"node:9439489567","stationGroup":"河头","hasOperationalRail":true,"hasConstructionRail":false}},{"type":"Feature","geometry":{"type":"LineString","coordinates":[[113.3829459,24.2865392],[113.3818549,24.2815393],[113.3790879,24.2678623],[113.3769431,24.2574744],[113.3762138,24.2543171],[113.376109,24.2538633],[113.375177,24.2505915],[113.37498059935562,24.25]]},"properties":{"key":"way:324613527@detail:453_97","osmType":"way","osmId":324613527,"sourceRegion":"guangdong","featureType":"infrastructure","railClass":"highspeed","mode":"rail","name":"京广高速线","nameEn":"Beijing-Guangzhou High-speed Line","ref":"3001","usage":"main","highspeed":"yes","bridge":"yes","status":"operational","color":"#E54848","dataOrigin":"datum-2026-08-01","sourceKey":"way:324613527"}},{"type":"Feature","geometry":{"type":"LineString","coordinates":[[113.4783683,24.4233489],[113.4772839,24.4212174]]},"properties":{"key":"way:324613558@detail:453_97","osmType":"way","osmId":324613558,"sourceRegion":"guangdong","featureType":"infrastructure","railClass":"highspeed","mode":"rail","name":"京广高速线","nameEn":"Beijing-Guangzhou High-speed Line","ref":"3001","usage":"main","highspeed":"yes","status":"operational","color":"#E54848","dataOrigin":"datum-2026-08-01","sourceKey":"way:324613558"}},{"type":"Feature","geometry":{"type":"LineString","coordinates":[[113.4772839,24.4212174],[113.476382,24.4196455]]},"properties":{"key":"way:324613574@detail:453_97","osmType":"way","osmId":324613574,"sourceRegion":"guangdong","featureType":"infrastructure","railClass":"highspeed","mode":"rail","name":"京广高速线","nameEn":"Beijing-Guangzhou High-speed Line","ref":"3001","usage":"main","highspeed":"yes","tunnel":"yes","status":"operational","color":"#E54848","dataOrigin":"datum-2026-08-01","sourceKey":"way:324613574"}},{"type":"Feature","geometry":{"type":"LineString","coordinates":[[113.4832903,24.4359823],[113.4831111,24.4353439]]},"properties":{"key":"way:324613583@detail:453_97","osmType":"way","osmId":324613583,"sourceRegion":"guangdong","featureType":"infrastructure","railClass":"highspeed","mode":"rail","name":"京广高速线","nameEn":"Beijing-Guangzhou High-speed Line","ref":"3001","usage":"main","highspeed":"yes","bridge":"yes","status":"operational","color":"#E54848","dataOrigin":"datum-2026-08-01","sourceKey":"way:324613583"}},{"type":"Feature","geometry":{"type":"LineString","coordinates":[[113.476382,24.4196455],[113.4756865,24.4184372]]},"properties":{"key":"way:324613589@detail:453_97","osmType":"way","osmId":324613589,"sourceRegion":"guangdong","featureType":"infrastructure","railClass":"highspeed","mode":"rail","name":"京广高速线","nameEn":"Beijing-Guangzhou High-speed Line","ref":"3001","usage":"main","highspeed":"yes","status":"operational","color":"#E54848","dataOrigin":"datum-2026-08-01","sourceKey":"way:324613589"}},{"type":"Feature","geometry":{"type":"LineString","coordinates":[[113.4831111,24.4353439],[113.4820888,24.4322065],[113.4804685,24.4278729],[113.4783683,24.4233489]]},"properties":{"key":"way:324613604@detail:453_97","osmType":"way","osmId":324613604,"sourceRegion":"guangdong","featureType":"infrastructure","railClass":"highspeed","mode":"rail","name":"京广高速线","nameEn":"Beijing-Guangzhou High-speed Line","ref":"3001","usage":"main","highspeed":"yes","tunnel":"yes","status":"operational","color":"#E54848","dataOrigin":"datum-2026-08-01","sourceKey":"way:324613604"}},{"type":"Feature","geometry":{"type":"LineString","coordinates":[[113.4756865,24.4184372],[113.4752778,24.417772],[113.4744125,24.4163212],[113.4735532,24.4150551],[113.472479,24.4133978],[113.4708388,24.4110754]]},"properties":{"key":"way:324613618@detail:453_97","osmType":"way","osmId":324613618,"sourceRegion":"guangdong","featureType":"infrastructure","railClass":"highspeed","mode":"rail","name":"京广高速线","nameEn":"Beijing-Guangzhou High-speed Line","ref":"3001","usage":"main","highspeed":"yes","bridge":"yes","status":"operational","color":"#E54848","dataOrigin":"datum-2026-08-01","sourceKey":"way:324613618"}},{"type":"Feature","geometry":{"type":"LineString","coordinates":[[113.48630958941332,24.5],[113.485651,24.4972477],[113.4847555,24.4895112],[113.4846955,24.4546287],[113.4841874,24.4410015],[113.4832903,24.4359823]]},"properties":{"key":"way:324613619@detail:453_97","osmType":"way","osmId":324613619,"sourceRegion":"guangdong","featureType":"infrastructure","railClass":"highspeed","mode":"rail","name":"京广高速线","nameEn":"Beijing-Guangzhou High-speed Line","ref":"3001","usage":"main","highspeed":"yes","tunnel":"yes","status":"operational","color":"#E54848","dataOrigin":"datum-2026-08-01","sourceKey":"way:324613619"}},{"type":"Feature","geometry":{"type":"LineString","coordinates":[[113.4590899,24.3124152],[113.4605427,24.3138845],[113.4619512,24.3152851],[113.4623941,24.3157049],[113.4628415,24.3161005],[113.4656131,24.3188718],[113.4668816,24.3202536],[113.4682701,24.3215668],[113.4688474,24.3221863],[113.4690936,24.3225903],[113.4693141,24.3229701],[113.4694624,24.3233223],[113.4702936,24.3257377],[113.470816,24.3272659],[113.471033,24.3281184],[113.4717435,24.3314523],[113.4720867,24.3331717],[113.472703,24.3359285],[113.4729248,24.337068],[113.4730357,24.3374613],[113.4731743,24.3378108],[113.4733685,24.3381968],[113.4746009,24.3399934],[113.4757224,24.3415935],[113.4765235,24.3424806],[113.4770719,24.3430981],[113.4780886,24.3442771],[113.4791054,24.3455964],[113.4796944,24.346281]]},"properties":{"key":"way:341356083@detail:453_97","osmType":"way","osmId":341356083,"sourceRegion":"guangdong","featureType":"infrastructure","railClass":"minor","mode":"rail","name":"未命名","usage":"industrial","service":"spur","status":"operational","color":"#52636F","dataOrigin":"datum-2026-08-01","sourceKey":"way:341356083"}},{"type":"Feature","geometry":{"type":"LineString","coordinates":[[113.4794719,24.3458318],[113.4792153,24.3454374],[113.4790023,24.3451101],[113.4787639,24.3447147],[113.4786637,24.3444636],[113.4786079,24.3442736],[113.4785473,24.3439595],[113.4785261,24.3436217],[113.4785389,24.3432792],[113.4786173,24.3429204],[113.4787323,24.3426333],[113.4788685,24.3423683],[113.479017,24.3421409],[113.4792664,24.3418385],[113.4795294,24.3415666],[113.4815591,24.3394683],[113.4817785,24.3392878],[113.4820213,24.3391167],[113.4822463,24.3389861],[113.482504,24.3388637],[113.4827498,24.338778],[113.4829986,24.3387172],[113.4832171,24.3386729],[113.4832835,24.3386616],[113.4850855,24.3383529]]},"properties":{"key":"way:341356085@detail:453_97","osmType":"way","osmId":341356085,"sourceRegion":"guangdong","featureType":"infrastructure","railClass":"minor","mode":"rail","name":"未命名","service":"spur","status":"operational","color":"#52636F","dataOrigin":"datum-2026-08-01","sourceKey":"way:341356085"}},{"type":"Feature","geometry":{"type":"LineString","coordinates":[[113.4012587,24.3214528],[113.3978444,24.3169684],[113.3928273,24.3098673],[113.391735,24.3079066],[113.3902296,24.3052119],[113.389038,24.302897],[113.3876945,24.3000189],[113.3866254,24.2973589],[113.385781,24.2952192],[113.3842672,24.2907795]]},"properties":{"key":"way:377637804@detail:453_97","osmType":"way","osmId":377637804,"sourceRegion":"guangdong","featureType":"infrastructure","railClass":"highspeed","mode":"rail","name":"京广高速线","nameEn":"Beijing-Guangzhou High-speed Line","ref":"3001","usage":"main","highspeed":"yes","bridge":"yes","status":"operational","color":"#E54848","dataOrigin":"datum-2026-08-01","sourceKey":"way:377637804"}},{"type":"Feature","geometry":{"type":"LineString","coordinates":[[113.4498453,24.27372],[113.4510819,24.2719706],[113.4527631,24.2696509],[113.4530544,24.2692495],[113.4534537,24.2687676],[113.4538036,24.2683964],[113.4542371,24.2680111],[113.454965,24.2674488],[113.4559253,24.2667529],[113.4562997,24.2664817],[113.4571202,24.2658871],[113.4581442,24.2651451],[113.4637325,24.2611318],[113.4648722,24.2603227],[113.465407,24.259943],[113.4658197,24.2596501],[113.4665795,24.2591108],[113.4680828,24.2580436],[113.4682804,24.2579073],[113.4688994,24.2574519],[113.4692062,24.2572122],[113.4695676,24.2568792],[113.470041,24.2563905],[113.4702868,24.2560822],[113.473513,24.2519624],[113.4740155,24.2512547]]},"properties":{"key":"way:377637806@detail:453_97","osmType":"way","osmId":377637806,"sourceRegion":"guangdong","featureType":"infrastructure","railClass":"national","mode":"rail","name":"京广线","nameEn":"Beijing–Guangzhou Railway","ref":"0001","usage":"main","status":"operational","color":"#E54848","dataOrigin":"datum-2026-08-01","sourceKey":"way:377637806"}},{"type":"Feature","geometry":{"type":"LineString","coordinates":[[113.455875,24.3059377],[113.4557142,24.3057106]]},"properties":{"key":"way:377637823@detail:453_97","osmType":"way","osmId":377637823,"sourceRegion":"guangdong","featureType":"infrastructure","railClass":"national","mode":"rail","name":"京广线","nameEn":"Beijing–Guangzhou Railway","ref":"0001","usage":"main","bridge":"yes","status":"operational","color":"#E54848","dataOrigin":"datum-2026-08-01","sourceKey":"way:377637823"}},{"type":"Feature","geometry":{"type":"LineString","coordinates":[[113.4155331,24.3398163],[113.4132774,24.3368165]]},"properties":{"key":"way:377637827@detail:453_97","osmType":"way","osmId":377637827,"sourceRegion":"guangdong","featureType":"infrastructure","railClass":"highspeed","mode":"rail","name":"京广高速线","nameEn":"Beijing-Guangzhou High-speed Line","ref":"3001","usage":"main","highspeed":"yes","status":"operational","color":"#E54848","dataOrigin":"datum-2026-08-01","sourceKey":"way:377637827"}},{"type":"Feature","geometry":{"type":"LineString","coordinates":[[113.4431912,24.3754776],[113.4403149,24.3717565]]},"properties":{"key":"way:377637832@detail:453_97","osmType":"way","osmId":377637832,"sourceRegion":"guangdong","featureType":"infrastructure","railClass":"highspeed","mode":"rail","name":"京广高速线","nameEn":"Beijing-Guangzhou High-speed Line","ref":"3001","usage":"main","highspeed":"yes","bridge":"yes","status":"operational","color":"#E54848","dataOrigin":"datum-2026-08-01","sourceKey":"way:377637832"}},{"type":"Feature","geometry":{"type":"LineString","coordinates":[[113.4403552,24.3717306],[113.4397015,24.3708901]]},"properties":{"key":"way:377637835@detail:453_97","osmType":"way","osmId":377637835,"sourceRegion":"guangdong","featureType":"infrastructure","railClass":"highspeed","mode":"rail","name":"京广高速线","nameEn":"Beijing-Guangzhou High-speed Line","ref":"3001","usage":"main","highspeed":"yes","status":"operational","color":"#E54848","dataOrigin":"datum-2026-08-01","sourceKey":"way:377637835"}},{"type":"Feature","geometry":{"type":"LineString","coordinates":[[113.4397015,24.3708901],[113.4346056,24.3642944]]},"properties":{"key":"way:377637870@detail:453_97","osmType":"way","osmId":377637870,"sourceRegion":"guangdong","featureType":"infrastructure","railClass":"highspeed","mode":"rail","name":"京广高速线","nameEn":"Beijing-Guangzhou High-speed Line","ref":"3001","usage":"main","highspeed":"yes","bridge":"yes","status":"operational","color":"#E54848","dataOrigin":"datum-2026-08-01","sourceKey":"way:377637870"}},{"type":"Feature","geometry":{"type":"LineString","coordinates":[[113.4217629,24.3478734],[113.4155331,24.3398163]]},"properties":{"key":"way:377637871@detail:453_97","osmType":"way","osmId":377637871,"sourceRegion":"guangdong","featureType":"infrastructure","railClass":"highspeed","mode":"rail","name":"京广高速线","nameEn":"Beijing-Guangzhou High-speed Line","ref":"3001","usage":"main","highspeed":"yes","bridge":"yes","status":"operational","color":"#E54848","dataOrigin":"datum-2026-08-01","sourceKey":"way:377637871"}},{"type":"Feature","geometry":{"type":"LineString","coordinates":[[113.4331525,24.3624403],[113.4317742,24.3606779]]},"properties":{"key":"way:377637878@detail:453_97","osmType":"way","osmId":377637878,"sourceRegion":"guangdong","featureType":"infrastructure","railClass":"highspeed","mode":"rail","name":"京广高速线","nameEn":"Beijing-Guangzhou High-speed Line","ref":"3001","usage":"main","highspeed":"yes","bridge":"yes","status":"operational","color":"#E54848","dataOrigin":"datum-2026-08-01","sourceKey":"way:377637878"}},{"type":"Feature","geometry":{"type":"LineString","coordinates":[[113.4495595,24.2741427],[113.4498453,24.27372]]},"properties":{"key":"way:377637881@detail:453_97","osmType":"way","osmId":377637881,"sourceRegion":"guangdong","featureType":"infrastructure","railClass":"national","mode":"rail","name":"京广线","nameEn":"Beijing–Guangzhou Railway","ref":"0001","usage":"main","bridge":"yes","status":"operational","color":"#E54848","dataOrigin":"datum-2026-08-01","sourceKey":"way:377637881"}},{"type":"Feature","geometry":{"type":"LineString","coordinates":[[113.4346056,24.3642944],[113.4331525,24.3624403]]},"properties":{"key":"way:377637883@detail:453_97","osmType":"way","osmId":377637883,"sourceRegion":"guangdong","featureType":"infrastructure","railClass":"highspeed","mode":"rail","name":"京广高速线","nameEn":"Beijing-Guangzhou High-speed Line","ref":"3001","usage":"main","highspeed":"yes","status":"operational","color":"#E54848","dataOrigin":"datum-2026-08-01","sourceKey":"way:377637883"}},{"type":"Feature","geometry":{"type":"LineString","coordinates":[[113.4132774,24.3368165],[113.404965,24.3262024]]},"properties":{"key":"way:377637899@detail:453_97","osmType":"way","osmId":377637899,"sourceRegion":"guangdong","featureType":"infrastructure","railClass":"highspeed","mode":"rail","name":"京广高速线","nameEn":"Beijing-Guangzhou High-speed Line","ref":"3001","usage":"main","highspeed":"yes","bridge":"yes","status":"operational","color":"#E54848","dataOrigin":"datum-2026-08-01","sourceKey":"way:377637899"}},{"type":"Feature","geometry":{"type":"LineString","coordinates":[[113.4579536,24.3087516],[113.455875,24.3059377]]},"properties":{"key":"way:377637903@detail:453_97","osmType":"way","osmId":377637903,"sourceRegion":"guangdong","featureType":"infrastructure","railClass":"national","mode":"rail","name":"京广线","nameEn":"Beijing–Guangzhou Railway","ref":"0001","usage":"main","status":"operational","color":"#E54848","dataOrigin":"datum-2026-08-01","sourceKey":"way:377637903"}},{"type":"Feature","geometry":{"type":"LineString","coordinates":[[113.4317742,24.3606779],[113.4217629,24.3478734]]},"properties":{"key":"way:377637906@detail:453_97","osmType":"way","osmId":377637906,"sourceRegion":"guangdong","featureType":"infrastructure","railClass":"highspeed","mode":"rail","name":"京广高速线","nameEn":"Beijing-Guangzhou High-speed Line","ref":"3001","usage":"main","highspeed":"yes","status":"operational","color":"#E54848","dataOrigin":"datum-2026-08-01","sourceKey":"way:377637906"}},{"type":"Feature","geometry":{"type":"LineString","coordinates":[[113.4557142,24.3057106],[113.4507388,24.2990405],[113.449296,24.2969828],[113.448966,24.2965404],[113.4486575,24.2960824],[113.4482304,24.2953582],[113.4480788,24.294999],[113.4479323,24.2946212],[113.4477103,24.2938617],[113.4475996,24.2931163],[113.4475751,24.2922382],[113.4476085,24.2913274],[113.4476514,24.2904195],[113.4476685,24.2896809],[113.4476624,24.2891345],[113.4475911,24.2885132],[113.4474572,24.287541],[113.4473367,24.2866023],[113.4472801,24.2860003],[113.447286,24.2856953],[113.4473231,24.2851385],[113.4473874,24.2845913],[113.4477164,24.2819201],[113.448027,24.2793697],[113.4482811,24.277554],[113.4483682,24.2769957],[113.4485066,24.2763623],[113.4486786,24.2758636],[113.4488631,24.2753969],[113.449023,24.275048],[113.4492628,24.2745995],[113.4495595,24.2741427]]},"properties":{"key":"way:377637914@detail:453_97","osmType":"way","osmId":377637914,"sourceRegion":"guangdong","featureType":"infrastructure","railClass":"national","mode":"rail","name":"京广线","nameEn":"Beijing–Guangzhou Railway","ref":"0001","usage":"main","status":"operational","color":"#E54848","dataOrigin":"datum-2026-08-01","sourceKey":"way:377637914"}},{"type":"Feature","geometry":{"type":"LineString","coordinates":[[113.404965,24.3262024],[113.4032924,24.3240475],[113.4012587,24.3214528]]},"properties":{"key":"way:377637922@detail:453_97","osmType":"way","osmId":377637922,"sourceRegion":"guangdong","featureType":"infrastructure","railClass":"highspeed","mode":"rail","name":"京广高速线","nameEn":"Beijing-Guangzhou High-speed Line","ref":"3001","usage":"main","highspeed":"yes","status":"operational","color":"#E54848","dataOrigin":"datum-2026-08-01","sourceKey":"way:377637922"}},{"type":"Feature","geometry":{"type":"LineString","coordinates":[[113.3842672,24.2907795],[113.3833928,24.2882345],[113.3829459,24.2865392]]},"properties":{"key":"way:377637925@detail:453_97","osmType":"way","osmId":377637925,"sourceRegion":"guangdong","featureType":"infrastructure","railClass":"highspeed","mode":"rail","name":"京广高速线","nameEn":"Beijing-Guangzhou High-speed Line","ref":"3001","usage":"main","highspeed":"yes","status":"operational","color":"#E54848","dataOrigin":"datum-2026-08-01","sourceKey":"way:377637925"}},{"type":"Feature","geometry":{"type":"LineString","coordinates":[[113.4673445,24.4065863],[113.4619109,24.39971],[113.4558717,24.3917869]]},"properties":{"key":"way:377637945@detail:453_97","osmType":"way","osmId":377637945,"sourceRegion":"guangdong","featureType":"infrastructure","railClass":"highspeed","mode":"rail","name":"京广高速线","nameEn":"Beijing-Guangzhou High-speed Line","ref":"3001","usage":"main","highspeed":"yes","status":"operational","color":"#E54848","dataOrigin":"datum-2026-08-01","sourceKey":"way:377637945"}},{"type":"Feature","geometry":{"type":"LineString","coordinates":[[113.4558328,24.3059532],[113.4579177,24.3087815]]},"properties":{"key":"way:631438451@detail:453_97","osmType":"way","osmId":631438451,"sourceRegion":"guangdong","featureType":"infrastructure","railClass":"national","mode":"rail","name":"京广线","nameEn":"Beijing–Guangzhou Railway","ref":"0001","usage":"main","status":"operational","color":"#E54848","dataOrigin":"datum-2026-08-01","sourceKey":"way:631438451"}},{"type":"Feature","geometry":{"type":"LineString","coordinates":[[113.4556714,24.3057296],[113.4558328,24.3059532]]},"properties":{"key":"way:631438452@detail:453_97","osmType":"way","osmId":631438452,"sourceRegion":"guangdong","featureType":"infrastructure","railClass":"national","mode":"rail","name":"京广线","nameEn":"Beijing–Guangzhou Railway","ref":"0001","usage":"main","bridge":"yes","status":"operational","color":"#E54848","dataOrigin":"datum-2026-08-01","sourceKey":"way:631438452"}},{"type":"Feature","geometry":{"type":"LineString","coordinates":[[113.4495192,24.2741202],[113.4492212,24.2745791],[113.4489799,24.2750303],[113.4488191,24.2753813],[113.4486338,24.2758498],[113.4484608,24.2763516],[113.4483216,24.2769883],[113.4482292,24.2775504],[113.4479801,24.2793646],[113.4476694,24.2819154],[113.4473254,24.2845952],[113.447267,24.2851816],[113.4472387,24.2856939],[113.4472406,24.2859932],[113.4472898,24.286601],[113.4474103,24.2875507],[113.4475492,24.2885199],[113.4476126,24.289128],[113.4476188,24.2897082],[113.4476016,24.290463],[113.4475614,24.2913229],[113.4475236,24.292251],[113.4475523,24.2931191],[113.4476638,24.2938696],[113.4478907,24.2946193],[113.4480334,24.2950151],[113.4481834,24.2953753],[113.4486122,24.2961075],[113.4489159,24.2965727],[113.4492367,24.2969951],[113.4506995,24.2990644],[113.4556714,24.3057296]]},"properties":{"key":"way:631438455@detail:453_97","osmType":"way","osmId":631438455,"sourceRegion":"guangdong","featureType":"infrastructure","railClass":"national","mode":"rail","name":"京广线","nameEn":"Beijing–Guangzhou Railway","ref":"0001","usage":"main","status":"operational","color":"#E54848","dataOrigin":"datum-2026-08-01","sourceKey":"way:631438455"}},{"type":"Feature","geometry":{"type":"LineString","coordinates":[[113.449811,24.2736899],[113.4495192,24.2741202]]},"properties":{"key":"way:631438457@detail:453_97","osmType":"way","osmId":631438457,"sourceRegion":"guangdong","featureType":"infrastructure","railClass":"national","mode":"rail","name":"京广线","nameEn":"Beijing–Guangzhou Railway","ref":"0001","usage":"main","bridge":"yes","status":"operational","color":"#E54848","dataOrigin":"datum-2026-08-01","sourceKey":"way:631438457"}},{"type":"Feature","geometry":{"type":"LineString","coordinates":[[113.4739709,24.251235],[113.4734796,24.2519472],[113.4702551,24.2560616],[113.4698928,24.2564751],[113.4695328,24.2568419],[113.4691801,24.2571691],[113.4688876,24.2574034],[113.4682527,24.2578667],[113.4680465,24.258015],[113.4661864,24.2593314],[113.4649949,24.2601746],[113.4648364,24.2602868],[113.4636983,24.2610922],[113.4581141,24.2651028],[113.457088,24.2658452],[113.4567798,24.2660681],[113.455892,24.2667104],[113.455439,24.2670381],[113.4548984,24.2674292],[113.4541821,24.2679952],[113.4537472,24.2683906],[113.453397,24.268756],[113.4530175,24.2692227],[113.452733,24.2696137],[113.4510425,24.2719513],[113.449811,24.2736899]]},"properties":{"key":"way:631438460@detail:453_97","osmType":"way","osmId":631438460,"sourceRegion":"guangdong","featureType":"infrastructure","railClass":"national","mode":"rail","name":"京广线","nameEn":"Beijing–Guangzhou Railway","ref":"0001","usage":"main","status":"operational","color":"#E54848","dataOrigin":"datum-2026-08-01","sourceKey":"way:631438460"}},{"type":"Feature","geometry":{"type":"LineString","coordinates":[[113.4558717,24.3917869],[113.4546816,24.3902302]]},"properties":{"key":"way:674187181@detail:453_97","osmType":"way","osmId":674187181,"sourceRegion":"guangdong","featureType":"infrastructure","railClass":"highspeed","mode":"rail","name":"京广高速线","nameEn":"Beijing-Guangzhou High-speed Line","ref":"3001","usage":"main","highspeed":"yes","bridge":"yes","status":"operational","color":"#E54848","dataOrigin":"datum-2026-08-01","sourceKey":"way:674187181"}},{"type":"Feature","geometry":{"type":"LineString","coordinates":[[113.4546816,24.3902302],[113.4531272,24.3882386]]},"properties":{"key":"way:674187182@detail:453_97","osmType":"way","osmId":674187182,"sourceRegion":"guangdong","featureType":"infrastructure","railClass":"highspeed","mode":"rail","name":"京广高速线","nameEn":"Beijing-Guangzhou High-speed Line","ref":"3001","usage":"main","highspeed":"yes","status":"operational","color":"#E54848","dataOrigin":"datum-2026-08-01","sourceKey":"way:674187182"}},{"type":"Feature","geometry":{"type":"LineString","coordinates":[[113.4531272,24.3882386],[113.4491585,24.3831322]]},"properties":{"key":"way:674187183@detail:453_97","osmType":"way","osmId":674187183,"sourceRegion":"guangdong","featureType":"infrastructure","railClass":"highspeed","mode":"rail","name":"京广高速线","nameEn":"Beijing-Guangzhou High-speed Line","ref":"3001","usage":"main","highspeed":"yes","bridge":"yes","status":"operational","color":"#E54848","dataOrigin":"datum-2026-08-01","sourceKey":"way:674187183"}},{"type":"Feature","geometry":{"type":"LineString","coordinates":[[113.4491585,24.3831322],[113.4482566,24.3820352],[113.4476264,24.3812193],[113.4431912,24.3754776]]},"properties":{"key":"way:674187184@detail:453_97","osmType":"way","osmId":674187184,"sourceRegion":"guangdong","featureType":"infrastructure","railClass":"highspeed","mode":"rail","name":"京广高速线","nameEn":"Beijing-Guangzhou High-speed Line","ref":"3001","usage":"main","highspeed":"yes","status":"operational","color":"#E54848","dataOrigin":"datum-2026-08-01","sourceKey":"way:674187184"}},{"type":"Feature","geometry":{"type":"LineString","coordinates":[[113.5,24.37076171751596],[113.49969,24.3705071],[113.4992332,24.3700689],[113.4986346,24.3694742],[113.4983272,24.3691368],[113.4978279,24.3685658],[113.4972785,24.367894],[113.4883943,24.3568548],[113.4880557,24.3564342],[113.487695,24.3560018],[113.4874922,24.355758],[113.4870283,24.3552004],[113.4816941,24.3485849],[113.4814153,24.3482391],[113.4807793,24.3474503],[113.4807458,24.3474098],[113.4801607,24.3467009],[113.4798438,24.346301],[113.4794719,24.3458318],[113.4791728,24.3454544],[113.4786326,24.3447421],[113.4782716,24.3441899],[113.4778915,24.3436083],[113.477592,24.343035],[113.4773155,24.3425389],[113.4769448,24.3417205],[113.4757115,24.338497],[113.4730399,24.3313911],[113.469157,24.3210603],[113.4688359,24.3202869],[113.4686299,24.3198709],[113.4684048,24.3195196],[113.4680522,24.3190037],[113.4677789,24.3186757],[113.4675151,24.3184008],[113.4673047,24.3181915],[113.4664588,24.317406],[113.4602693,24.3116758],[113.4600077,24.3114123],[113.45972,24.3110956],[113.4595066,24.3108501],[113.4592867,24.3105635],[113.4579536,24.3087516]]},"properties":{"key":"way:859980962@detail:453_97","osmType":"way","osmId":859980962,"sourceRegion":"guangdong","featureType":"infrastructure","railClass":"national","mode":"rail","name":"京广线","nameEn":"Beijing–Guangzhou Railway","ref":"0001","usage":"main","status":"operational","color":"#E54848","dataOrigin":"datum-2026-08-01","sourceKey":"way:859980962"}},{"type":"Feature","geometry":{"type":"LineString","coordinates":[[113.4830586,24.3503442],[113.4868969,24.3551156],[113.4869868,24.3552273],[113.487452,24.3557868],[113.4876522,24.3560277],[113.4880121,24.3564634],[113.4883537,24.356887],[113.4972454,24.3679134],[113.4978015,24.3685968],[113.498289,24.3691745],[113.4986093,24.3695236],[113.4991909,24.3701059],[113.4996592,24.3705303],[113.5,24.370811644771084]]},"properties":{"key":"way:859980963@detail:453_97","osmType":"way","osmId":859980963,"sourceRegion":"guangdong","featureType":"infrastructure","railClass":"national","mode":"rail","name":"京广线","nameEn":"Beijing–Guangzhou Railway","ref":"0001","usage":"main","status":"operational","color":"#E54848","dataOrigin":"datum-2026-08-01","sourceKey":"way:859980963"}},{"type":"Feature","geometry":{"type":"LineString","coordinates":[[113.4579177,24.3087815],[113.4592654,24.3106305],[113.4595539,24.3109909],[113.4598621,24.3113431],[113.4602087,24.3116936],[113.4664308,24.3174491],[113.4672608,24.3182197],[113.4674681,24.3184221],[113.4677454,24.3187255],[113.4680124,24.3190467],[113.4683576,24.3195515],[113.4685804,24.3198893],[113.4687964,24.320317],[113.4691095,24.3210804],[113.4729995,24.3314013],[113.4756836,24.3385238],[113.476889,24.3417523],[113.4772617,24.3425545],[113.477549,24.3430532],[113.477837,24.3436236],[113.4782116,24.3442504],[113.4787524,24.3450018],[113.4791243,24.3454666],[113.4800671,24.3466487],[113.4804208,24.3470922],[113.4808367,24.3476084],[113.4809946,24.3478044],[113.4812772,24.3481522],[113.4830586,24.3503442]]},"properties":{"key":"way:895013283@detail:453_97","osmType":"way","osmId":895013283,"sourceRegion":"guangdong","featureType":"infrastructure","railClass":"national","mode":"rail","name":"京广线","nameEn":"Beijing–Guangzhou Railway","ref":"0001","usage":"main","status":"operational","color":"#E54848","dataOrigin":"datum-2026-08-01","sourceKey":"way:895013283"}},{"type":"Feature","geometry":{"type":"LineString","coordinates":[[113.382893,24.2865501],[113.3818017,24.281549],[113.3790346,24.2678711],[113.37689,24.2574841],[113.3761608,24.2543273],[113.3760562,24.2538746],[113.3751248,24.2506049],[113.37492395048828,24.25]]},"properties":{"key":"way:902944544@detail:453_97","osmType":"way","osmId":902944544,"sourceRegion":"guangdong","featureType":"infrastructure","railClass":"highspeed","mode":"rail","name":"京广高速线","nameEn":"Beijing-Guangzhou High-speed Line","ref":"3001","usage":"main","highspeed":"yes","bridge":"yes","status":"operational","color":"#E54848","dataOrigin":"datum-2026-08-01","sourceKey":"way:902944544"}},{"type":"Feature","geometry":{"type":"LineString","coordinates":[[113.4155009,24.339837],[113.4132239,24.3368447]]},"properties":{"key":"way:902950948@detail:453_97","osmType":"way","osmId":902950948,"sourceRegion":"guangdong","featureType":"infrastructure","railClass":"highspeed","mode":"rail","name":"京广高速线","nameEn":"Beijing-Guangzhou High-speed Line","ref":"3001","usage":"main","highspeed":"yes","status":"operational","color":"#E54848","dataOrigin":"datum-2026-08-01","sourceKey":"way:902950948"}},{"type":"Feature","geometry":{"type":"LineString","coordinates":[[113.4132239,24.3368447],[113.4049328,24.3262231]]},"properties":{"key":"way:902950949@detail:453_97","osmType":"way","osmId":902950949,"sourceRegion":"guangdong","featureType":"infrastructure","railClass":"highspeed","mode":"rail","name":"京广高速线","nameEn":"Beijing-Guangzhou High-speed Line","ref":"3001","usage":"main","highspeed":"yes","bridge":"yes","status":"operational","color":"#E54848","dataOrigin":"datum-2026-08-01","sourceKey":"way:902950949"}},{"type":"Feature","geometry":{"type":"LineString","coordinates":[[113.4049328,24.3262231],[113.4032562,24.3240709],[113.4012226,24.3214763]]},"properties":{"key":"way:902950950@detail:453_97","osmType":"way","osmId":902950950,"sourceRegion":"guangdong","featureType":"infrastructure","railClass":"highspeed","mode":"rail","name":"京广高速线","nameEn":"Beijing-Guangzhou High-speed Line","ref":"3001","usage":"main","highspeed":"yes","status":"operational","color":"#E54848","dataOrigin":"datum-2026-08-01","sourceKey":"way:902950950"}},{"type":"Feature","geometry":{"type":"LineString","coordinates":[[113.4012226,24.3214763],[113.3978035,24.3169936],[113.3927843,24.3098893],[113.3916911,24.307927],[113.3901853,24.3052316],[113.388993,24.3029153],[113.387649,24.3000361],[113.3865794,24.297375],[113.3857344,24.2952338],[113.3842151,24.2907931]]},"properties":{"key":"way:902950951@detail:453_97","osmType":"way","osmId":902950951,"sourceRegion":"guangdong","featureType":"infrastructure","railClass":"highspeed","mode":"rail","name":"京广高速线","nameEn":"Beijing-Guangzhou High-speed Line","ref":"3001","usage":"main","highspeed":"yes","bridge":"yes","status":"operational","color":"#E54848","dataOrigin":"datum-2026-08-01","sourceKey":"way:902950951"}},{"type":"Feature","geometry":{"type":"LineString","coordinates":[[113.3842151,24.2907931],[113.3833404,24.2882471],[113.382893,24.2865501]]},"properties":{"key":"way:902950952@detail:453_97","osmType":"way","osmId":902950952,"sourceRegion":"guangdong","featureType":"infrastructure","railClass":"highspeed","mode":"rail","name":"京广高速线","nameEn":"Beijing-Guangzhou High-speed Line","ref":"3001","usage":"main","highspeed":"yes","status":"operational","color":"#E54848","dataOrigin":"datum-2026-08-01","sourceKey":"way:902950952"}},{"type":"Feature","geometry":{"type":"LineString","coordinates":[[113.48636007960846,24.5],[113.4856998,24.4972406],[113.4848048,24.4895088],[113.4847448,24.4546279],[113.4842366,24.4409971],[113.483339,24.4359751]]},"properties":{"key":"way:903373505@detail:453_97","osmType":"way","osmId":903373505,"sourceRegion":"guangdong","featureType":"infrastructure","railClass":"highspeed","mode":"rail","name":"京广高速线","nameEn":"Beijing-Guangzhou High-speed Line","ref":"3001","usage":"main","highspeed":"yes","tunnel":"yes","status":"operational","color":"#E54848","dataOrigin":"datum-2026-08-01","sourceKey":"way:903373505"}},{"type":"Feature","geometry":{"type":"LineString","coordinates":[[113.483339,24.4359751],[113.4831584,24.4353311]]},"properties":{"key":"way:903373506@detail:453_97","osmType":"way","osmId":903373506,"sourceRegion":"guangdong","featureType":"infrastructure","railClass":"highspeed","mode":"rail","name":"京广高速线","nameEn":"Beijing-Guangzhou High-speed Line","ref":"3001","usage":"main","highspeed":"yes","bridge":"yes","status":"operational","color":"#E54848","dataOrigin":"datum-2026-08-01","sourceKey":"way:903373506"}},{"type":"Feature","geometry":{"type":"LineString","coordinates":[[113.4831584,24.4353311],[113.4821358,24.4321929],[113.4805146,24.4278569],[113.4784137,24.4233314]]},"properties":{"key":"way:903373507@detail:453_97","osmType":"way","osmId":903373507,"sourceRegion":"guangdong","featureType":"infrastructure","railClass":"highspeed","mode":"rail","name":"京广高速线","nameEn":"Beijing-Guangzhou High-speed Line","ref":"3001","usage":"main","highspeed":"yes","tunnel":"yes","status":"operational","color":"#E54848","dataOrigin":"datum-2026-08-01","sourceKey":"way:903373507"}},{"type":"Feature","geometry":{"type":"LineString","coordinates":[[113.4784137,24.4233314],[113.4773287,24.4211985]]},"properties":{"key":"way:903373508@detail:453_97","osmType":"way","osmId":903373508,"sourceRegion":"guangdong","featureType":"infrastructure","railClass":"highspeed","mode":"rail","name":"京广高速线","nameEn":"Beijing-Guangzhou High-speed Line","ref":"3001","usage":"main","highspeed":"yes","status":"operational","color":"#E54848","dataOrigin":"datum-2026-08-01","sourceKey":"way:903373508"}},{"type":"Feature","geometry":{"type":"LineString","coordinates":[[113.4773287,24.4211985],[113.4764257,24.4196246]]},"properties":{"key":"way:903373509@detail:453_97","osmType":"way","osmId":903373509,"sourceRegion":"guangdong","featureType":"infrastructure","railClass":"highspeed","mode":"rail","name":"京广高速线","nameEn":"Beijing-Guangzhou High-speed Line","ref":"3001","usage":"main","highspeed":"yes","tunnel":"yes","status":"operational","color":"#E54848","dataOrigin":"datum-2026-08-01","sourceKey":"way:903373509"}},{"type":"Feature","geometry":{"type":"LineString","coordinates":[[113.4764257,24.4196246],[113.4757302,24.4184163]]},"properties":{"key":"way:903373510@detail:453_97","osmType":"way","osmId":903373510,"sourceRegion":"guangdong","featureType":"infrastructure","railClass":"highspeed","mode":"rail","name":"京广高速线","nameEn":"Beijing-Guangzhou High-speed Line","ref":"3001","usage":"main","highspeed":"yes","status":"operational","color":"#E54848","dataOrigin":"datum-2026-08-01","sourceKey":"way:903373510"}},{"type":"Feature","geometry":{"type":"LineString","coordinates":[[113.4757302,24.4184163],[113.475321,24.4177503],[113.4744552,24.4162987],[113.4735954,24.4150319],[113.472521,24.4133742],[113.4708792,24.4110497]]},"properties":{"key":"way:903373511@detail:453_97","osmType":"way","osmId":903373511,"sourceRegion":"guangdong","featureType":"infrastructure","railClass":"highspeed","mode":"rail","name":"京广高速线","nameEn":"Beijing-Guangzhou High-speed Line","ref":"3001","usage":"main","highspeed":"yes","bridge":"yes","status":"operational","color":"#E54848","dataOrigin":"datum-2026-08-01","sourceKey":"way:903373511"}},{"type":"Feature","geometry":{"type":"LineString","coordinates":[[113.4674032,24.4065622],[113.4619512,24.3996841],[113.4559122,24.3917612]]},"properties":{"key":"way:903373512@detail:453_97","osmType":"way","osmId":903373512,"sourceRegion":"guangdong","featureType":"infrastructure","railClass":"highspeed","mode":"rail","name":"京广高速线","nameEn":"Beijing-Guangzhou High-speed Line","ref":"3001","usage":"main","highspeed":"yes","status":"operational","color":"#E54848","dataOrigin":"datum-2026-08-01","sourceKey":"way:903373512"}},{"type":"Feature","geometry":{"type":"LineString","coordinates":[[113.4559122,24.3917612],[113.4547206,24.3902089]]},"properties":{"key":"way:903373513@detail:453_97","osmType":"way","osmId":903373513,"sourceRegion":"guangdong","featureType":"infrastructure","railClass":"highspeed","mode":"rail","name":"京广高速线","nameEn":"Beijing-Guangzhou High-speed Line","ref":"3001","usage":"main","highspeed":"yes","bridge":"yes","status":"operational","color":"#E54848","dataOrigin":"datum-2026-08-01","sourceKey":"way:903373513"}},{"type":"Feature","geometry":{"type":"LineString","coordinates":[[113.4547206,24.3902089],[113.4531723,24.3882112]]},"properties":{"key":"way:903373514@detail:453_97","osmType":"way","osmId":903373514,"sourceRegion":"guangdong","featureType":"infrastructure","railClass":"highspeed","mode":"rail","name":"京广高速线","nameEn":"Beijing-Guangzhou High-speed Line","ref":"3001","usage":"main","highspeed":"yes","status":"operational","color":"#E54848","dataOrigin":"datum-2026-08-01","sourceKey":"way:903373514"}},{"type":"Feature","geometry":{"type":"LineString","coordinates":[[113.4531723,24.3882112],[113.4492122,24.3831101]]},"properties":{"key":"way:903373515@detail:453_97","osmType":"way","osmId":903373515,"sourceRegion":"guangdong","featureType":"infrastructure","railClass":"highspeed","mode":"rail","name":"京广高速线","nameEn":"Beijing-Guangzhou High-speed Line","ref":"3001","usage":"main","highspeed":"yes","bridge":"yes","status":"operational","color":"#E54848","dataOrigin":"datum-2026-08-01","sourceKey":"way:903373515"}},{"type":"Feature","geometry":{"type":"LineString","coordinates":[[113.4492122,24.3831101],[113.4482969,24.3820094],[113.4476667,24.3811935],[113.4432315,24.3754517]]},"properties":{"key":"way:903373516@detail:453_97","osmType":"way","osmId":903373516,"sourceRegion":"guangdong","featureType":"infrastructure","railClass":"highspeed","mode":"rail","name":"京广高速线","nameEn":"Beijing-Guangzhou High-speed Line","ref":"3001","usage":"main","highspeed":"yes","status":"operational","color":"#E54848","dataOrigin":"datum-2026-08-01","sourceKey":"way:903373516"}},{"type":"Feature","geometry":{"type":"LineString","coordinates":[[113.4432315,24.3754517],[113.4403552,24.3717306]]},"properties":{"key":"way:903373517@detail:453_97","osmType":"way","osmId":903373517,"sourceRegion":"guangdong","featureType":"infrastructure","railClass":"highspeed","mode":"rail","name":"京广高速线","nameEn":"Beijing-Guangzhou High-speed Line","ref":"3001","usage":"main","highspeed":"yes","bridge":"yes","status":"operational","color":"#E54848","dataOrigin":"datum-2026-08-01","sourceKey":"way:903373517"}},{"type":"Feature","geometry":{"type":"LineString","coordinates":[[113.4403149,24.3717565],[113.4396601,24.3709145]]},"properties":{"key":"way:903373518@detail:453_97","osmType":"way","osmId":903373518,"sourceRegion":"guangdong","featureType":"infrastructure","railClass":"highspeed","mode":"rail","name":"京广高速线","nameEn":"Beijing-Guangzhou High-speed Line","ref":"3001","usage":"main","highspeed":"yes","status":"operational","color":"#E54848","dataOrigin":"datum-2026-08-01","sourceKey":"way:903373518"}},{"type":"Feature","geometry":{"type":"LineString","coordinates":[[113.4396601,24.3709145],[113.4345652,24.36432]]},"properties":{"key":"way:903373519@detail:453_97","osmType":"way","osmId":903373519,"sourceRegion":"guangdong","featureType":"infrastructure","railClass":"highspeed","mode":"rail","name":"京广高速线","nameEn":"Beijing-Guangzhou High-speed Line","ref":"3001","usage":"main","highspeed":"yes","bridge":"yes","status":"operational","color":"#E54848","dataOrigin":"datum-2026-08-01","sourceKey":"way:903373519"}},{"type":"Feature","geometry":{"type":"LineString","coordinates":[[113.4345652,24.36432],[113.4331069,24.3624562]]},"properties":{"key":"way:903373520@detail:453_97","osmType":"way","osmId":903373520,"sourceRegion":"guangdong","featureType":"infrastructure","railClass":"highspeed","mode":"rail","name":"京广高速线","nameEn":"Beijing-Guangzhou High-speed Line","ref":"3001","usage":"main","highspeed":"yes","status":"operational","color":"#E54848","dataOrigin":"datum-2026-08-01","sourceKey":"way:903373520"}},{"type":"Feature","geometry":{"type":"LineString","coordinates":[[113.4331069,24.3624562],[113.4317339,24.3607133]]},"properties":{"key":"way:903373521@detail:453_97","osmType":"way","osmId":903373521,"sourceRegion":"guangdong","featureType":"infrastructure","railClass":"highspeed","mode":"rail","name":"京广高速线","nameEn":"Beijing-Guangzhou High-speed Line","ref":"3001","usage":"main","highspeed":"yes","bridge":"yes","status":"operational","color":"#E54848","dataOrigin":"datum-2026-08-01","sourceKey":"way:903373521"}},{"type":"Feature","geometry":{"type":"LineString","coordinates":[[113.4317339,24.3607133],[113.4217307,24.3478941]]},"properties":{"key":"way:903373522@detail:453_97","osmType":"way","osmId":903373522,"sourceRegion":"guangdong","featureType":"infrastructure","railClass":"highspeed","mode":"rail","name":"京广高速线","nameEn":"Beijing-Guangzhou High-speed Line","ref":"3001","usage":"main","highspeed":"yes","status":"operational","color":"#E54848","dataOrigin":"datum-2026-08-01","sourceKey":"way:903373522"}},{"type":"Feature","geometry":{"type":"LineString","coordinates":[[113.4217307,24.3478941],[113.4155009,24.339837]]},"properties":{"key":"way:903373523@detail:453_97","osmType":"way","osmId":903373523,"sourceRegion":"guangdong","featureType":"infrastructure","railClass":"highspeed","mode":"rail","name":"京广高速线","nameEn":"Beijing-Guangzhou High-speed Line","ref":"3001","usage":"main","highspeed":"yes","bridge":"yes","status":"operational","color":"#E54848","dataOrigin":"datum-2026-08-01","sourceKey":"way:903373523"}},{"type":"Feature","geometry":{"type":"LineString","coordinates":[[113.4989001,24.3655543],[113.4954834,24.3632754],[113.4950929,24.3630527],[113.4946853,24.3628475],[113.494441,24.362725],[113.4936898,24.3623483],[113.493368,24.362188],[113.4931792,24.3621001],[113.4929852,24.3620217],[113.4928413,24.3619529],[113.4926513,24.3618513],[113.4924367,24.3617242],[113.4922847,24.3615774],[113.4921769,24.3614405],[113.491892,24.3610377],[113.4914785,24.3605036],[113.4904996,24.359278],[113.4894719,24.3580074],[113.4891686,24.357644],[113.4888478,24.3573171],[113.4883943,24.3568548]]},"properties":{"key":"way:1023480279@detail:453_97","osmType":"way","osmId":1023480279,"sourceRegion":"guangdong","featureType":"infrastructure","railClass":"minor","mode":"rail","name":"未命名","usage":"industrial","service":"spur","status":"operational","color":"#52636F","dataOrigin":"datum-2026-08-01","sourceKey":"way:1023480279"}},{"type":"Feature","geometry":{"type":"LineString","coordinates":[[113.5,24.36717203340166],[113.4972387,24.3656473],[113.4969843,24.365506],[113.4967805,24.3653696],[113.496615,24.3652429],[113.4964499,24.3650788],[113.4961526,24.3647388]]},"properties":{"key":"way:1023480280@detail:453_97","osmType":"way","osmId":1023480280,"sourceRegion":"guangdong","featureType":"infrastructure","railClass":"minor","mode":"rail","name":"未命名","usage":"industrial","service":"yard","status":"operational","color":"#52636F","dataOrigin":"datum-2026-08-01","sourceKey":"way:1023480280"}},{"type":"Feature","geometry":{"type":"LineString","coordinates":[[113.5,24.36726630925959],[113.4971524,24.3657025],[113.4969432,24.3655809],[113.4968134,24.3654969],[113.4966136,24.3653261],[113.4964773,24.3651878],[113.496351,24.3650321],[113.4961526,24.3647388],[113.4954651,24.3637318],[113.4953548,24.3635703],[113.495125,24.3632723],[113.4949956,24.3631397],[113.4948567,24.3630099],[113.4947629,24.3629409],[113.494441,24.362725]]},"properties":{"key":"way:1023480281@detail:453_97","osmType":"way","osmId":1023480281,"sourceRegion":"guangdong","featureType":"infrastructure","railClass":"minor","mode":"rail","name":"未命名","usage":"industrial","service":"yard","status":"operational","color":"#52636F","dataOrigin":"datum-2026-08-01","sourceKey":"way:1023480281"}},{"type":"Feature","geometry":{"type":"LineString","coordinates":[[113.4985586,24.3675185],[113.4980938,24.3671991],[113.4977573,24.3669654],[113.4975115,24.3667421],[113.4971987,24.3664255],[113.4968665,24.3660602],[113.4964549,24.3655377],[113.496235,24.3652703],[113.4961078,24.3649949],[113.4954651,24.3637318]]},"properties":{"key":"way:1023480282@detail:453_97","osmType":"way","osmId":1023480282,"sourceRegion":"guangdong","featureType":"infrastructure","railClass":"minor","mode":"rail","name":"未命名","usage":"industrial","service":"yard","status":"operational","color":"#52636F","dataOrigin":"datum-2026-08-01","sourceKey":"way:1023480282"}},{"type":"Feature","geometry":{"type":"LineString","coordinates":[[113.4888478,24.3573171],[113.4884069,24.3567136]]},"properties":{"key":"way:1023610963@detail:453_97","osmType":"way","osmId":1023610963,"sourceRegion":"guangdong","featureType":"infrastructure","railClass":"minor","mode":"rail","name":"未命名","service":"siding","status":"operational","color":"#52636F","dataOrigin":"datum-2026-08-01","sourceKey":"way:1023610963"}},{"type":"Feature","geometry":{"type":"LineString","coordinates":[[113.4918328,24.3613001],[113.4885918,24.357265],[113.4870262,24.355358],[113.4869875,24.3553172],[113.4868615,24.355192],[113.486492,24.3548248],[113.486302,24.3546359],[113.4861628,24.3544699],[113.4860292,24.3543167],[113.4848608,24.3528658],[113.4831681,24.3507814],[113.4818989,24.3491996],[113.4815681,24.348778],[113.4814776,24.348645],[113.4813637,24.3484901],[113.4811369,24.3481286],[113.4809426,24.3478188]]},"properties":{"key":"way:1023610964@detail:453_97","osmType":"way","osmId":1023610964,"sourceRegion":"guangdong","featureType":"infrastructure","railClass":"minor","mode":"rail","name":"未命名","service":"yard","status":"operational","color":"#52636F","dataOrigin":"datum-2026-08-01","sourceKey":"way:1023610964"}},{"type":"Feature","geometry":{"type":"LineString","coordinates":[[113.4883537,24.356887],[113.4885918,24.357265]]},"properties":{"key":"way:1023610965@detail:453_97","osmType":"way","osmId":1023610965,"sourceRegion":"guangdong","featureType":"infrastructure","railClass":"minor","mode":"rail","name":"未命名","service":"yard","status":"operational","color":"#52636F","dataOrigin":"datum-2026-08-01","sourceKey":"way:1023610965"}},{"type":"Feature","geometry":{"type":"LineString","coordinates":[[113.4880121,24.3564634],[113.4878558,24.3562327],[113.487695,24.3560018]]},"properties":{"key":"way:1023610966@detail:453_97","osmType":"way","osmId":1023610966,"sourceRegion":"guangdong","featureType":"infrastructure","railClass":"minor","mode":"rail","name":"未命名","usage":"main","service":"crossover","status":"operational","color":"#52636F","dataOrigin":"datum-2026-08-01","sourceKey":"way:1023610966"}},{"type":"Feature","geometry":{"type":"LineString","coordinates":[[113.4880557,24.3564342],[113.4878558,24.3562327],[113.4876522,24.3560277]]},"properties":{"key":"way:1023610967@detail:453_97","osmType":"way","osmId":1023610967,"sourceRegion":"guangdong","featureType":"infrastructure","railClass":"minor","mode":"rail","name":"未命名","usage":"main","service":"crossover","status":"operational","color":"#52636F","dataOrigin":"datum-2026-08-01","sourceKey":"way:1023610967"}},{"type":"Feature","geometry":{"type":"LineString","coordinates":[[113.4870262,24.355358],[113.487452,24.3557868]]},"properties":{"key":"way:1023610974@detail:453_97","osmType":"way","osmId":1023610974,"sourceRegion":"guangdong","featureType":"infrastructure","railClass":"minor","mode":"rail","name":"未命名","service":"yard","status":"operational","color":"#52636F","dataOrigin":"datum-2026-08-01","sourceKey":"way:1023610974"}},{"type":"Feature","geometry":{"type":"LineString","coordinates":[[113.4816941,24.3485849],[113.4819531,24.3488382],[113.4820806,24.3489811],[113.4822581,24.3491911],[113.4831789,24.3503343],[113.4868832,24.3549328],[113.4871269,24.3552227],[113.4874922,24.355758]]},"properties":{"key":"way:1023610975@detail:453_97","osmType":"way","osmId":1023610975,"sourceRegion":"guangdong","featureType":"infrastructure","railClass":"minor","mode":"rail","name":"未命名","service":"yard","status":"operational","color":"#52636F","dataOrigin":"datum-2026-08-01","sourceKey":"way:1023610975"}},{"type":"Feature","geometry":{"type":"LineString","coordinates":[[113.4812772,24.3481522],[113.4816772,24.3487492],[113.4818547,24.3489939],[113.4830122,24.3504268],[113.4860299,24.3541627],[113.4862675,24.3544558],[113.4864141,24.3546172],[113.4868969,24.3551156]]},"properties":{"key":"way:1023610976@detail:453_97","osmType":"way","osmId":1023610976,"sourceRegion":"guangdong","featureType":"infrastructure","railClass":"minor","mode":"rail","name":"未命名","service":"yard","status":"operational","color":"#52636F","dataOrigin":"datum-2026-08-01","sourceKey":"way:1023610976"}},{"type":"Feature","geometry":{"type":"LineString","coordinates":[[113.4796944,24.346281],[113.4802156,24.3469232],[113.4803738,24.3471181],[113.4807897,24.3476304],[113.4809426,24.3478188],[113.4811301,24.3480514],[113.481468,24.3485469],[113.4817341,24.3489062],[113.4819304,24.3491685],[113.4827133,24.3501371],[113.4842069,24.3519645],[113.4846519,24.352532],[113.4859731,24.3541716],[113.4863081,24.3545903],[113.486492,24.3548248]]},"properties":{"key":"way:1023610977@detail:453_97","osmType":"way","osmId":1023610977,"sourceRegion":"guangdong","featureType":"infrastructure","railClass":"minor","mode":"rail","name":"未命名","service":"yard","status":"operational","color":"#52636F","dataOrigin":"datum-2026-08-01","sourceKey":"way:1023610977"}},{"type":"Feature","geometry":{"type":"LineString","coordinates":[[113.4868615,24.355192],[113.4864901,24.3548986],[113.4863432,24.3547826],[113.4862169,24.3546668],[113.4861357,24.3545928],[113.4860689,24.3545254],[113.4859859,24.3544218],[113.4840141,24.3519873],[113.483909,24.3518525],[113.4835848,24.3513688]]},"properties":{"key":"way:1023610978@detail:453_97","osmType":"way","osmId":1023610978,"sourceRegion":"guangdong","featureType":"infrastructure","railClass":"minor","mode":"rail","name":"未命名","service":"yard","status":"operational","color":"#52636F","dataOrigin":"datum-2026-08-01","sourceKey":"way:1023610978"}},{"type":"Feature","geometry":{"type":"LineString","coordinates":[[113.4811369,24.3481286],[113.4813285,24.3485163],[113.4813788,24.348603],[113.4814548,24.348712],[113.4816946,24.3490219],[113.4833433,24.3510704],[113.4835848,24.3513688],[113.4838784,24.3517316],[113.4861542,24.3545433],[113.4862996,24.3547093],[113.4864901,24.3548986]]},"properties":{"key":"way:1023610979@detail:453_97","osmType":"way","osmId":1023610979,"sourceRegion":"guangdong","featureType":"infrastructure","railClass":"minor","mode":"rail","name":"未命名","service":"yard","status":"operational","color":"#52636F","dataOrigin":"datum-2026-08-01","sourceKey":"way:1023610979"}},{"type":"Feature","geometry":{"type":"LineString","coordinates":[[113.4809946,24.3478044],[113.4814153,24.3482391]]},"properties":{"key":"way:1023610980@detail:453_97","osmType":"way","osmId":1023610980,"sourceRegion":"guangdong","featureType":"infrastructure","railClass":"minor","mode":"rail","name":"未命名","service":"crossover","status":"operational","color":"#52636F","dataOrigin":"datum-2026-08-01","sourceKey":"way:1023610980"}},{"type":"Feature","geometry":{"type":"LineString","coordinates":[[113.4798438,24.346301],[113.4800671,24.3466487]]},"properties":{"key":"way:1023610981@detail:453_97","osmType":"way","osmId":1023610981,"sourceRegion":"guangdong","featureType":"infrastructure","railClass":"minor","mode":"rail","name":"未命名","usage":"main","service":"yard","status":"operational","color":"#52636F","dataOrigin":"datum-2026-08-01","sourceKey":"way:1023610981"}},{"type":"Feature","geometry":{"type":"LineString","coordinates":[[113.4751939,24.3411606],[113.4778372,24.3441131],[113.4780374,24.3443287],[113.4783636,24.3447948],[113.4785335,24.3450491],[113.4786822,24.3452703],[113.4789675,24.3456132],[113.4795056,24.3461872],[113.4797752,24.3464789],[113.4802156,24.3469232]]},"properties":{"key":"way:1023610982@detail:453_97","osmType":"way","osmId":1023610982,"sourceRegion":"guangdong","featureType":"infrastructure","railClass":"minor","mode":"rail","name":"未命名","service":"yard","status":"operational","color":"#52636F","dataOrigin":"datum-2026-08-01","sourceKey":"way:1023610982"}},{"type":"Feature","geometry":{"type":"LineString","coordinates":[[113.4804208,24.3470922],[113.4806101,24.3473684],[113.4807897,24.3476304]]},"properties":{"key":"way:1023610983@detail:453_97","osmType":"way","osmId":1023610983,"sourceRegion":"guangdong","featureType":"infrastructure","railClass":"minor","mode":"rail","name":"未命名","service":"yard","status":"operational","color":"#52636F","dataOrigin":"datum-2026-08-01","sourceKey":"way:1023610983"}},{"type":"Feature","geometry":{"type":"LineString","coordinates":[[113.4803738,24.3471181],[113.4806101,24.3473684],[113.4808367,24.3476084]]},"properties":{"key":"way:1023610984@detail:453_97","osmType":"way","osmId":1023610984,"sourceRegion":"guangdong","featureType":"infrastructure","railClass":"minor","mode":"rail","name":"未命名","service":"yard","status":"operational","color":"#52636F","dataOrigin":"datum-2026-08-01","sourceKey":"way:1023610984"}},{"type":"Feature","geometry":{"type":"LineString","coordinates":[[113.4797565,24.3460727],[113.4792153,24.3454374]]},"properties":{"key":"way:1023610986@detail:453_97","osmType":"way","osmId":1023610986,"sourceRegion":"guangdong","featureType":"infrastructure","railClass":"minor","mode":"rail","name":"未命名","service":"siding","status":"operational","color":"#52636F","dataOrigin":"datum-2026-08-01","sourceKey":"way:1023610986"}},{"type":"Feature","geometry":{"type":"LineString","coordinates":[[113.457088,24.2658452],[113.4574863,24.2654981],[113.4577156,24.2652983],[113.4578737,24.2651741],[113.4580752,24.2650385],[113.459194,24.2642321],[113.461779,24.2623689],[113.4619516,24.2622445],[113.4634058,24.2612041],[113.4638475,24.2609055],[113.4648364,24.2602868]]},"properties":{"key":"way:1023610989@detail:453_97","osmType":"way","osmId":1023610989,"sourceRegion":"guangdong","featureType":"infrastructure","railClass":"minor","mode":"rail","name":"未命名","usage":"main","service":"yard","status":"operational","color":"#52636F","dataOrigin":"datum-2026-08-01","sourceKey":"way:1023610989"}},{"type":"Feature","geometry":{"type":"LineString","coordinates":[[113.455439,24.2670381],[113.4559253,24.2667529]]},"properties":{"key":"way:1023610990@detail:453_97","osmType":"way","osmId":1023610990,"sourceRegion":"guangdong","featureType":"infrastructure","railClass":"minor","mode":"rail","name":"未命名","usage":"main","service":"crossover","status":"operational","color":"#52636F","dataOrigin":"datum-2026-08-01","sourceKey":"way:1023610990"}},{"type":"Feature","geometry":{"type":"LineString","coordinates":[[113.455408,24.2669993],[113.455892,24.2667104]]},"properties":{"key":"way:1023610991@detail:453_97","osmType":"way","osmId":1023610991,"sourceRegion":"guangdong","featureType":"infrastructure","railClass":"minor","mode":"rail","name":"未命名","service":"yard","status":"operational","color":"#52636F","dataOrigin":"datum-2026-08-01","sourceKey":"way:1023610991"}},{"type":"Feature","geometry":{"type":"LineString","coordinates":[[113.4562353,24.2649231],[113.4556913,24.2662842],[113.4556132,24.266468],[113.4555262,24.2666477],[113.4554494,24.266769],[113.4553253,24.2669307],[113.4551357,24.2671621]]},"properties":{"key":"way:1023610992@detail:453_97","osmType":"way","osmId":1023610992,"sourceRegion":"guangdong","featureType":"infrastructure","railClass":"minor","mode":"rail","name":"未命名","service":"yard","status":"operational","color":"#52636F","dataOrigin":"datum-2026-08-01","sourceKey":"way:1023610992"}},{"type":"Feature","geometry":{"type":"LineString","coordinates":[[113.4549512,24.2673305],[113.4551357,24.2671621],[113.4554532,24.2668724],[113.4558433,24.2665347],[113.4562421,24.2662391],[113.4571217,24.2656029],[113.45742,24.2653989],[113.4580752,24.2650385]]},"properties":{"key":"way:1023610993@detail:453_97","osmType":"way","osmId":1023610993,"sourceRegion":"guangdong","featureType":"infrastructure","railClass":"minor","mode":"rail","name":"未命名","service":"yard","status":"operational","color":"#52636F","dataOrigin":"datum-2026-08-01","sourceKey":"way:1023610993"}},{"type":"Feature","geometry":{"type":"LineString","coordinates":[[113.4528327,24.269385],[113.452962,24.2692076],[113.4530913,24.2690466],[113.4532836,24.2687953],[113.4535302,24.2685247],[113.4537479,24.2682985],[113.4540365,24.2680352],[113.4543334,24.2677877],[113.454661,24.2675402],[113.4549512,24.2673305],[113.4552737,24.2670975],[113.455408,24.2669993],[113.4570596,24.2658149],[113.4574863,24.2654981]]},"properties":{"key":"way:1023610994@detail:453_97","osmType":"way","osmId":1023610994,"sourceRegion":"guangdong","featureType":"infrastructure","railClass":"minor","mode":"rail","name":"未命名","usage":"main","service":"yard","status":"operational","color":"#52636F","dataOrigin":"datum-2026-08-01","sourceKey":"way:1023610994"}},{"type":"Feature","geometry":{"type":"LineString","coordinates":[[113.4562997,24.2664817],[113.4567798,24.2660681]]},"properties":{"key":"way:1023610995@detail:453_97","osmType":"way","osmId":1023610995,"sourceRegion":"guangdong","featureType":"infrastructure","railClass":"minor","mode":"rail","name":"未命名","usage":"main","service":"crossover","status":"operational","color":"#52636F","dataOrigin":"datum-2026-08-01","sourceKey":"way:1023610995"}},{"type":"Feature","geometry":{"type":"LineString","coordinates":[[113.4571202,24.2658871],[113.4575168,24.2656658],[113.4576664,24.2655477],[113.4619181,24.2624976],[113.4633301,24.2614846],[113.4642511,24.2608281],[113.4644431,24.2606787],[113.4648722,24.2603227]]},"properties":{"key":"way:1023610996@detail:453_97","osmType":"way","osmId":1023610996,"sourceRegion":"guangdong","featureType":"infrastructure","railClass":"minor","mode":"rail","name":"未命名","service":"yard","status":"operational","color":"#52636F","dataOrigin":"datum-2026-08-01","sourceKey":"way:1023610996"}},{"type":"Feature","geometry":{"type":"LineString","coordinates":[[113.4649949,24.2601746],[113.465407,24.259943]]},"properties":{"key":"way:1023610997@detail:453_97","osmType":"way","osmId":1023610997,"sourceRegion":"guangdong","featureType":"infrastructure","railClass":"minor","mode":"rail","name":"未命名","usage":"main","service":"crossover","status":"operational","color":"#52636F","dataOrigin":"datum-2026-08-01","sourceKey":"way:1023610997"}},{"type":"Feature","geometry":{"type":"LineString","coordinates":[[113.4658197,24.2596501],[113.4661864,24.2593314]]},"properties":{"key":"way:1023610998@detail:453_97","osmType":"way","osmId":1023610998,"sourceRegion":"guangdong","featureType":"infrastructure","railClass":"minor","mode":"rail","name":"未命名","usage":"main","service":"crossover","status":"operational","color":"#52636F","dataOrigin":"datum-2026-08-01","sourceKey":"way:1023610998"}},{"type":"Feature","geometry":{"type":"LineString","coordinates":[[113.4743494,24.250714],[113.4745072,24.250401],[113.4746454,24.2500693],[113.47467407535835,24.25]]},"properties":{"key":"way:1023614862@detail:453_97","osmType":"way","osmId":1023614862,"sourceRegion":"guangdong","featureType":"infrastructure","railClass":"national","mode":"rail","name":"京广线","nameEn":"Beijing–Guangzhou Railway","ref":"0001","usage":"main","status":"operational","color":"#E54848","dataOrigin":"datum-2026-08-01","sourceKey":"way:1023614862"}},{"type":"Feature","geometry":{"type":"LineString","coordinates":[[113.47463078895824,24.25],[113.4746298,24.2500025],[113.4744541,24.2504],[113.4743063,24.2506936]]},"properties":{"key":"way:1023614863@detail:453_97","osmType":"way","osmId":1023614863,"sourceRegion":"guangdong","featureType":"infrastructure","railClass":"national","mode":"rail","name":"京广线","nameEn":"Beijing–Guangzhou Railway","ref":"0001","usage":"main","status":"operational","color":"#E54848","dataOrigin":"datum-2026-08-01","sourceKey":"way:1023614863"}},{"type":"Feature","geometry":{"type":"LineString","coordinates":[[113.4743063,24.2506936],[113.4741904,24.2508865],[113.4739709,24.251235]]},"properties":{"key":"way:1023614864@detail:453_97","osmType":"way","osmId":1023614864,"sourceRegion":"guangdong","featureType":"infrastructure","railClass":"national","mode":"rail","name":"京广线","nameEn":"Beijing–Guangzhou Railway","ref":"0001","usage":"main","bridge":"yes","status":"operational","color":"#E54848","dataOrigin":"datum-2026-08-01","sourceKey":"way:1023614864"}},{"type":"Feature","geometry":{"type":"LineString","coordinates":[[113.4740155,24.2512547],[113.4741765,24.2510098],[113.4743494,24.250714]]},"properties":{"key":"way:1023614865@detail:453_97","osmType":"way","osmId":1023614865,"sourceRegion":"guangdong","featureType":"infrastructure","railClass":"national","mode":"rail","name":"京广线","nameEn":"Beijing–Guangzhou Railway","ref":"0001","usage":"main","bridge":"yes","status":"operational","color":"#E54848","dataOrigin":"datum-2026-08-01","sourceKey":"way:1023614865"}},{"type":"Feature","geometry":{"type":"LineString","coordinates":[[113.4585894,24.312835],[113.4600466,24.3142155],[113.4602902,24.3144334],[113.4605028,24.3145828],[113.4607332,24.3146756],[113.4611495,24.3148088],[113.4614064,24.3149016],[113.4616677,24.315055],[113.4619512,24.3152851]]},"properties":{"key":"way:1370345944@detail:453_97","osmType":"way","osmId":1370345944,"sourceRegion":"guangdong","featureType":"infrastructure","railClass":"minor","mode":"rail","name":"未命名","usage":"industrial","service":"spur","status":"operational","color":"#52636F","dataOrigin":"datum-2026-08-01","sourceKey":"way:1370345944"}},{"type":"Feature","geometry":{"type":"LineString","coordinates":[[113.4584122,24.3130287],[113.4591873,24.3137957],[113.4594486,24.314058],[113.4596568,24.3142316],[113.4598739,24.3143527],[113.4605028,24.3145828]]},"properties":{"key":"way:1370345945@detail:453_97","osmType":"way","osmId":1370345945,"sourceRegion":"guangdong","featureType":"infrastructure","railClass":"minor","mode":"rail","name":"未命名","usage":"industrial","service":"spur","status":"operational","color":"#52636F","dataOrigin":"datum-2026-08-01","sourceKey":"way:1370345945"}},{"type":"Feature","geometry":{"type":"LineString","coordinates":[[113.4708388,24.4110754],[113.4693694,24.4091618],[113.4676406,24.4069578]]},"properties":{"key":"way:1430719654@detail:453_97","osmType":"way","osmId":1430719654,"sourceRegion":"guangdong","featureType":"infrastructure","railClass":"highspeed","mode":"rail","name":"京广高速线","nameEn":"Beijing-Guangzhou High-speed Line","ref":"3001","usage":"main","highspeed":"yes","status":"operational","color":"#E54848","dataOrigin":"datum-2026-08-01","sourceKey":"way:1430719654"}},{"type":"Feature","geometry":{"type":"LineString","coordinates":[[113.4676406,24.4069578],[113.4673445,24.4065863]]},"properties":{"key":"way:1430719655@detail:453_97","osmType":"way","osmId":1430719655,"sourceRegion":"guangdong","featureType":"infrastructure","railClass":"highspeed","mode":"rail","name":"京广高速线","nameEn":"Beijing-Guangzhou High-speed Line","ref":"3001","usage":"main","highspeed":"yes","bridge":"yes","status":"operational","color":"#E54848","dataOrigin":"datum-2026-08-01","sourceKey":"way:1430719655"}},{"type":"Feature","geometry":{"type":"LineString","coordinates":[[113.4708792,24.4110497],[113.4694096,24.4091358],[113.4676993,24.4069253]]},"properties":{"key":"way:1430719656@detail:453_97","osmType":"way","osmId":1430719656,"sourceRegion":"guangdong","featureType":"infrastructure","railClass":"highspeed","mode":"rail","name":"京广高速线","nameEn":"Beijing-Guangzhou High-speed Line","ref":"3001","usage":"main","highspeed":"yes","status":"operational","color":"#E54848","dataOrigin":"datum-2026-08-01","sourceKey":"way:1430719656"}},{"type":"Feature","geometry":{"type":"LineString","coordinates":[[113.4676993,24.4069253],[113.4674032,24.4065622]]},"properties":{"key":"way:1430719657@detail:453_97","osmType":"way","osmId":1430719657,"sourceRegion":"guangdong","featureType":"infrastructure","railClass":"highspeed","mode":"rail","name":"京广高速线","nameEn":"Beijing-Guangzhou High-speed Line","ref":"3001","usage":"main","highspeed":"yes","bridge":"yes","status":"operational","color":"#E54848","dataOrigin":"datum-2026-08-01","sourceKey":"way:1430719657"}}]}