{"type":"FeatureCollection","features":[{"type":"Feature","geometry":{"type":"Point","coordinates":[113.4580041,24.9818589]},"properties":{"key":"node:2588167864","osmType":"node","osmId":2588167864,"sourceRegion":"guangdong","featureType":"station","railClass":"minor","mode":"station","name":"梅村","nameEn":"Meicun","status":"operational","color":"#52636F","dataOrigin":"datum-2026-08-01","sourceKey":"node:2588167864","stationGroup":"梅村","hasOperationalRail":true,"hasConstructionRail":false}},{"type":"Feature","geometry":{"type":"Point","coordinates":[113.4582674,24.98207]},"properties":{"key":"node:8320812728","osmType":"node","osmId":8320812728,"sourceRegion":"guangdong","featureType":"station","railClass":"minor","mode":"stop","name":"梅村","status":"operational","color":"#52636F","dataOrigin":"datum-2026-08-01","sourceKey":"node:8320812728","stationGroup":"梅村","hasOperationalRail":true,"hasConstructionRail":false}},{"type":"Feature","geometry":{"type":"Point","coordinates":[113.458222,24.9820303]},"properties":{"key":"node:8320812729","osmType":"node","osmId":8320812729,"sourceRegion":"guangdong","featureType":"station","railClass":"minor","mode":"stop","name":"梅村","status":"operational","color":"#52636F","dataOrigin":"datum-2026-08-01","sourceKey":"node:8320812729","stationGroup":"梅村","hasOperationalRail":true,"hasConstructionRail":false}},{"type":"Feature","geometry":{"type":"Point","coordinates":[113.4581648,24.981979]},"properties":{"key":"node:8320812730","osmType":"node","osmId":8320812730,"sourceRegion":"guangdong","featureType":"station","railClass":"minor","mode":"stop","name":"梅村","status":"operational","color":"#52636F","dataOrigin":"datum-2026-08-01","sourceKey":"node:8320812730","stationGroup":"梅村","hasOperationalRail":true,"hasConstructionRail":false}},{"type":"Feature","geometry":{"type":"Point","coordinates":[113.4581011,24.981901]},"properties":{"key":"node:8320812731","osmType":"node","osmId":8320812731,"sourceRegion":"guangdong","featureType":"station","railClass":"minor","mode":"stop","name":"梅村","status":"operational","color":"#52636F","dataOrigin":"datum-2026-08-01","sourceKey":"node:8320812731","stationGroup":"梅村","hasOperationalRail":true,"hasConstructionRail":false}},{"type":"Feature","geometry":{"type":"Point","coordinates":[113.4581291,24.9819451]},"properties":{"key":"node:8320812732","osmType":"node","osmId":8320812732,"sourceRegion":"guangdong","featureType":"station","railClass":"minor","mode":"stop","name":"梅村","status":"operational","color":"#52636F","dataOrigin":"datum-2026-08-01","sourceKey":"node:8320812732","stationGroup":"梅村","hasOperationalRail":true,"hasConstructionRail":false}},{"type":"Feature","geometry":{"type":"Point","coordinates":[113.4580703,24.9818693]},"properties":{"key":"node:8320812733","osmType":"node","osmId":8320812733,"sourceRegion":"guangdong","featureType":"station","railClass":"minor","mode":"stop","name":"梅村","status":"operational","color":"#52636F","dataOrigin":"datum-2026-08-01","sourceKey":"node:8320812733","stationGroup":"梅村","hasOperationalRail":true,"hasConstructionRail":false}},{"type":"Feature","geometry":{"type":"LineString","coordinates":[[113.4402469,24.9972857],[113.4404059,24.9968223]]},"properties":{"key":"way:252788566@detail:453_99","osmType":"way","osmId":252788566,"sourceRegion":"guangdong","featureType":"infrastructure","railClass":"highspeed","mode":"rail","name":"京广高速线","nameEn":"Beijing-Guangzhou High-speed Line","ref":"3001","usage":"main","highspeed":"yes","status":"operational","color":"#E54848","dataOrigin":"datum-2026-08-01","sourceKey":"way:252788566"}},{"type":"Feature","geometry":{"type":"LineString","coordinates":[[113.4559888,24.9838175],[113.4561423,24.9836842]]},"properties":{"key":"way:252788567@detail:453_99","osmType":"way","osmId":252788567,"sourceRegion":"guangdong","featureType":"infrastructure","railClass":"national","mode":"rail","name":"京广线","nameEn":"Beijing–Guangzhou Railway","ref":"0001","usage":"main","bridge":"yes","status":"operational","color":"#E54848","dataOrigin":"datum-2026-08-01","sourceKey":"way:252788567"}},{"type":"Feature","geometry":{"type":"LineString","coordinates":[[113.4505291,24.9672562],[113.4506804,24.966765]]},"properties":{"key":"way:252788568@detail:453_99","osmType":"way","osmId":252788568,"sourceRegion":"guangdong","featureType":"infrastructure","railClass":"highspeed","mode":"rail","name":"京广高速线","nameEn":"Beijing-Guangzhou High-speed Line","ref":"3001","usage":"main","highspeed":"yes","status":"operational","color":"#E54848","dataOrigin":"datum-2026-08-01","sourceKey":"way:252788568"}},{"type":"Feature","geometry":{"type":"LineString","coordinates":[[113.4480176,24.974636],[113.4496032,24.9699353]]},"properties":{"key":"way:252788569@detail:453_99","osmType":"way","osmId":252788569,"sourceRegion":"guangdong","featureType":"infrastructure","railClass":"highspeed","mode":"rail","name":"京广高速线","nameEn":"Beijing-Guangzhou High-speed Line","ref":"3001","usage":"main","highspeed":"yes","status":"operational","color":"#E54848","dataOrigin":"datum-2026-08-01","sourceKey":"way:252788569"}},{"type":"Feature","geometry":{"type":"LineString","coordinates":[[113.4404059,24.9968223],[113.4480176,24.974636]]},"properties":{"key":"way:252788571@detail:453_99","osmType":"way","osmId":252788571,"sourceRegion":"guangdong","featureType":"infrastructure","railClass":"highspeed","mode":"rail","name":"京广高速线","nameEn":"Beijing-Guangzhou High-speed Line","ref":"3001","usage":"main","highspeed":"yes","bridge":"viaduct","status":"operational","color":"#E54848","dataOrigin":"datum-2026-08-01","sourceKey":"way:252788571"}},{"type":"Feature","geometry":{"type":"LineString","coordinates":[[113.4496032,24.9699353],[113.4505291,24.9672562]]},"properties":{"key":"way:252788573@detail:453_99","osmType":"way","osmId":252788573,"sourceRegion":"guangdong","featureType":"infrastructure","railClass":"highspeed","mode":"rail","name":"京广高速线","nameEn":"Beijing-Guangzhou High-speed Line","ref":"3001","usage":"main","highspeed":"yes","bridge":"yes","status":"operational","color":"#E54848","dataOrigin":"datum-2026-08-01","sourceKey":"way:252788573"}},{"type":"Feature","geometry":{"type":"LineString","coordinates":[[113.4506804,24.966765],[113.451361,24.9646013]]},"properties":{"key":"way:252788575@detail:453_99","osmType":"way","osmId":252788575,"sourceRegion":"guangdong","featureType":"infrastructure","railClass":"highspeed","mode":"rail","name":"京广高速线","nameEn":"Beijing-Guangzhou High-speed Line","ref":"3001","usage":"main","highspeed":"yes","tunnel":"yes","status":"operational","color":"#E54848","dataOrigin":"datum-2026-08-01","sourceKey":"way:252788575"}},{"type":"Feature","geometry":{"type":"LineString","coordinates":[[113.4571121,24.9828234],[113.4573891,24.9825209],[113.4578327,24.9820722],[113.4579389,24.9819823],[113.4580703,24.9818693],[113.4582629,24.9816975],[113.4584726,24.9814306],[113.4585744,24.9812773],[113.4586675,24.9811037],[113.4587453,24.9808879],[113.4587981,24.9805526],[113.4587805,24.9803072],[113.4586551,24.979617],[113.4586207,24.9793879],[113.4586189,24.9791537],[113.4586418,24.9789544],[113.4587142,24.9787187],[113.4587961,24.9785304],[113.4589612,24.9782185],[113.4599526,24.9764209],[113.4601611,24.9760266]]},"properties":{"key":"way:252788577@detail:453_99","osmType":"way","osmId":252788577,"sourceRegion":"guangdong","featureType":"infrastructure","railClass":"minor","mode":"rail","name":"未命名","service":"yard","status":"operational","color":"#52636F","dataOrigin":"datum-2026-08-01","sourceKey":"way:252788577"}},{"type":"Feature","geometry":{"type":"LineString","coordinates":[[113.4953657,24.8755207],[113.4961376,24.8746814]]},"properties":{"key":"way:326422365@detail:453_99","osmType":"way","osmId":326422365,"sourceRegion":"guangdong","featureType":"infrastructure","railClass":"highspeed","mode":"rail","name":"京广高速线","nameEn":"Beijing-Guangzhou High-speed Line","ref":"3001","usage":"main","highspeed":"yes","bridge":"yes","status":"operational","color":"#E54848","dataOrigin":"datum-2026-08-01","sourceKey":"way:326422365"}},{"type":"Feature","geometry":{"type":"LineString","coordinates":[[113.4561855,24.9504243],[113.4591081,24.9418614]]},"properties":{"key":"way:326422397@detail:453_99","osmType":"way","osmId":326422397,"sourceRegion":"guangdong","featureType":"infrastructure","railClass":"highspeed","mode":"rail","name":"京广高速线","nameEn":"Beijing-Guangzhou High-speed Line","ref":"3001","usage":"main","highspeed":"yes","tunnel":"yes","status":"operational","color":"#E54848","dataOrigin":"datum-2026-08-01","sourceKey":"way:326422397"}},{"type":"Feature","geometry":{"type":"LineString","coordinates":[[113.451361,24.9646013],[113.4531567,24.9592336],[113.4549778,24.9538795],[113.4561855,24.9504243]]},"properties":{"key":"way:326422401@detail:453_99","osmType":"way","osmId":326422401,"sourceRegion":"guangdong","featureType":"infrastructure","railClass":"highspeed","mode":"rail","name":"京广高速线","nameEn":"Beijing-Guangzhou High-speed Line","ref":"3001","usage":"main","highspeed":"yes","bridge":"yes","status":"operational","color":"#E54848","dataOrigin":"datum-2026-08-01","sourceKey":"way:326422401"}},{"type":"Feature","geometry":{"type":"LineString","coordinates":[[113.4391986,24.9999664],[113.4402469,24.9972857]]},"properties":{"key":"way:326422451@detail:453_99","osmType":"way","osmId":326422451,"sourceRegion":"guangdong","featureType":"infrastructure","railClass":"highspeed","mode":"rail","name":"京广高速线","nameEn":"Beijing-Guangzhou High-speed Line","ref":"3001","usage":"main","highspeed":"yes","tunnel":"yes","status":"operational","color":"#E54848","dataOrigin":"datum-2026-08-01","sourceKey":"way:326422451"}},{"type":"Feature","geometry":{"type":"LineString","coordinates":[[113.4969043,24.8739081],[113.5,24.870508949514644]]},"properties":{"key":"way:558484323@detail:453_99","osmType":"way","osmId":558484323,"sourceRegion":"guangdong","featureType":"infrastructure","railClass":"highspeed","mode":"rail","name":"京广高速线","nameEn":"Beijing-Guangzhou High-speed Line","ref":"3001","usage":"main","highspeed":"yes","tunnel":"yes","status":"operational","color":"#E54848","dataOrigin":"datum-2026-08-01","sourceKey":"way:558484323"}},{"type":"Feature","geometry":{"type":"LineString","coordinates":[[113.4916332,24.8795781],[113.4953657,24.8755207]]},"properties":{"key":"way:558484327@detail:453_99","osmType":"way","osmId":558484327,"sourceRegion":"guangdong","featureType":"infrastructure","railClass":"highspeed","mode":"rail","name":"京广高速线","nameEn":"Beijing-Guangzhou High-speed Line","ref":"3001","usage":"main","highspeed":"yes","tunnel":"yes","status":"operational","color":"#E54848","dataOrigin":"datum-2026-08-01","sourceKey":"way:558484327"}},{"type":"Feature","geometry":{"type":"LineString","coordinates":[[113.4913943,24.8798428],[113.4916332,24.8795781]]},"properties":{"key":"way:558484332@detail:453_99","osmType":"way","osmId":558484332,"sourceRegion":"guangdong","featureType":"infrastructure","railClass":"highspeed","mode":"rail","name":"京广高速线","nameEn":"Beijing-Guangzhou High-speed Line","ref":"3001","usage":"main","highspeed":"yes","status":"operational","color":"#E54848","dataOrigin":"datum-2026-08-01","sourceKey":"way:558484332"}},{"type":"Feature","geometry":{"type":"LineString","coordinates":[[113.4907298,24.880579],[113.4913943,24.8798428]]},"properties":{"key":"way:558484335@detail:453_99","osmType":"way","osmId":558484335,"sourceRegion":"guangdong","featureType":"infrastructure","railClass":"highspeed","mode":"rail","name":"京广高速线","nameEn":"Beijing-Guangzhou High-speed Line","ref":"3001","usage":"main","highspeed":"yes","bridge":"yes","status":"operational","color":"#E54848","dataOrigin":"datum-2026-08-01","sourceKey":"way:558484335"}},{"type":"Feature","geometry":{"type":"LineString","coordinates":[[113.4890458,24.882445],[113.4907298,24.880579]]},"properties":{"key":"way:558484339@detail:453_99","osmType":"way","osmId":558484339,"sourceRegion":"guangdong","featureType":"infrastructure","railClass":"highspeed","mode":"rail","name":"京广高速线","nameEn":"Beijing-Guangzhou High-speed Line","ref":"3001","usage":"main","highspeed":"yes","status":"operational","color":"#E54848","dataOrigin":"datum-2026-08-01","sourceKey":"way:558484339"}},{"type":"Feature","geometry":{"type":"LineString","coordinates":[[113.4880255,24.8835756],[113.4890458,24.882445]]},"properties":{"key":"way:558484342@detail:453_99","osmType":"way","osmId":558484342,"sourceRegion":"guangdong","featureType":"infrastructure","railClass":"highspeed","mode":"rail","name":"京广高速线","nameEn":"Beijing-Guangzhou High-speed Line","ref":"3001","usage":"main","highspeed":"yes","tunnel":"yes","status":"operational","color":"#E54848","dataOrigin":"datum-2026-08-01","sourceKey":"way:558484342"}},{"type":"Feature","geometry":{"type":"LineString","coordinates":[[113.4864973,24.8852663],[113.4878313,24.8837905]]},"properties":{"key":"way:558484347@detail:453_99","osmType":"way","osmId":558484347,"sourceRegion":"guangdong","featureType":"infrastructure","railClass":"highspeed","mode":"rail","name":"京广高速线","nameEn":"Beijing-Guangzhou High-speed Line","ref":"3001","usage":"main","highspeed":"yes","bridge":"yes","status":"operational","color":"#E54848","dataOrigin":"datum-2026-08-01","sourceKey":"way:558484347"}},{"type":"Feature","geometry":{"type":"LineString","coordinates":[[113.4878313,24.8837905],[113.4880255,24.8835756]]},"properties":{"key":"way:558484351@detail:453_99","osmType":"way","osmId":558484351,"sourceRegion":"guangdong","featureType":"infrastructure","railClass":"highspeed","mode":"rail","name":"京广高速线","nameEn":"Beijing-Guangzhou High-speed Line","ref":"3001","usage":"main","highspeed":"yes","status":"operational","color":"#E54848","dataOrigin":"datum-2026-08-01","sourceKey":"way:558484351"}},{"type":"Feature","geometry":{"type":"LineString","coordinates":[[113.4853357,24.8865512],[113.4864973,24.8852663]]},"properties":{"key":"way:558484355@detail:453_99","osmType":"way","osmId":558484355,"sourceRegion":"guangdong","featureType":"infrastructure","railClass":"highspeed","mode":"rail","name":"京广高速线","nameEn":"Beijing-Guangzhou High-speed Line","ref":"3001","usage":"main","highspeed":"yes","status":"operational","color":"#E54848","dataOrigin":"datum-2026-08-01","sourceKey":"way:558484355"}},{"type":"Feature","geometry":{"type":"LineString","coordinates":[[113.4784914,24.8952751],[113.4805271,24.8923732],[113.4826933,24.8895807],[113.4839858,24.8880132],[113.4853357,24.8865512]]},"properties":{"key":"way:558484356@detail:453_99","osmType":"way","osmId":558484356,"sourceRegion":"guangdong","featureType":"infrastructure","railClass":"highspeed","mode":"rail","name":"京广高速线","nameEn":"Beijing-Guangzhou High-speed Line","ref":"3001","usage":"main","highspeed":"yes","bridge":"yes","status":"operational","color":"#E54848","dataOrigin":"datum-2026-08-01","sourceKey":"way:558484356"}},{"type":"Feature","geometry":{"type":"LineString","coordinates":[[113.4741972,24.9021144],[113.4773804,24.8968911],[113.4784914,24.8952751]]},"properties":{"key":"way:558484357@detail:453_99","osmType":"way","osmId":558484357,"sourceRegion":"guangdong","featureType":"infrastructure","railClass":"highspeed","mode":"rail","name":"京广高速线","nameEn":"Beijing-Guangzhou High-speed Line","ref":"3001","usage":"main","highspeed":"yes","status":"operational","color":"#E54848","dataOrigin":"datum-2026-08-01","sourceKey":"way:558484357"}},{"type":"Feature","geometry":{"type":"LineString","coordinates":[[113.4705663,24.9093452],[113.4718394,24.9066008],[113.4731698,24.903915],[113.4741972,24.9021144]]},"properties":{"key":"way:558484358@detail:453_99","osmType":"way","osmId":558484358,"sourceRegion":"guangdong","featureType":"infrastructure","railClass":"highspeed","mode":"rail","name":"京广高速线","nameEn":"Beijing-Guangzhou High-speed Line","ref":"3001","usage":"main","highspeed":"yes","tunnel":"yes","status":"operational","color":"#E54848","dataOrigin":"datum-2026-08-01","sourceKey":"way:558484358"}},{"type":"Feature","geometry":{"type":"LineString","coordinates":[[113.4702148,24.9101412],[113.4705663,24.9093452]]},"properties":{"key":"way:558484359@detail:453_99","osmType":"way","osmId":558484359,"sourceRegion":"guangdong","featureType":"infrastructure","railClass":"highspeed","mode":"rail","name":"京广高速线","nameEn":"Beijing-Guangzhou High-speed Line","ref":"3001","usage":"main","highspeed":"yes","status":"operational","color":"#E54848","dataOrigin":"datum-2026-08-01","sourceKey":"way:558484359"}},{"type":"Feature","geometry":{"type":"LineString","coordinates":[[113.4663534,24.9206244],[113.4668846,24.9190837]]},"properties":{"key":"way:558484360@detail:453_99","osmType":"way","osmId":558484360,"sourceRegion":"guangdong","featureType":"infrastructure","railClass":"highspeed","mode":"rail","name":"京广高速线","nameEn":"Beijing-Guangzhou High-speed Line","ref":"3001","usage":"main","highspeed":"yes","status":"operational","color":"#E54848","dataOrigin":"datum-2026-08-01","sourceKey":"way:558484360"}},{"type":"Feature","geometry":{"type":"LineString","coordinates":[[113.4668846,24.9190837],[113.4678077,24.916406],[113.4691599,24.9127668],[113.4702148,24.9101412]]},"properties":{"key":"way:558484361@detail:453_99","osmType":"way","osmId":558484361,"sourceRegion":"guangdong","featureType":"infrastructure","railClass":"highspeed","mode":"rail","name":"京广高速线","nameEn":"Beijing-Guangzhou High-speed Line","ref":"3001","usage":"main","highspeed":"yes","bridge":"yes","status":"operational","color":"#E54848","dataOrigin":"datum-2026-08-01","sourceKey":"way:558484361"}},{"type":"Feature","geometry":{"type":"LineString","coordinates":[[113.4653099,24.9236791],[113.4658198,24.9221864],[113.4663534,24.9206244]]},"properties":{"key":"way:558484362@detail:453_99","osmType":"way","osmId":558484362,"sourceRegion":"guangdong","featureType":"infrastructure","railClass":"highspeed","mode":"rail","name":"京广高速线","nameEn":"Beijing-Guangzhou High-speed Line","ref":"3001","usage":"main","highspeed":"yes","tunnel":"yes","status":"operational","color":"#E54848","dataOrigin":"datum-2026-08-01","sourceKey":"way:558484362"}},{"type":"Feature","geometry":{"type":"LineString","coordinates":[[113.4651847,24.9240461],[113.4653099,24.9236791]]},"properties":{"key":"way:558484363@detail:453_99","osmType":"way","osmId":558484363,"sourceRegion":"guangdong","featureType":"infrastructure","railClass":"highspeed","mode":"rail","name":"京广高速线","nameEn":"Beijing-Guangzhou High-speed Line","ref":"3001","usage":"main","highspeed":"yes","status":"operational","color":"#E54848","dataOrigin":"datum-2026-08-01","sourceKey":"way:558484363"}},{"type":"Feature","geometry":{"type":"LineString","coordinates":[[113.4606286,24.9374038],[113.4619679,24.9334774],[113.4651847,24.9240461]]},"properties":{"key":"way:558484364@detail:453_99","osmType":"way","osmId":558484364,"sourceRegion":"guangdong","featureType":"infrastructure","railClass":"highspeed","mode":"rail","name":"京广高速线","nameEn":"Beijing-Guangzhou High-speed Line","ref":"3001","usage":"main","highspeed":"yes","bridge":"yes","status":"operational","color":"#E54848","dataOrigin":"datum-2026-08-01","sourceKey":"way:558484364"}},{"type":"Feature","geometry":{"type":"LineString","coordinates":[[113.4591081,24.9418614],[113.4606286,24.9374038]]},"properties":{"key":"way:558484365@detail:453_99","osmType":"way","osmId":558484365,"sourceRegion":"guangdong","featureType":"infrastructure","railClass":"highspeed","mode":"rail","name":"京广高速线","nameEn":"Beijing-Guangzhou High-speed Line","ref":"3001","usage":"main","highspeed":"yes","status":"operational","color":"#E54848","dataOrigin":"datum-2026-08-01","sourceKey":"way:558484365"}},{"type":"Feature","geometry":{"type":"LineString","coordinates":[[113.43918756220742,25.0],[113.4391986,24.9999664]]},"properties":{"key":"way:558484367@detail:453_99","osmType":"way","osmId":558484367,"sourceRegion":"guangdong","featureType":"infrastructure","railClass":"highspeed","mode":"rail","name":"京广高速线","nameEn":"Beijing-Guangzhou High-speed Line","ref":"3001","usage":"main","highspeed":"yes","status":"operational","color":"#E54848","dataOrigin":"datum-2026-08-01","sourceKey":"way:558484367"}},{"type":"Feature","geometry":{"type":"LineString","coordinates":[[113.43637940949186,25.0],[113.436571,24.9990574],[113.4370082,24.9970409],[113.4372889,24.9960855],[113.4375277,24.9954178],[113.4378062,24.9947521],[113.4388008,24.9926296],[113.4394326,24.9913652],[113.4397424,24.9908269],[113.4400701,24.9903709],[113.4403994,24.9900003],[113.4407147,24.9896843],[113.441143,24.9892907],[113.4416216,24.9889096],[113.4420985,24.9886319],[113.4440331,24.9876998],[113.4451226,24.9871674],[113.4457353,24.9869206],[113.4464038,24.9867128],[113.4470606,24.9865347],[113.4477022,24.9864111],[113.4519431,24.9858065],[113.4525036,24.9857148],[113.4529731,24.9856046],[113.4535741,24.9854308],[113.4539853,24.9852605],[113.4542941,24.9851119],[113.4546816,24.9848786]]},"properties":{"key":"way:558484373@detail:453_99","osmType":"way","osmId":558484373,"sourceRegion":"guangdong","featureType":"infrastructure","railClass":"national","mode":"rail","name":"京广线","nameEn":"Beijing–Guangzhou Railway","ref":"0001","usage":"main","status":"operational","color":"#E54848","dataOrigin":"datum-2026-08-01","sourceKey":"way:558484373"}},{"type":"Feature","geometry":{"type":"LineString","coordinates":[[113.4595797,24.9808594],[113.4591729,24.9812922],[113.4582674,24.98207],[113.4579177,24.9823741],[113.4578128,24.9824554],[113.4577069,24.9825168],[113.4574305,24.9826738]]},"properties":{"key":"way:592540574@detail:453_99","osmType":"way","osmId":592540574,"sourceRegion":"guangdong","featureType":"infrastructure","railClass":"minor","mode":"rail","name":"未命名","service":"siding","status":"operational","color":"#52636F","dataOrigin":"datum-2026-08-01","sourceKey":"way:592540574"}},{"type":"Feature","geometry":{"type":"LineString","coordinates":[[113.4570851,24.9829157],[113.4574305,24.9826738],[113.4576799,24.9824828],[113.4579149,24.982302],[113.458222,24.9820303],[113.4595797,24.9808594],[113.460536,24.9799861],[113.4606679,24.9798644],[113.4608937,24.9796232],[113.4611313,24.9793593],[113.4613935,24.9790498],[113.4617301,24.9786087],[113.4619451,24.9783257],[113.462205,24.9778736],[113.4624411,24.9774313],[113.4626655,24.9770018],[113.4628227,24.9766776],[113.4630493,24.9760983]]},"properties":{"key":"way:592540576@detail:453_99","osmType":"way","osmId":592540576,"sourceRegion":"guangdong","featureType":"infrastructure","railClass":"minor","mode":"rail","name":"未命名","service":"siding","status":"operational","color":"#52636F","dataOrigin":"datum-2026-08-01","sourceKey":"way:592540576"}},{"type":"Feature","geometry":{"type":"LineString","coordinates":[[113.4561665,24.9837177],[113.4560134,24.9838525]]},"properties":{"key":"way:592540578@detail:453_99","osmType":"way","osmId":592540578,"sourceRegion":"guangdong","featureType":"infrastructure","railClass":"national","mode":"rail","name":"京广线","ref":"0001","usage":"main","bridge":"yes","status":"operational","color":"#E54848","dataOrigin":"datum-2026-08-01","sourceKey":"way:592540578"}},{"type":"Feature","geometry":{"type":"LineString","coordinates":[[113.4547214,24.9849242],[113.4552694,24.9845277],[113.4558186,24.9840523],[113.4560134,24.9838525]]},"properties":{"key":"way:592540581@detail:453_99","osmType":"way","osmId":592540581,"sourceRegion":"guangdong","featureType":"infrastructure","railClass":"national","mode":"rail","name":"京广线","nameEn":"Beijing–Guangzhou Railway","ref":"0001","usage":"main","status":"operational","color":"#E54848","dataOrigin":"datum-2026-08-01","sourceKey":"way:592540581"}},{"type":"Feature","geometry":{"type":"LineString","coordinates":[[113.4573891,24.9825209],[113.4576698,24.9822738],[113.4581011,24.981901],[113.4593358,24.9808553],[113.4602879,24.9799913],[113.4604665,24.9798148],[113.4606158,24.9796634],[113.461016,24.9792096],[113.4612677,24.978927],[113.4614935,24.9786521],[113.4616803,24.9784073],[113.461839,24.9781644],[113.461973,24.977934],[113.4621688,24.9775896],[113.4627584,24.9764275],[113.46315,24.9757921]]},"properties":{"key":"way:592540583@detail:453_99","osmType":"way","osmId":592540583,"sourceRegion":"guangdong","featureType":"infrastructure","railClass":"minor","mode":"rail","name":"未命名","service":"siding","status":"operational","color":"#52636F","dataOrigin":"datum-2026-08-01","sourceKey":"way:592540583"}},{"type":"Feature","geometry":{"type":"LineString","coordinates":[[113.4646736,24.9721606],[113.4646168,24.972591],[113.4645482,24.9729052],[113.4644582,24.9732186],[113.4642634,24.9736941],[113.4639557,24.974302],[113.4636902,24.9748283],[113.4630493,24.9760983],[113.4621949,24.9777605],[113.4619273,24.9782122],[113.4616537,24.9786121],[113.4613487,24.9789759],[113.4610526,24.9793167],[113.4606725,24.9797412],[113.4604498,24.9799571],[113.4597175,24.9806288],[113.4581648,24.981979],[113.4570851,24.9829157],[113.4567067,24.9832461],[113.4563531,24.9835548],[113.4561665,24.9837177]]},"properties":{"key":"way:592540585@detail:453_99","osmType":"way","osmId":592540585,"sourceRegion":"guangdong","featureType":"infrastructure","railClass":"national","mode":"rail","name":"京广线","nameEn":"Beijing–Guangzhou Railway","ref":"0001","usage":"main","status":"operational","color":"#E54848","dataOrigin":"datum-2026-08-01","sourceKey":"way:592540585"}},{"type":"Feature","geometry":{"type":"LineString","coordinates":[[113.4599526,24.9764209],[113.459858,24.9767389],[113.4592698,24.9777731],[113.4589612,24.9782185]]},"properties":{"key":"way:592540587@detail:453_99","osmType":"way","osmId":592540587,"sourceRegion":"guangdong","featureType":"infrastructure","railClass":"minor","mode":"rail","name":"未命名","service":"yard","status":"operational","color":"#52636F","dataOrigin":"datum-2026-08-01","sourceKey":"way:592540587"}},{"type":"Feature","geometry":{"type":"LineString","coordinates":[[113.4789656,24.9579725],[113.476748,24.9581872],[113.4758378,24.9582805],[113.4750739,24.9584161],[113.4746172,24.9585383],[113.4740695,24.9587045],[113.4735759,24.9589059],[113.4730582,24.9591523],[113.4725154,24.9594616],[113.4717508,24.9599886],[113.469246,24.9618699],[113.4688866,24.9621451],[113.4685809,24.9624085],[113.4684242,24.9625719],[113.4680666,24.9629282],[113.467563,24.9635073],[113.4662678,24.9650854],[113.4660166,24.9654317],[113.4658252,24.9657155],[113.4655191,24.9662569],[113.4652879,24.9667002],[113.4650242,24.9674155],[113.4648638,24.9679969],[113.4647858,24.9684246],[113.4647459,24.9687928],[113.464727,24.9690936],[113.46471,24.9695831],[113.4647053,24.9701273]]},"properties":{"key":"way:895013274@detail:453_99","osmType":"way","osmId":895013274,"sourceRegion":"guangdong","featureType":"infrastructure","railClass":"national","mode":"rail","name":"京广线","nameEn":"Beijing–Guangzhou Railway","ref":"0001","usage":"main","status":"operational","color":"#E54848","dataOrigin":"datum-2026-08-01","sourceKey":"way:895013274"}},{"type":"Feature","geometry":{"type":"LineString","coordinates":[[113.484076,24.9570601],[113.4868139,24.9567989],[113.4879945,24.9565847],[113.4881312,24.9565547],[113.4889767,24.956369],[113.4896852,24.9561962],[113.4946229,24.9547557],[113.4960518,24.9543291],[113.4970213,24.9540585],[113.498615,24.9535818],[113.5,24.953154711736047]]},"properties":{"key":"way:895013275@detail:453_99","osmType":"way","osmId":895013275,"sourceRegion":"guangdong","featureType":"infrastructure","railClass":"national","mode":"rail","name":"京广线","nameEn":"Beijing–Guangzhou Railway","ref":"0001","usage":"main","status":"operational","color":"#E54848","dataOrigin":"datum-2026-08-01","sourceKey":"way:895013275"}},{"type":"Feature","geometry":{"type":"LineString","coordinates":[[113.4781412,24.9576714],[113.484076,24.9570601]]},"properties":{"key":"way:895013276@detail:453_99","osmType":"way","osmId":895013276,"sourceRegion":"guangdong","featureType":"infrastructure","railClass":"national","mode":"rail","name":"京广线","nameEn":"Beijing–Guangzhou Railway","ref":"0001","usage":"main","tunnel":"yes","status":"operational","color":"#E54848","dataOrigin":"datum-2026-08-01","sourceKey":"way:895013276"}},{"type":"Feature","geometry":{"type":"LineString","coordinates":[[113.4646734,24.9701222],[113.464672,24.9694104],[113.4647019,24.9688025],[113.4647454,24.9684414],[113.4648205,24.9679883],[113.4649748,24.9674102],[113.4652577,24.9666864],[113.4654821,24.9662252],[113.4658036,24.9656859],[113.4659792,24.9654153],[113.4662199,24.9650748],[113.4672804,24.9637798],[113.4677219,24.9632551],[113.4681522,24.9627662],[113.4685349,24.9624003],[113.4688078,24.9621494],[113.4693494,24.9617496],[113.471527,24.9601022],[113.4728021,24.9591703],[113.4732111,24.9589294],[113.4737055,24.9586461],[113.4740893,24.9584668],[113.4747881,24.9582067],[113.4754503,24.9579922],[113.475965,24.9578928],[113.4781412,24.9576714]]},"properties":{"key":"way:895013278@detail:453_99","osmType":"way","osmId":895013278,"sourceRegion":"guangdong","featureType":"infrastructure","railClass":"national","mode":"rail","name":"京广线","nameEn":"Beijing–Guangzhou Railway","ref":"0001","usage":"main","status":"operational","color":"#E54848","dataOrigin":"datum-2026-08-01","sourceKey":"way:895013278"}},{"type":"Feature","geometry":{"type":"LineString","coordinates":[[113.5,24.953204299746968],[113.4990997,24.953477],[113.4983953,24.953692],[113.4969344,24.9541321],[113.4965784,24.9542346],[113.4960732,24.9543823],[113.4948026,24.9547725],[113.4935714,24.9551469],[113.4911338,24.9558607],[113.4889363,24.9565062],[113.4881902,24.9567282],[113.4871663,24.9570329],[113.4864364,24.9571929],[113.4862055,24.9572364],[113.4859362,24.9572765],[113.4839737,24.9574705]]},"properties":{"key":"way:895013279@detail:453_99","osmType":"way","osmId":895013279,"sourceRegion":"guangdong","featureType":"infrastructure","railClass":"national","mode":"rail","name":"京广线","nameEn":"Beijing–Guangzhou Railway","ref":"0001","usage":"main","status":"operational","color":"#E54848","dataOrigin":"datum-2026-08-01","sourceKey":"way:895013279"}},{"type":"Feature","geometry":{"type":"LineString","coordinates":[[113.4561423,24.9836842],[113.4563166,24.9835294],[113.4566744,24.9832114],[113.4569377,24.9829775],[113.4571121,24.9828234],[113.4575864,24.9824042],[113.4581291,24.9819451],[113.4593637,24.9808846],[113.459687,24.9805925],[113.4604213,24.9799246],[113.4606612,24.979676],[113.4611263,24.9791635],[113.4613719,24.9788797],[113.4616242,24.9785733],[113.4618873,24.97818],[113.4621696,24.9777015],[113.46315,24.9757921],[113.4633244,24.9754688],[113.4634556,24.9752085],[113.4639399,24.9742473],[113.4641945,24.9737493],[113.4643993,24.9732484],[113.4645095,24.9728967],[113.4645834,24.9725698],[113.4646349,24.9721556]]},"properties":{"key":"way:895169410@detail:453_99","osmType":"way","osmId":895169410,"sourceRegion":"guangdong","featureType":"infrastructure","railClass":"national","mode":"rail","name":"京广线","nameEn":"Beijing–Guangzhou Railway","ref":"0001","usage":"main","status":"operational","color":"#E54848","dataOrigin":"datum-2026-08-01","sourceKey":"way:895169410"}},{"type":"Feature","geometry":{"type":"LineString","coordinates":[[113.43647816642566,25.0],[113.4368056,24.9983512],[113.4371019,24.9971034],[113.4372494,24.9965461],[113.4374167,24.9959857],[113.4377032,24.9952697],[113.4379048,24.9948068],[113.4389204,24.9926778],[113.4395259,24.9914703],[113.4398777,24.9908317],[113.4401939,24.9904002],[113.4407733,24.9897853],[113.441241,24.9893589],[113.4417246,24.9889998],[113.4421718,24.9887234],[113.4439164,24.9879001],[113.4447487,24.9874848],[113.4454848,24.9871497],[113.4461785,24.9868939],[113.4468138,24.9867269],[113.447657,24.9865442],[113.4519006,24.985919],[113.4524384,24.9858319],[113.4529154,24.9857236],[113.4535233,24.9855353],[113.4538933,24.9853805],[113.4543616,24.9851484],[113.4547214,24.9849242]]},"properties":{"key":"way:895867651@detail:453_99","osmType":"way","osmId":895867651,"sourceRegion":"guangdong","featureType":"infrastructure","railClass":"national","mode":"rail","name":"京广线","nameEn":"Beijing–Guangzhou Railway","ref":"0001","usage":"main","status":"operational","color":"#E54848","dataOrigin":"datum-2026-08-01","sourceKey":"way:895867651"}},{"type":"Feature","geometry":{"type":"LineString","coordinates":[[113.4546816,24.9848786],[113.4551846,24.9845226],[113.4554779,24.9842951],[113.4557873,24.9840257],[113.4559888,24.9838175]]},"properties":{"key":"way:895867652@detail:453_99","osmType":"way","osmId":895867652,"sourceRegion":"guangdong","featureType":"infrastructure","railClass":"national","mode":"rail","name":"京广线","nameEn":"Beijing–Guangzhou Railway","ref":"0001","usage":"main","status":"operational","color":"#E54848","dataOrigin":"datum-2026-08-01","sourceKey":"way:895867652"}},{"type":"Feature","geometry":{"type":"LineString","coordinates":[[113.43929097195415,25.0],[113.4392936,24.999992]]},"properties":{"key":"way:903373417@detail:453_99","osmType":"way","osmId":903373417,"sourceRegion":"guangdong","featureType":"infrastructure","railClass":"highspeed","mode":"rail","name":"京广高速线","nameEn":"Beijing-Guangzhou High-speed Line","ref":"3001","usage":"main","highspeed":"yes","status":"operational","color":"#E54848","dataOrigin":"datum-2026-08-01","sourceKey":"way:903373417"}},{"type":"Feature","geometry":{"type":"LineString","coordinates":[[113.4392936,24.999992],[113.440317,24.9973082]]},"properties":{"key":"way:903373418@detail:453_99","osmType":"way","osmId":903373418,"sourceRegion":"guangdong","featureType":"infrastructure","railClass":"highspeed","mode":"rail","name":"京广高速线","nameEn":"Beijing-Guangzhou High-speed Line","ref":"3001","usage":"main","highspeed":"yes","tunnel":"yes","status":"operational","color":"#E54848","dataOrigin":"datum-2026-08-01","sourceKey":"way:903373418"}},{"type":"Feature","geometry":{"type":"LineString","coordinates":[[113.440317,24.9973082],[113.4404769,24.9968423]]},"properties":{"key":"way:903373419@detail:453_99","osmType":"way","osmId":903373419,"sourceRegion":"guangdong","featureType":"infrastructure","railClass":"highspeed","mode":"rail","name":"京广高速线","nameEn":"Beijing-Guangzhou High-speed Line","ref":"3001","usage":"main","highspeed":"yes","status":"operational","color":"#E54848","dataOrigin":"datum-2026-08-01","sourceKey":"way:903373419"}},{"type":"Feature","geometry":{"type":"LineString","coordinates":[[113.4404769,24.9968423],[113.4480839,24.9746544]]},"properties":{"key":"way:903373420@detail:453_99","osmType":"way","osmId":903373420,"sourceRegion":"guangdong","featureType":"infrastructure","railClass":"highspeed","mode":"rail","name":"京广高速线","nameEn":"Beijing-Guangzhou High-speed Line","ref":"3001","usage":"main","highspeed":"yes","bridge":"viaduct","status":"operational","color":"#E54848","dataOrigin":"datum-2026-08-01","sourceKey":"way:903373420"}},{"type":"Feature","geometry":{"type":"LineString","coordinates":[[113.4480839,24.9746544],[113.4496695,24.9699537]]},"properties":{"key":"way:903373421@detail:453_99","osmType":"way","osmId":903373421,"sourceRegion":"guangdong","featureType":"infrastructure","railClass":"highspeed","mode":"rail","name":"京广高速线","nameEn":"Beijing-Guangzhou High-speed Line","ref":"3001","usage":"main","highspeed":"yes","status":"operational","color":"#E54848","dataOrigin":"datum-2026-08-01","sourceKey":"way:903373421"}},{"type":"Feature","geometry":{"type":"LineString","coordinates":[[113.4496695,24.9699537],[113.4505959,24.9672731]]},"properties":{"key":"way:903373422@detail:453_99","osmType":"way","osmId":903373422,"sourceRegion":"guangdong","featureType":"infrastructure","railClass":"highspeed","mode":"rail","name":"京广高速线","nameEn":"Beijing-Guangzhou High-speed Line","ref":"3001","usage":"main","highspeed":"yes","bridge":"yes","status":"operational","color":"#E54848","dataOrigin":"datum-2026-08-01","sourceKey":"way:903373422"}},{"type":"Feature","geometry":{"type":"LineString","coordinates":[[113.4505959,24.9672731],[113.4507605,24.9667886]]},"properties":{"key":"way:903373423@detail:453_99","osmType":"way","osmId":903373423,"sourceRegion":"guangdong","featureType":"infrastructure","railClass":"highspeed","mode":"rail","name":"京广高速线","nameEn":"Beijing-Guangzhou High-speed Line","ref":"3001","usage":"main","highspeed":"yes","status":"operational","color":"#E54848","dataOrigin":"datum-2026-08-01","sourceKey":"way:903373423"}},{"type":"Feature","geometry":{"type":"LineString","coordinates":[[113.4507605,24.9667886],[113.4514538,24.9646203]]},"properties":{"key":"way:903373424@detail:453_99","osmType":"way","osmId":903373424,"sourceRegion":"guangdong","featureType":"infrastructure","railClass":"highspeed","mode":"rail","name":"京广高速线","nameEn":"Beijing-Guangzhou High-speed Line","ref":"3001","usage":"main","highspeed":"yes","tunnel":"yes","status":"operational","color":"#E54848","dataOrigin":"datum-2026-08-01","sourceKey":"way:903373424"}},{"type":"Feature","geometry":{"type":"LineString","coordinates":[[113.4514538,24.9646203],[113.4532235,24.9592445],[113.4550438,24.9539006],[113.4562709,24.9504566]]},"properties":{"key":"way:903373425@detail:453_99","osmType":"way","osmId":903373425,"sourceRegion":"guangdong","featureType":"infrastructure","railClass":"highspeed","mode":"rail","name":"京广高速线","nameEn":"Beijing-Guangzhou High-speed Line","ref":"3001","usage":"main","highspeed":"yes","bridge":"yes","status":"operational","color":"#E54848","dataOrigin":"datum-2026-08-01","sourceKey":"way:903373425"}},{"type":"Feature","geometry":{"type":"LineString","coordinates":[[113.4562709,24.9504566],[113.4591933,24.9418853]]},"properties":{"key":"way:903373426@detail:453_99","osmType":"way","osmId":903373426,"sourceRegion":"guangdong","featureType":"infrastructure","railClass":"highspeed","mode":"rail","name":"京广高速线","nameEn":"Beijing-Guangzhou High-speed Line","ref":"3001","usage":"main","highspeed":"yes","tunnel":"yes","status":"operational","color":"#E54848","dataOrigin":"datum-2026-08-01","sourceKey":"way:903373426"}},{"type":"Feature","geometry":{"type":"LineString","coordinates":[[113.4591933,24.9418853],[113.4607138,24.9374277]]},"properties":{"key":"way:903373427@detail:453_99","osmType":"way","osmId":903373427,"sourceRegion":"guangdong","featureType":"infrastructure","railClass":"highspeed","mode":"rail","name":"京广高速线","nameEn":"Beijing-Guangzhou High-speed Line","ref":"3001","usage":"main","highspeed":"yes","status":"operational","color":"#E54848","dataOrigin":"datum-2026-08-01","sourceKey":"way:903373427"}},{"type":"Feature","geometry":{"type":"LineString","coordinates":[[113.4607138,24.9374277],[113.4620531,24.9335013],[113.4652699,24.92407]]},"properties":{"key":"way:903373428@detail:453_99","osmType":"way","osmId":903373428,"sourceRegion":"guangdong","featureType":"infrastructure","railClass":"highspeed","mode":"rail","name":"京广高速线","nameEn":"Beijing-Guangzhou High-speed Line","ref":"3001","usage":"main","highspeed":"yes","bridge":"yes","status":"operational","color":"#E54848","dataOrigin":"datum-2026-08-01","sourceKey":"way:903373428"}},{"type":"Feature","geometry":{"type":"LineString","coordinates":[[113.4652699,24.92407],[113.4653951,24.923703]]},"properties":{"key":"way:903373429@detail:453_99","osmType":"way","osmId":903373429,"sourceRegion":"guangdong","featureType":"infrastructure","railClass":"highspeed","mode":"rail","name":"京广高速线","nameEn":"Beijing-Guangzhou High-speed Line","ref":"3001","usage":"main","highspeed":"yes","status":"operational","color":"#E54848","dataOrigin":"datum-2026-08-01","sourceKey":"way:903373429"}},{"type":"Feature","geometry":{"type":"LineString","coordinates":[[113.4653951,24.923703],[113.465905,24.9222103],[113.4664338,24.9206472]]},"properties":{"key":"way:903373430@detail:453_99","osmType":"way","osmId":903373430,"sourceRegion":"guangdong","featureType":"infrastructure","railClass":"highspeed","mode":"rail","name":"京广高速线","nameEn":"Beijing-Guangzhou High-speed Line","ref":"3001","usage":"main","highspeed":"yes","tunnel":"yes","status":"operational","color":"#E54848","dataOrigin":"datum-2026-08-01","sourceKey":"way:903373430"}},{"type":"Feature","geometry":{"type":"LineString","coordinates":[[113.4664338,24.9206472],[113.4669602,24.9191051]]},"properties":{"key":"way:903373431@detail:453_99","osmType":"way","osmId":903373431,"sourceRegion":"guangdong","featureType":"infrastructure","railClass":"highspeed","mode":"rail","name":"京广高速线","nameEn":"Beijing-Guangzhou High-speed Line","ref":"3001","usage":"main","highspeed":"yes","status":"operational","color":"#E54848","dataOrigin":"datum-2026-08-01","sourceKey":"way:903373431"}},{"type":"Feature","geometry":{"type":"LineString","coordinates":[[113.4669602,24.9191051],[113.4678831,24.9164282],[113.4692347,24.9127906],[113.4702876,24.910172]]},"properties":{"key":"way:903373432@detail:453_99","osmType":"way","osmId":903373432,"sourceRegion":"guangdong","featureType":"infrastructure","railClass":"highspeed","mode":"rail","name":"京广高速线","nameEn":"Beijing-Guangzhou High-speed Line","ref":"3001","usage":"main","highspeed":"yes","bridge":"yes","status":"operational","color":"#E54848","dataOrigin":"datum-2026-08-01","sourceKey":"way:903373432"}},{"type":"Feature","geometry":{"type":"LineString","coordinates":[[113.4702876,24.910172],[113.4706391,24.909376]]},"properties":{"key":"way:903373433@detail:453_99","osmType":"way","osmId":903373433,"sourceRegion":"guangdong","featureType":"infrastructure","railClass":"highspeed","mode":"rail","name":"京广高速线","nameEn":"Beijing-Guangzhou High-speed Line","ref":"3001","usage":"main","highspeed":"yes","status":"operational","color":"#E54848","dataOrigin":"datum-2026-08-01","sourceKey":"way:903373433"}},{"type":"Feature","geometry":{"type":"LineString","coordinates":[[113.4706391,24.909376],[113.4719086,24.9066357],[113.4732381,24.9039518],[113.4742665,24.9021492]]},"properties":{"key":"way:903373434@detail:453_99","osmType":"way","osmId":903373434,"sourceRegion":"guangdong","featureType":"infrastructure","railClass":"highspeed","mode":"rail","name":"京广高速线","nameEn":"Beijing-Guangzhou High-speed Line","ref":"3001","usage":"main","highspeed":"yes","tunnel":"yes","status":"operational","color":"#E54848","dataOrigin":"datum-2026-08-01","sourceKey":"way:903373434"}},{"type":"Feature","geometry":{"type":"LineString","coordinates":[[113.4742665,24.9021492],[113.4774487,24.8969275],[113.4785586,24.8953131]]},"properties":{"key":"way:903373435@detail:453_99","osmType":"way","osmId":903373435,"sourceRegion":"guangdong","featureType":"infrastructure","railClass":"highspeed","mode":"rail","name":"京广高速线","nameEn":"Beijing-Guangzhou High-speed Line","ref":"3001","usage":"main","highspeed":"yes","status":"operational","color":"#E54848","dataOrigin":"datum-2026-08-01","sourceKey":"way:903373435"}},{"type":"Feature","geometry":{"type":"LineString","coordinates":[[113.4785586,24.8953131],[113.4805781,24.8923927],[113.4827468,24.8896034],[113.4840274,24.8880375],[113.4853985,24.886595]]},"properties":{"key":"way:903373436@detail:453_99","osmType":"way","osmId":903373436,"sourceRegion":"guangdong","featureType":"infrastructure","railClass":"highspeed","mode":"rail","name":"京广高速线","nameEn":"Beijing-Guangzhou High-speed Line","ref":"3001","usage":"main","highspeed":"yes","bridge":"yes","status":"operational","color":"#E54848","dataOrigin":"datum-2026-08-01","sourceKey":"way:903373436"}},{"type":"Feature","geometry":{"type":"LineString","coordinates":[[113.4853985,24.886595],[113.4865586,24.8853119]]},"properties":{"key":"way:903373437@detail:453_99","osmType":"way","osmId":903373437,"sourceRegion":"guangdong","featureType":"infrastructure","railClass":"highspeed","mode":"rail","name":"京广高速线","nameEn":"Beijing-Guangzhou High-speed Line","ref":"3001","usage":"main","highspeed":"yes","status":"operational","color":"#E54848","dataOrigin":"datum-2026-08-01","sourceKey":"way:903373437"}},{"type":"Feature","geometry":{"type":"LineString","coordinates":[[113.4865586,24.8853119],[113.4878887,24.8838332]]},"properties":{"key":"way:903373438@detail:453_99","osmType":"way","osmId":903373438,"sourceRegion":"guangdong","featureType":"infrastructure","railClass":"highspeed","mode":"rail","name":"京广高速线","nameEn":"Beijing-Guangzhou High-speed Line","ref":"3001","usage":"main","highspeed":"yes","bridge":"yes","status":"operational","color":"#E54848","dataOrigin":"datum-2026-08-01","sourceKey":"way:903373438"}},{"type":"Feature","geometry":{"type":"LineString","coordinates":[[113.4878887,24.8838332],[113.4880829,24.8836183]]},"properties":{"key":"way:903373439@detail:453_99","osmType":"way","osmId":903373439,"sourceRegion":"guangdong","featureType":"infrastructure","railClass":"highspeed","mode":"rail","name":"京广高速线","nameEn":"Beijing-Guangzhou High-speed Line","ref":"3001","usage":"main","highspeed":"yes","status":"operational","color":"#E54848","dataOrigin":"datum-2026-08-01","sourceKey":"way:903373439"}},{"type":"Feature","geometry":{"type":"LineString","coordinates":[[113.4880829,24.8836183],[113.4891033,24.8824877]]},"properties":{"key":"way:903373440@detail:453_99","osmType":"way","osmId":903373440,"sourceRegion":"guangdong","featureType":"infrastructure","railClass":"highspeed","mode":"rail","name":"京广高速线","nameEn":"Beijing-Guangzhou High-speed Line","ref":"3001","usage":"main","highspeed":"yes","tunnel":"yes","status":"operational","color":"#E54848","dataOrigin":"datum-2026-08-01","sourceKey":"way:903373440"}},{"type":"Feature","geometry":{"type":"LineString","coordinates":[[113.4891033,24.8824877],[113.4907911,24.8806245]]},"properties":{"key":"way:903373441@detail:453_99","osmType":"way","osmId":903373441,"sourceRegion":"guangdong","featureType":"infrastructure","railClass":"highspeed","mode":"rail","name":"京广高速线","nameEn":"Beijing-Guangzhou High-speed Line","ref":"3001","usage":"main","highspeed":"yes","status":"operational","color":"#E54848","dataOrigin":"datum-2026-08-01","sourceKey":"way:903373441"}},{"type":"Feature","geometry":{"type":"LineString","coordinates":[[113.4907911,24.8806245],[113.4914556,24.8798883]]},"properties":{"key":"way:903373442@detail:453_99","osmType":"way","osmId":903373442,"sourceRegion":"guangdong","featureType":"infrastructure","railClass":"highspeed","mode":"rail","name":"京广高速线","nameEn":"Beijing-Guangzhou High-speed Line","ref":"3001","usage":"main","highspeed":"yes","bridge":"yes","status":"operational","color":"#E54848","dataOrigin":"datum-2026-08-01","sourceKey":"way:903373442"}},{"type":"Feature","geometry":{"type":"LineString","coordinates":[[113.4914556,24.8798883],[113.4916975,24.8796274]]},"properties":{"key":"way:903373443@detail:453_99","osmType":"way","osmId":903373443,"sourceRegion":"guangdong","featureType":"infrastructure","railClass":"highspeed","mode":"rail","name":"京广高速线","nameEn":"Beijing-Guangzhou High-speed Line","ref":"3001","usage":"main","highspeed":"yes","status":"operational","color":"#E54848","dataOrigin":"datum-2026-08-01","sourceKey":"way:903373443"}},{"type":"Feature","geometry":{"type":"LineString","coordinates":[[113.4916975,24.8796274],[113.4954408,24.8755335]]},"properties":{"key":"way:903373444@detail:453_99","osmType":"way","osmId":903373444,"sourceRegion":"guangdong","featureType":"infrastructure","railClass":"highspeed","mode":"rail","name":"京广高速线","nameEn":"Beijing-Guangzhou High-speed Line","ref":"3001","usage":"main","highspeed":"yes","tunnel":"yes","status":"operational","color":"#E54848","dataOrigin":"datum-2026-08-01","sourceKey":"way:903373444"}},{"type":"Feature","geometry":{"type":"LineString","coordinates":[[113.4954408,24.8755335],[113.4961912,24.8747301]]},"properties":{"key":"way:903373445@detail:453_99","osmType":"way","osmId":903373445,"sourceRegion":"guangdong","featureType":"infrastructure","railClass":"highspeed","mode":"rail","name":"京广高速线","nameEn":"Beijing-Guangzhou High-speed Line","ref":"3001","usage":"main","highspeed":"yes","bridge":"yes","status":"operational","color":"#E54848","dataOrigin":"datum-2026-08-01","sourceKey":"way:903373445"}},{"type":"Feature","geometry":{"type":"LineString","coordinates":[[113.4969416,24.8739563],[113.5,24.87061373565694]]},"properties":{"key":"way:903373446@detail:453_99","osmType":"way","osmId":903373446,"sourceRegion":"guangdong","featureType":"infrastructure","railClass":"highspeed","mode":"rail","name":"京广高速线","nameEn":"Beijing-Guangzhou High-speed Line","ref":"3001","usage":"main","highspeed":"yes","tunnel":"yes","status":"operational","color":"#E54848","dataOrigin":"datum-2026-08-01","sourceKey":"way:903373446"}},{"type":"Feature","geometry":{"type":"LineString","coordinates":[[113.4961376,24.8746814],[113.4969043,24.8739081]]},"properties":{"key":"way:961019020@detail:453_99","osmType":"way","osmId":961019020,"sourceRegion":"guangdong","featureType":"infrastructure","railClass":"highspeed","mode":"rail","name":"京广高速线","nameEn":"Beijing-Guangzhou High-speed Line","ref":"3001","usage":"main","highspeed":"yes","status":"operational","color":"#E54848","dataOrigin":"datum-2026-08-01","sourceKey":"way:961019020"}},{"type":"Feature","geometry":{"type":"LineString","coordinates":[[113.4961912,24.8747301],[113.4969416,24.8739563]]},"properties":{"key":"way:961019021@detail:453_99","osmType":"way","osmId":961019021,"sourceRegion":"guangdong","featureType":"infrastructure","railClass":"highspeed","mode":"rail","name":"京广高速线","nameEn":"Beijing-Guangzhou High-speed Line","ref":"3001","usage":"main","highspeed":"yes","status":"operational","color":"#E54848","dataOrigin":"datum-2026-08-01","sourceKey":"way:961019021"}},{"type":"Feature","geometry":{"type":"LineString","coordinates":[[113.4839737,24.9574705],[113.4789656,24.9579725]]},"properties":{"key":"way:1091780743@detail:453_99","osmType":"way","osmId":1091780743,"sourceRegion":"guangdong","featureType":"infrastructure","railClass":"national","mode":"rail","name":"京广线","nameEn":"Beijing–Guangzhou Railway","ref":"0001","usage":"main","tunnel":"yes","status":"operational","color":"#E54848","dataOrigin":"datum-2026-08-01","sourceKey":"way:1091780743"}},{"type":"Feature","geometry":{"type":"LineString","coordinates":[[113.4655488,24.966349],[113.4654633,24.9667787],[113.465395,24.967243],[113.4654083,24.9677072],[113.4655257,24.9686432],[113.4656818,24.9696799],[113.4656934,24.9699532],[113.4657051,24.9703826],[113.4656928,24.9706014],[113.4656488,24.9708877],[113.4654391,24.9719032],[113.4653441,24.9722968],[113.4651716,24.9726714],[113.4650878,24.9728533],[113.4647221,24.9734828],[113.4633282,24.9758525],[113.4628395,24.9767435]]},"properties":{"key":"way:1091780744@detail:453_99","osmType":"way","osmId":1091780744,"sourceRegion":"guangdong","featureType":"infrastructure","railClass":"minor","mode":"abandoned","name":"京广铁路旧线","status":"operational","color":"#52636F","dataOrigin":"datum-2026-08-01","sourceKey":"way:1091780744"}},{"type":"Feature","geometry":{"type":"LineString","coordinates":[[113.4647053,24.9701273],[113.464699,24.9713406],[113.4646953,24.9717587],[113.4646736,24.9721606]]},"properties":{"key":"way:1091780746@detail:453_99","osmType":"way","osmId":1091780746,"sourceRegion":"guangdong","featureType":"infrastructure","railClass":"national","mode":"rail","name":"京广线","nameEn":"Beijing–Guangzhou Railway","ref":"0001","usage":"main","bridge":"yes","status":"operational","color":"#E54848","dataOrigin":"datum-2026-08-01","sourceKey":"way:1091780746"}},{"type":"Feature","geometry":{"type":"LineString","coordinates":[[113.4646349,24.9721556],[113.4646549,24.9717168],[113.4646571,24.9714427],[113.4646734,24.9701222]]},"properties":{"key":"way:1091780747@detail:453_99","osmType":"way","osmId":1091780747,"sourceRegion":"guangdong","featureType":"infrastructure","railClass":"national","mode":"rail","name":"京广线","nameEn":"Beijing–Guangzhou Railway","ref":"0001","usage":"main","bridge":"yes","status":"operational","color":"#E54848","dataOrigin":"datum-2026-08-01","sourceKey":"way:1091780747"}},{"type":"Feature","geometry":{"type":"LineString","coordinates":[[113.4636902,24.9748283],[113.4634556,24.9752085]]},"properties":{"key":"way:1091780748@detail:453_99","osmType":"way","osmId":1091780748,"sourceRegion":"guangdong","featureType":"infrastructure","railClass":"minor","mode":"rail","name":"未命名","service":"crossover","status":"operational","color":"#52636F","dataOrigin":"datum-2026-08-01","sourceKey":"way:1091780748"}},{"type":"Feature","geometry":{"type":"LineString","coordinates":[[113.4566744,24.9832114],[113.4565048,24.9833927],[113.4563531,24.9835548]]},"properties":{"key":"way:1091780749@detail:453_99","osmType":"way","osmId":1091780749,"sourceRegion":"guangdong","featureType":"infrastructure","railClass":"minor","mode":"rail","name":"未命名","service":"crossover","status":"operational","color":"#52636F","dataOrigin":"datum-2026-08-01","sourceKey":"way:1091780749"}},{"type":"Feature","geometry":{"type":"LineString","coordinates":[[113.4563166,24.9835294],[113.4565048,24.9833927],[113.4567067,24.9832461]]},"properties":{"key":"way:1091780750@detail:453_99","osmType":"way","osmId":1091780750,"sourceRegion":"guangdong","featureType":"infrastructure","railClass":"minor","mode":"rail","name":"未命名","service":"crossover","status":"operational","color":"#52636F","dataOrigin":"datum-2026-08-01","sourceKey":"way:1091780750"}}]}