{"type":"FeatureCollection","features":[{"type":"Feature","geometry":{"type":"Point","coordinates":[113.5957494,23.5695574]},"properties":{"key":"node:6495389765","osmType":"node","osmId":6495389765,"sourceRegion":"guangzhou","featureType":"station","railClass":"metro","mode":"subway","name":"东风","nameEn":"Dongfeng","ref":"1421","operator":"广州地铁集团有限公司","status":"operational","color":"#126d75","sourceKey":"node:6495389765","stationGroup":"东风","hasOperationalRail":true,"hasConstructionRail":false}},{"type":"Feature","geometry":{"type":"Point","coordinates":[113.5551611,23.5039659]},"properties":{"key":"node:6508660705","osmType":"node","osmId":6508660705,"sourceRegion":"guangzhou","featureType":"station","railClass":"metro","mode":"subway","name":"赤草","nameEn":"Chicao","ref":"1419","operator":"广州地铁集团有限公司","status":"operational","color":"#126d75","sourceKey":"node:6508660705","stationGroup":"赤草","hasOperationalRail":true,"hasConstructionRail":false}},{"type":"Feature","geometry":{"type":"Point","coordinates":[113.5896318,23.5343304]},"properties":{"key":"node:6508660706","osmType":"node","osmId":6508660706,"sourceRegion":"guangzhou","featureType":"station","railClass":"metro","mode":"subway","name":"从化客运站","nameEn":"Conghua Coach Terminal","ref":"1420","operator":"广州地铁集团有限公司","status":"operational","color":"#126d75","sourceKey":"node:6508660706","stationGroup":"从化客运","hasOperationalRail":true,"hasConstructionRail":false}},{"type":"Feature","geometry":{"type":"LineString","coordinates":[[113.5718437,23.5216802],[113.5718662,23.5217002],[113.5720206,23.5218316],[113.5723262,23.5220877],[113.5725438,23.5222548],[113.5727614,23.5224177],[113.5729888,23.5225809],[113.5732248,23.5227464],[113.5734507,23.5228984],[113.5737006,23.5230634],[113.5742879,23.5234435],[113.5746093,23.5236553],[113.5748767,23.5238314],[113.5752526,23.5240807],[113.586746,23.5318115],[113.5870873,23.5320409],[113.5873776,23.5322402],[113.5875538,23.5323631],[113.5877415,23.5325004],[113.5879881,23.5326856],[113.5881622,23.5328238],[113.5883245,23.5329568],[113.5884842,23.5330968],[113.5886184,23.53322],[113.5887774,23.5333713],[113.5889661,23.5335622],[113.5896837,23.5342857],[113.5909199,23.5355319],[113.5911856,23.5358021],[113.5913382,23.5359641],[113.5915174,23.5361608],[113.5916997,23.5363746],[113.5918633,23.5365827],[113.5920414,23.5368279],[113.5922165,23.5370697],[113.5924024,23.5373462],[113.5925974,23.5376415],[113.592786,23.5379487],[113.5929598,23.5382446],[113.5931156,23.5385206],[113.5933357,23.5389228],[113.5935636,23.539344],[113.5938973,23.5399594],[113.5940964,23.5403326],[113.5942998,23.5407082],[113.594488,23.5410643],[113.5946517,23.5413853],[113.5947771,23.5416317],[113.59487,23.5418218],[113.5949828,23.5420796],[113.5951005,23.5423821],[113.5951957,23.5426535],[113.5953455,23.543085],[113.5954531,23.5434164],[113.5956099,23.5439085],[113.595696,23.5442078],[113.5957639,23.5444543],[113.5958203,23.5446853],[113.5958665,23.5448883],[113.5959145,23.5451303],[113.5959537,23.545392],[113.5959823,23.5456964],[113.5959978,23.5459855],[113.5960004,23.546263],[113.5959958,23.5465767],[113.5959846,23.5468711],[113.5959722,23.547151],[113.5959571,23.5473914],[113.5959403,23.5476392],[113.5958725,23.548825],[113.5958617,23.5490027],[113.5958455,23.5492193],[113.5958264,23.5495076],[113.5958083,23.5498494],[113.5957937,23.5501251],[113.5957794,23.550432],[113.595769,23.5506827],[113.595767,23.5507318],[113.5957467,23.5510788],[113.5957305,23.5513571],[113.5957163,23.5516315],[113.5957076,23.5518582],[113.5957019,23.552169],[113.5957003,23.5523276],[113.5956908,23.5538862],[113.5956938,23.5542065],[113.5956947,23.5544952],[113.5956973,23.5548074],[113.5957011,23.5551609],[113.5957038,23.5554577],[113.5958572,23.5657777],[113.5958596,23.565992],[113.5958614,23.5661902],[113.5958627,23.5663833],[113.5958614,23.5666041],[113.5958607,23.5668792],[113.5958619,23.5671114],[113.5958639,23.567328],[113.5958634,23.5678854],[113.5958621,23.5695424]]},"properties":{"key":"way:444343997@detail:454_94","osmType":"way","osmId":444343997,"sourceRegion":"guangzhou","featureType":"infrastructure","railClass":"metro","mode":"subway","name":"广州地铁14号线","tunnel":"yes","status":"operational","color":"#52636f","sourceKey":"way:444343997"}},{"type":"Feature","geometry":{"type":"LineString","coordinates":[[113.5956341,23.5732889],[113.5956286,23.5721936],[113.5956364,23.5704979]]},"properties":{"key":"way:591493890@detail:454_94","osmType":"way","osmId":591493890,"sourceRegion":"guangzhou","featureType":"infrastructure","railClass":"metro","mode":"subway","name":"广州地铁14号线","tunnel":"yes","status":"operational","color":"#52636f","sourceKey":"way:591493890"}},{"type":"Feature","geometry":{"type":"LineString","coordinates":[[113.5559154,23.5042316],[113.556093,23.5043242],[113.5562701,23.5044165]]},"properties":{"key":"way:591620262@detail:454_94","osmType":"way","osmId":591620262,"sourceRegion":"guangzhou","featureType":"infrastructure","railClass":"metro","mode":"subway","name":"未命名","service":"crossover","bridge":"yes","status":"operational","color":"#52636f","sourceKey":"way:591620262"}},{"type":"Feature","geometry":{"type":"LineString","coordinates":[[113.5569919,23.5045984],[113.5575492,23.5048135],[113.5586347,23.5052285],[113.5592515,23.5054628]]},"properties":{"key":"way:591620271@detail:454_94","osmType":"way","osmId":591620271,"sourceRegion":"guangzhou","featureType":"infrastructure","railClass":"metro","mode":"subway","name":"未命名","service":"yard","bridge":"yes","status":"operational","color":"#52636f","sourceKey":"way:591620271"}},{"type":"Feature","geometry":{"type":"LineString","coordinates":[[113.562995,23.5068053],[113.5628648,23.5068079],[113.5627258,23.5068012],[113.5625869,23.5067889],[113.5624431,23.5067662],[113.5622906,23.5067382],[113.5621768,23.5067084],[113.5620063,23.5066567],[113.5617095,23.5065493],[113.5592003,23.5055883]]},"properties":{"key":"way:591620272@detail:454_94","osmType":"way","osmId":591620272,"sourceRegion":"guangzhou","featureType":"infrastructure","railClass":"metro","mode":"subway","name":"未命名","service":"yard","bridge":"yes","status":"operational","color":"#52636f","sourceKey":"way:591620272"}},{"type":"Feature","geometry":{"type":"LineString","coordinates":[[113.5569739,23.5046371],[113.5572666,23.5047267],[113.5575492,23.5048135]]},"properties":{"key":"way:591620273@detail:454_94","osmType":"way","osmId":591620273,"sourceRegion":"guangzhou","featureType":"infrastructure","railClass":"metro","mode":"subway","name":"未命名","service":"yard","bridge":"yes","status":"operational","color":"#52636f","sourceKey":"way:591620273"}},{"type":"Feature","geometry":{"type":"LineString","coordinates":[[113.5574915,23.504934],[113.5572212,23.5048054],[113.5569556,23.504679]]},"properties":{"key":"way:591620274@detail:454_94","osmType":"way","osmId":591620274,"sourceRegion":"guangzhou","featureType":"infrastructure","railClass":"metro","mode":"subway","name":"未命名","service":"yard","bridge":"yes","status":"operational","color":"#52636f","sourceKey":"way:591620274"}},{"type":"Feature","geometry":{"type":"LineString","coordinates":[[113.5562886,23.5043746],[113.556093,23.5043242],[113.5558974,23.5042737]]},"properties":{"key":"way:591620275@detail:454_94","osmType":"way","osmId":591620275,"sourceRegion":"guangzhou","featureType":"infrastructure","railClass":"metro","mode":"subway","name":"未命名","service":"crossover","bridge":"yes","status":"operational","color":"#52636f","sourceKey":"way:591620275"}},{"type":"Feature","geometry":{"type":"LineString","coordinates":[[113.5725533,23.5018314],[113.5702892,23.5032076],[113.5702004,23.5032609],[113.5700748,23.5033364],[113.5699792,23.5033802],[113.569895,23.5034129],[113.569807,23.5034401],[113.5695712,23.5035053],[113.5695479,23.5035118],[113.5692968,23.5035815],[113.5691313,23.5036275],[113.5689724,23.5036737],[113.5688039,23.5037409],[113.568527,23.5038596],[113.5684177,23.5039065],[113.56827,23.5039789],[113.5680182,23.5041286],[113.5676909,23.5043232],[113.567265,23.5045765],[113.5670858,23.5046831],[113.5667513,23.504882],[113.5644779,23.5062338],[113.5641645,23.5064202],[113.5641287,23.5064415],[113.5639848,23.506525],[113.5638181,23.5066131],[113.563639,23.5066968],[113.5634751,23.5067453],[113.5633219,23.5067717],[113.5631781,23.5067886],[113.562995,23.5068053]]},"properties":{"key":"way:591620276@detail:454_94","osmType":"way","osmId":591620276,"sourceRegion":"guangzhou","featureType":"infrastructure","railClass":"metro","mode":"subway","name":"未命名","service":"yard","status":"operational","color":"#52636f","sourceKey":"way:591620276"}},{"type":"Feature","geometry":{"type":"LineString","coordinates":[[113.562947,23.5066837],[113.5631778,23.5066765]]},"properties":{"key":"way:591620277@detail:454_94","osmType":"way","osmId":591620277,"sourceRegion":"guangzhou","featureType":"infrastructure","railClass":"metro","mode":"subway","name":"未命名","service":"yard","status":"operational","color":"#52636f","sourceKey":"way:591620277"}},{"type":"Feature","geometry":{"type":"LineString","coordinates":[[113.5592003,23.5055883],[113.5574915,23.504934],[113.5569372,23.5047188]]},"properties":{"key":"way:591620278@detail:454_94","osmType":"way","osmId":591620278,"sourceRegion":"guangzhou","featureType":"infrastructure","railClass":"metro","mode":"subway","name":"未命名","service":"yard","bridge":"yes","status":"operational","color":"#52636f","sourceKey":"way:591620278"}},{"type":"Feature","geometry":{"type":"LineString","coordinates":[[113.5592515,23.5054628],[113.561186,23.5061979],[113.5615862,23.506352],[113.5619598,23.5064976],[113.5621676,23.5065725],[113.5623242,23.5066175],[113.5624922,23.5066517],[113.562644,23.506671],[113.5627981,23.5066796],[113.562947,23.5066837]]},"properties":{"key":"way:591620279@detail:454_94","osmType":"way","osmId":591620279,"sourceRegion":"guangzhou","featureType":"infrastructure","railClass":"metro","mode":"subway","name":"未命名","service":"yard","bridge":"yes","status":"operational","color":"#52636f","sourceKey":"way:591620279"}},{"type":"Feature","geometry":{"type":"LineString","coordinates":[[113.5694387,23.5184728],[113.5695984,23.5187342],[113.5699498,23.5193095],[113.5701708,23.5196691],[113.5703825,23.5199946],[113.5705661,23.5202622],[113.5708368,23.5206188],[113.5710163,23.5208368],[113.5712133,23.5210639],[113.571338,23.5211943],[113.5715104,23.5213694],[113.57167,23.5215258],[113.5718437,23.5216802]]},"properties":{"key":"way:591734420@detail:454_94","osmType":"way","osmId":591734420,"sourceRegion":"guangzhou","featureType":"infrastructure","railClass":"metro","mode":"subway","name":"广州地铁14号线","status":"operational","color":"#52636f","sourceKey":"way:591734420"}},{"type":"Feature","geometry":{"type":"LineString","coordinates":[[113.5717983,23.521722],[113.5716783,23.5216065],[113.5715238,23.5214518],[113.5713002,23.5212169],[113.5711518,23.521051],[113.5709567,23.5208274],[113.570788,23.5206224],[113.5706172,23.5203968],[113.5704871,23.5202142],[113.5703652,23.5200427],[113.5702209,23.5198153],[113.5700054,23.519463],[113.569733,23.5190288],[113.5695503,23.5187305],[113.5694017,23.5184871]]},"properties":{"key":"way:591734421@detail:454_94","osmType":"way","osmId":591734421,"sourceRegion":"guangzhou","featureType":"infrastructure","railClass":"metro","mode":"subway","name":"广州地铁14号线","status":"operational","color":"#52636f","sourceKey":"way:591734421"}},{"type":"Feature","geometry":{"type":"LineString","coordinates":[[113.5957466,23.5733995],[113.595747,23.5730034],[113.5957485,23.5714373],[113.5957486,23.5712335],[113.5957487,23.5711494],[113.59575,23.5695417],[113.5957506,23.5688088],[113.5957508,23.5686002],[113.5957495,23.568547],[113.5957479,23.5684815],[113.5957435,23.5684165],[113.5957368,23.5683517],[113.59573,23.5682967],[113.5957206,23.5682264],[113.5957091,23.56815],[113.5956941,23.5680542],[113.5956769,23.5679328],[113.5956623,23.5678238],[113.5956387,23.5676297]]},"properties":{"key":"way:591775182@detail:454_94","osmType":"way","osmId":591775182,"sourceRegion":"guangzhou","featureType":"infrastructure","railClass":"metro","mode":"subway","name":"未命名","service":"yard","tunnel":"yes","status":"operational","color":"#52636f","sourceKey":"way:591775182"}},{"type":"Feature","geometry":{"type":"LineString","coordinates":[[113.5958634,23.5678854],[113.5957506,23.5688088]]},"properties":{"key":"way:591775183@detail:454_94","osmType":"way","osmId":591775183,"sourceRegion":"guangzhou","featureType":"infrastructure","railClass":"metro","mode":"subway","name":"未命名","service":"yard","tunnel":"yes","status":"operational","color":"#52636f","sourceKey":"way:591775183"}},{"type":"Feature","geometry":{"type":"LineString","coordinates":[[113.5957485,23.5714373],[113.5956364,23.5704979]]},"properties":{"key":"way:591775184@detail:454_94","osmType":"way","osmId":591775184,"sourceRegion":"guangzhou","featureType":"infrastructure","railClass":"metro","mode":"subway","name":"未命名","service":"yard","tunnel":"yes","status":"operational","color":"#52636f","sourceKey":"way:591775184"}},{"type":"Feature","geometry":{"type":"LineString","coordinates":[[113.5958615,23.5702762],[113.5957487,23.5711494]]},"properties":{"key":"way:591775185@detail:454_94","osmType":"way","osmId":591775185,"sourceRegion":"guangzhou","featureType":"infrastructure","railClass":"metro","mode":"subway","name":"未命名","service":"yard","tunnel":"yes","status":"operational","color":"#52636f","sourceKey":"way:591775185"}},{"type":"Feature","geometry":{"type":"LineString","coordinates":[[113.595711,23.5733764],[113.595747,23.5730034]]},"properties":{"key":"way:591775186@detail:454_94","osmType":"way","osmId":591775186,"sourceRegion":"guangzhou","featureType":"infrastructure","railClass":"metro","mode":"subway","name":"未命名","service":"yard","tunnel":"yes","status":"operational","color":"#52636f","sourceKey":"way:591775186"}},{"type":"Feature","geometry":{"type":"LineString","coordinates":[[113.5958615,23.5702762],[113.595859,23.573288]]},"properties":{"key":"way:591799105@detail:454_94","osmType":"way","osmId":591799105,"sourceRegion":"guangzhou","featureType":"infrastructure","railClass":"metro","mode":"subway","name":"广州地铁14号线","tunnel":"yes","status":"operational","color":"#52636f","sourceKey":"way:591799105"}},{"type":"Feature","geometry":{"type":"LineString","coordinates":[[113.5956372,23.5695413],[113.5956387,23.5676297],[113.595639,23.5673209],[113.5956427,23.5670635],[113.5956471,23.5667887],[113.5956497,23.5665528],[113.5956526,23.5662165],[113.5956525,23.5659287],[113.5956512,23.5656539],[113.5956504,23.5653644],[113.5955568,23.5543012],[113.5955564,23.5540709],[113.5955576,23.5538788],[113.5955631,23.5522772],[113.595566,23.5520591],[113.5955705,23.5518921],[113.5955796,23.5516624],[113.5955912,23.5513878],[113.5956036,23.5510841],[113.5956154,23.5508044],[113.5956292,23.5505225],[113.5956434,23.550229],[113.595662,23.5499224],[113.5956853,23.5495862],[113.5957088,23.5492524],[113.5957391,23.5488397],[113.595825,23.5475863],[113.5958411,23.5472605],[113.5958473,23.546962],[113.5958549,23.5466527],[113.5958578,23.5463359],[113.5958535,23.5460759],[113.5958427,23.5458867],[113.5958262,23.5456886],[113.5958035,23.5454844],[113.5957731,23.5452858],[113.5957321,23.545073],[113.595679,23.5448215],[113.5956106,23.5445425],[113.5955117,23.5441773],[113.5953945,23.5437818],[113.5952647,23.5433776],[113.5951419,23.543017],[113.5950173,23.5426757],[113.5948873,23.5423269],[113.594753,23.5419926],[113.5946359,23.5417366],[113.5944921,23.5414392],[113.5942469,23.5409499],[113.5940292,23.5405028],[113.5938725,23.5401909],[113.5937326,23.5399135],[113.5935903,23.5396409],[113.5934444,23.5393665],[113.5932916,23.5390874],[113.593155,23.5388416],[113.5930034,23.5385766],[113.5928617,23.5383343],[113.5926479,23.5379873],[113.5924226,23.5376489],[113.5921698,23.5372844],[113.5919435,23.5369583],[113.5917733,23.5367292],[113.5915862,23.5364872],[113.5914438,23.5363134],[113.5912679,23.536108],[113.5910884,23.5359084],[113.590893,23.5356999],[113.5907099,23.5355136],[113.5905317,23.535331],[113.5895794,23.5343723],[113.5888469,23.5336348],[113.5888182,23.5336059],[113.5886385,23.5334262],[113.5884363,23.533231],[113.5882553,23.5330657],[113.5881007,23.5329314],[113.5879606,23.5328179],[113.5878153,23.5327078],[113.5876475,23.5325815],[113.5873858,23.5323943],[113.5871135,23.532206],[113.5868933,23.5320562],[113.5867051,23.5319301],[113.5747151,23.52388],[113.5744539,23.5237049],[113.5741941,23.5235284],[113.5739239,23.5233437],[113.5736399,23.5231497],[113.5733452,23.5229447],[113.5730972,23.5227658],[113.5728532,23.5225924],[113.5726634,23.5224513],[113.5725077,23.5223315],[113.5723552,23.5222122],[113.5721824,23.5220687],[113.5720259,23.5219326],[113.5718816,23.5218022],[113.5717983,23.521722]]},"properties":{"key":"way:591799106@detail:454_94","osmType":"way","osmId":591799106,"sourceRegion":"guangzhou","featureType":"infrastructure","railClass":"metro","mode":"subway","name":"广州地铁14号线","tunnel":"yes","status":"operational","color":"#52636f","sourceKey":"way:591799106"}},{"type":"Feature","geometry":{"type":"LineString","coordinates":[[113.5528372,23.5030527],[113.5541566,23.5034491],[113.5542311,23.5034723],[113.554316,23.5034993],[113.5543989,23.5035257],[113.5544843,23.5035528],[113.5545728,23.5035837],[113.5546515,23.5036131],[113.5552247,23.5038322],[113.5558025,23.504053],[113.5558678,23.5040784],[113.5559263,23.5041025],[113.5560107,23.5041385],[113.5560837,23.504171],[113.5561628,23.5042075],[113.5562459,23.5042469],[113.5564227,23.5043323],[113.5569919,23.5045984],[113.5572666,23.5047267],[113.5575314,23.5048505]]},"properties":{"key":"way:596133706@detail:454_94","osmType":"way","osmId":596133706,"sourceRegion":"guangzhou","featureType":"infrastructure","railClass":"metro","mode":"subway","name":"广州地铁14号线（侧线）","service":"siding","bridge":"yes","status":"operational","color":"#52636f","sourceKey":"way:596133706"}},{"type":"Feature","geometry":{"type":"LineString","coordinates":[[113.5575113,23.5048919],[113.5572212,23.5048054],[113.5569372,23.5047188],[113.5563214,23.5045297],[113.5561994,23.504493],[113.5560976,23.5044624],[113.5560159,23.5044382],[113.555947,23.5044167],[113.5558795,23.5043957],[113.5558235,23.5043765],[113.5557721,23.5043583],[113.5557256,23.5043412],[113.5556784,23.5043234],[113.5551017,23.504103],[113.5545183,23.5038801],[113.5544481,23.5038522],[113.5543731,23.5038218],[113.5542984,23.5037881],[113.5542087,23.5037466],[113.5541225,23.5037058],[113.5528197,23.5030955]]},"properties":{"key":"way:596133707@detail:454_94","osmType":"way","osmId":596133707,"sourceRegion":"guangzhou","featureType":"infrastructure","railClass":"metro","mode":"subway","name":"广州地铁14号线（侧线）","service":"siding","bridge":"yes","status":"operational","color":"#52636f","sourceKey":"way:596133707"}},{"type":"Feature","geometry":{"type":"LineString","coordinates":[[113.5631778,23.5066765],[113.5634157,23.5066529],[113.5636668,23.5065924],[113.5638825,23.5065164],[113.5640273,23.5064418],[113.5644805,23.5061733],[113.5646549,23.50607],[113.5675609,23.5043479],[113.5677909,23.5042116],[113.5683414,23.5038853],[113.5686355,23.5037111],[113.5687375,23.5036506],[113.5688238,23.5035986],[113.5689948,23.5034953],[113.5693314,23.5032922],[113.5695222,23.503177],[113.5699321,23.5029125],[113.569944,23.5029053],[113.5723062,23.501474]]},"properties":{"key":"way:732003013@detail:454_94","osmType":"way","osmId":732003013,"sourceRegion":"guangzhou","featureType":"infrastructure","railClass":"metro","mode":"subway","name":"未命名","service":"yard","status":"operational","color":"#52636f","sourceKey":"way:732003013"}},{"type":"Feature","geometry":{"type":"LineString","coordinates":[[113.5694017,23.5184871],[113.5691115,23.5180117],[113.5689342,23.5177218],[113.5680716,23.5162998],[113.5668591,23.514337],[113.5662601,23.513361],[113.5659168,23.5127979],[113.5656276,23.5123235],[113.5639428,23.509579],[113.5631886,23.5084325],[113.5629075,23.5079955],[113.5628207,23.5078669],[113.5627374,23.5077609],[113.5625927,23.5075919],[113.5624203,23.507398],[113.5622088,23.5071892],[113.5619629,23.5069655],[113.5617616,23.5067978],[113.5616062,23.5066801],[113.5614967,23.506603],[113.5613022,23.5064751],[113.5610835,23.5063405],[113.5609462,23.5062629],[113.5608074,23.506191],[113.5606499,23.5061129],[113.5604539,23.5060234],[113.5602564,23.5059418],[113.5601287,23.5058915],[113.5576857,23.5049586],[113.5575113,23.5048919],[113.5569556,23.504679],[113.5562701,23.5044165],[113.5558974,23.5042737],[113.5551538,23.503989],[113.5531181,23.5032095],[113.5529724,23.5031537],[113.5528197,23.5030955],[113.5525578,23.5029958],[113.5522733,23.502883],[113.5520118,23.5027782],[113.5518484,23.502709],[113.5516719,23.5026304],[113.5515498,23.502572],[113.5514182,23.5025054],[113.5513124,23.5024406],[113.551214,23.5023756],[113.5510963,23.5022946],[113.5509703,23.5021997],[113.5508559,23.5021099],[113.5505018,23.50183],[113.5503328,23.5016983],[113.5501379,23.50155],[113.5497437,23.5012505],[113.5495583,23.5011252],[113.5493731,23.5010053],[113.5491612,23.5008815],[113.5489103,23.5007444],[113.5480946,23.5003049],[113.54753045244931,23.5]]},"properties":{"key":"way:776677043@detail:454_94","osmType":"way","osmId":776677043,"sourceRegion":"guangzhou","featureType":"infrastructure","railClass":"metro","mode":"subway","name":"广州地铁14号线","nameEn":"Guangzhou Metro Line 14","bridge":"yes","status":"operational","color":"#52636f","sourceKey":"way:776677043"}},{"type":"Feature","geometry":{"type":"LineString","coordinates":[[113.54760421646915,23.5],[113.5487515,23.5006202],[113.5489975,23.5007549],[113.5492234,23.5008795],[113.5493823,23.500971],[113.5495231,23.5010604],[113.549766,23.5012237],[113.5501703,23.5015256],[113.5503426,23.5016563],[113.5506001,23.5018543],[113.5509882,23.5021586],[113.551131,23.5022647],[113.5512293,23.5023333],[113.5513308,23.5023988],[113.5514002,23.5024422],[113.5515038,23.5024974],[113.5516258,23.5025572],[113.5517741,23.5026251],[113.5519655,23.5027075],[113.5523106,23.5028465],[113.5525466,23.5029405],[113.55277,23.5030269],[113.5528372,23.5030527],[113.5529917,23.503112],[113.5531334,23.5031663],[113.554586,23.5037227],[113.5551723,23.5039471],[113.5559154,23.5042316],[113.5562886,23.5043746],[113.5563393,23.5043941],[113.5569739,23.5046371],[113.5575314,23.5048505],[113.5576989,23.5049147],[113.5601408,23.5058594],[113.5602677,23.5059095],[113.560384,23.5059566],[113.5605164,23.5060141],[113.5606273,23.5060655],[113.5607474,23.5061229],[113.56086,23.5061794],[113.560897,23.5061989],[113.5609597,23.5062319],[113.5610674,23.5062901],[113.5611859,23.5063618],[113.5612814,23.5064212],[113.5616176,23.5066385],[113.5617126,23.5067106],[113.5618324,23.5068016],[113.5619745,23.5069159],[113.5621317,23.5070531],[113.5622831,23.5071958],[113.5624425,23.5073535],[113.5625787,23.5075012],[113.562647,23.5075767],[113.5627153,23.5076596],[113.5627979,23.5077609],[113.562864,23.5078534],[113.5629951,23.5080505],[113.5633541,23.5086048],[113.5638803,23.5093978],[113.5639835,23.5095573],[113.5656636,23.5122962],[113.5658993,23.512688],[113.566303,23.5133477],[113.5669056,23.514321],[113.5681129,23.5162724],[113.568934,23.5176475],[113.5691399,23.5179888],[113.5694387,23.5184728]]},"properties":{"key":"way:808277367@detail:454_94","osmType":"way","osmId":808277367,"sourceRegion":"guangzhou","featureType":"infrastructure","railClass":"metro","mode":"subway","name":"广州地铁14号线","nameEn":"Guangzhou Metro Line 14","bridge":"yes","status":"operational","color":"#52636f","sourceKey":"way:808277367"}},{"type":"Feature","geometry":{"type":"LineString","coordinates":[[113.5632264,23.5070082],[113.564041,23.506546],[113.5648108,23.5060892],[113.5667743,23.5049239],[113.567108,23.5047278]]},"properties":{"key":"way:968203726@detail:454_94","osmType":"way","osmId":968203726,"sourceRegion":"guangzhou","featureType":"infrastructure","railClass":"metro","mode":"subway","name":"未命名","service":"yard","status":"operational","color":"#52636f","sourceKey":"way:968203726"}},{"type":"Feature","geometry":{"type":"LineString","coordinates":[[113.5667513,23.504882],[113.5669263,23.5048063],[113.567108,23.5047278],[113.5672108,23.5046834],[113.567329,23.5046343],[113.5676279,23.50451],[113.5679183,23.5043893],[113.5680538,23.5043306],[113.56824,23.5042499],[113.5683622,23.5041998],[113.5684484,23.5041705],[113.5685389,23.5041476],[113.5686193,23.5041365],[113.5686998,23.5041281],[113.5687733,23.5041239],[113.568837,23.5041228],[113.568853,23.5041226],[113.5696609,23.5041168]]},"properties":{"key":"way:968203727@detail:454_94","osmType":"way","osmId":968203727,"sourceRegion":"guangzhou","featureType":"infrastructure","railClass":"metro","mode":"subway","name":"未命名","service":"yard","status":"operational","color":"#52636f","sourceKey":"way:968203727"}},{"type":"Feature","geometry":{"type":"LineString","coordinates":[[113.5667743,23.5049239],[113.5669263,23.5048063],[113.5670858,23.5046831]]},"properties":{"key":"way:968203728@detail:454_94","osmType":"way","osmId":968203728,"sourceRegion":"guangzhou","featureType":"infrastructure","railClass":"metro","mode":"subway","name":"未命名","service":"yard","status":"operational","color":"#52636f","sourceKey":"way:968203728"}},{"type":"Feature","geometry":{"type":"LineString","coordinates":[[113.5646549,23.50607],[113.5648046,23.505964],[113.5649389,23.5058576],[113.5651586,23.5056813],[113.5652284,23.5056282],[113.5653217,23.5055623],[113.5670874,23.5045295],[113.5671754,23.5044833],[113.5672966,23.5044252],[113.5675284,23.5043327],[113.5677039,23.504255],[113.5677909,23.5042116]]},"properties":{"key":"way:968203729@detail:454_94","osmType":"way","osmId":968203729,"sourceRegion":"guangzhou","featureType":"infrastructure","railClass":"metro","mode":"subway","name":"未命名","service":"yard","status":"operational","color":"#52636f","sourceKey":"way:968203729"}},{"type":"Feature","geometry":{"type":"LineString","coordinates":[[113.5648108,23.5060892],[113.5644779,23.5062338]]},"properties":{"key":"way:968203730@detail:454_94","osmType":"way","osmId":968203730,"sourceRegion":"guangzhou","featureType":"infrastructure","railClass":"metro","mode":"subway","name":"未命名","service":"yard","status":"operational","color":"#52636f","sourceKey":"way:968203730"}},{"type":"Feature","geometry":{"type":"LineString","coordinates":[[113.5641645,23.5064202],[113.5644805,23.5061733]]},"properties":{"key":"way:968203731@detail:454_94","osmType":"way","osmId":968203731,"sourceRegion":"guangzhou","featureType":"infrastructure","railClass":"metro","mode":"subway","name":"未命名","service":"yard","status":"operational","color":"#52636f","sourceKey":"way:968203731"}},{"type":"Feature","geometry":{"type":"LineString","coordinates":[[113.567265,23.5045765],[113.5675609,23.5043479]]},"properties":{"key":"way:968203732@detail:454_94","osmType":"way","osmId":968203732,"sourceRegion":"guangzhou","featureType":"infrastructure","railClass":"metro","mode":"subway","name":"未命名","service":"yard","status":"operational","color":"#52636f","sourceKey":"way:968203732"}},{"type":"Feature","geometry":{"type":"LineString","coordinates":[[113.5637476,23.5085269],[113.5650753,23.5077357],[113.56765,23.5062069],[113.5679042,23.5060469],[113.5681189,23.5059049],[113.5682552,23.5058097],[113.5684718,23.5056553],[113.569604,23.5048431],[113.5701297,23.504466],[113.5722343,23.5029347]]},"properties":{"key":"way:968203733@detail:454_94","osmType":"way","osmId":968203733,"sourceRegion":"guangzhou","featureType":"infrastructure","railClass":"metro","mode":"subway","name":"邓村车辆段 试车线","service":"yard","status":"operational","color":"#52636f","sourceKey":"way:968203733"}},{"type":"Feature","geometry":{"type":"LineString","coordinates":[[113.567329,23.5046343],[113.567747,23.5045099],[113.5680897,23.5044235]]},"properties":{"key":"way:968203734@detail:454_94","osmType":"way","osmId":968203734,"sourceRegion":"guangzhou","featureType":"infrastructure","railClass":"metro","mode":"subway","name":"未命名","service":"yard","status":"operational","color":"#52636f","sourceKey":"way:968203734"}},{"type":"Feature","geometry":{"type":"LineString","coordinates":[[113.5676279,23.50451],[113.5679228,23.5044107],[113.5680537,23.5043718],[113.5681673,23.5043503],[113.5682864,23.5043404],[113.5683974,23.504342],[113.5685228,23.504347],[113.5686229,23.5043544],[113.5689796,23.5043858],[113.5691052,23.5043948],[113.569198,23.5043963],[113.5693225,23.5043938],[113.5694461,23.5043789],[113.5695085,23.5043655],[113.5695652,23.5043533],[113.5696029,23.5043406],[113.5697157,23.5043026],[113.5700051,23.50417]]},"properties":{"key":"way:968203735@detail:454_94","osmType":"way","osmId":968203735,"sourceRegion":"guangzhou","featureType":"infrastructure","railClass":"metro","mode":"subway","name":"未命名","service":"yard","status":"operational","color":"#52636f","sourceKey":"way:968203735"}},{"type":"Feature","geometry":{"type":"LineString","coordinates":[[113.5676909,23.5043232],[113.5679168,23.5042288],[113.5682286,23.5040985],[113.5683531,23.5040533],[113.5684732,23.5040257],[113.5686086,23.5040004],[113.5687413,23.5039851],[113.568837,23.5039851],[113.568888,23.5039851],[113.5696567,23.5039839]]},"properties":{"key":"way:968203736@detail:454_94","osmType":"way","osmId":968203736,"sourceRegion":"guangzhou","featureType":"infrastructure","railClass":"metro","mode":"subway","name":"未命名","service":"yard","status":"operational","color":"#52636f","sourceKey":"way:968203736"}},{"type":"Feature","geometry":{"type":"LineString","coordinates":[[113.569659,23.5041727],[113.568837,23.5041771],[113.5688255,23.5041772],[113.5686645,23.504183],[113.5686224,23.5041859],[113.5685523,23.5041971],[113.5684772,23.5042128],[113.5680538,23.5043306]]},"properties":{"key":"way:968203737@detail:454_94","osmType":"way","osmId":968203737,"sourceRegion":"guangzhou","featureType":"infrastructure","railClass":"metro","mode":"subway","name":"未命名","service":"yard","status":"operational","color":"#52636f","sourceKey":"way:968203737"}},{"type":"Feature","geometry":{"type":"LineString","coordinates":[[113.5679168,23.5042288],[113.5682949,23.5041175],[113.5684501,23.504077],[113.5685733,23.504054],[113.5687082,23.5040396],[113.5688163,23.5040372],[113.568837,23.5040372],[113.5696586,23.5040352]]},"properties":{"key":"way:968203738@detail:454_94","osmType":"way","osmId":968203738,"sourceRegion":"guangzhou","featureType":"infrastructure","railClass":"metro","mode":"subway","name":"未命名","service":"yard","status":"operational","color":"#52636f","sourceKey":"way:968203738"}},{"type":"Feature","geometry":{"type":"LineString","coordinates":[[113.5680182,23.5041286],[113.5683453,23.5039846],[113.5684593,23.5039452],[113.5685765,23.5039166],[113.5687002,23.5038939],[113.5688644,23.5038882],[113.5694114,23.5038882],[113.5696452,23.5038882],[113.5697722,23.5038823],[113.5699216,23.5038665],[113.5700798,23.5038319],[113.5702015,23.5037877],[113.5703344,23.5037304],[113.5704437,23.5036722],[113.5704806,23.5036497],[113.5717714,23.5028892]]},"properties":{"key":"way:968203739@detail:454_94","osmType":"way","osmId":968203739,"sourceRegion":"guangzhou","featureType":"infrastructure","railClass":"metro","mode":"subway","name":"未命名","service":"yard","status":"operational","color":"#52636f","sourceKey":"way:968203739"}},{"type":"Feature","geometry":{"type":"LineString","coordinates":[[113.5689948,23.5034953],[113.5691976,23.5033278],[113.5692175,23.5033112],[113.569627,23.5029692],[113.569778,23.5028481],[113.5698635,23.5027936],[113.5699097,23.5027642],[113.5722254,23.5013515]]},"properties":{"key":"way:968203740@detail:454_94","osmType":"way","osmId":968203740,"sourceRegion":"guangzhou","featureType":"infrastructure","railClass":"metro","mode":"subway","name":"未命名","service":"yard","status":"operational","color":"#52636f","sourceKey":"way:968203740"}},{"type":"Feature","geometry":{"type":"LineString","coordinates":[[113.57236,23.5027629],[113.5720174,23.5029676],[113.570695,23.5037578],[113.5704452,23.5039071],[113.5700971,23.5041151],[113.5700051,23.50417],[113.5693115,23.5045845],[113.5689778,23.5047838],[113.5687585,23.5049149],[113.5684436,23.5051031],[113.5681266,23.5052925],[113.5676682,23.5055664],[113.5676268,23.5055911],[113.5660494,23.5065121]]},"properties":{"key":"way:968203741@detail:454_94","osmType":"way","osmId":968203741,"sourceRegion":"guangzhou","featureType":"infrastructure","railClass":"metro","mode":"subway","name":"未命名","service":"yard","status":"operational","color":"#52636f","sourceKey":"way:968203741"}},{"type":"Feature","geometry":{"type":"LineString","coordinates":[[113.5694114,23.5038882],[113.569591,23.5038651],[113.5696486,23.5038512],[113.5699428,23.5037803],[113.5701643,23.5037034],[113.5702633,23.503656],[113.5703472,23.5036116],[113.5704215,23.5035678],[113.5704677,23.5035406],[113.5717205,23.5028135]]},"properties":{"key":"way:968203742@detail:454_94","osmType":"way","osmId":968203742,"sourceRegion":"guangzhou","featureType":"infrastructure","railClass":"metro","mode":"subway","name":"未命名","service":"yard","status":"operational","color":"#52636f","sourceKey":"way:968203742"}},{"type":"Feature","geometry":{"type":"LineString","coordinates":[[113.5696486,23.5038512],[113.5698999,23.5038172],[113.5700128,23.5037965],[113.5701085,23.5037659],[113.5702333,23.5037185],[113.5703236,23.5036761],[113.5704387,23.5036081],[113.570447,23.5036031],[113.5717442,23.5028538]]},"properties":{"key":"way:968203743@detail:454_94","osmType":"way","osmId":968203743,"sourceRegion":"guangzhou","featureType":"infrastructure","railClass":"metro","mode":"subway","name":"未命名","service":"yard","status":"operational","color":"#52636f","sourceKey":"way:968203743"}},{"type":"Feature","geometry":{"type":"LineString","coordinates":[[113.569604,23.5048431],[113.5697767,23.5046844],[113.569851,23.5046006],[113.5699306,23.5044911],[113.570067,23.5043043],[113.5701299,23.5042322],[113.5702214,23.5041381]]},"properties":{"key":"way:968203744@detail:454_94","osmType":"way","osmId":968203744,"sourceRegion":"guangzhou","featureType":"infrastructure","railClass":"metro","mode":"subway","name":"未命名","service":"yard","status":"operational","color":"#52636f","sourceKey":"way:968203744"}},{"type":"Feature","geometry":{"type":"LineString","coordinates":[[113.568141,23.5057972],[113.5683329,23.5056506],[113.5687335,23.5053263],[113.5702214,23.5041381],[113.5704694,23.503939],[113.5705788,23.5038511],[113.570695,23.5037578]]},"properties":{"key":"way:968203745@detail:454_94","osmType":"way","osmId":968203745,"sourceRegion":"guangzhou","featureType":"infrastructure","railClass":"metro","mode":"subway","name":"未命名","service":"yard","status":"operational","color":"#52636f","sourceKey":"way:968203745"}},{"type":"Feature","geometry":{"type":"LineString","coordinates":[[113.5720174,23.5029676],[113.5718749,23.5030844],[113.5717173,23.5031987],[113.5716025,23.5032709],[113.5707156,23.5037938],[113.5704694,23.503939]]},"properties":{"key":"way:968203746@detail:454_94","osmType":"way","osmId":968203746,"sourceRegion":"guangzhou","featureType":"infrastructure","railClass":"metro","mode":"subway","name":"未命名","service":"yard","status":"operational","color":"#52636f","sourceKey":"way:968203746"}},{"type":"Feature","geometry":{"type":"LineString","coordinates":[[113.5704452,23.5039071],[113.5705788,23.5038511],[113.5707156,23.5037938]]},"properties":{"key":"way:968203747@detail:454_94","osmType":"way","osmId":968203747,"sourceRegion":"guangzhou","featureType":"infrastructure","railClass":"metro","mode":"subway","name":"未命名","service":"yard","status":"operational","color":"#52636f","sourceKey":"way:968203747"}},{"type":"Feature","geometry":{"type":"LineString","coordinates":[[113.568527,23.5038596],[113.5688743,23.5037637],[113.5690955,23.5037027],[113.5692339,23.5036723],[113.5693807,23.5036458],[113.5694963,23.5036285],[113.5697659,23.5035882],[113.5698602,23.5035715],[113.5699598,23.5035422],[113.5700519,23.5035094],[113.5701302,23.5034724],[113.5702421,23.5034187],[113.5702922,23.5033883],[113.5726425,23.5019594]]},"properties":{"key":"way:968203748@detail:454_94","osmType":"way","osmId":968203748,"sourceRegion":"guangzhou","featureType":"infrastructure","railClass":"metro","mode":"subway","name":"未命名","service":"yard","status":"operational","color":"#52636f","sourceKey":"way:968203748"}},{"type":"Feature","geometry":{"type":"LineString","coordinates":[[113.5683414,23.5038853],[113.5689436,23.5036329],[113.5692575,23.5034987],[113.569612,23.5033472],[113.56966,23.5033265],[113.5698813,23.5032309],[113.5699749,23.5031842],[113.5700563,23.5031354],[113.5700935,23.5031127],[113.5724419,23.5016832]]},"properties":{"key":"way:968203749@detail:454_94","osmType":"way","osmId":968203749,"sourceRegion":"guangzhou","featureType":"infrastructure","railClass":"metro","mode":"subway","name":"未命名","service":"yard","status":"operational","color":"#52636f","sourceKey":"way:968203749"}},{"type":"Feature","geometry":{"type":"LineString","coordinates":[[113.5688238,23.5035986],[113.5694865,23.5033116],[113.5696178,23.5032573],[113.569721,23.5032051],[113.5698275,23.5031429],[113.5700253,23.5030181],[113.570076,23.5029861],[113.5723752,23.5015798]]},"properties":{"key":"way:968203750@detail:454_94","osmType":"way","osmId":968203750,"sourceRegion":"guangzhou","featureType":"infrastructure","railClass":"metro","mode":"subway","name":"未命名","service":"yard","status":"operational","color":"#52636f","sourceKey":"way:968203750"}},{"type":"Feature","geometry":{"type":"LineString","coordinates":[[113.56966,23.5033265],[113.5697851,23.5032492],[113.5700475,23.5030874],[113.5700668,23.5030756],[113.572418,23.5016475]]},"properties":{"key":"way:968203751@detail:454_94","osmType":"way","osmId":968203751,"sourceRegion":"guangzhou","featureType":"infrastructure","railClass":"metro","mode":"subway","name":"未命名","service":"yard","status":"operational","color":"#52636f","sourceKey":"way:968203751"}},{"type":"Feature","geometry":{"type":"LineString","coordinates":[[113.5692175,23.5033112],[113.5694787,23.503142],[113.5699173,23.5028682],[113.5700201,23.502804],[113.5722748,23.5014331]]},"properties":{"key":"way:968203752@detail:454_94","osmType":"way","osmId":968203752,"sourceRegion":"guangzhou","featureType":"infrastructure","railClass":"metro","mode":"subway","name":"未命名","service":"yard","status":"operational","color":"#52636f","sourceKey":"way:968203752"}},{"type":"Feature","geometry":{"type":"LineString","coordinates":[[113.5693314,23.5032922],[113.5696012,23.5031761],[113.5697611,23.5031074],[113.5698615,23.5030617],[113.5699483,23.5030161],[113.57,23.5029829],[113.5700963,23.502921],[113.5723483,23.5015413]]},"properties":{"key":"way:968203753@detail:454_94","osmType":"way","osmId":968203753,"sourceRegion":"guangzhou","featureType":"infrastructure","railClass":"metro","mode":"subway","name":"未命名","service":"yard","status":"operational","color":"#52636f","sourceKey":"way:968203753"}},{"type":"Feature","geometry":{"type":"LineString","coordinates":[[113.5696012,23.5031761],[113.5699707,23.5029423],[113.5700044,23.5029209],[113.5723236,23.5015087]]},"properties":{"key":"way:968203754@detail:454_94","osmType":"way","osmId":968203754,"sourceRegion":"guangzhou","featureType":"infrastructure","railClass":"metro","mode":"subway","name":"未命名","service":"yard","status":"operational","color":"#52636f","sourceKey":"way:968203754"}},{"type":"Feature","geometry":{"type":"LineString","coordinates":[[113.5692575,23.5034987],[113.5695227,23.5034289],[113.5697657,23.5033648],[113.5698765,23.5033243],[113.5699819,23.503277],[113.5701185,23.5031991],[113.5701444,23.5031833],[113.5724998,23.5017501]]},"properties":{"key":"way:968203755@detail:454_94","osmType":"way","osmId":968203755,"sourceRegion":"guangzhou","featureType":"infrastructure","railClass":"metro","mode":"subway","name":"未命名","service":"yard","status":"operational","color":"#52636f","sourceKey":"way:968203755"}},{"type":"Feature","geometry":{"type":"LineString","coordinates":[[113.5695227,23.5034289],[113.5698888,23.5032714],[113.5700181,23.5032034],[113.5700959,23.5031594],[113.570118,23.5031467],[113.5701764,23.503113],[113.5724652,23.5017216]]},"properties":{"key":"way:968203756@detail:454_94","osmType":"way","osmId":968203756,"sourceRegion":"guangzhou","featureType":"infrastructure","railClass":"metro","mode":"subway","name":"未命名","service":"yard","status":"operational","color":"#52636f","sourceKey":"way:968203756"}},{"type":"Feature","geometry":{"type":"LineString","coordinates":[[113.5688743,23.5037637],[113.5691389,23.5037276],[113.5693639,23.5036969],[113.5696518,23.5036606],[113.5697983,23.5036382],[113.569915,23.5036116],[113.5700172,23.5035818],[113.5701203,23.5035378],[113.570233,23.5034752],[113.5703165,23.5034221],[113.5703629,23.5033925],[113.5726633,23.501995]]},"properties":{"key":"way:968203757@detail:454_94","osmType":"way","osmId":968203757,"sourceRegion":"guangzhou","featureType":"infrastructure","railClass":"metro","mode":"subway","name":"未命名","service":"yard","status":"operational","color":"#52636f","sourceKey":"way:968203757"}},{"type":"Feature","geometry":{"type":"LineString","coordinates":[[113.5694963,23.5036285],[113.5698824,23.5035276],[113.5700371,23.5034746],[113.5701619,23.5034173],[113.5702406,23.5033684],[113.5702664,23.5033526],[113.5726089,23.5019193]]},"properties":{"key":"way:968203758@detail:454_94","osmType":"way","osmId":968203758,"sourceRegion":"guangzhou","featureType":"infrastructure","railClass":"metro","mode":"subway","name":"未命名","service":"yard","status":"operational","color":"#52636f","sourceKey":"way:968203758"}},{"type":"Feature","geometry":{"type":"LineString","coordinates":[[113.5695712,23.5035053],[113.5698776,23.503385],[113.5700092,23.5033236],[113.570172,23.5032216],[113.5725267,23.50179]]},"properties":{"key":"way:968203759@detail:454_94","osmType":"way","osmId":968203759,"sourceRegion":"guangzhou","featureType":"infrastructure","railClass":"metro","mode":"subway","name":"未命名","service":"yard","status":"operational","color":"#52636f","sourceKey":"way:968203759"}},{"type":"Feature","geometry":{"type":"LineString","coordinates":[[113.5691389,23.5037276],[113.5694345,23.5037312],[113.5695986,23.5037332],[113.5697202,23.5037243],[113.5698568,23.5037026],[113.569959,23.503677],[113.5700795,23.5036386],[113.5701872,23.5036021],[113.5702749,23.5035614],[113.5703734,23.503501],[113.5703925,23.5034893],[113.5727109,23.5020812]]},"properties":{"key":"way:968203760@detail:454_94","osmType":"way","osmId":968203760,"sourceRegion":"guangzhou","featureType":"infrastructure","railClass":"metro","mode":"subway","name":"未命名","service":"yard","status":"operational","color":"#52636f","sourceKey":"way:968203760"}},{"type":"Feature","geometry":{"type":"LineString","coordinates":[[113.5694345,23.5037312],[113.5697718,23.5036898],[113.5698722,23.5036658],[113.5699961,23.5036293],[113.5700739,23.5036011],[113.5701734,23.5035604],[113.5702548,23.5035198],[113.5703463,23.5034635],[113.5703869,23.5034385],[113.5726868,23.5020418]]},"properties":{"key":"way:968203761@detail:454_94","osmType":"way","osmId":968203761,"sourceRegion":"guangzhou","featureType":"infrastructure","railClass":"metro","mode":"subway","name":"未命名","service":"yard","status":"operational","color":"#52636f","sourceKey":"way:968203761"}},{"type":"Feature","geometry":{"type":"LineString","coordinates":[[113.5692968,23.5035815],[113.5694506,23.5035622],[113.5696569,23.503529],[113.569779,23.5035025],[113.5699011,23.5034693],[113.5699997,23.5034303],[113.5701347,23.5033702],[113.5702383,23.5033136],[113.5702473,23.5033088],[113.5725837,23.5018753]]},"properties":{"key":"way:968203762@detail:454_94","osmType":"way","osmId":968203762,"sourceRegion":"guangzhou","featureType":"infrastructure","railClass":"metro","mode":"subway","name":"未命名","service":"yard","status":"operational","color":"#52636f","sourceKey":"way:968203762"}},{"type":"Feature","geometry":{"type":"LineString","coordinates":[[113.5684121,23.5052322],[113.5683153,23.5053716],[113.5682719,23.5054369],[113.5682111,23.5055098],[113.5681496,23.5055803],[113.5680917,23.5056409],[113.5680239,23.5057022],[113.567937,23.5057656],[113.5678495,23.5058228],[113.5678404,23.5058281],[113.5662378,23.5067707]]},"properties":{"key":"way:968203763@detail:454_94","osmType":"way","osmId":968203763,"sourceRegion":"guangzhou","featureType":"infrastructure","railClass":"metro","mode":"subway","name":"未命名","service":"yard","status":"operational","color":"#52636f","sourceKey":"way:968203763"}},{"type":"Feature","geometry":{"type":"LineString","coordinates":[[113.5689778,23.5047838],[113.5687154,23.504888],[113.5686093,23.5049408],[113.5684507,23.5050217],[113.5676304,23.5055091],[113.5672938,23.5057091],[113.5660116,23.5064527]]},"properties":{"key":"way:968203764@detail:454_94","osmType":"way","osmId":968203764,"sourceRegion":"guangzhou","featureType":"infrastructure","railClass":"metro","mode":"subway","name":"未命名","service":"yard","status":"operational","color":"#52636f","sourceKey":"way:968203764"}},{"type":"Feature","geometry":{"type":"LineString","coordinates":[[113.5687585,23.5049149],[113.5686238,23.505019],[113.5685789,23.5050609],[113.5684121,23.5052322],[113.5682855,23.5053623],[113.5682087,23.5054457],[113.5681466,23.5055085],[113.5680763,23.5055695],[113.5679769,23.5056382],[113.5678557,23.5057112],[113.5677891,23.5057501],[113.5677237,23.5057883],[113.5661878,23.5067026]]},"properties":{"key":"way:968203765@detail:454_94","osmType":"way","osmId":968203765,"sourceRegion":"guangzhou","featureType":"infrastructure","railClass":"metro","mode":"subway","name":"未命名","service":"yard","status":"operational","color":"#52636f","sourceKey":"way:968203765"}},{"type":"Feature","geometry":{"type":"LineString","coordinates":[[113.5684436,23.5051031],[113.5683251,23.5052054],[113.5682618,23.5052643],[113.5681524,23.5053829],[113.5680881,23.5054385],[113.5680167,23.5054924],[113.5679217,23.5055596],[113.5677362,23.5056698],[113.5673089,23.5059238],[113.5661257,23.5066234]]},"properties":{"key":"way:968203766@detail:454_94","osmType":"way","osmId":968203766,"sourceRegion":"guangzhou","featureType":"infrastructure","railClass":"metro","mode":"subway","name":"未命名","service":"yard","status":"operational","color":"#52636f","sourceKey":"way:968203766"}},{"type":"Feature","geometry":{"type":"LineString","coordinates":[[113.5681266,23.5052925],[113.5679362,23.5054581],[113.567819,23.5055459],[113.5677021,23.505618],[113.5660928,23.50657]]},"properties":{"key":"way:968203767@detail:454_94","osmType":"way","osmId":968203767,"sourceRegion":"guangzhou","featureType":"infrastructure","railClass":"metro","mode":"subway","name":"未命名","service":"yard","status":"operational","color":"#52636f","sourceKey":"way:968203767"}},{"type":"Feature","geometry":{"type":"LineString","coordinates":[[113.5693115,23.5045845],[113.5690196,23.5047076],[113.5689237,23.5047423],[113.5686015,23.5048352],[113.568122,23.5049644],[113.5679442,23.5050123],[113.5677986,23.5050621],[113.567683,23.5051095],[113.5675492,23.5051877],[113.5674549,23.5052424],[113.5672873,23.5053398],[113.5658321,23.5062035]]},"properties":{"key":"way:968203768@detail:454_94","osmType":"way","osmId":968203768,"sourceRegion":"guangzhou","featureType":"infrastructure","railClass":"metro","mode":"subway","name":"未命名","service":"yard","status":"operational","color":"#52636f","sourceKey":"way:968203768"}},{"type":"Feature","geometry":{"type":"LineString","coordinates":[[113.5686015,23.5048352],[113.5681027,23.5049041],[113.5679109,23.5049306],[113.567821,23.5049461],[113.5677412,23.5049718],[113.5676613,23.5050011],[113.5675498,23.5050426],[113.5674457,23.5050918],[113.5673805,23.5051294],[113.5672971,23.5051773],[113.5657525,23.5060951]]},"properties":{"key":"way:968203769@detail:454_94","osmType":"way","osmId":968203769,"sourceRegion":"guangzhou","featureType":"infrastructure","railClass":"metro","mode":"subway","name":"未命名","service":"yard","status":"operational","color":"#52636f","sourceKey":"way:968203769"}},{"type":"Feature","geometry":{"type":"LineString","coordinates":[[113.568122,23.5049644],[113.5679204,23.5050464],[113.5678465,23.505081],[113.5677399,23.5051411],[113.5674891,23.5052944],[113.567452,23.5053171],[113.5658697,23.5062604]]},"properties":{"key":"way:968203770@detail:454_94","osmType":"way","osmId":968203770,"sourceRegion":"guangzhou","featureType":"infrastructure","railClass":"metro","mode":"subway","name":"未命名","service":"yard","status":"operational","color":"#52636f","sourceKey":"way:968203770"}},{"type":"Feature","geometry":{"type":"LineString","coordinates":[[113.5681027,23.5049041],[113.5678027,23.5049906],[113.5676879,23.5050355],[113.5675731,23.5050923],[113.5674176,23.5051857],[113.5673384,23.5052333],[113.5658003,23.5061447]]},"properties":{"key":"way:968203771@detail:454_94","osmType":"way","osmId":968203771,"sourceRegion":"guangzhou","featureType":"infrastructure","railClass":"metro","mode":"subway","name":"未命名","service":"yard","status":"operational","color":"#52636f","sourceKey":"way:968203771"}},{"type":"Feature","geometry":{"type":"LineString","coordinates":[[113.5956364,23.5704979],[113.5956372,23.5695413]]},"properties":{"key":"way:983519619@detail:454_94","osmType":"way","osmId":983519619,"sourceRegion":"guangzhou","featureType":"infrastructure","railClass":"metro","mode":"subway","name":"广州地铁14号线","tunnel":"yes","status":"operational","color":"#52636f","sourceKey":"way:983519619"}},{"type":"Feature","geometry":{"type":"LineString","coordinates":[[113.5958621,23.5695424],[113.5958615,23.5702762]]},"properties":{"key":"way:983519620@detail:454_94","osmType":"way","osmId":983519620,"sourceRegion":"guangzhou","featureType":"infrastructure","railClass":"metro","mode":"subway","name":"广州地铁14号线","tunnel":"yes","status":"operational","color":"#52636f","sourceKey":"way:983519620"}},{"type":"Feature","geometry":{"type":"MultiLineString","coordinates":[[[113.54760421646915,23.5],[113.5487515,23.5006202],[113.5489975,23.5007549],[113.5492234,23.5008795],[113.5493823,23.500971],[113.5495231,23.5010604],[113.549766,23.5012237],[113.5501703,23.5015256],[113.5503426,23.5016563],[113.5506001,23.5018543],[113.5509882,23.5021586],[113.551131,23.5022647],[113.5512293,23.5023333],[113.5513308,23.5023988],[113.5514002,23.5024422],[113.5515038,23.5024974],[113.5516258,23.5025572],[113.5517741,23.5026251],[113.5519655,23.5027075],[113.5523106,23.5028465],[113.5525466,23.5029405],[113.55277,23.5030269],[113.5528372,23.5030527],[113.5529917,23.503112],[113.5531334,23.5031663],[113.554586,23.5037227],[113.5551723,23.5039471],[113.5559154,23.5042316],[113.5562886,23.5043746],[113.5563393,23.5043941],[113.5569739,23.5046371],[113.5575314,23.5048505],[113.5576989,23.5049147],[113.5601408,23.5058594],[113.5602677,23.5059095],[113.560384,23.5059566],[113.5605164,23.5060141],[113.5606273,23.5060655],[113.5607474,23.5061229],[113.56086,23.5061794],[113.560897,23.5061989],[113.5609597,23.5062319],[113.5610674,23.5062901],[113.5611859,23.5063618],[113.5612814,23.5064212],[113.5616176,23.5066385],[113.5617126,23.5067106],[113.5618324,23.5068016],[113.5619745,23.5069159],[113.5621317,23.5070531],[113.5622831,23.5071958],[113.5624425,23.5073535],[113.5625787,23.5075012],[113.562647,23.5075767],[113.5627153,23.5076596],[113.5627979,23.5077609],[113.562864,23.5078534],[113.5629951,23.5080505],[113.5633541,23.5086048],[113.5638803,23.5093978],[113.5639835,23.5095573],[113.5656636,23.5122962],[113.5658993,23.512688],[113.566303,23.5133477],[113.5669056,23.514321],[113.5681129,23.5162724],[113.568934,23.5176475],[113.5691399,23.5179888],[113.5694387,23.5184728]],[[113.5694387,23.5184728],[113.5695984,23.5187342],[113.5699498,23.5193095],[113.5701708,23.5196691],[113.5703825,23.5199946],[113.5705661,23.5202622],[113.5708368,23.5206188],[113.5710163,23.5208368],[113.5712133,23.5210639],[113.571338,23.5211943],[113.5715104,23.5213694],[113.57167,23.5215258],[113.5718437,23.5216802]],[[113.5718437,23.5216802],[113.5718662,23.5217002],[113.5720206,23.5218316],[113.5723262,23.5220877],[113.5725438,23.5222548],[113.5727614,23.5224177],[113.5729888,23.5225809],[113.5732248,23.5227464],[113.5734507,23.5228984],[113.5737006,23.5230634],[113.5742879,23.5234435],[113.5746093,23.5236553],[113.5748767,23.5238314],[113.5752526,23.5240807],[113.586746,23.5318115],[113.5870873,23.5320409],[113.5873776,23.5322402],[113.5875538,23.5323631],[113.5877415,23.5325004],[113.5879881,23.5326856],[113.5881622,23.5328238],[113.5883245,23.5329568],[113.5884842,23.5330968],[113.5886184,23.53322],[113.5887774,23.5333713],[113.5889661,23.5335622],[113.5896837,23.5342857],[113.5909199,23.5355319],[113.5911856,23.5358021],[113.5913382,23.5359641],[113.5915174,23.5361608],[113.5916997,23.5363746],[113.5918633,23.5365827],[113.5920414,23.5368279],[113.5922165,23.5370697],[113.5924024,23.5373462],[113.5925974,23.5376415],[113.592786,23.5379487],[113.5929598,23.5382446],[113.5931156,23.5385206],[113.5933357,23.5389228],[113.5935636,23.539344],[113.5938973,23.5399594],[113.5940964,23.5403326],[113.5942998,23.5407082],[113.594488,23.5410643],[113.5946517,23.5413853],[113.5947771,23.5416317],[113.59487,23.5418218],[113.5949828,23.5420796],[113.5951005,23.5423821],[113.5951957,23.5426535],[113.5953455,23.543085],[113.5954531,23.5434164],[113.5956099,23.5439085],[113.595696,23.5442078],[113.5957639,23.5444543],[113.5958203,23.5446853],[113.5958665,23.5448883],[113.5959145,23.5451303],[113.5959537,23.545392],[113.5959823,23.5456964],[113.5959978,23.5459855],[113.5960004,23.546263],[113.5959958,23.5465767],[113.5959846,23.5468711],[113.5959722,23.547151],[113.5959571,23.5473914],[113.5959403,23.5476392],[113.5958725,23.548825],[113.5958617,23.5490027],[113.5958455,23.5492193],[113.5958264,23.5495076],[113.5958083,23.5498494],[113.5957937,23.5501251],[113.5957794,23.550432],[113.595769,23.5506827],[113.595767,23.5507318],[113.5957467,23.5510788],[113.5957305,23.5513571],[113.5957163,23.5516315],[113.5957076,23.5518582],[113.5957019,23.552169],[113.5957003,23.5523276],[113.5956908,23.5538862],[113.5956938,23.5542065],[113.5956947,23.5544952],[113.5956973,23.5548074],[113.5957011,23.5551609],[113.5957038,23.5554577],[113.5958572,23.5657777],[113.5958596,23.565992],[113.5958614,23.5661902],[113.5958627,23.5663833],[113.5958614,23.5666041],[113.5958607,23.5668792],[113.5958619,23.5671114],[113.5958639,23.567328],[113.5958634,23.5678854],[113.5958621,23.5695424]]]},"properties":{"key":"relation:8338723@detail:454_94","osmType":"relation","osmId":8338723,"sourceRegion":"guangzhou","featureType":"service","railClass":"metro","mode":"subway","name":"地铁 14号线：乐嘉路 → 东风","nameEn":"Metro Line 14:Lejia Road → Dongfeng","operator":"广州地铁集团有限公司","network":"广州地铁","status":"operational","color":"#81312F","sourceKey":"relation:8338723"}},{"type":"Feature","geometry":{"type":"MultiLineString","coordinates":[[[113.5956372,23.5695413],[113.5956387,23.5676297],[113.595639,23.5673209],[113.5956427,23.5670635],[113.5956471,23.5667887],[113.5956497,23.5665528],[113.5956526,23.5662165],[113.5956525,23.5659287],[113.5956512,23.5656539],[113.5956504,23.5653644],[113.5955568,23.5543012],[113.5955564,23.5540709],[113.5955576,23.5538788],[113.5955631,23.5522772],[113.595566,23.5520591],[113.5955705,23.5518921],[113.5955796,23.5516624],[113.5955912,23.5513878],[113.5956036,23.5510841],[113.5956154,23.5508044],[113.5956292,23.5505225],[113.5956434,23.550229],[113.595662,23.5499224],[113.5956853,23.5495862],[113.5957088,23.5492524],[113.5957391,23.5488397],[113.595825,23.5475863],[113.5958411,23.5472605],[113.5958473,23.546962],[113.5958549,23.5466527],[113.5958578,23.5463359],[113.5958535,23.5460759],[113.5958427,23.5458867],[113.5958262,23.5456886],[113.5958035,23.5454844],[113.5957731,23.5452858],[113.5957321,23.545073],[113.595679,23.5448215],[113.5956106,23.5445425],[113.5955117,23.5441773],[113.5953945,23.5437818],[113.5952647,23.5433776],[113.5951419,23.543017],[113.5950173,23.5426757],[113.5948873,23.5423269],[113.594753,23.5419926],[113.5946359,23.5417366],[113.5944921,23.5414392],[113.5942469,23.5409499],[113.5940292,23.5405028],[113.5938725,23.5401909],[113.5937326,23.5399135],[113.5935903,23.5396409],[113.5934444,23.5393665],[113.5932916,23.5390874],[113.593155,23.5388416],[113.5930034,23.5385766],[113.5928617,23.5383343],[113.5926479,23.5379873],[113.5924226,23.5376489],[113.5921698,23.5372844],[113.5919435,23.5369583],[113.5917733,23.5367292],[113.5915862,23.5364872],[113.5914438,23.5363134],[113.5912679,23.536108],[113.5910884,23.5359084],[113.590893,23.5356999],[113.5907099,23.5355136],[113.5905317,23.535331],[113.5895794,23.5343723],[113.5888469,23.5336348],[113.5888182,23.5336059],[113.5886385,23.5334262],[113.5884363,23.533231],[113.5882553,23.5330657],[113.5881007,23.5329314],[113.5879606,23.5328179],[113.5878153,23.5327078],[113.5876475,23.5325815],[113.5873858,23.5323943],[113.5871135,23.532206],[113.5868933,23.5320562],[113.5867051,23.5319301],[113.5747151,23.52388],[113.5744539,23.5237049],[113.5741941,23.5235284],[113.5739239,23.5233437],[113.5736399,23.5231497],[113.5733452,23.5229447],[113.5730972,23.5227658],[113.5728532,23.5225924],[113.5726634,23.5224513],[113.5725077,23.5223315],[113.5723552,23.5222122],[113.5721824,23.5220687],[113.5720259,23.5219326],[113.5718816,23.5218022],[113.5717983,23.521722]],[[113.5717983,23.521722],[113.5716783,23.5216065],[113.5715238,23.5214518],[113.5713002,23.5212169],[113.5711518,23.521051],[113.5709567,23.5208274],[113.570788,23.5206224],[113.5706172,23.5203968],[113.5704871,23.5202142],[113.5703652,23.5200427],[113.5702209,23.5198153],[113.5700054,23.519463],[113.569733,23.5190288],[113.5695503,23.5187305],[113.5694017,23.5184871]],[[113.5694017,23.5184871],[113.5691115,23.5180117],[113.5689342,23.5177218],[113.5680716,23.5162998],[113.5668591,23.514337],[113.5662601,23.513361],[113.5659168,23.5127979],[113.5656276,23.5123235],[113.5639428,23.509579],[113.5631886,23.5084325],[113.5629075,23.5079955],[113.5628207,23.5078669],[113.5627374,23.5077609],[113.5625927,23.5075919],[113.5624203,23.507398],[113.5622088,23.5071892],[113.5619629,23.5069655],[113.5617616,23.5067978],[113.5616062,23.5066801],[113.5614967,23.506603],[113.5613022,23.5064751],[113.5610835,23.5063405],[113.5609462,23.5062629],[113.5608074,23.506191],[113.5606499,23.5061129],[113.5604539,23.5060234],[113.5602564,23.5059418],[113.5601287,23.5058915],[113.5576857,23.5049586],[113.5575113,23.5048919],[113.5569556,23.504679],[113.5562701,23.5044165],[113.5558974,23.5042737],[113.5551538,23.503989],[113.5531181,23.5032095],[113.5529724,23.5031537],[113.5528197,23.5030955],[113.5525578,23.5029958],[113.5522733,23.502883],[113.5520118,23.5027782],[113.5518484,23.502709],[113.5516719,23.5026304],[113.5515498,23.502572],[113.5514182,23.5025054],[113.5513124,23.5024406],[113.551214,23.5023756],[113.5510963,23.5022946],[113.5509703,23.5021997],[113.5508559,23.5021099],[113.5505018,23.50183],[113.5503328,23.5016983],[113.5501379,23.50155],[113.5497437,23.5012505],[113.5495583,23.5011252],[113.5493731,23.5010053],[113.5491612,23.5008815],[113.5489103,23.5007444],[113.5480946,23.5003049],[113.54753045244931,23.5]]]},"properties":{"key":"relation:8338724@detail:454_94","osmType":"relation","osmId":8338724,"sourceRegion":"guangzhou","featureType":"service","railClass":"metro","mode":"subway","name":"地铁 14号线：东风 → 乐嘉路","nameEn":"Metro Line 14:Dongfeng → Lejia Road","ref":"14","operator":"广州地铁集团有限公司","network":"广州地铁","status":"operational","color":"#81312F","sourceKey":"relation:8338724"}},{"type":"Feature","geometry":{"type":"MultiLineString","coordinates":[[[113.54760421646915,23.5],[113.5487515,23.5006202],[113.5489975,23.5007549],[113.5492234,23.5008795],[113.5493823,23.500971],[113.5495231,23.5010604],[113.549766,23.5012237],[113.5501703,23.5015256],[113.5503426,23.5016563],[113.5506001,23.5018543],[113.5509882,23.5021586],[113.551131,23.5022647],[113.5512293,23.5023333],[113.5513308,23.5023988],[113.5514002,23.5024422],[113.5515038,23.5024974],[113.5516258,23.5025572],[113.5517741,23.5026251],[113.5519655,23.5027075],[113.5523106,23.5028465],[113.5525466,23.5029405],[113.55277,23.5030269],[113.5528372,23.5030527],[113.5529917,23.503112],[113.5531334,23.5031663],[113.554586,23.5037227],[113.5551723,23.5039471],[113.5559154,23.5042316],[113.5562886,23.5043746],[113.5563393,23.5043941],[113.5569739,23.5046371],[113.5575314,23.5048505],[113.5576989,23.5049147],[113.5601408,23.5058594],[113.5602677,23.5059095],[113.560384,23.5059566],[113.5605164,23.5060141],[113.5606273,23.5060655],[113.5607474,23.5061229],[113.56086,23.5061794],[113.560897,23.5061989],[113.5609597,23.5062319],[113.5610674,23.5062901],[113.5611859,23.5063618],[113.5612814,23.5064212],[113.5616176,23.5066385],[113.5617126,23.5067106],[113.5618324,23.5068016],[113.5619745,23.5069159],[113.5621317,23.5070531],[113.5622831,23.5071958],[113.5624425,23.5073535],[113.5625787,23.5075012],[113.562647,23.5075767],[113.5627153,23.5076596],[113.5627979,23.5077609],[113.562864,23.5078534],[113.5629951,23.5080505],[113.5633541,23.5086048],[113.5638803,23.5093978],[113.5639835,23.5095573],[113.5656636,23.5122962],[113.5658993,23.512688],[113.566303,23.5133477],[113.5669056,23.514321],[113.5681129,23.5162724],[113.568934,23.5176475],[113.5691399,23.5179888],[113.5694387,23.5184728]],[[113.5694387,23.5184728],[113.5695984,23.5187342],[113.5699498,23.5193095],[113.5701708,23.5196691],[113.5703825,23.5199946],[113.5705661,23.5202622],[113.5708368,23.5206188],[113.5710163,23.5208368],[113.5712133,23.5210639],[113.571338,23.5211943],[113.5715104,23.5213694],[113.57167,23.5215258],[113.5718437,23.5216802]],[[113.5718437,23.5216802],[113.5718662,23.5217002],[113.5720206,23.5218316],[113.5723262,23.5220877],[113.5725438,23.5222548],[113.5727614,23.5224177],[113.5729888,23.5225809],[113.5732248,23.5227464],[113.5734507,23.5228984],[113.5737006,23.5230634],[113.5742879,23.5234435],[113.5746093,23.5236553],[113.5748767,23.5238314],[113.5752526,23.5240807],[113.586746,23.5318115],[113.5870873,23.5320409],[113.5873776,23.5322402],[113.5875538,23.5323631],[113.5877415,23.5325004],[113.5879881,23.5326856],[113.5881622,23.5328238],[113.5883245,23.5329568],[113.5884842,23.5330968],[113.5886184,23.53322],[113.5887774,23.5333713],[113.5889661,23.5335622],[113.5896837,23.5342857],[113.5909199,23.5355319],[113.5911856,23.5358021],[113.5913382,23.5359641],[113.5915174,23.5361608],[113.5916997,23.5363746],[113.5918633,23.5365827],[113.5920414,23.5368279],[113.5922165,23.5370697],[113.5924024,23.5373462],[113.5925974,23.5376415],[113.592786,23.5379487],[113.5929598,23.5382446],[113.5931156,23.5385206],[113.5933357,23.5389228],[113.5935636,23.539344],[113.5938973,23.5399594],[113.5940964,23.5403326],[113.5942998,23.5407082],[113.594488,23.5410643],[113.5946517,23.5413853],[113.5947771,23.5416317],[113.59487,23.5418218],[113.5949828,23.5420796],[113.5951005,23.5423821],[113.5951957,23.5426535],[113.5953455,23.543085],[113.5954531,23.5434164],[113.5956099,23.5439085],[113.595696,23.5442078],[113.5957639,23.5444543],[113.5958203,23.5446853],[113.5958665,23.5448883],[113.5959145,23.5451303],[113.5959537,23.545392],[113.5959823,23.5456964],[113.5959978,23.5459855],[113.5960004,23.546263],[113.5959958,23.5465767],[113.5959846,23.5468711],[113.5959722,23.547151],[113.5959571,23.5473914],[113.5959403,23.5476392],[113.5958725,23.548825],[113.5958617,23.5490027],[113.5958455,23.5492193],[113.5958264,23.5495076],[113.5958083,23.5498494],[113.5957937,23.5501251],[113.5957794,23.550432],[113.595769,23.5506827],[113.595767,23.5507318],[113.5957467,23.5510788],[113.5957305,23.5513571],[113.5957163,23.5516315],[113.5957076,23.5518582],[113.5957019,23.552169],[113.5957003,23.5523276],[113.5956908,23.5538862],[113.5956938,23.5542065],[113.5956947,23.5544952],[113.5956973,23.5548074],[113.5957011,23.5551609],[113.5957038,23.5554577],[113.5958572,23.5657777],[113.5958596,23.565992],[113.5958614,23.5661902],[113.5958627,23.5663833],[113.5958614,23.5666041],[113.5958607,23.5668792],[113.5958619,23.5671114],[113.5958639,23.567328],[113.5958634,23.5678854],[113.5958621,23.5695424]]]},"properties":{"key":"relation:8338725@detail:454_94","osmType":"relation","osmId":8338725,"sourceRegion":"guangzhou","featureType":"service","railClass":"metro","mode":"subway","name":"地铁 14号线快车：乐嘉路 → 东风","nameEn":"Metro Line 14 Express:Jiahewanggang → Dongfeng","operator":"广州地铁集团有限公司","network":"广州地铁","status":"operational","color":"#81312F","sourceKey":"relation:8338725"}},{"type":"Feature","geometry":{"type":"MultiLineString","coordinates":[[[113.5956372,23.5695413],[113.5956387,23.5676297],[113.595639,23.5673209],[113.5956427,23.5670635],[113.5956471,23.5667887],[113.5956497,23.5665528],[113.5956526,23.5662165],[113.5956525,23.5659287],[113.5956512,23.5656539],[113.5956504,23.5653644],[113.5955568,23.5543012],[113.5955564,23.5540709],[113.5955576,23.5538788],[113.5955631,23.5522772],[113.595566,23.5520591],[113.5955705,23.5518921],[113.5955796,23.5516624],[113.5955912,23.5513878],[113.5956036,23.5510841],[113.5956154,23.5508044],[113.5956292,23.5505225],[113.5956434,23.550229],[113.595662,23.5499224],[113.5956853,23.5495862],[113.5957088,23.5492524],[113.5957391,23.5488397],[113.595825,23.5475863],[113.5958411,23.5472605],[113.5958473,23.546962],[113.5958549,23.5466527],[113.5958578,23.5463359],[113.5958535,23.5460759],[113.5958427,23.5458867],[113.5958262,23.5456886],[113.5958035,23.5454844],[113.5957731,23.5452858],[113.5957321,23.545073],[113.595679,23.5448215],[113.5956106,23.5445425],[113.5955117,23.5441773],[113.5953945,23.5437818],[113.5952647,23.5433776],[113.5951419,23.543017],[113.5950173,23.5426757],[113.5948873,23.5423269],[113.594753,23.5419926],[113.5946359,23.5417366],[113.5944921,23.5414392],[113.5942469,23.5409499],[113.5940292,23.5405028],[113.5938725,23.5401909],[113.5937326,23.5399135],[113.5935903,23.5396409],[113.5934444,23.5393665],[113.5932916,23.5390874],[113.593155,23.5388416],[113.5930034,23.5385766],[113.5928617,23.5383343],[113.5926479,23.5379873],[113.5924226,23.5376489],[113.5921698,23.5372844],[113.5919435,23.5369583],[113.5917733,23.5367292],[113.5915862,23.5364872],[113.5914438,23.5363134],[113.5912679,23.536108],[113.5910884,23.5359084],[113.590893,23.5356999],[113.5907099,23.5355136],[113.5905317,23.535331],[113.5895794,23.5343723],[113.5888469,23.5336348],[113.5888182,23.5336059],[113.5886385,23.5334262],[113.5884363,23.533231],[113.5882553,23.5330657],[113.5881007,23.5329314],[113.5879606,23.5328179],[113.5878153,23.5327078],[113.5876475,23.5325815],[113.5873858,23.5323943],[113.5871135,23.532206],[113.5868933,23.5320562],[113.5867051,23.5319301],[113.5747151,23.52388],[113.5744539,23.5237049],[113.5741941,23.5235284],[113.5739239,23.5233437],[113.5736399,23.5231497],[113.5733452,23.5229447],[113.5730972,23.5227658],[113.5728532,23.5225924],[113.5726634,23.5224513],[113.5725077,23.5223315],[113.5723552,23.5222122],[113.5721824,23.5220687],[113.5720259,23.5219326],[113.5718816,23.5218022],[113.5717983,23.521722]],[[113.5717983,23.521722],[113.5716783,23.5216065],[113.5715238,23.5214518],[113.5713002,23.5212169],[113.5711518,23.521051],[113.5709567,23.5208274],[113.570788,23.5206224],[113.5706172,23.5203968],[113.5704871,23.5202142],[113.5703652,23.5200427],[113.5702209,23.5198153],[113.5700054,23.519463],[113.569733,23.5190288],[113.5695503,23.5187305],[113.5694017,23.5184871]],[[113.5694017,23.5184871],[113.5691115,23.5180117],[113.5689342,23.5177218],[113.5680716,23.5162998],[113.5668591,23.514337],[113.5662601,23.513361],[113.5659168,23.5127979],[113.5656276,23.5123235],[113.5639428,23.509579],[113.5631886,23.5084325],[113.5629075,23.5079955],[113.5628207,23.5078669],[113.5627374,23.5077609],[113.5625927,23.5075919],[113.5624203,23.507398],[113.5622088,23.5071892],[113.5619629,23.5069655],[113.5617616,23.5067978],[113.5616062,23.5066801],[113.5614967,23.506603],[113.5613022,23.5064751],[113.5610835,23.5063405],[113.5609462,23.5062629],[113.5608074,23.506191],[113.5606499,23.5061129],[113.5604539,23.5060234],[113.5602564,23.5059418],[113.5601287,23.5058915],[113.5576857,23.5049586],[113.5575113,23.5048919],[113.5569556,23.504679],[113.5562701,23.5044165],[113.5558974,23.5042737],[113.5551538,23.503989],[113.5531181,23.5032095],[113.5529724,23.5031537],[113.5528197,23.5030955],[113.5525578,23.5029958],[113.5522733,23.502883],[113.5520118,23.5027782],[113.5518484,23.502709],[113.5516719,23.5026304],[113.5515498,23.502572],[113.5514182,23.5025054],[113.5513124,23.5024406],[113.551214,23.5023756],[113.5510963,23.5022946],[113.5509703,23.5021997],[113.5508559,23.5021099],[113.5505018,23.50183],[113.5503328,23.5016983],[113.5501379,23.50155],[113.5497437,23.5012505],[113.5495583,23.5011252],[113.5493731,23.5010053],[113.5491612,23.5008815],[113.5489103,23.5007444],[113.5480946,23.5003049],[113.54753045244931,23.5]]]},"properties":{"key":"relation:8338726@detail:454_94","osmType":"relation","osmId":8338726,"sourceRegion":"guangzhou","featureType":"service","railClass":"metro","mode":"subway","name":"地铁 14号线快车：东风 → 乐嘉路","nameEn":"Metro Line 14 Express:Dongfeng → Lejia Road","operator":"广州地铁集团有限公司","network":"广州地铁","status":"operational","color":"#81312F","sourceKey":"relation:8338726"}},{"type":"Feature","geometry":{"type":"Point","coordinates":[113.5551723,23.5039471]},"properties":{"key":"node:5647879525","osmType":"node","osmId":5647879525,"sourceRegion":"guangdong","featureType":"station","railClass":"metro","mode":"stop","name":"赤草","nameEn":"Chicao","ref":"1419","operator":"广州地铁集团有限公司","status":"operational","color":"#e7822f","dataOrigin":"datum-2026-08-01","sourceKey":"node:5647879525","stationGroup":"赤草","hasOperationalRail":true,"hasConstructionRail":false}},{"type":"Feature","geometry":{"type":"Point","coordinates":[113.5551538,23.503989]},"properties":{"key":"node:5647879530","osmType":"node","osmId":5647879530,"sourceRegion":"guangdong","featureType":"station","railClass":"metro","mode":"stop","name":"赤草","nameEn":"Chicao","ref":"1419","operator":"广州地铁集团有限公司","status":"operational","color":"#e7822f","dataOrigin":"datum-2026-08-01","sourceKey":"node:5647879530","stationGroup":"赤草","hasOperationalRail":true,"hasConstructionRail":false}},{"type":"Feature","geometry":{"type":"Point","coordinates":[113.5551017,23.504103]},"properties":{"key":"node:5647879541","osmType":"node","osmId":5647879541,"sourceRegion":"guangdong","featureType":"station","railClass":"metro","mode":"stop","name":"赤草","nameEn":"Chicao","ref":"1419","operator":"广州地铁集团有限公司","status":"operational","color":"#9a5b3f","dataOrigin":"datum-2026-08-01","sourceKey":"node:5647879541","stationGroup":"赤草","hasOperationalRail":true,"hasConstructionRail":false}},{"type":"Feature","geometry":{"type":"Point","coordinates":[113.5552247,23.5038322]},"properties":{"key":"node:5647879556","osmType":"node","osmId":5647879556,"sourceRegion":"guangdong","featureType":"station","railClass":"metro","mode":"stop","name":"赤草","nameEn":"Chicao","ref":"1419","operator":"广州地铁集团有限公司","status":"operational","color":"#9a5b3f","dataOrigin":"datum-2026-08-01","sourceKey":"node:5647879556","stationGroup":"赤草","hasOperationalRail":true,"hasConstructionRail":false}},{"type":"Feature","geometry":{"type":"Point","coordinates":[113.5895794,23.5343723]},"properties":{"key":"node:5649061165","osmType":"node","osmId":5649061165,"sourceRegion":"guangdong","featureType":"station","railClass":"metro","mode":"stop","name":"从化客运站","nameEn":"Conghua Coach Terminal","ref":"1420","operator":"广州地铁集团有限公司","status":"operational","color":"#8c5abe","dataOrigin":"datum-2026-08-01","sourceKey":"node:5649061165","stationGroup":"从化客运","hasOperationalRail":true,"hasConstructionRail":false}},{"type":"Feature","geometry":{"type":"Point","coordinates":[113.5896837,23.5342857]},"properties":{"key":"node:5649061166","osmType":"node","osmId":5649061166,"sourceRegion":"guangdong","featureType":"station","railClass":"metro","mode":"stop","name":"从化客运站","nameEn":"Conghua Coach Terminal","ref":"1420","operator":"广州地铁集团有限公司","status":"operational","color":"#8c5abe","dataOrigin":"datum-2026-08-01","sourceKey":"node:5649061166","stationGroup":"从化客运","hasOperationalRail":true,"hasConstructionRail":false}},{"type":"Feature","geometry":{"type":"Point","coordinates":[113.59575,23.5695417]},"properties":{"key":"node:5649241513","osmType":"node","osmId":5649241513,"sourceRegion":"guangdong","featureType":"station","railClass":"metro","mode":"stop","name":"东风","nameEn":"Dongfeng","ref":"1421","operator":"广州地铁集团有限公司","status":"operational","color":"#81312F","dataOrigin":"datum-2026-08-01","sourceKey":"node:5649241513","stationGroup":"东风","hasOperationalRail":true,"hasConstructionRail":false}},{"type":"Feature","geometry":{"type":"Point","coordinates":[113.5958621,23.5695424]},"properties":{"key":"node:5649241514","osmType":"node","osmId":5649241514,"sourceRegion":"guangdong","featureType":"station","railClass":"metro","mode":"stop","name":"东风","nameEn":"Dongfeng","ref":"1421","operator":"广州地铁集团有限公司","status":"operational","color":"#81312F","dataOrigin":"datum-2026-08-01","sourceKey":"node:5649241514","stationGroup":"东风","hasOperationalRail":true,"hasConstructionRail":false}},{"type":"Feature","geometry":{"type":"Point","coordinates":[113.5956372,23.5695413]},"properties":{"key":"node:5649241515","osmType":"node","osmId":5649241515,"sourceRegion":"guangdong","featureType":"station","railClass":"metro","mode":"stop","name":"东风","nameEn":"Dongfeng","ref":"1421","operator":"广州地铁集团有限公司","status":"operational","color":"#81312F","dataOrigin":"datum-2026-08-01","sourceKey":"node:5649241515","stationGroup":"东风","hasOperationalRail":true,"hasConstructionRail":false}}]}