{"type":"FeatureCollection","features":[{"type":"Feature","geometry":{"type":"Point","coordinates":[113.6161745,25.0587629]},"properties":{"key":"node:7167634565","osmType":"node","osmId":7167634565,"sourceRegion":"guangdong","featureType":"station","railClass":"minor","mode":"station","name":"格顶","status":"operational","color":"#52636F","dataOrigin":"datum-2026-08-01","sourceKey":"node:7167634565","stationGroup":"格顶","hasOperationalRail":true,"hasConstructionRail":false}},{"type":"Feature","geometry":{"type":"Point","coordinates":[113.5611141,25.0063616]},"properties":{"key":"node:7167634581","osmType":"node","osmId":7167634581,"sourceRegion":"guangdong","featureType":"station","railClass":"minor","mode":"station","name":"花坪","status":"operational","color":"#52636F","dataOrigin":"datum-2026-08-01","sourceKey":"node:7167634581","stationGroup":"花坪","hasOperationalRail":true,"hasConstructionRail":false}},{"type":"Feature","geometry":{"type":"LineString","coordinates":[[113.56056676834426,25.0],[113.5605182,25.000445],[113.5605035,25.0023797],[113.5610023,25.010863],[113.560995,25.0113749],[113.5606576,25.0134358],[113.5597112,25.0187009],[113.5596888,25.0191884],[113.5596729,25.0192855],[113.5597052,25.0196805],[113.5598406,25.0201169],[113.5599364,25.0203363],[113.5600487,25.0205756],[113.5603128,25.0209212],[113.5650152,25.0252022],[113.5658368,25.0258869],[113.5665998,25.026412],[113.5676341,25.0269638],[113.5692921,25.0277149],[113.5697543,25.0279608],[113.5704438,25.0284594],[113.570818,25.0286654],[113.5712802,25.0287784],[113.5716763,25.0288183],[113.5721091,25.0287784],[113.5727547,25.028579],[113.5732976,25.0283996],[113.5736424,25.0283663],[113.5744347,25.0283929],[113.5750362,25.0283796],[113.575469,25.02826],[113.5758138,25.0280871],[113.5766135,25.0274091],[113.5805529,25.024112],[113.5809344,25.0237464],[113.5811838,25.0234008],[113.5813599,25.022962],[113.5816827,25.0213799],[113.5818514,25.0209877],[113.5827391,25.0197779],[113.5830839,25.0194987],[113.583436,25.0193591],[113.5838835,25.0192527],[113.584353,25.0192593],[113.5852627,25.0194056],[113.5857322,25.0194588],[113.586209,25.0194255],[113.5867446,25.0192394],[113.587148,25.0189469],[113.5875148,25.0185214],[113.5882044,25.0172783],[113.5885125,25.0168462],[113.5888647,25.0165404],[113.5908161,25.0154369],[113.5912489,25.0151975],[113.5916671,25.015018],[113.5921659,25.0148917],[113.5926134,25.0148917],[113.5931269,25.0149449]]},"properties":{"key":"way:237849028@detail:454_100","osmType":"way","osmId":237849028,"sourceRegion":"guangdong","featureType":"infrastructure","railClass":"national","mode":"rail","name":"黄格线","usage":"branch","status":"operational","color":"#E54848","dataOrigin":"datum-2026-08-01","sourceKey":"way:237849028"}},{"type":"Feature","geometry":{"type":"LineString","coordinates":[[113.6166023,25.0710139],[113.616793,25.071479]]},"properties":{"key":"way:237849029@detail:454_100","osmType":"way","osmId":237849029,"sourceRegion":"guangdong","featureType":"infrastructure","railClass":"national","mode":"rail","name":"黄格线","usage":"branch","bridge":"yes","status":"operational","color":"#E54848","dataOrigin":"datum-2026-08-01","sourceKey":"way:237849029"}},{"type":"Feature","geometry":{"type":"LineString","coordinates":[[113.629728,25.093475],[113.6375336,25.104503],[113.6395558,25.1074613],[113.641001,25.1096923],[113.6430182,25.113601]]},"properties":{"key":"way:237849031@detail:454_100","osmType":"way","osmId":237849031,"sourceRegion":"guangdong","featureType":"infrastructure","railClass":"minor","mode":"abandoned","name":"未命名","status":"operational","color":"#52636F","dataOrigin":"datum-2026-08-01","sourceKey":"way:237849031"}},{"type":"Feature","geometry":{"type":"LineString","coordinates":[[113.608496,25.0984874],[113.6079751,25.0983479]]},"properties":{"key":"way:237849033@detail:454_100","osmType":"way","osmId":237849033,"sourceRegion":"guangdong","featureType":"infrastructure","railClass":"minor","mode":"rail","name":"未命名","usage":"industrial","service":"spur","bridge":"yes","status":"operational","color":"#52636F","dataOrigin":"datum-2026-08-01","sourceKey":"way:237849033"}},{"type":"Feature","geometry":{"type":"LineString","coordinates":[[113.6079751,25.0983479],[113.6062303,25.0978776],[113.6060665,25.0978343],[113.6005584,25.0963748]]},"properties":{"key":"way:237849036@detail:454_100","osmType":"way","osmId":237849036,"sourceRegion":"guangdong","featureType":"infrastructure","railClass":"minor","mode":"rail","name":"未命名","usage":"industrial","service":"spur","status":"operational","color":"#52636F","dataOrigin":"datum-2026-08-01","sourceKey":"way:237849036"}},{"type":"Feature","geometry":{"type":"LineString","coordinates":[[113.6211195,25.0812212],[113.6214294,25.0817715],[113.6215908,25.0821369],[113.6216715,25.0824824],[113.6217155,25.0829143],[113.6216862,25.0833595],[113.6215908,25.083778],[113.6214661,25.0840637],[113.621246,25.0844425],[113.6199102,25.0863821],[113.6186197,25.0882561],[113.6177972,25.0894977],[113.6175633,25.0898507],[113.6171232,25.0904088],[113.6161293,25.0916286],[113.6135505,25.0947936],[113.6130999,25.0952575],[113.613015,25.095345],[113.6124061,25.0958632],[113.6112543,25.0967202],[113.6109389,25.0970391],[113.6107041,25.0973646],[113.6106491,25.0974677],[113.6104914,25.0977632],[113.610396,25.0981486],[113.61033,25.0995237],[113.610396,25.1000021],[113.610506,25.1005003],[113.6106601,25.1011115],[113.6114817,25.1038219],[113.6117864,25.1048853],[113.6118293,25.1055265],[113.611722,25.1060609],[113.6114363,25.1073549],[113.610692,25.1113361],[113.6105311,25.1117733],[113.6104238,25.1120356],[113.6101448,25.1124145]]},"properties":{"key":"way:237849037@detail:454_100","osmType":"way","osmId":237849037,"sourceRegion":"guangdong","featureType":"infrastructure","railClass":"minor","mode":"rail","name":"未命名","usage":"industrial","service":"spur","status":"operational","color":"#52636F","dataOrigin":"datum-2026-08-01","sourceKey":"way:237849037"}},{"type":"Feature","geometry":{"type":"LineString","coordinates":[[113.6211195,25.0812212],[113.6221396,25.082698],[113.6232283,25.08424],[113.6245087,25.0860689],[113.6269425,25.0895449],[113.626952,25.0895584],[113.629728,25.093475]]},"properties":{"key":"way:237849040@detail:454_100","osmType":"way","osmId":237849040,"sourceRegion":"guangdong","featureType":"infrastructure","railClass":"national","mode":"rail","name":"黄格线","usage":"branch","status":"operational","color":"#E54848","dataOrigin":"datum-2026-08-01","sourceKey":"way:237849040"}},{"type":"Feature","geometry":{"type":"LineString","coordinates":[[113.610506,25.1005003],[113.6102053,25.0998028],[113.6098898,25.0993377],[113.609457,25.0989258],[113.6090095,25.0986402],[113.608496,25.0984874]]},"properties":{"key":"way:237849041@detail:454_100","osmType":"way","osmId":237849041,"sourceRegion":"guangdong","featureType":"infrastructure","railClass":"minor","mode":"rail","name":"未命名","usage":"industrial","service":"spur","status":"operational","color":"#52636F","dataOrigin":"datum-2026-08-01","sourceKey":"way:237849041"}},{"type":"Feature","geometry":{"type":"LineString","coordinates":[[113.6048413,25.0557429],[113.6068462,25.0575476],[113.6071103,25.0577071],[113.6073964,25.0578002],[113.6079246,25.0578467],[113.6114591,25.058094]]},"properties":{"key":"way:237849042@detail:454_100","osmType":"way","osmId":237849042,"sourceRegion":"guangdong","featureType":"infrastructure","railClass":"minor","mode":"abandoned","name":"未命名","status":"operational","color":"#52636F","dataOrigin":"datum-2026-08-01","sourceKey":"way:237849042"}},{"type":"Feature","geometry":{"type":"LineString","coordinates":[[113.5931269,25.0149449],[113.5936478,25.0151311],[113.5940513,25.0153571],[113.5944034,25.0156496],[113.5946748,25.0159953],[113.5948729,25.0164274],[113.5949903,25.0169193],[113.5948142,25.0207484],[113.5948069,25.0211739],[113.5949096,25.0216259],[113.5950857,25.0219981],[113.5954158,25.0224169],[113.5957826,25.0227227],[113.5962668,25.022982],[113.5967803,25.0231149],[113.600397,25.0234008],[113.6051874,25.0236467],[113.6057156,25.0237531],[113.6062438,25.0239326],[113.6080191,25.0247967],[113.6132497,25.0273294],[113.6137339,25.0276085],[113.6141154,25.0279741],[113.6144602,25.0284261],[113.6165509,25.0318162],[113.6181649,25.034455],[113.6184143,25.0348339],[113.6187004,25.0351861],[113.6200062,25.0365487],[113.6204611,25.0370472],[113.6208205,25.0375125],[113.6211727,25.0380642],[113.6234909,25.0423379],[113.6236376,25.0427035],[113.6239017,25.0436871],[113.6240191,25.0441324],[113.6242025,25.044478],[113.6269975,25.0488778],[113.6273276,25.0494494],[113.6275257,25.0499744],[113.6276577,25.0504264],[113.6277311,25.0508849],[113.6277311,25.0513767],[113.6276284,25.0519217],[113.627445,25.0524799],[113.6271295,25.0529917],[113.6267554,25.0534303],[113.6244372,25.0554373],[113.6240704,25.0558361],[113.6230087,25.0576987],[113.6226574,25.0581409],[113.6222282,25.0584786],[113.6218795,25.0586536],[113.6213753,25.0588139],[113.6208601,25.05887],[113.6200422,25.0588188],[113.6193624,25.0587632],[113.6132125,25.0582432],[113.6120445,25.0581444],[113.6114591,25.058094],[113.6109435,25.0581294],[113.6106445,25.0581542],[113.6100316,25.0582004],[113.6097798,25.0582617],[113.6094056,25.0584611],[113.6089581,25.0588067],[113.608628,25.059212],[113.6084079,25.0595709],[113.6082245,25.0599962],[113.6081292,25.0602421],[113.6080851,25.0606209],[113.6080778,25.0610528],[113.6081878,25.0615047],[113.6083346,25.0619034],[113.60865,25.062362],[113.6089435,25.0626809],[113.6107848,25.0646745],[113.6113497,25.0652859],[113.6119733,25.065864],[113.6142254,25.0675718],[113.6147976,25.0680104],[113.6153038,25.0685088],[113.6157807,25.0691267],[113.6161475,25.0698178],[113.6166023,25.0710139]]},"properties":{"key":"way:237849043@detail:454_100","osmType":"way","osmId":237849043,"sourceRegion":"guangdong","featureType":"infrastructure","railClass":"national","mode":"rail","name":"黄格线","usage":"branch","status":"operational","color":"#E54848","dataOrigin":"datum-2026-08-01","sourceKey":"way:237849043"}},{"type":"Feature","geometry":{"type":"LineString","coordinates":[[113.6282956,25.0647497],[113.6269241,25.0631175],[113.6268265,25.0630092],[113.6266692,25.0628347],[113.6234248,25.0597437],[113.622919,25.0593758],[113.6224996,25.0592055],[113.6220056,25.0590545],[113.6214986,25.058967],[113.6195394,25.0588215],[113.6191978,25.0587923],[113.6127493,25.0582648],[113.6120445,25.0581444]]},"properties":{"key":"way:237849044@detail:454_100","osmType":"way","osmId":237849044,"sourceRegion":"guangdong","featureType":"infrastructure","railClass":"minor","mode":"rail","name":"未命名","usage":"branch","service":"spur","status":"operational","color":"#52636F","dataOrigin":"datum-2026-08-01","sourceKey":"way:237849044"}},{"type":"Feature","geometry":{"type":"LineString","coordinates":[[113.616793,25.071479],[113.6175853,25.0736585],[113.6184125,25.0758594],[113.6189513,25.0772501],[113.6194135,25.0784328],[113.6197656,25.0791372],[113.6201471,25.0798415],[113.6208734,25.0809046],[113.6211195,25.0812212]]},"properties":{"key":"way:690217903@detail:454_100","osmType":"way","osmId":690217903,"sourceRegion":"guangdong","featureType":"infrastructure","railClass":"national","mode":"rail","name":"黄格线","usage":"branch","status":"operational","color":"#E54848","dataOrigin":"datum-2026-08-01","sourceKey":"way:690217903"}},{"type":"Feature","geometry":{"type":"LineString","coordinates":[[113.6195394,25.0588215],[113.6200422,25.0588188]]},"properties":{"key":"way:767688075@detail:454_100","osmType":"way","osmId":767688075,"sourceRegion":"guangdong","featureType":"infrastructure","railClass":"minor","mode":"rail","name":"未命名","usage":"branch","service":"crossover","status":"operational","color":"#52636F","dataOrigin":"datum-2026-08-01","sourceKey":"way:767688075"}},{"type":"Feature","geometry":{"type":"LineString","coordinates":[[113.6132125,25.0582432],[113.6135566,25.0582259],[113.6189264,25.0586851],[113.6193624,25.0587632]]},"properties":{"key":"way:767688076@detail:454_100","osmType":"way","osmId":767688076,"sourceRegion":"guangdong","featureType":"infrastructure","railClass":"minor","mode":"rail","name":"未命名","usage":"branch","service":"siding","status":"operational","color":"#52636F","dataOrigin":"datum-2026-08-01","sourceKey":"way:767688076"}},{"type":"Feature","geometry":{"type":"LineString","coordinates":[[113.6188003,25.0588066],[113.6181378,25.0588091],[113.6139241,25.058447],[113.6133662,25.0583547]]},"properties":{"key":"way:767688077@detail:454_100","osmType":"way","osmId":767688077,"sourceRegion":"guangdong","featureType":"infrastructure","railClass":"minor","mode":"rail","name":"未命名","usage":"branch","service":"siding","status":"operational","color":"#52636F","dataOrigin":"datum-2026-08-01","sourceKey":"way:767688077"}},{"type":"Feature","geometry":{"type":"LineString","coordinates":[[113.6127493,25.0582648],[113.6133662,25.0583547],[113.6188003,25.0588066],[113.6191978,25.0587923]]},"properties":{"key":"way:767688078@detail:454_100","osmType":"way","osmId":767688078,"sourceRegion":"guangdong","featureType":"infrastructure","railClass":"minor","mode":"rail","name":"未命名","usage":"branch","service":"siding","status":"operational","color":"#52636F","dataOrigin":"datum-2026-08-01","sourceKey":"way:767688078"}},{"type":"Feature","geometry":{"type":"LineString","coordinates":[[113.5612565,25.0115257],[113.5616022,25.0104695],[113.5618758,25.0100174],[113.5623264,25.0095264],[113.5627985,25.0091764],[113.564381,25.0082673],[113.5651052,25.0080534],[113.5667574,25.0079708],[113.5673422,25.0078249],[113.5678786,25.0074263],[113.5689568,25.0059872]]},"properties":{"key":"way:767688079@detail:454_100","osmType":"way","osmId":767688079,"sourceRegion":"guangdong","featureType":"infrastructure","railClass":"minor","mode":"abandoned","name":"未命名","status":"operational","color":"#52636F","dataOrigin":"datum-2026-08-01","sourceKey":"way:767688079"}},{"type":"Feature","geometry":{"type":"LineString","coordinates":[[113.56098,25.0133815],[113.5612565,25.0115257],[113.561334,25.0108973],[113.5613072,25.0104987],[113.5610175,25.0091715]]},"properties":{"key":"way:767688080@detail:454_100","osmType":"way","osmId":767688080,"sourceRegion":"guangdong","featureType":"infrastructure","railClass":"minor","mode":"abandoned","name":"未命名","status":"operational","color":"#52636F","dataOrigin":"datum-2026-08-01","sourceKey":"way:767688080"}},{"type":"Feature","geometry":{"type":"LineString","coordinates":[[113.6283656,25.06475],[113.6270931,25.0632373],[113.6268265,25.0630092]]},"properties":{"key":"way:1370453960@detail:454_100","osmType":"way","osmId":1370453960,"sourceRegion":"guangdong","featureType":"infrastructure","railClass":"minor","mode":"rail","name":"未命名","service":"spur","status":"operational","color":"#52636F","dataOrigin":"datum-2026-08-01","sourceKey":"way:1370453960"}}]}