{"type":"FeatureCollection","features":[{"type":"Feature","geometry":{"type":"Point","coordinates":[113.7999644,24.9577249]},"properties":{"key":"node:2531818014","osmType":"node","osmId":2531818014,"sourceRegion":"guangdong","featureType":"station","railClass":"minor","mode":"station","name":"丹霞山","nameEn":"Danxiashan","status":"operational","color":"#52636F","dataOrigin":"datum-2026-08-01","sourceKey":"node:2531818014","stationGroup":"丹霞山","hasOperationalRail":true,"hasConstructionRail":false}},{"type":"Feature","geometry":{"type":"Point","coordinates":[113.9305211,24.9950043]},"properties":{"key":"node:3797723048","osmType":"node","osmId":3797723048,"sourceRegion":"guangdong","featureType":"station","railClass":"minor","mode":"station","name":"总甫","nameEn":"Zongfu","status":"operational","color":"#52636F","dataOrigin":"datum-2026-08-01","sourceKey":"node:3797723048","stationGroup":"总甫","hasOperationalRail":true,"hasConstructionRail":false}},{"type":"Feature","geometry":{"type":"LineString","coordinates":[[113.8257165,24.9845477],[113.825135,24.9839787],[113.8246111,24.9833498]]},"properties":{"key":"way:246100742@detail:455_99","osmType":"way","osmId":246100742,"sourceRegion":"guangdong","featureType":"infrastructure","railClass":"national","mode":"rail","name":"赣韶线","ref":"0069","usage":"main","status":"operational","color":"#E54848","dataOrigin":"datum-2026-08-01","sourceKey":"way:246100742"}},{"type":"Feature","geometry":{"type":"LineString","coordinates":[[113.8213994,24.9790943],[113.8210648,24.9786509],[113.8201525,24.9775364],[113.8192679,24.9765475],[113.818525,24.9757757],[113.8177155,24.9750341],[113.8171865,24.9745476],[113.8164051,24.9739217],[113.8146884,24.9726506],[113.8142141,24.9723105]]},"properties":{"key":"way:314244125@detail:455_99","osmType":"way","osmId":314244125,"sourceRegion":"guangdong","featureType":"infrastructure","railClass":"national","mode":"rail","name":"赣韶线","ref":"0069","usage":"main","bridge":"yes","status":"operational","color":"#E54848","dataOrigin":"datum-2026-08-01","sourceKey":"way:314244125"}},{"type":"Feature","geometry":{"type":"LineString","coordinates":[[113.9973478,24.9789704],[113.9958436,24.979511]]},"properties":{"key":"way:314244130@detail:455_99","osmType":"way","osmId":314244130,"sourceRegion":"guangdong","featureType":"infrastructure","railClass":"national","mode":"rail","name":"赣韶线","ref":"0069","usage":"main","tunnel":"yes","status":"operational","color":"#E54848","dataOrigin":"datum-2026-08-01","sourceKey":"way:314244130"}},{"type":"Feature","geometry":{"type":"LineString","coordinates":[[114.0,24.978122370178678],[113.9996149,24.9782648]]},"properties":{"key":"way:314244131@detail:455_99","osmType":"way","osmId":314244131,"sourceRegion":"guangdong","featureType":"infrastructure","railClass":"national","mode":"rail","name":"赣韶线","ref":"0069","usage":"main","tunnel":"yes","status":"operational","color":"#E54848","dataOrigin":"datum-2026-08-01","sourceKey":"way:314244131"}},{"type":"Feature","geometry":{"type":"LineString","coordinates":[[113.9894927,24.9826727],[113.9882961,24.9834901]]},"properties":{"key":"way:314244132@detail:455_99","osmType":"way","osmId":314244132,"sourceRegion":"guangdong","featureType":"infrastructure","railClass":"national","mode":"rail","name":"赣韶线","ref":"0069","usage":"main","bridge":"yes","status":"operational","color":"#E54848","dataOrigin":"datum-2026-08-01","sourceKey":"way:314244132"}},{"type":"Feature","geometry":{"type":"LineString","coordinates":[[113.8816851,24.990236],[113.8802791,24.9903759]]},"properties":{"key":"way:314244133@detail:455_99","osmType":"way","osmId":314244133,"sourceRegion":"guangdong","featureType":"infrastructure","railClass":"national","mode":"rail","name":"赣韶线","ref":"0069","usage":"main","bridge":"yes","status":"operational","color":"#E54848","dataOrigin":"datum-2026-08-01","sourceKey":"way:314244133"}},{"type":"Feature","geometry":{"type":"LineString","coordinates":[[113.9419831,24.9957021],[113.9407275,24.9956419]]},"properties":{"key":"way:314244134@detail:455_99","osmType":"way","osmId":314244134,"sourceRegion":"guangdong","featureType":"infrastructure","railClass":"national","mode":"rail","name":"赣韶线","ref":"0069","usage":"main","bridge":"yes","status":"operational","color":"#E54848","dataOrigin":"datum-2026-08-01","sourceKey":"way:314244134"}},{"type":"Feature","geometry":{"type":"LineString","coordinates":[[113.8228698,24.9810426],[113.8213994,24.9790943]]},"properties":{"key":"way:314244136@detail:455_99","osmType":"way","osmId":314244136,"sourceRegion":"guangdong","featureType":"infrastructure","railClass":"national","mode":"rail","name":"赣韶线","ref":"0069","usage":"main","status":"operational","color":"#E54848","dataOrigin":"datum-2026-08-01","sourceKey":"way:314244136"}},{"type":"Feature","geometry":{"type":"LineString","coordinates":[[113.84564,24.9933674],[113.8451617,24.9933569]]},"properties":{"key":"way:314244137@detail:455_99","osmType":"way","osmId":314244137,"sourceRegion":"guangdong","featureType":"infrastructure","railClass":"national","mode":"rail","name":"赣韶线","ref":"0069","usage":"main","bridge":"yes","status":"operational","color":"#E54848","dataOrigin":"datum-2026-08-01","sourceKey":"way:314244137"}},{"type":"Feature","geometry":{"type":"LineString","coordinates":[[113.8451617,24.9933569],[113.8436148,24.9932355]]},"properties":{"key":"way:314244138@detail:455_99","osmType":"way","osmId":314244138,"sourceRegion":"guangdong","featureType":"infrastructure","railClass":"national","mode":"rail","name":"赣韶线","ref":"0069","usage":"main","status":"operational","color":"#E54848","dataOrigin":"datum-2026-08-01","sourceKey":"way:314244138"}},{"type":"Feature","geometry":{"type":"LineString","coordinates":[[113.8094661,24.9686417],[113.8082975,24.967469]]},"properties":{"key":"way:314244139@detail:455_99","osmType":"way","osmId":314244139,"sourceRegion":"guangdong","featureType":"infrastructure","railClass":"national","mode":"rail","name":"赣韶线","ref":"0069","usage":"main","bridge":"yes","status":"operational","color":"#E54848","dataOrigin":"datum-2026-08-01","sourceKey":"way:314244139"}},{"type":"Feature","geometry":{"type":"LineString","coordinates":[[113.8929882,24.9896683],[113.8921493,24.9896318]]},"properties":{"key":"way:314244140@detail:455_99","osmType":"way","osmId":314244140,"sourceRegion":"guangdong","featureType":"infrastructure","railClass":"national","mode":"rail","name":"赣韶线","ref":"0069","usage":"main","bridge":"yes","status":"operational","color":"#E54848","dataOrigin":"datum-2026-08-01","sourceKey":"way:314244140"}},{"type":"Feature","geometry":{"type":"LineString","coordinates":[[113.9126443,24.9921824],[113.9099942,24.9917098]]},"properties":{"key":"way:314244141@detail:455_99","osmType":"way","osmId":314244141,"sourceRegion":"guangdong","featureType":"infrastructure","railClass":"national","mode":"rail","name":"赣韶线","ref":"0069","usage":"main","bridge":"yes","status":"operational","color":"#E54848","dataOrigin":"datum-2026-08-01","sourceKey":"way:314244141"}},{"type":"Feature","geometry":{"type":"LineString","coordinates":[[113.8484092,24.9933344],[113.8469179,24.9933953],[113.84564,24.9933674]]},"properties":{"key":"way:314244142@detail:455_99","osmType":"way","osmId":314244142,"sourceRegion":"guangdong","featureType":"infrastructure","railClass":"national","mode":"rail","name":"赣韶线","ref":"0069","usage":"main","status":"operational","color":"#E54848","dataOrigin":"datum-2026-08-01","sourceKey":"way:314244142"}},{"type":"Feature","geometry":{"type":"LineString","coordinates":[[113.8921493,24.9896318],[113.8906307,24.9895879],[113.8890845,24.9896073]]},"properties":{"key":"way:314244143@detail:455_99","osmType":"way","osmId":314244143,"sourceRegion":"guangdong","featureType":"infrastructure","railClass":"national","mode":"rail","name":"赣韶线","ref":"0069","usage":"main","status":"operational","color":"#E54848","dataOrigin":"datum-2026-08-01","sourceKey":"way:314244143"}},{"type":"Feature","geometry":{"type":"LineString","coordinates":[[113.9498773,24.99677],[113.9443586,24.9959972],[113.9419831,24.9957021]]},"properties":{"key":"way:314244144@detail:455_99","osmType":"way","osmId":314244144,"sourceRegion":"guangdong","featureType":"infrastructure","railClass":"national","mode":"rail","name":"赣韶线","ref":"0069","usage":"main","status":"operational","color":"#E54848","dataOrigin":"datum-2026-08-01","sourceKey":"way:314244144"}},{"type":"Feature","geometry":{"type":"LineString","coordinates":[[113.8890845,24.9896073],[113.8882462,24.9896351],[113.8874485,24.989685]]},"properties":{"key":"way:314244145@detail:455_99","osmType":"way","osmId":314244145,"sourceRegion":"guangdong","featureType":"infrastructure","railClass":"national","mode":"rail","name":"赣韶线","ref":"0069","usage":"main","bridge":"yes","status":"operational","color":"#E54848","dataOrigin":"datum-2026-08-01","sourceKey":"way:314244145"}},{"type":"Feature","geometry":{"type":"LineString","coordinates":[[113.8510355,24.9931563],[113.8495156,24.993255],[113.8484092,24.9933344]]},"properties":{"key":"way:314244146@detail:455_99","osmType":"way","osmId":314244146,"sourceRegion":"guangdong","featureType":"infrastructure","railClass":"national","mode":"rail","name":"赣韶线","ref":"0069","usage":"main","bridge":"yes","status":"operational","color":"#E54848","dataOrigin":"datum-2026-08-01","sourceKey":"way:314244146"}},{"type":"Feature","geometry":{"type":"LineString","coordinates":[[113.9534763,24.9971814],[113.9515355,24.9969772],[113.9498773,24.99677]]},"properties":{"key":"way:314244147@detail:455_99","osmType":"way","osmId":314244147,"sourceRegion":"guangdong","featureType":"infrastructure","railClass":"national","mode":"rail","name":"赣韶线","ref":"0069","usage":"main","bridge":"yes","status":"operational","color":"#E54848","dataOrigin":"datum-2026-08-01","sourceKey":"way:314244147"}},{"type":"Feature","geometry":{"type":"LineString","coordinates":[[113.9795824,24.9888686],[113.9784593,24.9893707],[113.9753544,24.9905463]]},"properties":{"key":"way:314244148@detail:455_99","osmType":"way","osmId":314244148,"sourceRegion":"guangdong","featureType":"infrastructure","railClass":"national","mode":"rail","name":"赣韶线","ref":"0069","usage":"main","status":"operational","color":"#E54848","dataOrigin":"datum-2026-08-01","sourceKey":"way:314244148"}},{"type":"Feature","geometry":{"type":"LineString","coordinates":[[113.9996149,24.9782648],[113.999185,24.9784238],[113.9973478,24.9789704]]},"properties":{"key":"way:314244149@detail:455_99","osmType":"way","osmId":314244149,"sourceRegion":"guangdong","featureType":"infrastructure","railClass":"national","mode":"rail","name":"赣韶线","ref":"0069","usage":"main","status":"operational","color":"#E54848","dataOrigin":"datum-2026-08-01","sourceKey":"way:314244149"}},{"type":"Feature","geometry":{"type":"LineString","coordinates":[[113.9729268,24.9916904],[113.9685843,24.9940135],[113.9681687,24.9941968]]},"properties":{"key":"way:314244151@detail:455_99","osmType":"way","osmId":314244151,"sourceRegion":"guangdong","featureType":"infrastructure","railClass":"national","mode":"rail","name":"赣韶线","ref":"0069","usage":"main","status":"operational","color":"#E54848","dataOrigin":"datum-2026-08-01","sourceKey":"way:314244151"}},{"type":"Feature","geometry":{"type":"LineString","coordinates":[[113.9882961,24.9834901],[113.9876223,24.9839626],[113.986591,24.9847017]]},"properties":{"key":"way:314244152@detail:455_99","osmType":"way","osmId":314244152,"sourceRegion":"guangdong","featureType":"infrastructure","railClass":"national","mode":"rail","name":"赣韶线","ref":"0069","usage":"main","status":"operational","color":"#E54848","dataOrigin":"datum-2026-08-01","sourceKey":"way:314244152"}},{"type":"Feature","geometry":{"type":"LineString","coordinates":[[113.9681687,24.9941968],[113.9653463,24.9954419],[113.9646,24.9956827]]},"properties":{"key":"way:314244153@detail:455_99","osmType":"way","osmId":314244153,"sourceRegion":"guangdong","featureType":"infrastructure","railClass":"national","mode":"rail","name":"赣韶线","ref":"0069","usage":"main","bridge":"yes","status":"operational","color":"#E54848","dataOrigin":"datum-2026-08-01","sourceKey":"way:314244153"}},{"type":"Feature","geometry":{"type":"LineString","coordinates":[[113.9958436,24.979511],[113.9936254,24.9803795],[113.9913723,24.9814882],[113.9894927,24.9826727]]},"properties":{"key":"way:314244154@detail:455_99","osmType":"way","osmId":314244154,"sourceRegion":"guangdong","featureType":"infrastructure","railClass":"national","mode":"rail","name":"赣韶线","ref":"0069","usage":"main","status":"operational","color":"#E54848","dataOrigin":"datum-2026-08-01","sourceKey":"way:314244154"}},{"type":"Feature","geometry":{"type":"LineString","coordinates":[[113.8874485,24.989685],[113.8866803,24.9897542],[113.8832042,24.9900849],[113.8816851,24.990236]]},"properties":{"key":"way:314244155@detail:455_99","osmType":"way","osmId":314244155,"sourceRegion":"guangdong","featureType":"infrastructure","railClass":"national","mode":"rail","name":"赣韶线","ref":"0069","usage":"main","status":"operational","color":"#E54848","dataOrigin":"datum-2026-08-01","sourceKey":"way:314244155"}},{"type":"Feature","geometry":{"type":"LineString","coordinates":[[113.9753544,24.9905463],[113.974621,24.990823],[113.9737245,24.9912481],[113.9729268,24.9916904]]},"properties":{"key":"way:314244156@detail:455_99","osmType":"way","osmId":314244156,"sourceRegion":"guangdong","featureType":"infrastructure","railClass":"national","mode":"rail","name":"赣韶线","ref":"0069","usage":"main","bridge":"yes","status":"operational","color":"#E54848","dataOrigin":"datum-2026-08-01","sourceKey":"way:314244156"}},{"type":"Feature","geometry":{"type":"LineString","coordinates":[[113.8246111,24.9833498],[113.8237783,24.9823211],[113.8232877,24.9816485],[113.8228698,24.9810426]]},"properties":{"key":"way:314244157@detail:455_99","osmType":"way","osmId":314244157,"sourceRegion":"guangdong","featureType":"infrastructure","railClass":"national","mode":"rail","name":"赣韶线","ref":"0069","usage":"main","bridge":"yes","status":"operational","color":"#E54848","dataOrigin":"datum-2026-08-01","sourceKey":"way:314244157"}},{"type":"Feature","geometry":{"type":"LineString","coordinates":[[113.8802791,24.9903759],[113.8681614,24.9915222],[113.8631473,24.9920058]]},"properties":{"key":"way:314244159@detail:455_99","osmType":"way","osmId":314244159,"sourceRegion":"guangdong","featureType":"infrastructure","railClass":"national","mode":"rail","name":"赣韶线","ref":"0069","usage":"main","status":"operational","color":"#E54848","dataOrigin":"datum-2026-08-01","sourceKey":"way:314244159"}},{"type":"Feature","geometry":{"type":"LineString","coordinates":[[113.986591,24.9847017],[113.983669,24.9867785],[113.9813726,24.9880012],[113.979992,24.9886855],[113.9795824,24.9888686]]},"properties":{"key":"way:314244160@detail:455_99","osmType":"way","osmId":314244160,"sourceRegion":"guangdong","featureType":"infrastructure","railClass":"national","mode":"rail","name":"赣韶线","ref":"0069","usage":"main","bridge":"yes","status":"operational","color":"#E54848","dataOrigin":"datum-2026-08-01","sourceKey":"way:314244160"}},{"type":"Feature","geometry":{"type":"LineString","coordinates":[[113.9646,24.9956827],[113.9625139,24.996356],[113.9589305,24.9969783],[113.9563341,24.9971922],[113.9534763,24.9971814]]},"properties":{"key":"way:314244161@detail:455_99","osmType":"way","osmId":314244161,"sourceRegion":"guangdong","featureType":"infrastructure","railClass":"national","mode":"rail","name":"赣韶线","ref":"0069","usage":"main","status":"operational","color":"#E54848","dataOrigin":"datum-2026-08-01","sourceKey":"way:314244161"}},{"type":"Feature","geometry":{"type":"LineString","coordinates":[[113.8142141,24.9723105],[113.8126301,24.9711875],[113.8118342,24.9706192],[113.8109956,24.9699704],[113.8101219,24.9692459],[113.8094661,24.9686417]]},"properties":{"key":"way:314244162@detail:455_99","osmType":"way","osmId":314244162,"sourceRegion":"guangdong","featureType":"infrastructure","railClass":"national","mode":"rail","name":"赣韶线","ref":"0069","usage":"main","status":"operational","color":"#E54848","dataOrigin":"datum-2026-08-01","sourceKey":"way:314244162"}},{"type":"Feature","geometry":{"type":"LineString","coordinates":[[113.9099942,24.9917098],[113.9077091,24.9913186],[113.9058649,24.99104],[113.9038036,24.9908239],[113.8958234,24.989938],[113.8929882,24.9896683]]},"properties":{"key":"way:314244163@detail:455_99","osmType":"way","osmId":314244163,"sourceRegion":"guangdong","featureType":"infrastructure","railClass":"national","mode":"rail","name":"赣韶线","ref":"0069","usage":"main","status":"operational","color":"#E54848","dataOrigin":"datum-2026-08-01","sourceKey":"way:314244163"}},{"type":"Feature","geometry":{"type":"LineString","coordinates":[[113.8436148,24.9932355],[113.8403465,24.9930676],[113.8361233,24.9919588],[113.8323869,24.9901],[113.828538,24.9873244],[113.8257165,24.9845477]]},"properties":{"key":"way:314244164@detail:455_99","osmType":"way","osmId":314244164,"sourceRegion":"guangdong","featureType":"infrastructure","railClass":"national","mode":"rail","name":"赣韶线","ref":"0069","usage":"main","tunnel":"yes","status":"operational","color":"#E54848","dataOrigin":"datum-2026-08-01","sourceKey":"way:314244164"}},{"type":"Feature","geometry":{"type":"LineString","coordinates":[[113.9407275,24.9956419],[113.9404318,24.9956277],[113.935754,24.9954526],[113.9323444,24.9952621],[113.9307018,24.9951711],[113.9290651,24.9950182],[113.9275819,24.9947994],[113.9259797,24.9945429],[113.9245395,24.9943049],[113.9231052,24.9940562],[113.9202426,24.9935587],[113.9126443,24.9921824]]},"properties":{"key":"way:314244166@detail:455_99","osmType":"way","osmId":314244166,"sourceRegion":"guangdong","featureType":"infrastructure","railClass":"national","mode":"rail","name":"赣韶线","ref":"0069","usage":"main","status":"operational","color":"#E54848","dataOrigin":"datum-2026-08-01","sourceKey":"way:314244166"}},{"type":"Feature","geometry":{"type":"LineString","coordinates":[[113.7695829,24.9161286],[113.7705801,24.9173837]]},"properties":{"key":"way:460002115@detail:455_99","osmType":"way","osmId":460002115,"sourceRegion":"guangdong","featureType":"infrastructure","railClass":"national","mode":"rail","name":"赣韶线","ref":"0069","usage":"main","bridge":"yes","status":"operational","color":"#E54848","dataOrigin":"datum-2026-08-01","sourceKey":"way:460002115"}},{"type":"Feature","geometry":{"type":"LineString","coordinates":[[113.7743567,24.9232104],[113.7751212,24.9248516]]},"properties":{"key":"way:460002117@detail:455_99","osmType":"way","osmId":460002117,"sourceRegion":"guangdong","featureType":"infrastructure","railClass":"national","mode":"rail","name":"赣韶线","ref":"0069","usage":"main","bridge":"yes","status":"operational","color":"#E54848","dataOrigin":"datum-2026-08-01","sourceKey":"way:460002117"}},{"type":"Feature","geometry":{"type":"LineString","coordinates":[[113.75,24.889169105792163],[113.7513952,24.8901071],[113.7540302,24.8923001],[113.755356,24.8936329],[113.756465,24.8948197],[113.7573151,24.8959367],[113.7606172,24.9006084],[113.7626271,24.9038893],[113.7650446,24.909058],[113.7657152,24.9108621],[113.7666986,24.9125031],[113.7678671,24.9141217],[113.7695829,24.9161286]]},"properties":{"key":"way:460002119@detail:455_99","osmType":"way","osmId":460002119,"sourceRegion":"guangdong","featureType":"infrastructure","railClass":"national","mode":"rail","name":"赣韶线","ref":"0069","usage":"main","status":"operational","color":"#E54848","dataOrigin":"datum-2026-08-01","sourceKey":"way:460002119"}},{"type":"Feature","geometry":{"type":"LineString","coordinates":[[113.7751212,24.9248516],[113.7761899,24.9271083],[113.7769835,24.9286006],[113.7779535,24.9300674],[113.7796328,24.93225],[113.7815079,24.9343691],[113.7841596,24.9374494],[113.784885,24.9384686],[113.7865773,24.9412964],[113.789873,24.946577],[113.7926036,24.9496787],[113.7963074,24.9538467],[113.7965495,24.954119],[113.7980242,24.9557785],[113.8015415,24.9597774],[113.8026819,24.961039],[113.80295,24.9613356],[113.803698,24.962163],[113.8054545,24.9642545],[113.8072709,24.9663336],[113.8082975,24.967469]]},"properties":{"key":"way:460002121@detail:455_99","osmType":"way","osmId":460002121,"sourceRegion":"guangdong","featureType":"infrastructure","railClass":"national","mode":"rail","name":"赣韶线","ref":"0069","usage":"main","status":"operational","color":"#E54848","dataOrigin":"datum-2026-08-01","sourceKey":"way:460002121"}},{"type":"Feature","geometry":{"type":"LineString","coordinates":[[113.7705801,24.9173837],[113.7718449,24.9190411],[113.7728856,24.920557],[113.7736896,24.921897],[113.7743567,24.9232104]]},"properties":{"key":"way:460002123@detail:455_99","osmType":"way","osmId":460002123,"sourceRegion":"guangdong","featureType":"infrastructure","railClass":"national","mode":"rail","name":"赣韶线","ref":"0069","usage":"main","status":"operational","color":"#E54848","dataOrigin":"datum-2026-08-01","sourceKey":"way:460002123"}},{"type":"Feature","geometry":{"type":"LineString","coordinates":[[113.8620422,24.9921123],[113.8534209,24.9929438],[113.8510355,24.9931563]]},"properties":{"key":"way:820951843@detail:455_99","osmType":"way","osmId":820951843,"sourceRegion":"guangdong","featureType":"infrastructure","railClass":"national","mode":"rail","name":"赣韶线","ref":"0069","usage":"main","status":"operational","color":"#E54848","dataOrigin":"datum-2026-08-01","sourceKey":"way:820951843"}},{"type":"Feature","geometry":{"type":"LineString","coordinates":[[113.8631473,24.9920058],[113.8620422,24.9921123]]},"properties":{"key":"way:820951844@detail:455_99","osmType":"way","osmId":820951844,"sourceRegion":"guangdong","featureType":"infrastructure","railClass":"national","mode":"rail","name":"赣韶线","ref":"0069","usage":"main","bridge":"yes","status":"operational","color":"#E54848","dataOrigin":"datum-2026-08-01","sourceKey":"way:820951844"}},{"type":"Feature","geometry":{"type":"LineString","coordinates":[[113.7965495,24.954119],[113.7968173,24.9544926],[113.797982,24.95581],[113.8015075,24.9597994],[113.8023481,24.9607451],[113.8026819,24.961039]]},"properties":{"key":"way:1354200105@detail:455_99","osmType":"way","osmId":1354200105,"sourceRegion":"guangdong","featureType":"infrastructure","railClass":"minor","mode":"rail","name":"未命名","service":"siding","status":"operational","color":"#52636F","dataOrigin":"datum-2026-08-01","sourceKey":"way:1354200105"}},{"type":"Feature","geometry":{"type":"LineString","coordinates":[[113.7957192,24.9527569],[113.7963963,24.9538105],[113.7966212,24.9540654],[113.7969222,24.9544002],[113.7981026,24.9557246],[113.8016165,24.959728],[113.802472,24.9606662],[113.8027193,24.9610181]]},"properties":{"key":"way:1354200106@detail:455_99","osmType":"way","osmId":1354200106,"sourceRegion":"guangdong","featureType":"infrastructure","railClass":"minor","mode":"rail","name":"未命名","service":"siding","status":"operational","color":"#52636F","dataOrigin":"datum-2026-08-01","sourceKey":"way:1354200106"}},{"type":"Feature","geometry":{"type":"LineString","coordinates":[[113.80295,24.9613356],[113.8027193,24.9610181],[113.8015764,24.959751],[113.798062,24.9557508],[113.7965849,24.9540931],[113.7963074,24.9538467]]},"properties":{"key":"way:1354200107@detail:455_99","osmType":"way","osmId":1354200107,"sourceRegion":"guangdong","featureType":"infrastructure","railClass":"minor","mode":"rail","name":"未命名","service":"siding","status":"operational","color":"#52636F","dataOrigin":"datum-2026-08-01","sourceKey":"way:1354200107"}},{"type":"Feature","geometry":{"type":"LineString","coordinates":[[113.7969222,24.9544002],[113.7965849,24.9540931]]},"properties":{"key":"way:1354200108@detail:455_99","osmType":"way","osmId":1354200108,"sourceRegion":"guangdong","featureType":"infrastructure","railClass":"minor","mode":"rail","name":"未命名","service":"siding","status":"operational","color":"#52636F","dataOrigin":"datum-2026-08-01","sourceKey":"way:1354200108"}},{"type":"Feature","geometry":{"type":"LineString","coordinates":[[113.7966212,24.9540654],[113.7970628,24.9544594]]},"properties":{"key":"way:1354200109@detail:455_99","osmType":"way","osmId":1354200109,"sourceRegion":"guangdong","featureType":"infrastructure","railClass":"minor","mode":"rail","name":"未命名","service":"siding","status":"operational","color":"#52636F","dataOrigin":"datum-2026-08-01","sourceKey":"way:1354200109"}}]}