{"type":"FeatureCollection","features":[{"type":"Feature","geometry":{"type":"Point","coordinates":[113.7869367,23.2818968]},"properties":{"key":"node:6490208827","osmType":"node","osmId":6490208827,"sourceRegion":"guangzhou","featureType":"station","railClass":"metro","mode":"subway","name":"钟岗","nameEn":"Zhonggang","ref":"2120","operator":"广州地铁集团有限公司","status":"operational","color":"#126d75","sourceKey":"node:6490208827","stationGroup":"钟岗","hasOperationalRail":true,"hasConstructionRail":false}},{"type":"Feature","geometry":{"type":"Point","coordinates":[113.8086505,23.2810141]},"properties":{"key":"node:6490208828","osmType":"node","osmId":6490208828,"sourceRegion":"guangzhou","featureType":"station","railClass":"metro","mode":"subway","name":"增城广场","nameEn":"Zengcheng Square","ref":"2121","operator":"广州地铁集团有限公司","status":"operational","color":"#126d75","sourceKey":"node:6490208828","stationGroup":"增城广场","hasOperationalRail":true,"hasConstructionRail":false}},{"type":"Feature","geometry":{"type":"LineString","coordinates":[[113.764444,23.2835475],[113.7649552,23.2835546],[113.7656087,23.2835646],[113.7672933,23.2835912]]},"properties":{"key":"way:397291242@detail:455_93","osmType":"way","osmId":397291242,"sourceRegion":"guangzhou","featureType":"infrastructure","railClass":"metro","mode":"subway","name":"广州地铁21号线","nameEn":"Guangzhou Metro Line 21","status":"operational","color":"#52636f","sourceKey":"way:397291242"}},{"type":"Feature","geometry":{"type":"LineString","coordinates":[[113.75,23.281776704909408],[113.750044,23.2817891],[113.7502323,23.2818442],[113.7504495,23.2819099],[113.7506623,23.2819729],[113.7509503,23.282062],[113.7514234,23.2822123]]},"properties":{"key":"way:597843450@detail:455_93","osmType":"way","osmId":597843450,"sourceRegion":"guangzhou","featureType":"infrastructure","railClass":"metro","mode":"subway","name":"未命名","service":"yard","bridge":"yes","status":"operational","color":"#52636f","sourceKey":"way:597843450"}},{"type":"Feature","geometry":{"type":"LineString","coordinates":[[113.7513814,23.2823291],[113.750914,23.2821824],[113.7503625,23.2820157],[113.7501069,23.281939],[113.75,23.28190812691014]]},"properties":{"key":"way:597843453@detail:455_93","osmType":"way","osmId":597843453,"sourceRegion":"guangzhou","featureType":"infrastructure","railClass":"metro","mode":"subway","name":"未命名","service":"yard","bridge":"yes","status":"operational","color":"#52636f","sourceKey":"way:597843453"}},{"type":"Feature","geometry":{"type":"LineString","coordinates":[[113.7514234,23.2822123],[113.7520573,23.2824139],[113.7526878,23.2826199],[113.7533706,23.2828397],[113.7542271,23.2831194],[113.7545264,23.2832158],[113.7546607,23.2832564],[113.7547429,23.2832788],[113.7548225,23.2833004],[113.7548937,23.2833167],[113.7549579,23.2833283],[113.7550206,23.2833369],[113.7550959,23.2833433],[113.7551762,23.2833434],[113.7552555,23.2833423],[113.7553325,23.2833402],[113.7554192,23.2833363],[113.7555004,23.2833311],[113.755589,23.2833228],[113.7556469,23.283317],[113.7557252,23.283307],[113.7557962,23.2832957],[113.7558903,23.2832758],[113.7560052,23.2832469],[113.7561522,23.2832066],[113.7562907,23.2831633],[113.7563877,23.28313],[113.7565037,23.283085],[113.7566014,23.2830397],[113.7566772,23.283003],[113.7567476,23.2829638]]},"properties":{"key":"way:597966950@detail:455_93","osmType":"way","osmId":597966950,"sourceRegion":"guangzhou","featureType":"infrastructure","railClass":"metro","mode":"subway","name":"未命名","service":"yard","bridge":"yes","status":"operational","color":"#52636f","sourceKey":"way:597966950"}},{"type":"Feature","geometry":{"type":"LineString","coordinates":[[113.7568036,23.2829933],[113.7566882,23.2830616],[113.7565872,23.2831105],[113.7564851,23.283154],[113.7563959,23.2831891],[113.7562873,23.2832275],[113.7561653,23.2832641],[113.756033,23.2833002],[113.7558801,23.2833393],[113.7557392,23.2833711],[113.755653,23.2833895],[113.7555484,23.2834099],[113.7554399,23.2834298],[113.7553225,23.2834482],[113.7552528,23.2834575],[113.7552024,23.2834635],[113.7551553,23.2834664],[113.7551091,23.2834676],[113.755067,23.2834668],[113.7550248,23.2834632],[113.7549766,23.2834578],[113.7549278,23.2834514],[113.7548789,23.2834429],[113.7548305,23.2834328],[113.7547785,23.2834198],[113.7547227,23.283404],[113.7546609,23.2833848],[113.7545772,23.2833589],[113.7544963,23.2833331],[113.7538464,23.283126],[113.7530992,23.2828858],[113.7524956,23.2826885],[113.7519156,23.2825],[113.7513814,23.2823291]]},"properties":{"key":"way:597966951@detail:455_93","osmType":"way","osmId":597966951,"sourceRegion":"guangzhou","featureType":"infrastructure","railClass":"metro","mode":"subway","name":"未命名","service":"yard","bridge":"yes","status":"operational","color":"#52636f","sourceKey":"way:597966951"}},{"type":"Feature","geometry":{"type":"LineString","coordinates":[[113.7568036,23.2829933],[113.7569087,23.2829286],[113.7570149,23.2828577],[113.7572616,23.2826712],[113.7574401,23.2825372],[113.7581436,23.2820154]]},"properties":{"key":"way:597966952@detail:455_93","osmType":"way","osmId":597966952,"sourceRegion":"guangzhou","featureType":"infrastructure","railClass":"metro","mode":"subway","name":"未命名","service":"yard","status":"operational","color":"#52636f","sourceKey":"way:597966952"}},{"type":"Feature","geometry":{"type":"LineString","coordinates":[[113.7567476,23.2829638],[113.7568311,23.2829157],[113.756942,23.2828458],[113.7570749,23.2827498],[113.7572,23.2826603],[113.7581366,23.2819523]]},"properties":{"key":"way:597966953@detail:455_93","osmType":"way","osmId":597966953,"sourceRegion":"guangzhou","featureType":"infrastructure","railClass":"metro","mode":"subway","name":"未命名","service":"yard","status":"operational","color":"#52636f","sourceKey":"way:597966953"}},{"type":"Feature","geometry":{"type":"LineString","coordinates":[[113.8125203,23.2791797],[113.8123485,23.2792648],[113.8112075,23.2798301],[113.8094004,23.2807282]]},"properties":{"key":"way:598024972@detail:455_93","osmType":"way","osmId":598024972,"sourceRegion":"guangzhou","featureType":"infrastructure","railClass":"metro","mode":"subway","name":"广州地铁21号线","nameEn":"Guangzhou Metro Line 21","tunnel":"yes","status":"operational","color":"#52636f","sourceKey":"way:598024972"}},{"type":"Feature","geometry":{"type":"LineString","coordinates":[[113.764445,23.2835873],[113.7636582,23.2835774],[113.7633986,23.283575],[113.7631938,23.2835742],[113.7630217,23.2835743],[113.7628303,23.2835753],[113.7626535,23.2835782],[113.7624444,23.2835819],[113.7622515,23.2835867],[113.7620573,23.2835925],[113.7618648,23.2836001],[113.76167,23.2836085],[113.7614747,23.283619],[113.7612731,23.2836309],[113.7610419,23.283646],[113.7590305,23.2837884],[113.7588018,23.283804],[113.7585342,23.283821],[113.7582973,23.2838345],[113.7581182,23.2838436],[113.757944,23.2838516],[113.7577606,23.2838582],[113.7575193,23.283862],[113.7573419,23.2838623],[113.7571952,23.2838597],[113.7570337,23.2838539],[113.7568538,23.2838426],[113.7566839,23.2838287],[113.7564972,23.2838083],[113.7563197,23.2837851],[113.7561486,23.2837579],[113.7559994,23.28373],[113.7558451,23.2836952],[113.7556694,23.2836521],[113.7554855,23.2836007],[113.7552604,23.2835315],[113.7549667,23.2834391],[113.7547414,23.2833664],[113.7544772,23.2832826],[113.7541191,23.283168],[113.7534298,23.2829463],[113.7530462,23.2828231],[113.7519366,23.2824637],[113.7510643,23.2821867],[113.7506947,23.2820739],[113.7503797,23.2819786],[113.7500699,23.2818879],[113.75,23.281867643385134]]},"properties":{"key":"way:598050489@detail:455_93","osmType":"way","osmId":598050489,"sourceRegion":"guangzhou","featureType":"infrastructure","railClass":"metro","mode":"subway","name":"广州地铁21号线","nameEn":"Guangzhou Metro Line 21","bridge":"yes","status":"operational","color":"#52636f","sourceKey":"way:598050489"}},{"type":"Feature","geometry":{"type":"LineString","coordinates":[[113.7672941,23.2836354],[113.7656183,23.2836046],[113.7649611,23.2835953],[113.764445,23.2835873]]},"properties":{"key":"way:598056366@detail:455_93","osmType":"way","osmId":598056366,"sourceRegion":"guangzhou","featureType":"infrastructure","railClass":"metro","mode":"subway","name":"广州地铁21号线","nameEn":"Guangzhou Metro Line 21","status":"operational","color":"#52636f","sourceKey":"way:598056366"}},{"type":"Feature","geometry":{"type":"LineString","coordinates":[[113.7672933,23.2835912],[113.7676572,23.2835986],[113.7679987,23.2836061],[113.7684152,23.2836141],[113.7690484,23.2836238],[113.7695742,23.2836287],[113.7699626,23.2836328],[113.7702807,23.2836354],[113.7706521,23.2836381],[113.7709404,23.2836382],[113.7712181,23.2836384],[113.7715541,23.2836382],[113.7719917,23.2836369],[113.7724245,23.2836343],[113.772859,23.2836334],[113.773081,23.2836331],[113.7733121,23.2836334],[113.7735514,23.283634],[113.773943,23.2836382],[113.7765262,23.2836765],[113.7771267,23.2836805],[113.7776175,23.283681],[113.7780031,23.2836766],[113.7783459,23.2836682],[113.7786912,23.2836538],[113.7789534,23.283639],[113.7792319,23.2836209],[113.7795561,23.2835986],[113.7798593,23.2835727],[113.7801359,23.283544],[113.7804542,23.2835063],[113.7807748,23.2834639],[113.7810706,23.2834179],[113.7813385,23.2833733],[113.7816321,23.283316],[113.7818969,23.2832635],[113.7821963,23.2832014],[113.782485,23.2831366],[113.7827854,23.2830646],[113.7830838,23.28299],[113.7833707,23.2829163],[113.7836462,23.2828424],[113.7839127,23.2827693],[113.7841906,23.2826902],[113.7844418,23.2826155],[113.7848416,23.2824935],[113.7852441,23.2823664],[113.7861689,23.2820744],[113.7869157,23.2818377],[113.7876519,23.2816041],[113.7879281,23.2815164],[113.7881922,23.2814354],[113.7883868,23.2813762],[113.7885448,23.2813287],[113.788739,23.2812712],[113.7889338,23.2812149],[113.789125,23.2811611],[113.7892952,23.2811138],[113.7894678,23.2810669],[113.789599,23.2810334],[113.7897279,23.281],[113.7898587,23.2809674],[113.789977,23.2809391],[113.7900954,23.2809121],[113.7902231,23.280884],[113.79037,23.2808533],[113.7905239,23.2808239],[113.7906845,23.2807958],[113.7908753,23.2807642],[113.7910564,23.280737],[113.7912571,23.2807099],[113.7914372,23.2806899],[113.7916203,23.2806714],[113.7917989,23.2806544],[113.7919644,23.2806429],[113.7921688,23.2806334],[113.7923866,23.2806278],[113.7926303,23.2806254],[113.7928924,23.2806259],[113.7931678,23.2806327],[113.7934735,23.2806449],[113.7937819,23.2806635],[113.7940461,23.2806834],[113.7942863,23.2807042],[113.7945073,23.2807267],[113.7947061,23.2807504],[113.7949278,23.2807814],[113.7951534,23.2808174],[113.7953664,23.2808543],[113.7956299,23.2809004],[113.7959423,23.2809638],[113.7962536,23.2810295],[113.796553,23.2810999],[113.7968639,23.2811737],[113.797194,23.2812562],[113.7975481,23.2813495],[113.7978909,23.281441],[113.7982247,23.2815308],[113.7985767,23.2816307],[113.7988824,23.2817184],[113.7992007,23.2818076],[113.7995769,23.2819117],[113.7998373,23.2819826],[113.8001506,23.2820626],[113.8004475,23.2821384],[113.8007272,23.2822073],[113.8009834,23.2822693],[113.8012105,23.2823247],[113.801405,23.282371],[113.8016556,23.2824275],[113.8019052,23.2824823],[113.8026178,23.2826293],[113.8027797,23.2826607],[113.8029319,23.2826904],[113.8030753,23.2827176],[113.8032351,23.2827469],[113.8033823,23.2827704],[113.8035055,23.2827865],[113.8036526,23.2828027],[113.8037559,23.2828109],[113.8038565,23.2828147],[113.8040044,23.2828175],[113.8041654,23.2828172],[113.8042854,23.2828106],[113.8043923,23.2828013],[113.8045212,23.2827851],[113.8046492,23.282761],[113.8047838,23.2827299],[113.804925,23.28269],[113.8050525,23.2826498],[113.8051821,23.2826053],[113.805322,23.2825484],[113.8055417,23.2824567],[113.8057179,23.282376],[113.8058725,23.2823006],[113.8060447,23.2822138],[113.8062414,23.2821126],[113.8064065,23.2820288],[113.8065594,23.2819532],[113.8067607,23.2818556],[113.8069298,23.2817732],[113.8086116,23.2809456]]},"properties":{"key":"way:598056367@detail:455_93","osmType":"way","osmId":598056367,"sourceRegion":"guangzhou","featureType":"infrastructure","railClass":"metro","mode":"subway","name":"广州地铁21号线","nameEn":"Guangzhou Metro Line 21","tunnel":"yes","status":"operational","color":"#52636f","sourceKey":"way:598056367"}},{"type":"Feature","geometry":{"type":"LineString","coordinates":[[113.8079867,23.2814309],[113.8069298,23.2817732]]},"properties":{"key":"way:598237357@detail:455_93","osmType":"way","osmId":598237357,"sourceRegion":"guangzhou","featureType":"infrastructure","railClass":"metro","mode":"subway","name":"未命名","service":"crossover","tunnel":"yes","status":"operational","color":"#52636f","sourceKey":"way:598237357"}},{"type":"Feature","geometry":{"type":"LineString","coordinates":[[113.8094004,23.2807282],[113.8098735,23.2804251],[113.810055,23.2803109],[113.8102393,23.2801947]]},"properties":{"key":"way:598237362@detail:455_93","osmType":"way","osmId":598237362,"sourceRegion":"guangzhou","featureType":"infrastructure","railClass":"metro","mode":"subway","name":"未命名","service":"yard","tunnel":"yes","status":"operational","color":"#52636f","sourceKey":"way:598237362"}},{"type":"Feature","geometry":{"type":"LineString","coordinates":[[113.80932,23.2805914],[113.8098518,23.2803882],[113.810055,23.2803109],[113.8102623,23.2802322]]},"properties":{"key":"way:598237363@detail:455_93","osmType":"way","osmId":598237363,"sourceRegion":"guangzhou","featureType":"infrastructure","railClass":"metro","mode":"subway","name":"未命名","service":"yard","tunnel":"yes","status":"operational","color":"#52636f","sourceKey":"way:598237363"}},{"type":"Feature","geometry":{"type":"LineString","coordinates":[[113.8098518,23.2803882],[113.8102393,23.2801947],[113.8117915,23.27942],[113.8120178,23.2793071]]},"properties":{"key":"way:598237364@detail:455_93","osmType":"way","osmId":598237364,"sourceRegion":"guangzhou","featureType":"infrastructure","railClass":"metro","mode":"subway","name":"未命名","service":"yard","tunnel":"yes","status":"operational","color":"#52636f","sourceKey":"way:598237364"}},{"type":"Feature","geometry":{"type":"LineString","coordinates":[[113.8098735,23.2804251],[113.8102623,23.2802322],[113.8118165,23.2794599],[113.8120421,23.2793478]]},"properties":{"key":"way:598237365@detail:455_93","osmType":"way","osmId":598237365,"sourceRegion":"guangzhou","featureType":"infrastructure","railClass":"metro","mode":"subway","name":"未命名","service":"yard","tunnel":"yes","status":"operational","color":"#52636f","sourceKey":"way:598237365"}},{"type":"Feature","geometry":{"type":"LineString","coordinates":[[113.8123485,23.2792648],[113.8118165,23.2794599]]},"properties":{"key":"way:598237368@detail:455_93","osmType":"way","osmId":598237368,"sourceRegion":"guangzhou","featureType":"infrastructure","railClass":"metro","mode":"subway","name":"未命名","service":"yard","tunnel":"yes","status":"operational","color":"#52636f","sourceKey":"way:598237368"}},{"type":"Feature","geometry":{"type":"LineString","coordinates":[[113.8117915,23.27942],[113.8122643,23.2791257]]},"properties":{"key":"way:598237370@detail:455_93","osmType":"way","osmId":598237370,"sourceRegion":"guangzhou","featureType":"infrastructure","railClass":"metro","mode":"subway","name":"未命名","service":"yard","tunnel":"yes","status":"operational","color":"#52636f","sourceKey":"way:598237370"}},{"type":"Feature","geometry":{"type":"LineString","coordinates":[[113.80932,23.2805914],[113.8122643,23.2791257],[113.8124368,23.2790398]]},"properties":{"key":"way:672452312@detail:455_93","osmType":"way","osmId":672452312,"sourceRegion":"guangzhou","featureType":"infrastructure","railClass":"metro","mode":"subway","name":"广州地铁21号线","nameEn":"Guangzhou Metro Line 21","tunnel":"yes","status":"operational","color":"#52636f","sourceKey":"way:672452312"}},{"type":"Feature","geometry":{"type":"LineString","coordinates":[[113.8086914,23.2810806],[113.8079867,23.2814309],[113.8068391,23.2819915],[113.806663,23.2820757],[113.8064382,23.2821836],[113.8062645,23.2822653],[113.8060734,23.2823537],[113.8058917,23.2824368],[113.8057433,23.2825031],[113.8055966,23.2825642],[113.8054599,23.2826194],[113.8053485,23.2826625],[113.8052569,23.2826961],[113.805154,23.2827321],[113.8050137,23.282777],[113.804873,23.2828161],[113.804771,23.2828419],[113.8046751,23.2828619],[113.8045776,23.2828778],[113.8045064,23.2828881],[113.8044119,23.2829001],[113.8042894,23.2829118],[113.8041715,23.282917],[113.8040282,23.2829172],[113.8038821,23.2829141],[113.8037439,23.2829088],[113.8036484,23.2829017],[113.8035586,23.282893],[113.8034558,23.2828808],[113.8033658,23.2828684],[113.80327,23.2828533],[113.8031371,23.2828305],[113.8029774,23.2828023],[113.802806,23.2827709],[113.8025962,23.2827293],[113.801883,23.2825818],[113.8016212,23.2825246],[113.8013958,23.2824753],[113.8011705,23.2824224],[113.800942,23.2823691],[113.8007039,23.2823133],[113.8004624,23.2822583],[113.8002126,23.2821982],[113.7999416,23.2821312],[113.7996747,23.2820637],[113.7994267,23.2819984],[113.7991823,23.2819332],[113.7988346,23.2818366],[113.7985149,23.2817441],[113.7981884,23.2816525],[113.7977955,23.2815467],[113.7974903,23.2814648],[113.7971891,23.281387],[113.7968683,23.2813081],[113.7965382,23.2812309],[113.7962408,23.2811646],[113.7959325,23.2810968],[113.7956019,23.2810325],[113.795294,23.2809776],[113.795015,23.280933],[113.794794,23.2809009],[113.7945887,23.2808758],[113.794381,23.2808528],[113.7940788,23.2808234],[113.7937737,23.2807984],[113.7934402,23.2807771],[113.7931122,23.2807616],[113.7927788,23.2807557],[113.7924992,23.2807552],[113.7923392,23.2807568],[113.79216,23.2807622],[113.7919769,23.2807718],[113.7918349,23.2807815],[113.7916943,23.280793],[113.7915525,23.2808066],[113.791394,23.2808251],[113.7912348,23.2808451],[113.7910501,23.2808699],[113.7908556,23.2808962],[113.7906605,23.280928],[113.7905109,23.2809542],[113.7903455,23.2809861],[113.7901822,23.2810196],[113.7900092,23.281057],[113.7898139,23.2811021],[113.7896303,23.2811472],[113.7894263,23.2812009],[113.7892416,23.2812518],[113.7890706,23.2813009],[113.7888949,23.2813521],[113.7886751,23.2814168],[113.7884534,23.2814849],[113.788235,23.2815519],[113.7879725,23.2816342],[113.7876945,23.2817224],[113.7869605,23.2819555],[113.7862212,23.2821903],[113.7852861,23.2824878],[113.7850675,23.2825561],[113.7849021,23.2826064],[113.7847244,23.2826603],[113.7845464,23.2827128],[113.7843754,23.2827627],[113.7842102,23.2828102],[113.7840182,23.2828652],[113.7838307,23.2829184],[113.7836571,23.2829659],[113.7834614,23.2830177],[113.7832149,23.2830808],[113.7829533,23.2831459],[113.7826051,23.2832311],[113.7823264,23.2832966],[113.7820522,23.2833575],[113.7818443,23.2834007],[113.78165,23.2834389],[113.7814311,23.2834796],[113.7812047,23.2835177],[113.7809655,23.283555],[113.780696,23.2835947],[113.7804347,23.283629],[113.7801721,23.2836607],[113.7799194,23.2836877],[113.77969,23.2837088],[113.7794556,23.2837284],[113.7791982,23.2837499],[113.77894,23.2837651],[113.7787124,23.2837771],[113.778517,23.2837873],[113.778299,23.2837942],[113.7780854,23.2838007],[113.7778903,23.2838033],[113.7776764,23.2838052],[113.7774574,23.2838072],[113.7771644,23.2838085],[113.7768459,23.2838075],[113.7764666,23.2838028],[113.7760076,23.2837957],[113.7755994,23.2837889],[113.7751619,23.2837814],[113.7746241,23.2837733],[113.7740377,23.2837651],[113.7734713,23.2837555],[113.7728369,23.2837442],[113.7724507,23.283737],[113.7686305,23.2836633],[113.7683129,23.2836572],[113.7672941,23.2836354]]},"properties":{"key":"way:672453666@detail:455_93","osmType":"way","osmId":672453666,"sourceRegion":"guangzhou","featureType":"infrastructure","railClass":"metro","mode":"subway","name":"广州地铁21号线","nameEn":"Guangzhou Metro Line 21","tunnel":"yes","status":"operational","color":"#52636f","sourceKey":"way:672453666"}},{"type":"Feature","geometry":{"type":"LineString","coordinates":[[113.75,23.281820527823488],[113.7503333,23.281918],[113.7507246,23.2820366],[113.750922,23.2820973],[113.7513356,23.2822282],[113.7519499,23.2824246],[113.7530525,23.2827812],[113.7538414,23.2830341],[113.7543978,23.2832148],[113.7548603,23.2833639],[113.7550958,23.2834379],[113.7553103,23.2835033],[113.7554681,23.2835487],[113.7556072,23.2835876],[113.7557764,23.2836311],[113.7559333,23.2836673],[113.7560668,23.2836953],[113.7562344,23.2837237],[113.7563926,23.2837473],[113.7565388,23.283765],[113.7567007,23.2837809],[113.756871,23.2837954],[113.7570403,23.2838044],[113.7571841,23.2838098],[113.7573466,23.2838127],[113.7575214,23.2838135],[113.7577299,23.2838114],[113.7579434,23.2838045],[113.758159,23.2837949],[113.7583805,23.283783],[113.7586778,23.2837645],[113.7590107,23.2837429],[113.7610384,23.2836032],[113.7613,23.2835862],[113.7614762,23.2835765],[113.7616452,23.2835687],[113.7618363,23.2835603],[113.7620862,23.2835514],[113.7622583,23.2835456],[113.7624345,23.2835408],[113.7626449,23.2835372],[113.7629019,23.2835348],[113.7631597,23.2835336],[113.7633801,23.2835345],[113.7635679,23.2835355],[113.764444,23.2835475]]},"properties":{"key":"way:717460597@detail:455_93","osmType":"way","osmId":717460597,"sourceRegion":"guangzhou","featureType":"infrastructure","railClass":"metro","mode":"subway","name":"广州地铁21号线","nameEn":"Guangzhou Metro Line 21","bridge":"yes","status":"operational","color":"#52636f","sourceKey":"way:717460597"}},{"type":"Feature","geometry":{"type":"LineString","coordinates":[[113.7581366,23.2819523],[113.75919,23.2810906],[113.7600037,23.2804218],[113.760324,23.2801192],[113.7604963,23.279927],[113.7607186,23.2795598],[113.7608897,23.2792172]]},"properties":{"key":"way:789388748@detail:455_93","osmType":"way","osmId":789388748,"sourceRegion":"guangzhou","featureType":"infrastructure","railClass":"metro","mode":"subway","name":"未命名","service":"yard","tunnel":"yes","status":"operational","color":"#52636f","sourceKey":"way:789388748"}},{"type":"Feature","geometry":{"type":"LineString","coordinates":[[113.7611907,23.2782644],[113.7612285,23.2780784],[113.7612466,23.277914],[113.7612592,23.2760493],[113.7612618,23.2756673],[113.7612628,23.275526],[113.7612634,23.2754376],[113.7612632,23.2754029],[113.7612566,23.2740812],[113.7612635,23.2739115],[113.7612884,23.273734],[113.7613207,23.2734695],[113.7613412,23.2733182],[113.7613726,23.273085],[113.7613887,23.272909],[113.7613882,23.2727848],[113.7613799,23.2704148]]},"properties":{"key":"way:789388749@detail:455_93","osmType":"way","osmId":789388749,"sourceRegion":"guangzhou","featureType":"infrastructure","railClass":"metro","mode":"subway","name":"未命名","service":"yard","status":"operational","color":"#52636f","sourceKey":"way:789388749"}},{"type":"Feature","geometry":{"type":"LineString","coordinates":[[113.7609435,23.2792341],[113.7607158,23.2796956],[113.760565,23.2799262],[113.7603677,23.280169],[113.7600143,23.2804904],[113.7581436,23.2820154]]},"properties":{"key":"way:789388751@detail:455_93","osmType":"way","osmId":789388751,"sourceRegion":"guangzhou","featureType":"infrastructure","railClass":"metro","mode":"subway","name":"未命名","service":"yard","tunnel":"yes","status":"operational","color":"#52636f","sourceKey":"way:789388751"}},{"type":"Feature","geometry":{"type":"LineString","coordinates":[[113.7613031,23.2748511],[113.7613418,23.274582],[113.7613993,23.2743787],[113.7614615,23.2742151],[113.7615294,23.2740583],[113.7615323,23.2740515],[113.7617597,23.2735607]]},"properties":{"key":"way:833777787@detail:455_93","osmType":"way","osmId":833777787,"sourceRegion":"guangzhou","featureType":"infrastructure","railClass":"metro","mode":"subway","name":"未命名","service":"yard","status":"operational","color":"#52636f","sourceKey":"way:833777787"}},{"type":"Feature","geometry":{"type":"LineString","coordinates":[[113.7617156,23.2735463],[113.7614841,23.2740406],[113.7614206,23.274193],[113.7613852,23.2742922],[113.7613418,23.274582]]},"properties":{"key":"way:833777788@detail:455_93","osmType":"way","osmId":833777788,"sourceRegion":"guangzhou","featureType":"infrastructure","railClass":"metro","mode":"subway","name":"未命名","service":"yard","status":"operational","color":"#52636f","sourceKey":"way:833777788"}},{"type":"Feature","geometry":{"type":"LineString","coordinates":[[113.7618085,23.2738387],[113.7615206,23.2744292],[113.7614544,23.2745418],[113.7613822,23.2747126],[113.7613584,23.274784],[113.7613421,23.2748487],[113.7613026,23.2750979]]},"properties":{"key":"way:833777789@detail:455_93","osmType":"way","osmId":833777789,"sourceRegion":"guangzhou","featureType":"infrastructure","railClass":"metro","mode":"subway","name":"未命名","service":"spur","status":"operational","color":"#52636f","sourceKey":"way:833777789"}},{"type":"Feature","geometry":{"type":"LineString","coordinates":[[113.7609435,23.2792341],[113.7610234,23.2790527],[113.7611612,23.278653],[113.761201,23.2785026],[113.7612514,23.2782451],[113.7612715,23.2781188],[113.7612914,23.2779429],[113.7612977,23.2777204],[113.7613015,23.275669],[113.761302,23.275407],[113.7613026,23.2750979],[113.7613031,23.2748511],[113.7613034,23.2746759],[113.7613039,23.2745158],[113.7613049,23.2742083],[113.7613058,23.2740713],[113.7613183,23.2739379],[113.7613481,23.2737431],[113.7613626,23.2736572],[113.7613988,23.2734417],[113.7614049,23.2734049],[113.7614331,23.2732137],[113.7614476,23.2730611],[113.7614599,23.2729093],[113.7614648,23.2704148]]},"properties":{"key":"way:833777790@detail:455_93","osmType":"way","osmId":833777790,"sourceRegion":"guangzhou","featureType":"infrastructure","railClass":"metro","mode":"subway","name":"未命名","service":"yard","status":"operational","color":"#52636f","sourceKey":"way:833777790"}},{"type":"Feature","geometry":{"type":"LineString","coordinates":[[113.7617527,23.2704148],[113.7617498,23.2729103],[113.7617475,23.2730594],[113.7617347,23.2731391],[113.7617091,23.273258],[113.7616224,23.273486],[113.7615123,23.2737033]]},"properties":{"key":"way:833777791@detail:455_93","osmType":"way","osmId":833777791,"sourceRegion":"guangzhou","featureType":"infrastructure","railClass":"metro","mode":"subway","name":"未命名","service":"yard","status":"operational","color":"#52636f","sourceKey":"way:833777791"}},{"type":"Feature","geometry":{"type":"LineString","coordinates":[[113.7617061,23.2704148],[113.7617055,23.2729101],[113.7617016,23.2731148],[113.761673,23.2732395],[113.7615671,23.2735139]]},"properties":{"key":"way:833777792@detail:455_93","osmType":"way","osmId":833777792,"sourceRegion":"guangzhou","featureType":"infrastructure","railClass":"metro","mode":"subway","name":"未命名","service":"yard","status":"operational","color":"#52636f","sourceKey":"way:833777792"}},{"type":"Feature","geometry":{"type":"LineString","coordinates":[[113.7616522,23.2704148],[113.7616468,23.2729099],[113.7616443,23.2730019],[113.761633,23.2731291],[113.7616079,23.2733044],[113.7615892,23.2734243],[113.7615711,23.2735001],[113.7615671,23.2735139],[113.7615123,23.2737033],[113.7613574,23.2741745]]},"properties":{"key":"way:833777793@detail:455_93","osmType":"way","osmId":833777793,"sourceRegion":"guangzhou","featureType":"infrastructure","railClass":"metro","mode":"subway","name":"未命名","service":"yard","status":"operational","color":"#52636f","sourceKey":"way:833777793"}},{"type":"Feature","geometry":{"type":"LineString","coordinates":[[113.7616025,23.2704148],[113.7615985,23.2729098],[113.7615991,23.2730195],[113.7615847,23.2731368],[113.7615599,23.273249],[113.7615112,23.2734248],[113.7614742,23.2735539],[113.7614461,23.2736375],[113.7614191,23.2737754],[113.7614135,23.2738131],[113.7614061,23.2738633],[113.7613574,23.2741745],[113.7613039,23.2745158]]},"properties":{"key":"way:833777794@detail:455_93","osmType":"way","osmId":833777794,"sourceRegion":"guangzhou","featureType":"infrastructure","railClass":"metro","mode":"subway","name":"未命名","service":"yard","status":"operational","color":"#52636f","sourceKey":"way:833777794"}},{"type":"Feature","geometry":{"type":"LineString","coordinates":[[113.7613376,23.2704148],[113.7613361,23.2729089],[113.7613412,23.2733182]]},"properties":{"key":"way:833777795@detail:455_93","osmType":"way","osmId":833777795,"sourceRegion":"guangzhou","featureType":"infrastructure","railClass":"metro","mode":"subway","name":"未命名","service":"yard","status":"operational","color":"#52636f","sourceKey":"way:833777795"}},{"type":"Feature","geometry":{"type":"LineString","coordinates":[[113.7615579,23.2704148],[113.7615495,23.2729096],[113.7615419,23.2730903],[113.7615325,23.2731987],[113.7614865,23.2733401],[113.7613626,23.2736572]]},"properties":{"key":"way:833777796@detail:455_93","osmType":"way","osmId":833777796,"sourceRegion":"guangzhou","featureType":"infrastructure","railClass":"metro","mode":"subway","name":"未命名","service":"yard","status":"operational","color":"#52636f","sourceKey":"way:833777796"}},{"type":"Feature","geometry":{"type":"LineString","coordinates":[[113.7615103,23.2704148],[113.7615019,23.2729094],[113.7615013,23.2730001],[113.7614919,23.2731107],[113.7614655,23.2732394],[113.7613988,23.2734417]]},"properties":{"key":"way:833777797@detail:455_93","osmType":"way","osmId":833777797,"sourceRegion":"guangzhou","featureType":"infrastructure","railClass":"metro","mode":"subway","name":"未命名","service":"yard","status":"operational","color":"#52636f","sourceKey":"way:833777797"}},{"type":"Feature","geometry":{"type":"LineString","coordinates":[[113.7608897,23.2792172],[113.7610302,23.2788772],[113.7610963,23.2786925],[113.7611437,23.2784919],[113.7611907,23.2782644]]},"properties":{"key":"way:972889239@detail:455_93","osmType":"way","osmId":972889239,"sourceRegion":"guangzhou","featureType":"infrastructure","railClass":"metro","mode":"subway","name":"未命名","service":"yard","status":"operational","color":"#52636f","sourceKey":"way:972889239"}},{"type":"Feature","geometry":{"type":"LineString","coordinates":[[113.7611292,23.2780047],[113.7611698,23.2778215],[113.7611824,23.2777525],[113.76119,23.2776942],[113.7611943,23.2776345],[113.7611968,23.2775576],[113.7611891,23.2764782],[113.7611678,23.2734833],[113.7611635,23.2734018],[113.7611475,23.273297],[113.7611188,23.2730983]]},"properties":{"key":"way:972889240@detail:455_93","osmType":"way","osmId":972889240,"sourceRegion":"guangzhou","featureType":"infrastructure","railClass":"metro","mode":"subway","name":"未命名","service":"yard","status":"operational","color":"#52636f","sourceKey":"way:972889240"}},{"type":"Feature","geometry":{"type":"LineString","coordinates":[[113.7611891,23.2764782],[113.7612592,23.2760493]]},"properties":{"key":"way:972889248@detail:455_93","osmType":"way","osmId":972889248,"sourceRegion":"guangzhou","featureType":"infrastructure","railClass":"metro","mode":"subway","name":"未命名","service":"yard","status":"operational","color":"#52636f","sourceKey":"way:972889248"}},{"type":"Feature","geometry":{"type":"LineString","coordinates":[[113.7612618,23.2756673],[113.7612822,23.2755351],[113.761302,23.275407]]},"properties":{"key":"way:972889249@detail:455_93","osmType":"way","osmId":972889249,"sourceRegion":"guangzhou","featureType":"infrastructure","railClass":"metro","mode":"subway","name":"未命名","service":"yard","status":"operational","color":"#52636f","sourceKey":"way:972889249"}},{"type":"Feature","geometry":{"type":"LineString","coordinates":[[113.7613015,23.275669],[113.7612822,23.2755351],[113.7612632,23.2754029]]},"properties":{"key":"way:972889250@detail:455_93","osmType":"way","osmId":972889250,"sourceRegion":"guangzhou","featureType":"infrastructure","railClass":"metro","mode":"subway","name":"未命名","service":"yard","status":"operational","color":"#52636f","sourceKey":"way:972889250"}},{"type":"Feature","geometry":{"type":"LineString","coordinates":[[113.8094004,23.2807282],[113.8086914,23.2810806]]},"properties":{"key":"way:983843869@detail:455_93","osmType":"way","osmId":983843869,"sourceRegion":"guangzhou","featureType":"infrastructure","railClass":"metro","mode":"subway","name":"广州地铁21号线","nameEn":"Guangzhou Metro Line 21","tunnel":"yes","status":"operational","color":"#52636f","sourceKey":"way:983843869"}},{"type":"Feature","geometry":{"type":"LineString","coordinates":[[113.8086116,23.2809456],[113.80932,23.2805914]]},"properties":{"key":"way:983843870@detail:455_93","osmType":"way","osmId":983843870,"sourceRegion":"guangzhou","featureType":"infrastructure","railClass":"metro","mode":"subway","name":"广州地铁21号线","nameEn":"Guangzhou Metro Line 21","tunnel":"yes","status":"operational","color":"#52636f","sourceKey":"way:983843870"}},{"type":"Feature","geometry":{"type":"MultiLineString","coordinates":[[[113.75,23.281820527823488],[113.7503333,23.281918],[113.7507246,23.2820366],[113.750922,23.2820973],[113.7513356,23.2822282],[113.7519499,23.2824246],[113.7530525,23.2827812],[113.7538414,23.2830341],[113.7543978,23.2832148],[113.7548603,23.2833639],[113.7550958,23.2834379],[113.7553103,23.2835033],[113.7554681,23.2835487],[113.7556072,23.2835876],[113.7557764,23.2836311],[113.7559333,23.2836673],[113.7560668,23.2836953],[113.7562344,23.2837237],[113.7563926,23.2837473],[113.7565388,23.283765],[113.7567007,23.2837809],[113.756871,23.2837954],[113.7570403,23.2838044],[113.7571841,23.2838098],[113.7573466,23.2838127],[113.7575214,23.2838135],[113.7577299,23.2838114],[113.7579434,23.2838045],[113.758159,23.2837949],[113.7583805,23.283783],[113.7586778,23.2837645],[113.7590107,23.2837429],[113.7610384,23.2836032],[113.7613,23.2835862],[113.7614762,23.2835765],[113.7616452,23.2835687],[113.7618363,23.2835603],[113.7620862,23.2835514],[113.7622583,23.2835456],[113.7624345,23.2835408],[113.7626449,23.2835372],[113.7629019,23.2835348],[113.7631597,23.2835336],[113.7633801,23.2835345],[113.7635679,23.2835355],[113.764444,23.2835475]],[[113.764444,23.2835475],[113.7649552,23.2835546],[113.7656087,23.2835646],[113.7672933,23.2835912]],[[113.7672933,23.2835912],[113.7676572,23.2835986],[113.7679987,23.2836061],[113.7684152,23.2836141],[113.7690484,23.2836238],[113.7695742,23.2836287],[113.7699626,23.2836328],[113.7702807,23.2836354],[113.7706521,23.2836381],[113.7709404,23.2836382],[113.7712181,23.2836384],[113.7715541,23.2836382],[113.7719917,23.2836369],[113.7724245,23.2836343],[113.772859,23.2836334],[113.773081,23.2836331],[113.7733121,23.2836334],[113.7735514,23.283634],[113.773943,23.2836382],[113.7765262,23.2836765],[113.7771267,23.2836805],[113.7776175,23.283681],[113.7780031,23.2836766],[113.7783459,23.2836682],[113.7786912,23.2836538],[113.7789534,23.283639],[113.7792319,23.2836209],[113.7795561,23.2835986],[113.7798593,23.2835727],[113.7801359,23.283544],[113.7804542,23.2835063],[113.7807748,23.2834639],[113.7810706,23.2834179],[113.7813385,23.2833733],[113.7816321,23.283316],[113.7818969,23.2832635],[113.7821963,23.2832014],[113.782485,23.2831366],[113.7827854,23.2830646],[113.7830838,23.28299],[113.7833707,23.2829163],[113.7836462,23.2828424],[113.7839127,23.2827693],[113.7841906,23.2826902],[113.7844418,23.2826155],[113.7848416,23.2824935],[113.7852441,23.2823664],[113.7861689,23.2820744],[113.7869157,23.2818377],[113.7876519,23.2816041],[113.7879281,23.2815164],[113.7881922,23.2814354],[113.7883868,23.2813762],[113.7885448,23.2813287],[113.788739,23.2812712],[113.7889338,23.2812149],[113.789125,23.2811611],[113.7892952,23.2811138],[113.7894678,23.2810669],[113.789599,23.2810334],[113.7897279,23.281],[113.7898587,23.2809674],[113.789977,23.2809391],[113.7900954,23.2809121],[113.7902231,23.280884],[113.79037,23.2808533],[113.7905239,23.2808239],[113.7906845,23.2807958],[113.7908753,23.2807642],[113.7910564,23.280737],[113.7912571,23.2807099],[113.7914372,23.2806899],[113.7916203,23.2806714],[113.7917989,23.2806544],[113.7919644,23.2806429],[113.7921688,23.2806334],[113.7923866,23.2806278],[113.7926303,23.2806254],[113.7928924,23.2806259],[113.7931678,23.2806327],[113.7934735,23.2806449],[113.7937819,23.2806635],[113.7940461,23.2806834],[113.7942863,23.2807042],[113.7945073,23.2807267],[113.7947061,23.2807504],[113.7949278,23.2807814],[113.7951534,23.2808174],[113.7953664,23.2808543],[113.7956299,23.2809004],[113.7959423,23.2809638],[113.7962536,23.2810295],[113.796553,23.2810999],[113.7968639,23.2811737],[113.797194,23.2812562],[113.7975481,23.2813495],[113.7978909,23.281441],[113.7982247,23.2815308],[113.7985767,23.2816307],[113.7988824,23.2817184],[113.7992007,23.2818076],[113.7995769,23.2819117],[113.7998373,23.2819826],[113.8001506,23.2820626],[113.8004475,23.2821384],[113.8007272,23.2822073],[113.8009834,23.2822693],[113.8012105,23.2823247],[113.801405,23.282371],[113.8016556,23.2824275],[113.8019052,23.2824823],[113.8026178,23.2826293],[113.8027797,23.2826607],[113.8029319,23.2826904],[113.8030753,23.2827176],[113.8032351,23.2827469],[113.8033823,23.2827704],[113.8035055,23.2827865],[113.8036526,23.2828027],[113.8037559,23.2828109],[113.8038565,23.2828147],[113.8040044,23.2828175],[113.8041654,23.2828172],[113.8042854,23.2828106],[113.8043923,23.2828013],[113.8045212,23.2827851],[113.8046492,23.282761],[113.8047838,23.2827299],[113.804925,23.28269],[113.8050525,23.2826498],[113.8051821,23.2826053],[113.805322,23.2825484],[113.8055417,23.2824567],[113.8057179,23.282376],[113.8058725,23.2823006],[113.8060447,23.2822138],[113.8062414,23.2821126],[113.8064065,23.2820288],[113.8065594,23.2819532],[113.8067607,23.2818556],[113.8069298,23.2817732],[113.8086116,23.2809456]]]},"properties":{"key":"relation:9171918@detail:455_93","osmType":"relation","osmId":9171918,"sourceRegion":"guangzhou","featureType":"service","railClass":"metro","mode":"subway","name":"地铁 21号线：天河公园 → 增城广场","nameEn":"Subway Line 21:Tianhe Park → Zengcheng Square","ref":"21","operator":"广州地铁集团有限公司","network":"广州地铁","status":"operational","color":"#201747","sourceKey":"relation:9171918"}},{"type":"Feature","geometry":{"type":"MultiLineString","coordinates":[[[113.75,23.281820527823488],[113.7503333,23.281918],[113.7507246,23.2820366],[113.750922,23.2820973],[113.7513356,23.2822282],[113.7519499,23.2824246],[113.7530525,23.2827812],[113.7538414,23.2830341],[113.7543978,23.2832148],[113.7548603,23.2833639],[113.7550958,23.2834379],[113.7553103,23.2835033],[113.7554681,23.2835487],[113.7556072,23.2835876],[113.7557764,23.2836311],[113.7559333,23.2836673],[113.7560668,23.2836953],[113.7562344,23.2837237],[113.7563926,23.2837473],[113.7565388,23.283765],[113.7567007,23.2837809],[113.756871,23.2837954],[113.7570403,23.2838044],[113.7571841,23.2838098],[113.7573466,23.2838127],[113.7575214,23.2838135],[113.7577299,23.2838114],[113.7579434,23.2838045],[113.758159,23.2837949],[113.7583805,23.283783],[113.7586778,23.2837645],[113.7590107,23.2837429],[113.7610384,23.2836032],[113.7613,23.2835862],[113.7614762,23.2835765],[113.7616452,23.2835687],[113.7618363,23.2835603],[113.7620862,23.2835514],[113.7622583,23.2835456],[113.7624345,23.2835408],[113.7626449,23.2835372],[113.7629019,23.2835348],[113.7631597,23.2835336],[113.7633801,23.2835345],[113.7635679,23.2835355],[113.764444,23.2835475]],[[113.764444,23.2835475],[113.7649552,23.2835546],[113.7656087,23.2835646],[113.7672933,23.2835912]],[[113.7672933,23.2835912],[113.7676572,23.2835986],[113.7679987,23.2836061],[113.7684152,23.2836141],[113.7690484,23.2836238],[113.7695742,23.2836287],[113.7699626,23.2836328],[113.7702807,23.2836354],[113.7706521,23.2836381],[113.7709404,23.2836382],[113.7712181,23.2836384],[113.7715541,23.2836382],[113.7719917,23.2836369],[113.7724245,23.2836343],[113.772859,23.2836334],[113.773081,23.2836331],[113.7733121,23.2836334],[113.7735514,23.283634],[113.773943,23.2836382],[113.7765262,23.2836765],[113.7771267,23.2836805],[113.7776175,23.283681],[113.7780031,23.2836766],[113.7783459,23.2836682],[113.7786912,23.2836538],[113.7789534,23.283639],[113.7792319,23.2836209],[113.7795561,23.2835986],[113.7798593,23.2835727],[113.7801359,23.283544],[113.7804542,23.2835063],[113.7807748,23.2834639],[113.7810706,23.2834179],[113.7813385,23.2833733],[113.7816321,23.283316],[113.7818969,23.2832635],[113.7821963,23.2832014],[113.782485,23.2831366],[113.7827854,23.2830646],[113.7830838,23.28299],[113.7833707,23.2829163],[113.7836462,23.2828424],[113.7839127,23.2827693],[113.7841906,23.2826902],[113.7844418,23.2826155],[113.7848416,23.2824935],[113.7852441,23.2823664],[113.7861689,23.2820744],[113.7869157,23.2818377],[113.7876519,23.2816041],[113.7879281,23.2815164],[113.7881922,23.2814354],[113.7883868,23.2813762],[113.7885448,23.2813287],[113.788739,23.2812712],[113.7889338,23.2812149],[113.789125,23.2811611],[113.7892952,23.2811138],[113.7894678,23.2810669],[113.789599,23.2810334],[113.7897279,23.281],[113.7898587,23.2809674],[113.789977,23.2809391],[113.7900954,23.2809121],[113.7902231,23.280884],[113.79037,23.2808533],[113.7905239,23.2808239],[113.7906845,23.2807958],[113.7908753,23.2807642],[113.7910564,23.280737],[113.7912571,23.2807099],[113.7914372,23.2806899],[113.7916203,23.2806714],[113.7917989,23.2806544],[113.7919644,23.2806429],[113.7921688,23.2806334],[113.7923866,23.2806278],[113.7926303,23.2806254],[113.7928924,23.2806259],[113.7931678,23.2806327],[113.7934735,23.2806449],[113.7937819,23.2806635],[113.7940461,23.2806834],[113.7942863,23.2807042],[113.7945073,23.2807267],[113.7947061,23.2807504],[113.7949278,23.2807814],[113.7951534,23.2808174],[113.7953664,23.2808543],[113.7956299,23.2809004],[113.7959423,23.2809638],[113.7962536,23.2810295],[113.796553,23.2810999],[113.7968639,23.2811737],[113.797194,23.2812562],[113.7975481,23.2813495],[113.7978909,23.281441],[113.7982247,23.2815308],[113.7985767,23.2816307],[113.7988824,23.2817184],[113.7992007,23.2818076],[113.7995769,23.2819117],[113.7998373,23.2819826],[113.8001506,23.2820626],[113.8004475,23.2821384],[113.8007272,23.2822073],[113.8009834,23.2822693],[113.8012105,23.2823247],[113.801405,23.282371],[113.8016556,23.2824275],[113.8019052,23.2824823],[113.8026178,23.2826293],[113.8027797,23.2826607],[113.8029319,23.2826904],[113.8030753,23.2827176],[113.8032351,23.2827469],[113.8033823,23.2827704],[113.8035055,23.2827865],[113.8036526,23.2828027],[113.8037559,23.2828109],[113.8038565,23.2828147],[113.8040044,23.2828175],[113.8041654,23.2828172],[113.8042854,23.2828106],[113.8043923,23.2828013],[113.8045212,23.2827851],[113.8046492,23.282761],[113.8047838,23.2827299],[113.804925,23.28269],[113.8050525,23.2826498],[113.8051821,23.2826053],[113.805322,23.2825484],[113.8055417,23.2824567],[113.8057179,23.282376],[113.8058725,23.2823006],[113.8060447,23.2822138],[113.8062414,23.2821126],[113.8064065,23.2820288],[113.8065594,23.2819532],[113.8067607,23.2818556],[113.8069298,23.2817732],[113.8086116,23.2809456]]]},"properties":{"key":"relation:9347613@detail:455_93","osmType":"relation","osmId":9347613,"sourceRegion":"guangzhou","featureType":"service","railClass":"metro","mode":"subway","name":"地铁 21号线快车：天河公园 → 增城广场","nameEn":"Subway Line 21 Express:Tianhe Park → Zengcheng Square","ref":"21","operator":"广州地铁集团有限公司","network":"广州地铁","status":"operational","color":"#201747","sourceKey":"relation:9347613"}},{"type":"Feature","geometry":{"type":"MultiLineString","coordinates":[[[113.8086914,23.2810806],[113.8079867,23.2814309],[113.8068391,23.2819915],[113.806663,23.2820757],[113.8064382,23.2821836],[113.8062645,23.2822653],[113.8060734,23.2823537],[113.8058917,23.2824368],[113.8057433,23.2825031],[113.8055966,23.2825642],[113.8054599,23.2826194],[113.8053485,23.2826625],[113.8052569,23.2826961],[113.805154,23.2827321],[113.8050137,23.282777],[113.804873,23.2828161],[113.804771,23.2828419],[113.8046751,23.2828619],[113.8045776,23.2828778],[113.8045064,23.2828881],[113.8044119,23.2829001],[113.8042894,23.2829118],[113.8041715,23.282917],[113.8040282,23.2829172],[113.8038821,23.2829141],[113.8037439,23.2829088],[113.8036484,23.2829017],[113.8035586,23.282893],[113.8034558,23.2828808],[113.8033658,23.2828684],[113.80327,23.2828533],[113.8031371,23.2828305],[113.8029774,23.2828023],[113.802806,23.2827709],[113.8025962,23.2827293],[113.801883,23.2825818],[113.8016212,23.2825246],[113.8013958,23.2824753],[113.8011705,23.2824224],[113.800942,23.2823691],[113.8007039,23.2823133],[113.8004624,23.2822583],[113.8002126,23.2821982],[113.7999416,23.2821312],[113.7996747,23.2820637],[113.7994267,23.2819984],[113.7991823,23.2819332],[113.7988346,23.2818366],[113.7985149,23.2817441],[113.7981884,23.2816525],[113.7977955,23.2815467],[113.7974903,23.2814648],[113.7971891,23.281387],[113.7968683,23.2813081],[113.7965382,23.2812309],[113.7962408,23.2811646],[113.7959325,23.2810968],[113.7956019,23.2810325],[113.795294,23.2809776],[113.795015,23.280933],[113.794794,23.2809009],[113.7945887,23.2808758],[113.794381,23.2808528],[113.7940788,23.2808234],[113.7937737,23.2807984],[113.7934402,23.2807771],[113.7931122,23.2807616],[113.7927788,23.2807557],[113.7924992,23.2807552],[113.7923392,23.2807568],[113.79216,23.2807622],[113.7919769,23.2807718],[113.7918349,23.2807815],[113.7916943,23.280793],[113.7915525,23.2808066],[113.791394,23.2808251],[113.7912348,23.2808451],[113.7910501,23.2808699],[113.7908556,23.2808962],[113.7906605,23.280928],[113.7905109,23.2809542],[113.7903455,23.2809861],[113.7901822,23.2810196],[113.7900092,23.281057],[113.7898139,23.2811021],[113.7896303,23.2811472],[113.7894263,23.2812009],[113.7892416,23.2812518],[113.7890706,23.2813009],[113.7888949,23.2813521],[113.7886751,23.2814168],[113.7884534,23.2814849],[113.788235,23.2815519],[113.7879725,23.2816342],[113.7876945,23.2817224],[113.7869605,23.2819555],[113.7862212,23.2821903],[113.7852861,23.2824878],[113.7850675,23.2825561],[113.7849021,23.2826064],[113.7847244,23.2826603],[113.7845464,23.2827128],[113.7843754,23.2827627],[113.7842102,23.2828102],[113.7840182,23.2828652],[113.7838307,23.2829184],[113.7836571,23.2829659],[113.7834614,23.2830177],[113.7832149,23.2830808],[113.7829533,23.2831459],[113.7826051,23.2832311],[113.7823264,23.2832966],[113.7820522,23.2833575],[113.7818443,23.2834007],[113.78165,23.2834389],[113.7814311,23.2834796],[113.7812047,23.2835177],[113.7809655,23.283555],[113.780696,23.2835947],[113.7804347,23.283629],[113.7801721,23.2836607],[113.7799194,23.2836877],[113.77969,23.2837088],[113.7794556,23.2837284],[113.7791982,23.2837499],[113.77894,23.2837651],[113.7787124,23.2837771],[113.778517,23.2837873],[113.778299,23.2837942],[113.7780854,23.2838007],[113.7778903,23.2838033],[113.7776764,23.2838052],[113.7774574,23.2838072],[113.7771644,23.2838085],[113.7768459,23.2838075],[113.7764666,23.2838028],[113.7760076,23.2837957],[113.7755994,23.2837889],[113.7751619,23.2837814],[113.7746241,23.2837733],[113.7740377,23.2837651],[113.7734713,23.2837555],[113.7728369,23.2837442],[113.7724507,23.283737],[113.7686305,23.2836633],[113.7683129,23.2836572],[113.7672941,23.2836354]],[[113.7672941,23.2836354],[113.7656183,23.2836046],[113.7649611,23.2835953],[113.764445,23.2835873]],[[113.764445,23.2835873],[113.7636582,23.2835774],[113.7633986,23.283575],[113.7631938,23.2835742],[113.7630217,23.2835743],[113.7628303,23.2835753],[113.7626535,23.2835782],[113.7624444,23.2835819],[113.7622515,23.2835867],[113.7620573,23.2835925],[113.7618648,23.2836001],[113.76167,23.2836085],[113.7614747,23.283619],[113.7612731,23.2836309],[113.7610419,23.283646],[113.7590305,23.2837884],[113.7588018,23.283804],[113.7585342,23.283821],[113.7582973,23.2838345],[113.7581182,23.2838436],[113.757944,23.2838516],[113.7577606,23.2838582],[113.7575193,23.283862],[113.7573419,23.2838623],[113.7571952,23.2838597],[113.7570337,23.2838539],[113.7568538,23.2838426],[113.7566839,23.2838287],[113.7564972,23.2838083],[113.7563197,23.2837851],[113.7561486,23.2837579],[113.7559994,23.28373],[113.7558451,23.2836952],[113.7556694,23.2836521],[113.7554855,23.2836007],[113.7552604,23.2835315],[113.7549667,23.2834391],[113.7547414,23.2833664],[113.7544772,23.2832826],[113.7541191,23.283168],[113.7534298,23.2829463],[113.7530462,23.2828231],[113.7519366,23.2824637],[113.7510643,23.2821867],[113.7506947,23.2820739],[113.7503797,23.2819786],[113.7500699,23.2818879],[113.75,23.281867643385134]]]},"properties":{"key":"relation:9347614@detail:455_93","osmType":"relation","osmId":9347614,"sourceRegion":"guangzhou","featureType":"service","railClass":"metro","mode":"subway","name":"地铁 21号线快车：增城广场 → 天河公园","nameEn":"Subway Line 21 Express:Zengcheng Square → Tianhe Park","ref":"21","operator":"广州地铁集团有限公司","network":"广州地铁","status":"operational","color":"#201747","sourceKey":"relation:9347614"}},{"type":"Feature","geometry":{"type":"MultiLineString","coordinates":[[[113.8086914,23.2810806],[113.8079867,23.2814309],[113.8068391,23.2819915],[113.806663,23.2820757],[113.8064382,23.2821836],[113.8062645,23.2822653],[113.8060734,23.2823537],[113.8058917,23.2824368],[113.8057433,23.2825031],[113.8055966,23.2825642],[113.8054599,23.2826194],[113.8053485,23.2826625],[113.8052569,23.2826961],[113.805154,23.2827321],[113.8050137,23.282777],[113.804873,23.2828161],[113.804771,23.2828419],[113.8046751,23.2828619],[113.8045776,23.2828778],[113.8045064,23.2828881],[113.8044119,23.2829001],[113.8042894,23.2829118],[113.8041715,23.282917],[113.8040282,23.2829172],[113.8038821,23.2829141],[113.8037439,23.2829088],[113.8036484,23.2829017],[113.8035586,23.282893],[113.8034558,23.2828808],[113.8033658,23.2828684],[113.80327,23.2828533],[113.8031371,23.2828305],[113.8029774,23.2828023],[113.802806,23.2827709],[113.8025962,23.2827293],[113.801883,23.2825818],[113.8016212,23.2825246],[113.8013958,23.2824753],[113.8011705,23.2824224],[113.800942,23.2823691],[113.8007039,23.2823133],[113.8004624,23.2822583],[113.8002126,23.2821982],[113.7999416,23.2821312],[113.7996747,23.2820637],[113.7994267,23.2819984],[113.7991823,23.2819332],[113.7988346,23.2818366],[113.7985149,23.2817441],[113.7981884,23.2816525],[113.7977955,23.2815467],[113.7974903,23.2814648],[113.7971891,23.281387],[113.7968683,23.2813081],[113.7965382,23.2812309],[113.7962408,23.2811646],[113.7959325,23.2810968],[113.7956019,23.2810325],[113.795294,23.2809776],[113.795015,23.280933],[113.794794,23.2809009],[113.7945887,23.2808758],[113.794381,23.2808528],[113.7940788,23.2808234],[113.7937737,23.2807984],[113.7934402,23.2807771],[113.7931122,23.2807616],[113.7927788,23.2807557],[113.7924992,23.2807552],[113.7923392,23.2807568],[113.79216,23.2807622],[113.7919769,23.2807718],[113.7918349,23.2807815],[113.7916943,23.280793],[113.7915525,23.2808066],[113.791394,23.2808251],[113.7912348,23.2808451],[113.7910501,23.2808699],[113.7908556,23.2808962],[113.7906605,23.280928],[113.7905109,23.2809542],[113.7903455,23.2809861],[113.7901822,23.2810196],[113.7900092,23.281057],[113.7898139,23.2811021],[113.7896303,23.2811472],[113.7894263,23.2812009],[113.7892416,23.2812518],[113.7890706,23.2813009],[113.7888949,23.2813521],[113.7886751,23.2814168],[113.7884534,23.2814849],[113.788235,23.2815519],[113.7879725,23.2816342],[113.7876945,23.2817224],[113.7869605,23.2819555],[113.7862212,23.2821903],[113.7852861,23.2824878],[113.7850675,23.2825561],[113.7849021,23.2826064],[113.7847244,23.2826603],[113.7845464,23.2827128],[113.7843754,23.2827627],[113.7842102,23.2828102],[113.7840182,23.2828652],[113.7838307,23.2829184],[113.7836571,23.2829659],[113.7834614,23.2830177],[113.7832149,23.2830808],[113.7829533,23.2831459],[113.7826051,23.2832311],[113.7823264,23.2832966],[113.7820522,23.2833575],[113.7818443,23.2834007],[113.78165,23.2834389],[113.7814311,23.2834796],[113.7812047,23.2835177],[113.7809655,23.283555],[113.780696,23.2835947],[113.7804347,23.283629],[113.7801721,23.2836607],[113.7799194,23.2836877],[113.77969,23.2837088],[113.7794556,23.2837284],[113.7791982,23.2837499],[113.77894,23.2837651],[113.7787124,23.2837771],[113.778517,23.2837873],[113.778299,23.2837942],[113.7780854,23.2838007],[113.7778903,23.2838033],[113.7776764,23.2838052],[113.7774574,23.2838072],[113.7771644,23.2838085],[113.7768459,23.2838075],[113.7764666,23.2838028],[113.7760076,23.2837957],[113.7755994,23.2837889],[113.7751619,23.2837814],[113.7746241,23.2837733],[113.7740377,23.2837651],[113.7734713,23.2837555],[113.7728369,23.2837442],[113.7724507,23.283737],[113.7686305,23.2836633],[113.7683129,23.2836572],[113.7672941,23.2836354]],[[113.7672941,23.2836354],[113.7656183,23.2836046],[113.7649611,23.2835953],[113.764445,23.2835873]],[[113.764445,23.2835873],[113.7636582,23.2835774],[113.7633986,23.283575],[113.7631938,23.2835742],[113.7630217,23.2835743],[113.7628303,23.2835753],[113.7626535,23.2835782],[113.7624444,23.2835819],[113.7622515,23.2835867],[113.7620573,23.2835925],[113.7618648,23.2836001],[113.76167,23.2836085],[113.7614747,23.283619],[113.7612731,23.2836309],[113.7610419,23.283646],[113.7590305,23.2837884],[113.7588018,23.283804],[113.7585342,23.283821],[113.7582973,23.2838345],[113.7581182,23.2838436],[113.757944,23.2838516],[113.7577606,23.2838582],[113.7575193,23.283862],[113.7573419,23.2838623],[113.7571952,23.2838597],[113.7570337,23.2838539],[113.7568538,23.2838426],[113.7566839,23.2838287],[113.7564972,23.2838083],[113.7563197,23.2837851],[113.7561486,23.2837579],[113.7559994,23.28373],[113.7558451,23.2836952],[113.7556694,23.2836521],[113.7554855,23.2836007],[113.7552604,23.2835315],[113.7549667,23.2834391],[113.7547414,23.2833664],[113.7544772,23.2832826],[113.7541191,23.283168],[113.7534298,23.2829463],[113.7530462,23.2828231],[113.7519366,23.2824637],[113.7510643,23.2821867],[113.7506947,23.2820739],[113.7503797,23.2819786],[113.7500699,23.2818879],[113.75,23.281867643385134]]]},"properties":{"key":"relation:9349489@detail:455_93","osmType":"relation","osmId":9349489,"sourceRegion":"guangzhou","featureType":"service","railClass":"metro","mode":"subway","name":"地铁 21号线：增城广场 → 天河公园","nameEn":"Subway Line 21:Zengcheng Square → Tianhe Park","ref":"21","operator":"广州地铁集团有限公司","network":"广州地铁","status":"operational","color":"#201747","sourceKey":"relation:9349489"}},{"type":"Feature","geometry":{"type":"Point","coordinates":[113.7869605,23.2819555]},"properties":{"key":"node:5692978474","osmType":"node","osmId":5692978474,"sourceRegion":"guangdong","featureType":"station","railClass":"metro","mode":"stop","name":"钟岗","nameEn":"Zhonggang","ref":"2120","operator":"广州地铁集团有限公司","status":"operational","color":"#3387c8","dataOrigin":"datum-2026-08-01","sourceKey":"node:5692978474","stationGroup":"钟岗","hasOperationalRail":true,"hasConstructionRail":false}},{"type":"Feature","geometry":{"type":"Point","coordinates":[113.7869157,23.2818377]},"properties":{"key":"node:5692978477","osmType":"node","osmId":5692978477,"sourceRegion":"guangdong","featureType":"station","railClass":"metro","mode":"stop","name":"钟岗","nameEn":"Zhonggang","ref":"2120","operator":"广州地铁集团有限公司","status":"operational","color":"#3387c8","dataOrigin":"datum-2026-08-01","sourceKey":"node:5692978477","stationGroup":"钟岗","hasOperationalRail":true,"hasConstructionRail":false}},{"type":"Feature","geometry":{"type":"Point","coordinates":[113.8086914,23.2810806]},"properties":{"key":"node:5694107528","osmType":"node","osmId":5694107528,"sourceRegion":"guangdong","featureType":"station","railClass":"metro","mode":"stop","name":"增城广场","nameEn":"Zengcheng Square","ref":"2121","operator":"广州地铁集团有限公司","status":"operational","color":"#201747","dataOrigin":"datum-2026-08-01","sourceKey":"node:5694107528","stationGroup":"增城广场","hasOperationalRail":true,"hasConstructionRail":false}},{"type":"Feature","geometry":{"type":"Point","coordinates":[113.8086116,23.2809456]},"properties":{"key":"node:5694107533","osmType":"node","osmId":5694107533,"sourceRegion":"guangdong","featureType":"station","railClass":"metro","mode":"stop","name":"增城广场","nameEn":"Zengcheng Square","ref":"2121","operator":"广州地铁集团有限公司","status":"operational","color":"#201747","dataOrigin":"datum-2026-08-01","sourceKey":"node:5694107533","stationGroup":"增城广场","hasOperationalRail":true,"hasConstructionRail":false}}]}