{"type":"FeatureCollection","features":[{"type":"Feature","geometry":{"type":"Point","coordinates":[114.1675119,22.2478643]},"properties":{"key":"node:9824199724","osmType":"node","osmId":9824199724,"sourceRegion":"hongkong","featureType":"station","railClass":"metro","mode":"subway","name":"黃竹坑","nameEn":"Wong Chuk Hang","ref":"WCH","operator":"香港鐵路有限公司 MTR Corporation","network":"MTR","status":"operational","color":"#126d75","sourceKey":"node:9824199724","stationGroup":"黃竹坑","hasOperationalRail":true,"hasConstructionRail":false}},{"type":"Feature","geometry":{"type":"LineString","coordinates":[[114.1590018,22.244647],[114.1587399,22.2444752],[114.1584487,22.2443202],[114.1582649,22.2442152],[114.1580934,22.2440768],[114.1579227,22.2438943],[114.1577575,22.2436577],[114.1575637,22.243376],[114.157374,22.2431142],[114.1571869,22.2428928],[114.1570424,22.2427314],[114.1568995,22.2425845],[114.1563438,22.2420843],[114.1561054,22.2418706],[114.155867,22.2416568],[114.1546753,22.2406037],[114.1545295,22.2404961],[114.154334,22.2403825],[114.1541214,22.2402971],[114.1538637,22.2402307],[114.1535854,22.2401836],[114.153303,22.2401612],[114.1529946,22.2401692],[114.1526537,22.2402125],[114.1516089,22.2403748],[114.1513219,22.2404463],[114.1510854,22.2405271],[114.1508411,22.2406278],[114.1506242,22.2407473]]},"properties":{"key":"way:207444225@detail:456_88","osmType":"way","osmId":207444225,"sourceRegion":"hongkong","featureType":"infrastructure","railClass":"metro","mode":"subway","name":"港鐵南港島綫","nameEn":"MTR South Island Line","operator":"香港鐵路有限公司 MTR Corporation","network":"MTR","tunnel":"yes","status":"operational","color":"#52636f","sourceKey":"way:207444225"}},{"type":"Feature","geometry":{"type":"LineString","coordinates":[[114.1729161,22.2482187],[114.1727225,22.2482296],[114.1725804,22.2482433],[114.1723949,22.248267],[114.1718403,22.2483209],[114.1715826,22.24834],[114.1713834,22.2483559],[114.1711198,22.2483636],[114.1708982,22.2483615]]},"properties":{"key":"way:207444238@detail:456_88","osmType":"way","osmId":207444238,"sourceRegion":"hongkong","featureType":"infrastructure","railClass":"metro","mode":"subway","name":"港鐵南港島綫","nameEn":"MTR South Island Line","operator":"香港鐵路有限公司 MTR Corporation","network":"MTR","bridge":"viaduct","status":"operational","color":"#52636f","sourceKey":"way:207444238"}},{"type":"Feature","geometry":{"type":"LineString","coordinates":[[114.1506945,22.2408444],[114.1508992,22.2407316],[114.1511329,22.2406354],[114.1513602,22.2405577],[114.1516358,22.240489],[114.1526727,22.2403279],[114.153005,22.2402858],[114.1532993,22.2402781],[114.1535686,22.2402995],[114.1538354,22.2403446],[114.1540792,22.2404075],[114.1542751,22.2404861],[114.1544557,22.2405911],[114.1545886,22.2406918],[114.1557785,22.2417414],[114.1560169,22.2419551],[114.1562553,22.2421689],[114.156811,22.2426673],[114.1569486,22.2428033],[114.1570857,22.2429574],[114.1572142,22.2431072],[114.1572761,22.2431793],[114.1574649,22.2434366],[114.1576654,22.2437036],[114.1578542,22.2439337],[114.1580563,22.2441286],[114.1582273,22.2442549],[114.1584306,22.2443646],[114.1587133,22.2445111],[114.1589793,22.2446748]]},"properties":{"key":"way:391176763@detail:456_88","osmType":"way","osmId":391176763,"sourceRegion":"hongkong","featureType":"infrastructure","railClass":"metro","mode":"subway","name":"港鐵南港島綫","nameEn":"MTR South Island Line","operator":"香港鐵路有限公司 MTR Corporation","network":"MTR","tunnel":"yes","status":"operational","color":"#52636f","sourceKey":"way:391176763"}},{"type":"Feature","geometry":{"type":"LineString","coordinates":[[114.1692539,22.2483116],[114.1697261,22.2483847],[114.1702771,22.2484532],[114.1704837,22.2484734],[114.1706879,22.2484844],[114.1708984,22.2484909],[114.1711484,22.2484836],[114.1713928,22.2484696],[114.1716184,22.2484464],[114.1718553,22.2484196],[114.1724058,22.2483499],[114.172734,22.2483113],[114.1729282,22.2482903]]},"properties":{"key":"way:391176770@detail:456_88","osmType":"way","osmId":391176770,"sourceRegion":"hongkong","featureType":"infrastructure","railClass":"metro","mode":"subway","name":"港鐵南港島綫","nameEn":"MTR South Island Line","operator":"香港鐵路有限公司 MTR Corporation","network":"MTR","bridge":"viaduct","status":"operational","color":"#52636f","sourceKey":"way:391176770"}},{"type":"Feature","geometry":{"type":"LineString","coordinates":[[114.1490003,22.2426718],[114.1491929,22.2424128]]},"properties":{"key":"way:462254350@detail:456_88","osmType":"way","osmId":462254350,"sourceRegion":"hongkong","featureType":"infrastructure","railClass":"metro","mode":"subway","name":"港鐵南港島綫","nameEn":"MTR South Island Line","operator":"香港鐵路有限公司 MTR Corporation","network":"MTR","tunnel":"yes","status":"operational","color":"#52636f","sourceKey":"way:462254350"}},{"type":"Feature","geometry":{"type":"LineString","coordinates":[[114.1708982,22.2483615],[114.1706918,22.2483534],[114.1704954,22.2483383],[114.1699396,22.2482768],[114.1697491,22.2482543],[114.1692882,22.2481762]]},"properties":{"key":"way:462266216@detail:456_88","osmType":"way","osmId":462266216,"sourceRegion":"hongkong","featureType":"infrastructure","railClass":"metro","mode":"subway","name":"港鐵南港島綫","nameEn":"MTR South Island Line","operator":"香港鐵路有限公司 MTR Corporation","network":"MTR","bridge":"viaduct","status":"operational","color":"#52636f","sourceKey":"way:462266216"}},{"type":"Feature","geometry":{"type":"LineString","coordinates":[[114.1668292,22.2476694],[114.1666889,22.2476406],[114.1665312,22.247611],[114.1662267,22.2475526],[114.1658926,22.2474782],[114.1657458,22.2474403],[114.1656134,22.2474163],[114.1654457,22.247393],[114.1652947,22.2473796],[114.1651301,22.2473707],[114.1629245,22.2472818],[114.162706,22.2472553],[114.1625246,22.2472287],[114.1623142,22.2471775],[114.1621312,22.2471159],[114.1619225,22.2470395],[114.1617147,22.2469501],[114.161518,22.2468454],[114.1613038,22.2467106],[114.1611341,22.2465789],[114.1609595,22.2464432],[114.1608029,22.2462937],[114.1607307,22.2462246],[114.1595318,22.2450838],[114.1593554,22.2449173],[114.1591661,22.2447661],[114.1590018,22.244647]]},"properties":{"key":"way:462266217@detail:456_88","osmType":"way","osmId":462266217,"sourceRegion":"hongkong","featureType":"infrastructure","railClass":"metro","mode":"subway","name":"港鐵南港島綫","nameEn":"MTR South Island Line","operator":"香港鐵路有限公司 MTR Corporation Limited","network":"港鐵 MTR","bridge":"viaduct","status":"operational","color":"#52636f","sourceKey":"way:462266217"}},{"type":"Feature","geometry":{"type":"LineString","coordinates":[[114.1693021,22.248033],[114.1694704,22.2481432],[114.1696487,22.248228],[114.1697553,22.2482773],[114.1699001,22.2483262],[114.170081,22.2483689],[114.1702783,22.2484148]]},"properties":{"key":"way:462266218@detail:456_88","osmType":"way","osmId":462266218,"sourceRegion":"hongkong","featureType":"infrastructure","railClass":"metro","mode":"subway","name":"港鐵南港島綫","nameEn":"MTR South Island Line","operator":"香港鐵路有限公司 MTR Corporation","network":"MTR","bridge":"viaduct","status":"operational","color":"#52636f","sourceKey":"way:462266218"}},{"type":"Feature","geometry":{"type":"LineString","coordinates":[[114.1692701,22.2480881],[114.1694457,22.2481792],[114.1696254,22.2482624],[114.1697392,22.2483111],[114.1698896,22.2483649],[114.1700675,22.2484049],[114.1702771,22.2484532]]},"properties":{"key":"way:462266219@detail:456_88","osmType":"way","osmId":462266219,"sourceRegion":"hongkong","featureType":"infrastructure","railClass":"metro","mode":"subway","name":"港鐵南港島綫","nameEn":"MTR South Island Line","operator":"香港鐵路有限公司 MTR Corporation","network":"MTR","bridge":"viaduct","status":"operational","color":"#52636f","sourceKey":"way:462266219"}},{"type":"Feature","geometry":{"type":"LineString","coordinates":[[114.172079,22.2483498],[114.1722123,22.2483225],[114.1723963,22.2482846],[114.1725804,22.2482433]]},"properties":{"key":"way:462266220@detail:456_88","osmType":"way","osmId":462266220,"sourceRegion":"hongkong","featureType":"infrastructure","railClass":"metro","mode":"subway","name":"港鐵南港島綫","nameEn":"MTR South Island Line","operator":"香港鐵路有限公司 MTR Corporation","network":"MTR","bridge":"viaduct","status":"operational","color":"#52636f","sourceKey":"way:462266220"}},{"type":"Feature","geometry":{"type":"LineString","coordinates":[[114.1727255,22.2482711],[114.1725864,22.2482845],[114.172403,22.2483068],[114.172079,22.2483498],[114.1718503,22.2483796],[114.171617,22.2484047],[114.1713874,22.2484293],[114.1711438,22.2484409],[114.170891,22.248451],[114.1706964,22.2484453],[114.1704873,22.2484341],[114.1702783,22.2484148],[114.1698896,22.2483649],[114.169733,22.2483467],[114.1692677,22.2482544]]},"properties":{"key":"way:462266221@detail:456_88","osmType":"way","osmId":462266221,"sourceRegion":"hongkong","featureType":"infrastructure","railClass":"metro","mode":"subway","name":"港鐵南港島綫","nameEn":"MTR South Island Line","operator":"香港鐵路有限公司 MTR Corporation","network":"MTR","bridge":"viaduct","status":"operational","color":"#52636f","sourceKey":"way:462266221"}},{"type":"Feature","geometry":{"type":"LineString","coordinates":[[114.1718503,22.2483796],[114.1719991,22.2483736],[114.1722653,22.2483561],[114.1724058,22.2483499]]},"properties":{"key":"way:463463740@detail:456_88","osmType":"way","osmId":463463740,"sourceRegion":"hongkong","featureType":"infrastructure","railClass":"metro","mode":"subway","name":"港鐵南港島綫","nameEn":"MTR South Island Line","operator":"香港鐵路有限公司 MTR Corporation","network":"MTR","bridge":"viaduct","status":"operational","color":"#52636f","sourceKey":"way:463463740"}},{"type":"Feature","geometry":{"type":"LineString","coordinates":[[114.1491929,22.2424128],[114.1493854,22.2421538],[114.1494651,22.2420461]]},"properties":{"key":"way:464744844@detail:456_88","osmType":"way","osmId":464744844,"sourceRegion":"hongkong","featureType":"infrastructure","railClass":"metro","mode":"subway","name":"港鐵南港島綫","nameEn":"MTR South Island Line","operator":"香港鐵路有限公司 MTR Corporation","network":"MTR","tunnel":"yes","status":"operational","color":"#52636f","sourceKey":"way:464744844"}},{"type":"Feature","geometry":{"type":"LineString","coordinates":[[114.1497155,22.2415358],[114.1496589,22.2416362],[114.1495977,22.2417777],[114.1495362,22.2419298],[114.1494651,22.2420461]]},"properties":{"key":"way:464744845@detail:456_88","osmType":"way","osmId":464744845,"sourceRegion":"hongkong","featureType":"infrastructure","railClass":"metro","mode":"subway","name":"港鐵南港島綫","nameEn":"MTR South Island Line","operator":"香港鐵路有限公司 MTR Corporation","network":"MTR","tunnel":"yes","status":"operational","color":"#52636f","sourceKey":"way:464744845"}},{"type":"Feature","geometry":{"type":"LineString","coordinates":[[114.1493617,22.2419792],[114.1494509,22.2418907],[114.1495977,22.2417777],[114.1497305,22.241679],[114.1498144,22.2416084]]},"properties":{"key":"way:464744846@detail:456_88","osmType":"way","osmId":464744846,"sourceRegion":"hongkong","featureType":"infrastructure","railClass":"metro","mode":"subway","name":"港鐵南港島綫","nameEn":"MTR South Island Line","operator":"香港鐵路有限公司 MTR Corporation","network":"MTR","tunnel":"yes","status":"operational","color":"#52636f","sourceKey":"way:464744846"}},{"type":"Feature","geometry":{"type":"LineString","coordinates":[[114.1494651,22.2420461],[114.1495923,22.2418832],[114.1498144,22.2416084]]},"properties":{"key":"way:464744847@detail:456_88","osmType":"way","osmId":464744847,"sourceRegion":"hongkong","featureType":"infrastructure","railClass":"metro","mode":"subway","name":"港鐵南港島綫","nameEn":"MTR South Island Line","operator":"香港鐵路有限公司 MTR Corporation","network":"MTR","tunnel":"yes","status":"operational","color":"#52636f","sourceKey":"way:464744847"}},{"type":"Feature","geometry":{"type":"LineString","coordinates":[[114.1493617,22.2419792],[114.1492816,22.2420876],[114.149089,22.2423467]]},"properties":{"key":"way:464744848@detail:456_88","osmType":"way","osmId":464744848,"sourceRegion":"hongkong","featureType":"infrastructure","railClass":"metro","mode":"subway","name":"港鐵南港島綫","nameEn":"MTR South Island Line","operator":"香港鐵路有限公司 MTR Corporation","network":"MTR","tunnel":"yes","status":"operational","color":"#52636f","sourceKey":"way:464744848"}},{"type":"Feature","geometry":{"type":"LineString","coordinates":[[114.1497155,22.2415358],[114.1494902,22.2418146],[114.1493617,22.2419792]]},"properties":{"key":"way:464744849@detail:456_88","osmType":"way","osmId":464744849,"sourceRegion":"hongkong","featureType":"infrastructure","railClass":"metro","mode":"subway","name":"港鐵南港島綫","nameEn":"MTR South Island Line","operator":"香港鐵路有限公司 MTR Corporation","network":"MTR","tunnel":"yes","status":"operational","color":"#52636f","sourceKey":"way:464744849"}},{"type":"Feature","geometry":{"type":"LineString","coordinates":[[114.149089,22.2423467],[114.1488965,22.2426057],[114.1488768,22.2426322]]},"properties":{"key":"way:464744850@detail:456_88","osmType":"way","osmId":464744850,"sourceRegion":"hongkong","featureType":"infrastructure","railClass":"metro","mode":"subway","name":"港鐵南港島綫","nameEn":"MTR South Island Line","operator":"香港鐵路有限公司 MTR Corporation","network":"MTR","tunnel":"yes","status":"operational","color":"#52636f","sourceKey":"way:464744850"}},{"type":"Feature","geometry":{"type":"LineString","coordinates":[[114.1498144,22.2416084],[114.1500232,22.2413783],[114.1502249,22.241191],[114.1504606,22.2410071],[114.1506945,22.2408444]]},"properties":{"key":"way:467769731@detail:456_88","osmType":"way","osmId":467769731,"sourceRegion":"hongkong","featureType":"infrastructure","railClass":"metro","mode":"subway","name":"港鐵南港島綫","nameEn":"MTR South Island Line","operator":"香港鐵路有限公司 MTR Corporation","network":"MTR","tunnel":"yes","status":"operational","color":"#52636f","sourceKey":"way:467769731"}},{"type":"Feature","geometry":{"type":"LineString","coordinates":[[114.1506242,22.2407473],[114.150382,22.2409157],[114.1501394,22.241105],[114.14993,22.2412994],[114.1497155,22.2415358]]},"properties":{"key":"way:467769732@detail:456_88","osmType":"way","osmId":467769732,"sourceRegion":"hongkong","featureType":"infrastructure","railClass":"metro","mode":"subway","name":"港鐵南港島綫","nameEn":"MTR South Island Line","operator":"香港鐵路有限公司 MTR Corporation","network":"MTR","tunnel":"yes","status":"operational","color":"#52636f","sourceKey":"way:467769732"}},{"type":"Feature","geometry":{"type":"LineString","coordinates":[[114.1692677,22.2482544],[114.1691246,22.2482183],[114.1689257,22.2481608],[114.1686006,22.2480659],[114.1683544,22.2480001]]},"properties":{"key":"way:648423542@detail:456_88","osmType":"way","osmId":648423542,"sourceRegion":"hongkong","featureType":"infrastructure","railClass":"metro","mode":"subway","name":"港鐵南港島綫","nameEn":"MTR South Island Line","operator":"香港鐵路有限公司 MTR Corporation","network":"MTR","bridge":"yes","status":"operational","color":"#52636f","sourceKey":"way:648423542"}},{"type":"Feature","geometry":{"type":"LineString","coordinates":[[114.1749447,22.2489567],[114.1749172,22.248944],[114.174374,22.2486575],[114.174025,22.2484734],[114.1738919,22.2484103],[114.1738154,22.2483787]]},"properties":{"key":"way:648423543@detail:456_88","osmType":"way","osmId":648423543,"sourceRegion":"hongkong","featureType":"infrastructure","railClass":"metro","mode":"subway","name":"港鐵南港島綫","nameEn":"MTR South Island Line","operator":"香港鐵路有限公司 MTR Corporation","network":"MTR","bridge":"yes","status":"operational","color":"#52636f","sourceKey":"way:648423543"}},{"type":"Feature","geometry":{"type":"LineString","coordinates":[[114.17623481348313,22.25],[114.1761259,22.2498894],[114.1759102,22.2496865],[114.1755101,22.2493245],[114.1753789,22.2492251],[114.1752339,22.2491224],[114.1750936,22.2490378],[114.1749447,22.2489567]]},"properties":{"key":"way:648423544@detail:456_88","osmType":"way","osmId":648423544,"sourceRegion":"hongkong","featureType":"infrastructure","railClass":"metro","mode":"subway","name":"港鐵南港島綫","nameEn":"MTR South Island Line","operator":"香港鐵路有限公司 MTR Corporation","network":"MTR","bridge":"viaduct","status":"operational","color":"#52636f","sourceKey":"way:648423544"}},{"type":"Feature","geometry":{"type":"LineString","coordinates":[[114.1749187,22.2489952],[114.1750689,22.2490738],[114.175209,22.2491617],[114.1753427,22.249254],[114.1754781,22.249361],[114.1759011,22.2497427],[114.1760926,22.249925],[114.1761669897929,22.25]]},"properties":{"key":"way:648423545@detail:456_88","osmType":"way","osmId":648423545,"sourceRegion":"hongkong","featureType":"infrastructure","railClass":"metro","mode":"subway","name":"港鐵南港島綫","nameEn":"MTR South Island Line","operator":"香港鐵路有限公司 MTR Corporation","network":"MTR","bridge":"viaduct","status":"operational","color":"#52636f","sourceKey":"way:648423545"}},{"type":"Feature","geometry":{"type":"LineString","coordinates":[[114.1737926,22.2484177],[114.1738689,22.2484488],[114.174007,22.2485122],[114.1743534,22.2486937],[114.1748937,22.2489809],[114.1749187,22.2489952]]},"properties":{"key":"way:648423546@detail:456_88","osmType":"way","osmId":648423546,"sourceRegion":"hongkong","featureType":"infrastructure","railClass":"metro","mode":"subway","name":"港鐵南港島綫","nameEn":"MTR South Island Line","operator":"香港鐵路有限公司 MTR Corporation","network":"MTR","bridge":"yes","status":"operational","color":"#52636f","sourceKey":"way:648423546"}},{"type":"Feature","geometry":{"type":"LineString","coordinates":[[114.1692882,22.2481762],[114.1689202,22.2481103]]},"properties":{"key":"way:648423547@detail:456_88","osmType":"way","osmId":648423547,"sourceRegion":"hongkong","featureType":"infrastructure","railClass":"metro","mode":"subway","name":"港鐵南港島綫","nameEn":"MTR South Island Line","operator":"香港鐵路有限公司 MTR Corporation","network":"MTR","bridge":"yes","status":"operational","color":"#52636f","sourceKey":"way:648423547"}},{"type":"Feature","geometry":{"type":"LineString","coordinates":[[114.1668015,22.2477933],[114.1671417,22.2478678],[114.1674908,22.2479464],[114.1683102,22.2481233],[114.1687665,22.2482207],[114.1692539,22.2483116]]},"properties":{"key":"way:648423548@detail:456_88","osmType":"way","osmId":648423548,"sourceRegion":"hongkong","featureType":"infrastructure","railClass":"metro","mode":"subway","name":"港鐵南港島綫","nameEn":"MTR South Island Line","operator":"香港鐵路有限公司 MTR Corporation","network":"MTR","bridge":"yes","status":"operational","color":"#52636f","sourceKey":"way:648423548"}},{"type":"Feature","geometry":{"type":"LineString","coordinates":[[114.1589793,22.2446748],[114.1591421,22.244797],[114.1593293,22.2449449],[114.1595071,22.2451091],[114.1607044,22.24625],[114.1607713,22.2463172],[114.1609291,22.2464684],[114.1611028,22.2466122],[114.1612825,22.246745],[114.1614866,22.2468763],[114.1616933,22.2469909],[114.1619003,22.2470827],[114.1621093,22.2471577],[114.1623007,22.2472182],[114.1625056,22.247268],[114.1626983,22.2472979],[114.1629175,22.247321],[114.1651257,22.2474186],[114.1652874,22.2474262],[114.1654396,22.2474391],[114.1656041,22.2474649],[114.165737,22.2474905],[114.1658828,22.2475259],[114.1662087,22.2476241],[114.1664959,22.2477127],[114.1666481,22.2477565],[114.1668015,22.2477933]]},"properties":{"key":"way:648423549@detail:456_88","osmType":"way","osmId":648423549,"sourceRegion":"hongkong","featureType":"infrastructure","railClass":"metro","mode":"subway","name":"港鐵南港島綫","nameEn":"MTR South Island Line","operator":"香港鐵路有限公司 MTR Corporation Limited","network":"港鐵 MTR","bridge":"viaduct","status":"operational","color":"#52636f","sourceKey":"way:648423549"}},{"type":"Feature","geometry":{"type":"LineString","coordinates":[[114.1689202,22.2481103],[114.1683544,22.2480001],[114.1675268,22.2478225],[114.1668292,22.2476694]]},"properties":{"key":"way:648423550@detail:456_88","osmType":"way","osmId":648423550,"sourceRegion":"hongkong","featureType":"infrastructure","railClass":"metro","mode":"subway","name":"港鐵南港島綫","nameEn":"MTR South Island Line","operator":"香港鐵路有限公司 MTR Corporation","network":"MTR","bridge":"yes","status":"operational","color":"#52636f","sourceKey":"way:648423550"}},{"type":"Feature","geometry":{"type":"LineString","coordinates":[[114.1738154,22.2483787],[114.1736462,22.2483153],[114.1734763,22.2482646],[114.173284,22.2482321],[114.1731018,22.2482191],[114.1729161,22.2482187]]},"properties":{"key":"way:783532370@detail:456_88","osmType":"way","osmId":783532370,"sourceRegion":"hongkong","featureType":"infrastructure","railClass":"metro","mode":"subway","name":"港鐵南港島綫","nameEn":"MTR South Island Line","operator":"香港鐵路有限公司 MTR Corporation","network":"MTR","bridge":"viaduct","status":"operational","color":"#52636f","sourceKey":"way:783532370"}},{"type":"Feature","geometry":{"type":"LineString","coordinates":[[114.1729282,22.2482903],[114.1730829,22.2482894],[114.1732702,22.248297],[114.1734553,22.248316],[114.1736263,22.2483554],[114.1737926,22.2484177]]},"properties":{"key":"way:783532371@detail:456_88","osmType":"way","osmId":783532371,"sourceRegion":"hongkong","featureType":"infrastructure","railClass":"metro","mode":"subway","name":"港鐵南港島綫","nameEn":"MTR South Island Line","operator":"香港鐵路有限公司 MTR Corporation","network":"MTR","bridge":"viaduct","status":"operational","color":"#52636f","sourceKey":"way:783532371"}},{"type":"Feature","geometry":{"type":"LineString","coordinates":[[114.1476742,22.2092112],[114.1475127,22.2094058]]},"properties":{"key":"way:1245590870@detail:456_88","osmType":"way","osmId":1245590870,"sourceRegion":"hongkong","featureType":"infrastructure","railClass":"tram","mode":"tram","name":"未命名","status":"operational","color":"#8d5ac7","sourceKey":"way:1245590870"}},{"type":"Feature","geometry":{"type":"MultiLineString","coordinates":[[[114.1740601,22.2484766],[114.1740871,22.248432],[114.1747337,22.248767],[114.1747067,22.2488116],[114.1740601,22.2484766]],[[114.1671465,22.2478123],[114.1678636,22.2479679],[114.1678741,22.2479267],[114.1671569,22.247771],[114.1671465,22.2478123]],[[114.1562996,22.2421266],[114.1563332,22.2420944],[114.1558564,22.241667],[114.1558228,22.2416991],[114.1559877,22.2418469],[114.156223,22.242058],[114.1562996,22.2421266]],[[114.1489089,22.2426136],[114.1489482,22.2426387],[114.1493334,22.2421206],[114.1492941,22.2420956],[114.1489089,22.2426136]],[[114.17623481348313,22.25],[114.1761259,22.2498894],[114.1759102,22.2496865],[114.1755101,22.2493245],[114.1753789,22.2492251],[114.1752339,22.2491224],[114.1750936,22.2490378],[114.1749447,22.2489567]],[[114.1749447,22.2489567],[114.1749172,22.248944],[114.174374,22.2486575],[114.174025,22.2484734],[114.1738919,22.2484103],[114.1738154,22.2483787]],[[114.1738154,22.2483787],[114.1736462,22.2483153],[114.1734763,22.2482646],[114.173284,22.2482321],[114.1731018,22.2482191],[114.1729161,22.2482187]],[[114.1729161,22.2482187],[114.1727225,22.2482296],[114.1725804,22.2482433],[114.1723949,22.248267],[114.1718403,22.2483209],[114.1715826,22.24834],[114.1713834,22.2483559],[114.1711198,22.2483636],[114.1708982,22.2483615]],[[114.1708982,22.2483615],[114.1706918,22.2483534],[114.1704954,22.2483383],[114.1699396,22.2482768],[114.1697491,22.2482543],[114.1692882,22.2481762]],[[114.1692882,22.2481762],[114.1689202,22.2481103]],[[114.1689202,22.2481103],[114.1683544,22.2480001],[114.1675268,22.2478225],[114.1668292,22.2476694]],[[114.1668292,22.2476694],[114.1666889,22.2476406],[114.1665312,22.247611],[114.1662267,22.2475526],[114.1658926,22.2474782],[114.1657458,22.2474403],[114.1656134,22.2474163],[114.1654457,22.247393],[114.1652947,22.2473796],[114.1651301,22.2473707],[114.1629245,22.2472818],[114.162706,22.2472553],[114.1625246,22.2472287],[114.1623142,22.2471775],[114.1621312,22.2471159],[114.1619225,22.2470395],[114.1617147,22.2469501],[114.161518,22.2468454],[114.1613038,22.2467106],[114.1611341,22.2465789],[114.1609595,22.2464432],[114.1608029,22.2462937],[114.1607307,22.2462246],[114.1595318,22.2450838],[114.1593554,22.2449173],[114.1591661,22.2447661],[114.1590018,22.244647]],[[114.1590018,22.244647],[114.1587399,22.2444752],[114.1584487,22.2443202],[114.1582649,22.2442152],[114.1580934,22.2440768],[114.1579227,22.2438943],[114.1577575,22.2436577],[114.1575637,22.243376],[114.157374,22.2431142],[114.1571869,22.2428928],[114.1570424,22.2427314],[114.1568995,22.2425845],[114.1563438,22.2420843],[114.1561054,22.2418706],[114.155867,22.2416568],[114.1546753,22.2406037],[114.1545295,22.2404961],[114.154334,22.2403825],[114.1541214,22.2402971],[114.1538637,22.2402307],[114.1535854,22.2401836],[114.153303,22.2401612],[114.1529946,22.2401692],[114.1526537,22.2402125],[114.1516089,22.2403748],[114.1513219,22.2404463],[114.1510854,22.2405271],[114.1508411,22.2406278],[114.1506242,22.2407473]],[[114.1506242,22.2407473],[114.150382,22.2409157],[114.1501394,22.241105],[114.14993,22.2412994],[114.1497155,22.2415358]],[[114.1497155,22.2415358],[114.1494902,22.2418146],[114.1493617,22.2419792]],[[114.1493617,22.2419792],[114.1492816,22.2420876],[114.149089,22.2423467]]]},"properties":{"key":"relation:6827211@detail:456_88","osmType":"relation","osmId":6827211,"sourceRegion":"hongkong","featureType":"service","railClass":"metro","mode":"subway","name":"南港島綫（金鐘 → 海怡半島）","nameEn":"South Island Line (Admiralty → South Horizons)","ref":"SIL","operator":"香港鐵路有限公司 MTR Corporation","network":"港鐵 MTR","status":"operational","color":"#B6BD00","sourceKey":"relation:6827211"}},{"type":"Feature","geometry":{"type":"MultiLineString","coordinates":[[[114.1489482,22.2426387],[114.1489877,22.2426638],[114.1493728,22.2421457],[114.1493334,22.2421206],[114.1489482,22.2426387]],[[114.1562659,22.2421587],[114.1562996,22.2421266],[114.156223,22.242058],[114.1559877,22.2418469],[114.1558228,22.2416991],[114.1557891,22.2417313],[114.1562659,22.2421587]],[[114.167136,22.2478535],[114.1678532,22.2480091],[114.1678636,22.2479679],[114.1671465,22.2478123],[114.167136,22.2478535]],[[114.1739931,22.2485943],[114.1740231,22.2485449],[114.1746689,22.2488815],[114.1746388,22.2489309],[114.1739931,22.2485943]],[[114.1491929,22.2424128],[114.1493854,22.2421538],[114.1494651,22.2420461]],[[114.1494651,22.2420461],[114.1495923,22.2418832],[114.1498144,22.2416084]],[[114.1498144,22.2416084],[114.1500232,22.2413783],[114.1502249,22.241191],[114.1504606,22.2410071],[114.1506945,22.2408444]],[[114.1506945,22.2408444],[114.1508992,22.2407316],[114.1511329,22.2406354],[114.1513602,22.2405577],[114.1516358,22.240489],[114.1526727,22.2403279],[114.153005,22.2402858],[114.1532993,22.2402781],[114.1535686,22.2402995],[114.1538354,22.2403446],[114.1540792,22.2404075],[114.1542751,22.2404861],[114.1544557,22.2405911],[114.1545886,22.2406918],[114.1557785,22.2417414],[114.1560169,22.2419551],[114.1562553,22.2421689],[114.156811,22.2426673],[114.1569486,22.2428033],[114.1570857,22.2429574],[114.1572142,22.2431072],[114.1572761,22.2431793],[114.1574649,22.2434366],[114.1576654,22.2437036],[114.1578542,22.2439337],[114.1580563,22.2441286],[114.1582273,22.2442549],[114.1584306,22.2443646],[114.1587133,22.2445111],[114.1589793,22.2446748]],[[114.1589793,22.2446748],[114.1591421,22.244797],[114.1593293,22.2449449],[114.1595071,22.2451091],[114.1607044,22.24625],[114.1607713,22.2463172],[114.1609291,22.2464684],[114.1611028,22.2466122],[114.1612825,22.246745],[114.1614866,22.2468763],[114.1616933,22.2469909],[114.1619003,22.2470827],[114.1621093,22.2471577],[114.1623007,22.2472182],[114.1625056,22.247268],[114.1626983,22.2472979],[114.1629175,22.247321],[114.1651257,22.2474186],[114.1652874,22.2474262],[114.1654396,22.2474391],[114.1656041,22.2474649],[114.165737,22.2474905],[114.1658828,22.2475259],[114.1662087,22.2476241],[114.1664959,22.2477127],[114.1666481,22.2477565],[114.1668015,22.2477933]],[[114.1668015,22.2477933],[114.1671417,22.2478678],[114.1674908,22.2479464],[114.1683102,22.2481233],[114.1687665,22.2482207],[114.1692539,22.2483116]],[[114.1692539,22.2483116],[114.1697261,22.2483847],[114.1702771,22.2484532],[114.1704837,22.2484734],[114.1706879,22.2484844],[114.1708984,22.2484909],[114.1711484,22.2484836],[114.1713928,22.2484696],[114.1716184,22.2484464],[114.1718553,22.2484196],[114.1724058,22.2483499],[114.172734,22.2483113],[114.1729282,22.2482903]],[[114.1729282,22.2482903],[114.1730829,22.2482894],[114.1732702,22.248297],[114.1734553,22.248316],[114.1736263,22.2483554],[114.1737926,22.2484177]],[[114.1737926,22.2484177],[114.1738689,22.2484488],[114.174007,22.2485122],[114.1743534,22.2486937],[114.1748937,22.2489809],[114.1749187,22.2489952]],[[114.1749187,22.2489952],[114.1750689,22.2490738],[114.175209,22.2491617],[114.1753427,22.249254],[114.1754781,22.249361],[114.1759011,22.2497427],[114.1760926,22.249925],[114.1761669897929,22.25]]]},"properties":{"key":"relation:6827212@detail:456_88","osmType":"relation","osmId":6827212,"sourceRegion":"hongkong","featureType":"service","railClass":"metro","mode":"subway","name":"南港島綫（海怡半島 → 金鐘）","nameEn":"South Island Line (South Horizons → Admiralty)","ref":"SIL","operator":"香港鐵路有限公司 MTR Corporation","network":"港鐵 MTR","status":"operational","color":"#B6BD00","sourceKey":"relation:6827212"}},{"type":"Feature","geometry":{"type":"Point","coordinates":[114.1758249,22.2453002]},"properties":{"key":"node:1070003266","osmType":"node","osmId":1070003266,"sourceRegion":"guangdong","featureType":"station","railClass":"minor","mode":"stop","name":"海濱","nameEn":"Waterfront","status":"operational","color":"#52636F","dataOrigin":"datum-2026-08-01","sourceKey":"node:1070003266","stationGroup":"海濱","hasOperationalRail":true,"hasConstructionRail":false}},{"type":"Feature","geometry":{"type":"Point","coordinates":[114.1709773,22.2349925]},"properties":{"key":"node:1070003294","osmType":"node","osmId":1070003294,"sourceRegion":"guangdong","featureType":"station","railClass":"minor","mode":"stop","name":"高峰","nameEn":"Summit","status":"operational","color":"#52636F","dataOrigin":"datum-2026-08-01","sourceKey":"node:1070003294","stationGroup":"高峰","hasOperationalRail":true,"hasConstructionRail":false}},{"type":"Feature","geometry":{"type":"Point","coordinates":[114.174374,22.2486575]},"properties":{"key":"node:2176979623","osmType":"node","osmId":2176979623,"sourceRegion":"guangdong","featureType":"station","railClass":"metro","mode":"stop","name":"海洋公園","nameEn":"Ocean Park","ref":"OCP","status":"operational","color":"#3387c8","dataOrigin":"datum-2026-08-01","sourceKey":"node:2176979623","stationGroup":"海洋公園","hasOperationalRail":true,"hasConstructionRail":false}},{"type":"Feature","geometry":{"type":"Point","coordinates":[114.1675268,22.2478225]},"properties":{"key":"node:2176979857","osmType":"node","osmId":2176979857,"sourceRegion":"guangdong","featureType":"station","railClass":"metro","mode":"stop","name":"黃竹坑","nameEn":"Wong Chuk Hang","ref":"WCH","status":"operational","color":"#3387c8","dataOrigin":"datum-2026-08-01","sourceKey":"node:2176979857","stationGroup":"黃竹坑","hasOperationalRail":true,"hasConstructionRail":false}},{"type":"Feature","geometry":{"type":"Point","coordinates":[114.1561054,22.2418706]},"properties":{"key":"node:2176980003","osmType":"node","osmId":2176980003,"sourceRegion":"guangdong","featureType":"station","railClass":"metro","mode":"stop","name":"利東","nameEn":"Lei Tung","ref":"LET","status":"operational","color":"#e7822f","dataOrigin":"datum-2026-08-01","sourceKey":"node:2176980003","stationGroup":"利東","hasOperationalRail":true,"hasConstructionRail":false}},{"type":"Feature","geometry":{"type":"Point","coordinates":[114.1674908,22.2479464]},"properties":{"key":"node:3778450149","osmType":"node","osmId":3778450149,"sourceRegion":"guangdong","featureType":"station","railClass":"metro","mode":"stop","name":"黃竹坑","nameEn":"Wong Chuk Hang","ref":"WCH","status":"operational","color":"#3387c8","dataOrigin":"datum-2026-08-01","sourceKey":"node:3778450149","stationGroup":"黃竹坑","hasOperationalRail":true,"hasConstructionRail":false}},{"type":"Feature","geometry":{"type":"Point","coordinates":[114.1560169,22.2419551]},"properties":{"key":"node:3943626058","osmType":"node","osmId":3943626058,"sourceRegion":"guangdong","featureType":"station","railClass":"metro","mode":"stop","name":"利東","nameEn":"Lei Tung","ref":"LET","status":"operational","color":"#e7822f","dataOrigin":"datum-2026-08-01","sourceKey":"node:3943626058","stationGroup":"利東","hasOperationalRail":true,"hasConstructionRail":false}},{"type":"Feature","geometry":{"type":"Point","coordinates":[114.1743534,22.2486937]},"properties":{"key":"node:3943626059","osmType":"node","osmId":3943626059,"sourceRegion":"guangdong","featureType":"station","railClass":"metro","mode":"stop","name":"海洋公園","nameEn":"Ocean Park","ref":"OCP","status":"operational","color":"#3387c8","dataOrigin":"datum-2026-08-01","sourceKey":"node:3943626059","stationGroup":"海洋公園","hasOperationalRail":true,"hasConstructionRail":false}},{"type":"Feature","geometry":{"type":"Point","coordinates":[114.149089,22.2423467]},"properties":{"key":"node:3943626060","osmType":"node","osmId":3943626060,"sourceRegion":"guangdong","featureType":"station","railClass":"metro","mode":"stop","name":"海怡半島","nameEn":"South Horizons","ref":"SOH","status":"operational","color":"#3387c8","dataOrigin":"datum-2026-08-01","sourceKey":"node:3943626060","stationGroup":"海怡半島","hasOperationalRail":true,"hasConstructionRail":false}},{"type":"Feature","geometry":{"type":"Point","coordinates":[114.1491929,22.2424128]},"properties":{"key":"node:3943626061","osmType":"node","osmId":3943626061,"sourceRegion":"guangdong","featureType":"station","railClass":"metro","mode":"stop","name":"海怡半島","nameEn":"South Horizons","ref":"SOH","status":"operational","color":"#3387c8","dataOrigin":"datum-2026-08-01","sourceKey":"node:3943626061","stationGroup":"海怡半島","hasOperationalRail":true,"hasConstructionRail":false}},{"type":"Feature","geometry":{"type":"Point","coordinates":[114.1770567,22.2449266]},"properties":{"key":"node:6862792592","osmType":"node","osmId":6862792592,"sourceRegion":"guangdong","featureType":"station","railClass":"minor","mode":"stop","name":"未命名","status":"operational","color":"#52636F","dataOrigin":"datum-2026-08-01","sourceKey":"node:6862792592","stationGroup":"","hasOperationalRail":true,"hasConstructionRail":false}},{"type":"Feature","geometry":{"type":"LineString","coordinates":[[114.17591,22.2454781],[114.1758249,22.2453002],[114.1741859,22.2418147],[114.1738891,22.2411835]]},"properties":{"key":"way:92167201@detail:456_88","osmType":"way","osmId":92167201,"sourceRegion":"guangdong","featureType":"infrastructure","railClass":"light_rail","mode":"funicular","name":"海洋列車","nameEn":"Ocean Express","usage":"branch","tunnel":"yes","status":"operational","color":"#C94F8C","dataOrigin":"datum-2026-08-01","sourceKey":"way:92167201"}},{"type":"Feature","geometry":{"type":"LineString","coordinates":[[114.1731387,22.2395879],[114.1732203,22.2399281],[114.1736654,22.2408874],[114.1738891,22.2411835]]},"properties":{"key":"way:250700764@detail:456_88","osmType":"way","osmId":250700764,"sourceRegion":"guangdong","featureType":"infrastructure","railClass":"light_rail","mode":"funicular","name":"海洋列車","nameEn":"Ocean Express","usage":"branch","tunnel":"yes","status":"operational","color":"#C94F8C","dataOrigin":"datum-2026-08-01","sourceKey":"way:250700764"}},{"type":"Feature","geometry":{"type":"LineString","coordinates":[[114.1738891,22.2411835],[114.1738098,22.2408383],[114.1733614,22.239872],[114.1731387,22.2395879]]},"properties":{"key":"way:250700765@detail:456_88","osmType":"way","osmId":250700765,"sourceRegion":"guangdong","featureType":"infrastructure","railClass":"light_rail","mode":"funicular","name":"海洋列車","nameEn":"Ocean Express","usage":"branch","tunnel":"yes","status":"operational","color":"#C94F8C","dataOrigin":"datum-2026-08-01","sourceKey":"way:250700765"}},{"type":"Feature","geometry":{"type":"LineString","coordinates":[[114.1731387,22.2395879],[114.1709773,22.2349925],[114.1708042,22.234621]]},"properties":{"key":"way:250700766@detail:456_88","osmType":"way","osmId":250700766,"sourceRegion":"guangdong","featureType":"infrastructure","railClass":"light_rail","mode":"funicular","name":"海洋列車","nameEn":"Ocean Express","usage":"branch","tunnel":"yes","status":"operational","color":"#C94F8C","dataOrigin":"datum-2026-08-01","sourceKey":"way:250700766"}},{"type":"Feature","geometry":{"type":"LineString","coordinates":[[114.1678457,22.248089],[114.1667881,22.2478532],[114.1663835,22.2477606],[114.1655023,22.2475975],[114.1628955,22.2474086],[114.162589,22.2473945],[114.1622874,22.2473971],[114.1620162,22.2474219],[114.1617402,22.2474716],[114.1614997,22.247548],[114.1605529,22.2480774],[114.1602364,22.2481953],[114.1598797,22.2482636],[114.1595122,22.2483046],[114.1590804,22.2482909]]},"properties":{"key":"way:648423551@detail:456_88","osmType":"way","osmId":648423551,"sourceRegion":"guangdong","featureType":"infrastructure","railClass":"metro","mode":"proposed","name":"港鐵南港島綫（西段）","nameEn":"MTR South Island Line (West)","operator":"香港鐵路有限公司 MTR Corporation","network":"MTR","bridge":"viaduct","status":"operational","color":"#52a458","dataOrigin":"datum-2026-08-01","sourceKey":"way:648423551"}},{"type":"Feature","geometry":{"type":"LineString","coordinates":[[114.1590804,22.2482909],[114.1542095,22.2480553],[114.1538608,22.2479992],[114.1535497,22.2479421],[114.1531835,22.2479396],[114.152926,22.2479748],[114.1515659,22.2483393],[114.1506207,22.2485926],[114.1502164,22.2487434],[114.1500682,22.2487986],[114.1497007,22.2490419],[114.14836300161124,22.25]]},"properties":{"key":"way:648423554@detail:456_88","osmType":"way","osmId":648423554,"sourceRegion":"guangdong","featureType":"infrastructure","railClass":"metro","mode":"proposed","name":"港鐵南港島綫（西段）","nameEn":"MTR South Island Line (West)","operator":"香港鐵路有限公司 MTR Corporation","network":"MTR","bridge":"yes","status":"operational","color":"#d94c4c","dataOrigin":"datum-2026-08-01","sourceKey":"way:648423554"}},{"type":"Feature","geometry":{"type":"LineString","coordinates":[[114.1771838,22.2451015],[114.1771494,22.2450893],[114.1771345,22.2450656],[114.1771372,22.2449812],[114.1771774,22.2449291],[114.1771479,22.244867],[114.1771157,22.2448621],[114.1770728,22.2448844],[114.1770567,22.2449266],[114.1770479,22.2449717],[114.1770537,22.2449967],[114.1770771,22.2450183],[114.1771228,22.2451119],[114.1771513,22.2451415],[114.1771686,22.24516],[114.1771961,22.245156],[114.1772135,22.24514],[114.1772092,22.2451141],[114.1771838,22.2451015]]},"properties":{"key":"way:732893671@detail:456_88","osmType":"way","osmId":732893671,"sourceRegion":"guangdong","featureType":"infrastructure","railClass":"minor","mode":"miniature","name":"未命名","status":"operational","color":"#52636F","dataOrigin":"datum-2026-08-01","sourceKey":"way:732893671"}},{"type":"Feature","geometry":{"type":"MultiLineString","coordinates":[[[114.17591,22.2454781],[114.1758249,22.2453002],[114.1741859,22.2418147],[114.1738891,22.2411835]],[[114.1738891,22.2411835],[114.1738098,22.2408383],[114.1733614,22.239872],[114.1731387,22.2395879]],[[114.1731387,22.2395879],[114.1732203,22.2399281],[114.1736654,22.2408874],[114.1738891,22.2411835]],[[114.1731387,22.2395879],[114.1709773,22.2349925],[114.1708042,22.234621]]]},"properties":{"key":"relation:3366719@detail:456_88","osmType":"relation","osmId":3366719,"sourceRegion":"guangdong","featureType":"service","railClass":"light_rail","mode":"funicular","name":"海洋列車","nameEn":"Ocean Express","status":"operational","color":"#c94f8c","dataOrigin":"datum-2026-08-01","sourceKey":"relation:3366719"}}]}