{"type":"FeatureCollection","features":[{"type":"Feature","geometry":{"type":"Point","coordinates":[114.0706364,24.9690478]},"properties":{"key":"node:2531823889","osmType":"node","osmId":2531823889,"sourceRegion":"guangdong","featureType":"station","railClass":"minor","mode":"station","name":"始兴","nameEn":"Shixing","status":"operational","color":"#52636F","dataOrigin":"datum-2026-08-01","sourceKey":"node:2531823889","stationGroup":"始兴","hasOperationalRail":true,"hasConstructionRail":false}},{"type":"Feature","geometry":{"type":"LineString","coordinates":[[114.0107829,24.9721702],[114.0080181,24.9740979],[114.0053863,24.9757785],[114.0032194,24.9768119]]},"properties":{"key":"way:208749998@detail:456_99","osmType":"way","osmId":208749998,"sourceRegion":"guangdong","featureType":"infrastructure","railClass":"national","mode":"rail","name":"赣韶线","ref":"0069","usage":"main","status":"operational","color":"#E54848","dataOrigin":"datum-2026-08-01","sourceKey":"way:208749998"}},{"type":"Feature","geometry":{"type":"LineString","coordinates":[[114.021677,24.9671179],[114.020216,24.967479],[114.0175724,24.9685085],[114.0162245,24.9691009],[114.0144133,24.9699762],[114.012621,24.9710081],[114.0107829,24.9721702]]},"properties":{"key":"way:246100743@detail:456_99","osmType":"way","osmId":246100743,"sourceRegion":"guangdong","featureType":"infrastructure","railClass":"national","mode":"rail","name":"赣韶线","ref":"0069","usage":"main","status":"operational","color":"#E54848","dataOrigin":"datum-2026-08-01","sourceKey":"way:246100743"}},{"type":"Feature","geometry":{"type":"LineString","coordinates":[[114.0995574,24.9794065],[114.1017803,24.9815544],[114.1030934,24.9827048],[114.105683,24.9844536],[114.1082213,24.9858101],[114.1127209,24.9877861],[114.1194178,24.9903674],[114.1220071,24.9914313],[114.1250106,24.9925174],[114.1287815,24.9940407],[114.1309823,24.9950846],[114.1321414,24.9957295],[114.1345549,24.9972521],[114.1369245,24.9990938],[114.1380637780867,25.0]]},"properties":{"key":"way:246102285@detail:456_99","osmType":"way","osmId":246102285,"sourceRegion":"guangdong","featureType":"infrastructure","railClass":"national","mode":"rail","name":"赣韶线","ref":"0069","usage":"main","status":"operational","color":"#E54848","dataOrigin":"datum-2026-08-01","sourceKey":"way:246102285"}},{"type":"Feature","geometry":{"type":"LineString","coordinates":[[114.000807,24.9778239],[114.0,24.978122370178678]]},"properties":{"key":"way:314244131@detail:456_99","osmType":"way","osmId":314244131,"sourceRegion":"guangdong","featureType":"infrastructure","railClass":"national","mode":"rail","name":"赣韶线","ref":"0069","usage":"main","tunnel":"yes","status":"operational","color":"#E54848","dataOrigin":"datum-2026-08-01","sourceKey":"way:314244131"}},{"type":"Feature","geometry":{"type":"LineString","coordinates":[[114.0010179,24.9777459],[114.000807,24.9778239]]},"properties":{"key":"way:314244135@detail:456_99","osmType":"way","osmId":314244135,"sourceRegion":"guangdong","featureType":"infrastructure","railClass":"national","mode":"rail","name":"赣韶线","ref":"0069","usage":"main","status":"operational","color":"#E54848","dataOrigin":"datum-2026-08-01","sourceKey":"way:314244135"}},{"type":"Feature","geometry":{"type":"LineString","coordinates":[[114.0032194,24.9768119],[114.0021011,24.9773452],[114.0010179,24.9777459]]},"properties":{"key":"way:314244150@detail:456_99","osmType":"way","osmId":314244150,"sourceRegion":"guangdong","featureType":"infrastructure","railClass":"national","mode":"rail","name":"赣韶线","ref":"0069","usage":"main","bridge":"yes","status":"operational","color":"#E54848","dataOrigin":"datum-2026-08-01","sourceKey":"way:314244150"}},{"type":"Feature","geometry":{"type":"LineString","coordinates":[[114.0669317,24.9693073],[114.0674615,24.9697583],[114.0679443,24.9700015],[114.0682769,24.9701182],[114.0703797,24.9704099]]},"properties":{"key":"way:689100588@detail:456_99","osmType":"way","osmId":689100588,"sourceRegion":"guangdong","featureType":"infrastructure","railClass":"minor","mode":"rail","name":"未命名","service":"yard","status":"operational","color":"#52636F","dataOrigin":"datum-2026-08-01","sourceKey":"way:689100588"}},{"type":"Feature","geometry":{"type":"LineString","coordinates":[[114.0618849,24.9684901],[114.0629052,24.9684733],[114.0633589,24.9684949],[114.0650367,24.9686942],[114.0657811,24.9687973],[114.0662059,24.9689136],[114.0665603,24.9690775],[114.0669317,24.9693073],[114.0672362,24.9694957],[114.067719,24.9696902],[114.0682983,24.9698264],[114.0704656,24.970089]]},"properties":{"key":"way:689100590@detail:456_99","osmType":"way","osmId":689100590,"sourceRegion":"guangdong","featureType":"infrastructure","railClass":"minor","mode":"rail","name":"未命名","service":"yard","status":"operational","color":"#52636F","dataOrigin":"datum-2026-08-01","sourceKey":"way:689100590"}},{"type":"Feature","geometry":{"type":"LineString","coordinates":[[114.0801532,24.97052],[114.0807276,24.9705918]]},"properties":{"key":"way:689100593@detail:456_99","osmType":"way","osmId":689100593,"sourceRegion":"guangdong","featureType":"infrastructure","railClass":"national","mode":"rail","name":"赣韶线","ref":"0069","usage":"main","bridge":"yes","status":"operational","color":"#E54848","dataOrigin":"datum-2026-08-01","sourceKey":"way:689100593"}},{"type":"Feature","geometry":{"type":"LineString","coordinates":[[114.021677,24.9671179],[114.0249431,24.9663931],[114.0260351,24.9662019],[114.0274107,24.9660624],[114.0298891,24.9659165],[114.0313971,24.9658411],[114.0325686,24.9658459]]},"properties":{"key":"way:689100595@detail:456_99","osmType":"way","osmId":689100595,"sourceRegion":"guangdong","featureType":"infrastructure","railClass":"national","mode":"rail","name":"赣韶线","ref":"0069","usage":"main","bridge":"viaduct","status":"operational","color":"#E54848","dataOrigin":"datum-2026-08-01","sourceKey":"way:689100595"}},{"type":"Feature","geometry":{"type":"LineString","coordinates":[[114.0616559,24.9682387],[114.0647925,24.9686285],[114.0656385,24.9687351],[114.0660036,24.9687798],[114.0666173,24.9688549],[114.0688393,24.9691268],[114.073269,24.9696634],[114.0765215,24.9700978],[114.0772608,24.9701746],[114.0801532,24.97052]]},"properties":{"key":"way:689102719@detail:456_99","osmType":"way","osmId":689102719,"sourceRegion":"guangdong","featureType":"infrastructure","railClass":"national","mode":"rail","name":"赣韶线","ref":"0069","usage":"main","status":"operational","color":"#E54848","dataOrigin":"datum-2026-08-01","sourceKey":"way:689102719"}},{"type":"Feature","geometry":{"type":"LineString","coordinates":[[114.0613066,24.9681952],[114.0616559,24.9682387]]},"properties":{"key":"way:689102720@detail:456_99","osmType":"way","osmId":689102720,"sourceRegion":"guangdong","featureType":"infrastructure","railClass":"national","mode":"rail","name":"赣韶线","ref":"0069","usage":"main","bridge":"yes","status":"operational","color":"#E54848","dataOrigin":"datum-2026-08-01","sourceKey":"way:689102720"}},{"type":"Feature","geometry":{"type":"LineString","coordinates":[[114.0325686,24.9658459],[114.0386545,24.9660619],[114.047319,24.9666056],[114.056119,24.9675505],[114.0613066,24.9681952]]},"properties":{"key":"way:689102721@detail:456_99","osmType":"way","osmId":689102721,"sourceRegion":"guangdong","featureType":"infrastructure","railClass":"national","mode":"rail","name":"赣韶线","ref":"0069","usage":"main","status":"operational","color":"#E54848","dataOrigin":"datum-2026-08-01","sourceKey":"way:689102721"}},{"type":"Feature","geometry":{"type":"LineString","coordinates":[[114.0884658,24.9722494],[114.0906895,24.9730893],[114.0918272,24.9736984]]},"properties":{"key":"way:894970443@detail:456_99","osmType":"way","osmId":894970443,"sourceRegion":"guangdong","featureType":"infrastructure","railClass":"national","mode":"rail","name":"赣韶线","ref":"0069","usage":"main","bridge":"yes","status":"operational","color":"#E54848","dataOrigin":"datum-2026-08-01","sourceKey":"way:894970443"}},{"type":"Feature","geometry":{"type":"LineString","coordinates":[[114.0807276,24.9705918],[114.0840683,24.9710097],[114.0856683,24.9713777],[114.0871865,24.9718105],[114.0884658,24.9722494]]},"properties":{"key":"way:894970444@detail:456_99","osmType":"way","osmId":894970444,"sourceRegion":"guangdong","featureType":"infrastructure","railClass":"national","mode":"rail","name":"赣韶线","ref":"0069","usage":"main","status":"operational","color":"#E54848","dataOrigin":"datum-2026-08-01","sourceKey":"way:894970444"}},{"type":"Feature","geometry":{"type":"LineString","coordinates":[[114.0978719,24.9778132],[114.0995574,24.9794065]]},"properties":{"key":"way:977835264@detail:456_99","osmType":"way","osmId":977835264,"sourceRegion":"guangdong","featureType":"infrastructure","railClass":"national","mode":"rail","name":"赣韶线","ref":"0069","usage":"main","bridge":"yes","status":"operational","color":"#E54848","dataOrigin":"datum-2026-08-01","sourceKey":"way:977835264"}},{"type":"Feature","geometry":{"type":"LineString","coordinates":[[114.0918272,24.9736984],[114.0923011,24.9739521],[114.0951538,24.9757357],[114.0975454,24.9775046],[114.0978719,24.9778132]]},"properties":{"key":"way:977835265@detail:456_99","osmType":"way","osmId":977835265,"sourceRegion":"guangdong","featureType":"infrastructure","railClass":"national","mode":"rail","name":"赣韶线","ref":"0069","usage":"main","status":"operational","color":"#E54848","dataOrigin":"datum-2026-08-01","sourceKey":"way:977835265"}},{"type":"Feature","geometry":{"type":"LineString","coordinates":[[114.0657811,24.9687973],[114.0673255,24.9689774],[114.0688341,24.9691654],[114.0732657,24.9697006],[114.075662,24.970017],[114.0766638,24.9701453]]},"properties":{"key":"way:1354203773@detail:456_99","osmType":"way","osmId":1354203773,"sourceRegion":"guangdong","featureType":"infrastructure","railClass":"minor","mode":"rail","name":"未命名","service":"siding","status":"operational","color":"#52636F","dataOrigin":"datum-2026-08-01","sourceKey":"way:1354203773"}},{"type":"Feature","geometry":{"type":"LineString","coordinates":[[114.0765292,24.9700532],[114.0756775,24.9698958],[114.0732802,24.9695863],[114.0688544,24.9690523],[114.0677396,24.9689222],[114.0670699,24.9688765]]},"properties":{"key":"way:1354203774@detail:456_99","osmType":"way","osmId":1354203774,"sourceRegion":"guangdong","featureType":"infrastructure","railClass":"minor","mode":"rail","name":"未命名","service":"siding","status":"operational","color":"#52636F","dataOrigin":"datum-2026-08-01","sourceKey":"way:1354203774"}},{"type":"Feature","geometry":{"type":"LineString","coordinates":[[114.0772608,24.9701746],[114.0765292,24.9700532],[114.0732733,24.9696283],[114.0688469,24.9690918],[114.0670699,24.9688765],[114.0667244,24.9688342],[114.065723,24.9687116]]},"properties":{"key":"way:1354203775@detail:456_99","osmType":"way","osmId":1354203775,"sourceRegion":"guangdong","featureType":"infrastructure","railClass":"minor","mode":"rail","name":"未命名","service":"siding","status":"operational","color":"#52636F","dataOrigin":"datum-2026-08-01","sourceKey":"way:1354203775"}},{"type":"Feature","geometry":{"type":"LineString","coordinates":[[114.0656385,24.9687351],[114.0650367,24.9686942]]},"properties":{"key":"way:1354203776@detail:456_99","osmType":"way","osmId":1354203776,"sourceRegion":"guangdong","featureType":"infrastructure","railClass":"minor","mode":"rail","name":"未命名","service":"crossover","status":"operational","color":"#52636F","dataOrigin":"datum-2026-08-01","sourceKey":"way:1354203776"}},{"type":"Feature","geometry":{"type":"LineString","coordinates":[[114.0667244,24.9688342],[114.0660036,24.9687798]]},"properties":{"key":"way:1354203777@detail:456_99","osmType":"way","osmId":1354203777,"sourceRegion":"guangdong","featureType":"infrastructure","railClass":"minor","mode":"rail","name":"未命名","service":"crossover","status":"operational","color":"#52636F","dataOrigin":"datum-2026-08-01","sourceKey":"way:1354203777"}},{"type":"Feature","geometry":{"type":"LineString","coordinates":[[114.0673255,24.9689774],[114.0666173,24.9688549]]},"properties":{"key":"way:1354203778@detail:456_99","osmType":"way","osmId":1354203778,"sourceRegion":"guangdong","featureType":"infrastructure","railClass":"minor","mode":"rail","name":"未命名","service":"crossover","status":"operational","color":"#52636F","dataOrigin":"datum-2026-08-01","sourceKey":"way:1354203778"}},{"type":"Feature","geometry":{"type":"LineString","coordinates":[[114.075662,24.970017],[114.0765215,24.9700978]]},"properties":{"key":"way:1354203779@detail:456_99","osmType":"way","osmId":1354203779,"sourceRegion":"guangdong","featureType":"infrastructure","railClass":"minor","mode":"rail","name":"未命名","service":"crossover","status":"operational","color":"#52636F","dataOrigin":"datum-2026-08-01","sourceKey":"way:1354203779"}}]}