{"type":"FeatureCollection","features":[{"type":"Feature","geometry":{"type":"Point","coordinates":[114.182999,25.0298055]},"properties":{"key":"node:3797726343","osmType":"node","osmId":3797726343,"sourceRegion":"guangdong","featureType":"station","railClass":"minor","mode":"station","name":"马市","nameEn":"Mashi","status":"operational","color":"#52636F","dataOrigin":"datum-2026-08-01","sourceKey":"node:3797726343","stationGroup":"马市","hasOperationalRail":true,"hasConstructionRail":false}},{"type":"Feature","geometry":{"type":"Point","coordinates":[114.2422743,25.0683167]},"properties":{"key":"node:3797730465","osmType":"node","osmId":3797730465,"sourceRegion":"guangdong","featureType":"station","railClass":"minor","mode":"station","name":"古市","nameEn":"Gushi","status":"operational","color":"#52636F","dataOrigin":"datum-2026-08-01","sourceKey":"node:3797730465","stationGroup":"古市","hasOperationalRail":true,"hasConstructionRail":false}},{"type":"Feature","geometry":{"type":"LineString","coordinates":[[114.1380637780867,25.0],[114.1404018,25.0018597],[114.1434096,25.0038742],[114.1483761,25.0070721],[114.1522128,25.0095519],[114.1582797,25.0134145],[114.1613055,25.0154362]]},"properties":{"key":"way:246102285@detail:456_100","osmType":"way","osmId":246102285,"sourceRegion":"guangdong","featureType":"infrastructure","railClass":"national","mode":"rail","name":"赣韶线","ref":"0069","usage":"main","status":"operational","color":"#E54848","dataOrigin":"datum-2026-08-01","sourceKey":"way:246102285"}},{"type":"Feature","geometry":{"type":"LineString","coordinates":[[114.2463011,25.0747918],[114.2473279,25.0763188]]},"properties":{"key":"way:344376019@detail:456_100","osmType":"way","osmId":344376019,"sourceRegion":"guangdong","featureType":"infrastructure","railClass":"national","mode":"rail","name":"赣韶线","ref":"0069","usage":"main","bridge":"yes","status":"operational","color":"#E54848","dataOrigin":"datum-2026-08-01","sourceKey":"way:344376019"}},{"type":"Feature","geometry":{"type":"LineString","coordinates":[[114.2473279,25.0763188],[114.2485251,25.0781342],[114.2498164,25.0800591],[114.25,25.080329119182945]]},"properties":{"key":"way:344376028@detail:456_100","osmType":"way","osmId":344376028,"sourceRegion":"guangdong","featureType":"infrastructure","railClass":"national","mode":"rail","name":"赣韶线","ref":"0069","usage":"main","status":"operational","color":"#E54848","dataOrigin":"datum-2026-08-01","sourceKey":"way:344376028"}},{"type":"Feature","geometry":{"type":"LineString","coordinates":[[114.1661685,25.0185934],[114.172098,25.0224429]]},"properties":{"key":"way:894965556@detail:456_100","osmType":"way","osmId":894965556,"sourceRegion":"guangdong","featureType":"infrastructure","railClass":"national","mode":"rail","name":"赣韶线","ref":"0069","usage":"main","bridge":"viaduct","status":"operational","color":"#E54848","dataOrigin":"datum-2026-08-01","sourceKey":"way:894965556"}},{"type":"Feature","geometry":{"type":"LineString","coordinates":[[114.1627625,25.0163822],[114.1661685,25.0185934]]},"properties":{"key":"way:894965557@detail:456_100","osmType":"way","osmId":894965557,"sourceRegion":"guangdong","featureType":"infrastructure","railClass":"national","mode":"rail","name":"赣韶线","ref":"0069","usage":"main","status":"operational","color":"#E54848","dataOrigin":"datum-2026-08-01","sourceKey":"way:894965557"}},{"type":"Feature","geometry":{"type":"LineString","coordinates":[[114.1613055,25.0154362],[114.1627625,25.0163822]]},"properties":{"key":"way:894965560@detail:456_100","osmType":"way","osmId":894965560,"sourceRegion":"guangdong","featureType":"infrastructure","railClass":"national","mode":"rail","name":"赣韶线","ref":"0069","usage":"main","bridge":"yes","status":"operational","color":"#E54848","dataOrigin":"datum-2026-08-01","sourceKey":"way:894965560"}},{"type":"Feature","geometry":{"type":"LineString","coordinates":[[114.1737038,25.0234816],[114.1831308,25.0296052],[114.1868504,25.0320389],[114.1918355,25.0351666],[114.1951677,25.0366191],[114.1986952,25.0377283],[114.2084152,25.0400099],[114.2123057,25.0416172],[114.2206989,25.0456401],[114.2246919,25.047814],[114.2278477,25.0499955],[114.2303059,25.0522288],[114.231405,25.0533821]]},"properties":{"key":"way:894965561@detail:456_100","osmType":"way","osmId":894965561,"sourceRegion":"guangdong","featureType":"infrastructure","railClass":"national","mode":"rail","name":"赣韶线","ref":"0069","usage":"main","status":"operational","color":"#E54848","dataOrigin":"datum-2026-08-01","sourceKey":"way:894965561"}},{"type":"Feature","geometry":{"type":"LineString","coordinates":[[114.231405,25.0533821],[114.231748,25.053742],[114.2329341,25.0551887]]},"properties":{"key":"way:895287939@detail:456_100","osmType":"way","osmId":895287939,"sourceRegion":"guangdong","featureType":"infrastructure","railClass":"national","mode":"rail","name":"赣韶线","ref":"0069","usage":"main","bridge":"yes","status":"operational","color":"#E54848","dataOrigin":"datum-2026-08-01","sourceKey":"way:895287939"}},{"type":"Feature","geometry":{"type":"LineString","coordinates":[[114.2329341,25.0551887],[114.2336051,25.056007],[114.2355244,25.0588171],[114.2365489,25.0603309],[114.2388408,25.0637357],[114.2409585,25.0668581],[114.243012,25.0698392],[114.2453775,25.0734394],[114.2463011,25.0747918]]},"properties":{"key":"way:895287940@detail:456_100","osmType":"way","osmId":895287940,"sourceRegion":"guangdong","featureType":"infrastructure","railClass":"national","mode":"rail","name":"赣韶线","ref":"0069","usage":"main","status":"operational","color":"#E54848","dataOrigin":"datum-2026-08-01","sourceKey":"way:895287940"}},{"type":"Feature","geometry":{"type":"LineString","coordinates":[[114.1733685,25.0232714],[114.1737038,25.0234816]]},"properties":{"key":"way:1292788745@detail:456_100","osmType":"way","osmId":1292788745,"sourceRegion":"guangdong","featureType":"infrastructure","railClass":"national","mode":"rail","name":"赣韶线","ref":"0069","usage":"main","bridge":"yes","status":"operational","color":"#E54848","dataOrigin":"datum-2026-08-01","sourceKey":"way:1292788745"}},{"type":"Feature","geometry":{"type":"LineString","coordinates":[[114.172098,25.0224429],[114.1733685,25.0232714]]},"properties":{"key":"way:1292788746@detail:456_100","osmType":"way","osmId":1292788746,"sourceRegion":"guangdong","featureType":"infrastructure","railClass":"national","mode":"rail","name":"赣韶线","ref":"0069","usage":"main","status":"operational","color":"#E54848","dataOrigin":"datum-2026-08-01","sourceKey":"way:1292788746"}}]}