{"type":"FeatureCollection","features":[{"type":"Feature","geometry":{"type":"Point","coordinates":[114.0648348,23.197315]},"properties":{"key":"node:10271063769","osmType":"node","osmId":10271063769,"sourceRegion":"guangzhou","featureType":"station","railClass":"station","mode":"station","name":"罗浮山","nameEn":"Luofushan","status":"operational","color":"#126d75","sourceKey":"node:10271063769","stationGroup":"罗浮山","hasOperationalRail":true,"hasConstructionRail":false}},{"type":"Feature","geometry":{"type":"LineString","coordinates":[[114.1299627,23.1825925],[114.1312266,23.1818827],[114.1324464,23.1811149],[114.1597458,23.1617998]]},"properties":{"key":"way:893577879@detail:456_92","osmType":"way","osmId":893577879,"sourceRegion":"guangzhou","featureType":"infrastructure","railClass":"highspeed","mode":"rail","name":"甬广高速线","nameEn":"Ningbo–Guangzhou Highspeed-Railway","ref":"广汕高速线","usage":"main","highspeed":"yes","tunnel":"yes","status":"operational","color":"#E54848","sourceKey":"way:893577879"}},{"type":"Feature","geometry":{"type":"LineString","coordinates":[[114.074777,23.1956249],[114.1009994,23.1924149]]},"properties":{"key":"way:893577880@detail:456_92","osmType":"way","osmId":893577880,"sourceRegion":"guangzhou","featureType":"infrastructure","railClass":"highspeed","mode":"rail","name":"甬广高速线","nameEn":"Ningbo–Guangzhou Highspeed-Railway","ref":"广汕高速线","usage":"main","highspeed":"yes","bridge":"viaduct","status":"operational","color":"#E54848","sourceKey":"way:893577880"}},{"type":"Feature","geometry":{"type":"LineString","coordinates":[[114.052965,23.1982563],[114.0558475,23.1979076]]},"properties":{"key":"way:893577881@detail:456_92","osmType":"way","osmId":893577881,"sourceRegion":"guangzhou","featureType":"infrastructure","railClass":"highspeed","mode":"rail","name":"甬广高速线","nameEn":"Ningbo–Guangzhou Highspeed-Railway","ref":"广汕高速线","usage":"main","highspeed":"yes","tunnel":"yes","status":"operational","color":"#E54848","sourceKey":"way:893577881"}},{"type":"Feature","geometry":{"type":"LineString","coordinates":[[114.0514693,23.1984343],[114.052965,23.1982563]]},"properties":{"key":"way:893577882@detail:456_92","osmType":"way","osmId":893577882,"sourceRegion":"guangzhou","featureType":"infrastructure","railClass":"highspeed","mode":"rail","name":"甬广高速线","nameEn":"Ningbo–Guangzhou Highspeed-Railway","ref":"广汕高速线","usage":"main","highspeed":"yes","status":"operational","color":"#E54848","sourceKey":"way:893577882"}},{"type":"Feature","geometry":{"type":"LineString","coordinates":[[114.0475409,23.1989044],[114.0514693,23.1984343]]},"properties":{"key":"way:893577883@detail:456_92","osmType":"way","osmId":893577883,"sourceRegion":"guangzhou","featureType":"infrastructure","railClass":"highspeed","mode":"rail","name":"甬广高速线","nameEn":"Ningbo–Guangzhou Highspeed-Railway","ref":"广汕高速线","usage":"main","highspeed":"yes","tunnel":"yes","status":"operational","color":"#E54848","sourceKey":"way:893577883"}},{"type":"Feature","geometry":{"type":"LineString","coordinates":[[114.0,23.201635572513236],[114.0028631,23.2018986],[114.006858,23.2021994],[114.0101076,23.2023494],[114.012775,23.2023878],[114.0157745,23.2023308],[114.0190946,23.202157],[114.0219371,23.201921],[114.0240248,23.2017051],[114.0262304,23.2014458]]},"properties":{"key":"way:893577884@detail:456_92","osmType":"way","osmId":893577884,"sourceRegion":"guangzhou","featureType":"infrastructure","railClass":"highspeed","mode":"rail","name":"甬广高速线","nameEn":"Ningbo–Guangzhou Highspeed-Railway","ref":"广汕高速线","usage":"main","highspeed":"yes","bridge":"viaduct","status":"operational","color":"#E54848","sourceKey":"way:893577884"}},{"type":"Feature","geometry":{"type":"LineString","coordinates":[[114.1245298,23.1853271],[114.1299627,23.1825925]]},"properties":{"key":"way:933655864@detail:456_92","osmType":"way","osmId":933655864,"sourceRegion":"guangzhou","featureType":"infrastructure","railClass":"highspeed","mode":"rail","name":"甬广高速线","nameEn":"Ningbo–Guangzhou Highspeed-Railway","ref":"广汕高速线","usage":"main","highspeed":"yes","bridge":"viaduct","status":"operational","color":"#E54848","sourceKey":"way:933655864"}},{"type":"Feature","geometry":{"type":"LineString","coordinates":[[114.1200426,23.1872374],[114.1234156,23.1858786]]},"properties":{"key":"way:933655865@detail:456_92","osmType":"way","osmId":933655865,"sourceRegion":"guangzhou","featureType":"infrastructure","railClass":"highspeed","mode":"rail","name":"甬广高速线","nameEn":"Ningbo–Guangzhou Highspeed-Railway","ref":"广汕高速线","usage":"main","highspeed":"yes","tunnel":"yes","status":"operational","color":"#E54848","sourceKey":"way:933655865"}},{"type":"Feature","geometry":{"type":"LineString","coordinates":[[114.046081,23.1990019],[114.0277227,23.2011868]]},"properties":{"key":"way:1052993847@detail:456_92","osmType":"way","osmId":1052993847,"sourceRegion":"guangzhou","featureType":"infrastructure","railClass":"highspeed","mode":"rail","name":"甬广高速线","nameEn":"Ningbo–Guangzhou Highspeed-Railway","ref":"广汕高速线","usage":"main","highspeed":"yes","bridge":"viaduct","status":"operational","color":"#E54848","sourceKey":"way:1052993847"}},{"type":"Feature","geometry":{"type":"LineString","coordinates":[[114.0262318,23.2013676],[114.0240386,23.2016361],[114.0219166,23.2018613],[114.0190944,23.2020868],[114.0157652,23.2022562],[114.0127945,23.2023072],[114.0101335,23.2022736],[114.0068682,23.2021275],[114.0028622,23.2018212],[114.0,23.201558032451135]]},"properties":{"key":"way:1052993848@detail:456_92","osmType":"way","osmId":1052993848,"sourceRegion":"guangzhou","featureType":"infrastructure","railClass":"highspeed","mode":"rail","name":"甬广高速线","nameEn":"Ningbo–Guangzhou Highspeed-Railway","ref":"广汕高速线","usage":"main","highspeed":"yes","bridge":"viaduct","status":"operational","color":"#E54848","sourceKey":"way:1052993848"}},{"type":"Feature","geometry":{"type":"LineString","coordinates":[[114.0514715,23.1983527],[114.0475383,23.1988285]]},"properties":{"key":"way:1052993851@detail:456_92","osmType":"way","osmId":1052993851,"sourceRegion":"guangzhou","featureType":"infrastructure","railClass":"highspeed","mode":"rail","name":"甬广高速线","nameEn":"Ningbo–Guangzhou Highspeed-Railway","ref":"广汕高速线","usage":"main","highspeed":"yes","tunnel":"yes","status":"operational","color":"#E54848","sourceKey":"way:1052993851"}},{"type":"Feature","geometry":{"type":"LineString","coordinates":[[114.0529503,23.1981771],[114.0514715,23.1983527]]},"properties":{"key":"way:1052993852@detail:456_92","osmType":"way","osmId":1052993852,"sourceRegion":"guangzhou","featureType":"infrastructure","railClass":"highspeed","mode":"rail","name":"甬广高速线","nameEn":"Ningbo–Guangzhou Highspeed-Railway","ref":"广汕高速线","usage":"main","highspeed":"yes","status":"operational","color":"#E54848","sourceKey":"way:1052993852"}},{"type":"Feature","geometry":{"type":"LineString","coordinates":[[114.0558371,23.1978373],[114.0529503,23.1981771]]},"properties":{"key":"way:1052993853@detail:456_92","osmType":"way","osmId":1052993853,"sourceRegion":"guangzhou","featureType":"infrastructure","railClass":"highspeed","mode":"rail","name":"甬广高速线","nameEn":"Ningbo–Guangzhou Highspeed-Railway","ref":"广汕高速线","usage":"main","highspeed":"yes","tunnel":"yes","status":"operational","color":"#E54848","sourceKey":"way:1052993853"}},{"type":"Feature","geometry":{"type":"LineString","coordinates":[[114.1009868,23.1923335],[114.0747655,23.1955504]]},"properties":{"key":"way:1123082898@detail:456_92","osmType":"way","osmId":1123082898,"sourceRegion":"guangzhou","featureType":"infrastructure","railClass":"highspeed","mode":"rail","name":"甬广高速线","nameEn":"Ningbo–Guangzhou Highspeed-Railway","ref":"广汕高速线","usage":"main","highspeed":"yes","bridge":"viaduct","status":"operational","color":"#E54848","sourceKey":"way:1123082898"}},{"type":"Feature","geometry":{"type":"LineString","coordinates":[[114.1233793,23.1858121],[114.120023,23.1871616]]},"properties":{"key":"way:1123082899@detail:456_92","osmType":"way","osmId":1123082899,"sourceRegion":"guangzhou","featureType":"infrastructure","railClass":"highspeed","mode":"rail","name":"甬广高速线","nameEn":"Ningbo–Guangzhou Highspeed-Railway","ref":"广汕高速线","usage":"main","highspeed":"yes","tunnel":"yes","status":"operational","color":"#E54848","sourceKey":"way:1123082899"}},{"type":"Feature","geometry":{"type":"LineString","coordinates":[[114.1299297,23.1825343],[114.124494,23.185258]]},"properties":{"key":"way:1123082900@detail:456_92","osmType":"way","osmId":1123082900,"sourceRegion":"guangzhou","featureType":"infrastructure","railClass":"highspeed","mode":"rail","name":"甬广高速线","nameEn":"Ningbo–Guangzhou Highspeed-Railway","ref":"广汕高速线","usage":"main","highspeed":"yes","bridge":"viaduct","status":"operational","color":"#E54848","sourceKey":"way:1123082900"}},{"type":"Feature","geometry":{"type":"LineString","coordinates":[[114.1597087,23.1617193],[114.1324243,23.181049],[114.1311893,23.1818269],[114.1299297,23.1825343]]},"properties":{"key":"way:1123082901@detail:456_92","osmType":"way","osmId":1123082901,"sourceRegion":"guangzhou","featureType":"infrastructure","railClass":"highspeed","mode":"rail","name":"甬广高速线","nameEn":"Ningbo–Guangzhou Highspeed-Railway","ref":"广汕高速线","usage":"main","highspeed":"yes","tunnel":"yes","status":"operational","color":"#E54848","sourceKey":"way:1123082901"}},{"type":"Feature","geometry":{"type":"LineString","coordinates":[[114.0277227,23.2011868],[114.0262318,23.2013676]]},"properties":{"key":"way:1207353990@detail:456_92","osmType":"way","osmId":1207353990,"sourceRegion":"guangzhou","featureType":"infrastructure","railClass":"highspeed","mode":"rail","name":"甬广高速线","nameEn":"Ningbo–Guangzhou Highspeed-Railway","ref":"广汕高速线","usage":"main","highspeed":"yes","status":"operational","color":"#E54848","sourceKey":"way:1207353990"}},{"type":"Feature","geometry":{"type":"LineString","coordinates":[[114.0277337,23.2012669],[114.0460985,23.1990764]]},"properties":{"key":"way:1207353991@detail:456_92","osmType":"way","osmId":1207353991,"sourceRegion":"guangzhou","featureType":"infrastructure","railClass":"highspeed","mode":"rail","name":"甬广高速线","nameEn":"Ningbo–Guangzhou Highspeed-Railway","ref":"广汕高速线","usage":"main","highspeed":"yes","bridge":"viaduct","status":"operational","color":"#E54848","sourceKey":"way:1207353991"}},{"type":"Feature","geometry":{"type":"LineString","coordinates":[[114.0262304,23.2014458],[114.0277337,23.2012669]]},"properties":{"key":"way:1207353992@detail:456_92","osmType":"way","osmId":1207353992,"sourceRegion":"guangzhou","featureType":"infrastructure","railClass":"highspeed","mode":"rail","name":"甬广高速线","nameEn":"Ningbo–Guangzhou Highspeed-Railway","ref":"广汕高速线","usage":"main","highspeed":"yes","status":"operational","color":"#E54848","sourceKey":"way:1207353992"}},{"type":"Feature","geometry":{"type":"LineString","coordinates":[[114.0460985,23.1990764],[114.0475409,23.1989044]]},"properties":{"key":"way:1207353993@detail:456_92","osmType":"way","osmId":1207353993,"sourceRegion":"guangzhou","featureType":"infrastructure","railClass":"highspeed","mode":"rail","name":"甬广高速线","nameEn":"Ningbo–Guangzhou Highspeed-Railway","ref":"广汕高速线","usage":"main","highspeed":"yes","status":"operational","color":"#E54848","sourceKey":"way:1207353993"}},{"type":"Feature","geometry":{"type":"LineString","coordinates":[[114.0475383,23.1988285],[114.046081,23.1990019]]},"properties":{"key":"way:1207353994@detail:456_92","osmType":"way","osmId":1207353994,"sourceRegion":"guangzhou","featureType":"infrastructure","railClass":"highspeed","mode":"rail","name":"甬广高速线","nameEn":"Ningbo–Guangzhou Highspeed-Railway","ref":"广汕高速线","usage":"main","highspeed":"yes","status":"operational","color":"#E54848","sourceKey":"way:1207353994"}},{"type":"Feature","geometry":{"type":"LineString","coordinates":[[114.0747655,23.1955504],[114.0714004,23.1959759],[114.068813,23.1962889],[114.0608806,23.1972485],[114.059549,23.1974096],[114.0558371,23.1978373]]},"properties":{"key":"way:1207353995@detail:456_92","osmType":"way","osmId":1207353995,"sourceRegion":"guangzhou","featureType":"infrastructure","railClass":"highspeed","mode":"rail","name":"甬广高速线","nameEn":"Ningbo–Guangzhou Highspeed-Railway","ref":"广汕高速线","usage":"main","highspeed":"yes","status":"operational","color":"#E54848","sourceKey":"way:1207353995"}},{"type":"Feature","geometry":{"type":"LineString","coordinates":[[114.0558475,23.1979076],[114.0608888,23.1972997],[114.0688168,23.1963436],[114.074777,23.1956249]]},"properties":{"key":"way:1207353996@detail:456_92","osmType":"way","osmId":1207353996,"sourceRegion":"guangzhou","featureType":"infrastructure","railClass":"highspeed","mode":"rail","name":"甬广高速线","nameEn":"Ningbo–Guangzhou Highspeed-Railway","ref":"广汕高速线","usage":"main","highspeed":"yes","status":"operational","color":"#E54848","sourceKey":"way:1207353996"}},{"type":"Feature","geometry":{"type":"LineString","coordinates":[[114.1048542,23.1917359],[114.1073794,23.1911809],[114.1099162,23.1905516],[114.112815,23.1897295],[114.1149072,23.1890889],[114.1200426,23.1872374]]},"properties":{"key":"way:1207353997@detail:456_92","osmType":"way","osmId":1207353997,"sourceRegion":"guangzhou","featureType":"infrastructure","railClass":"highspeed","mode":"rail","name":"甬广高速线","nameEn":"Ningbo–Guangzhou Highspeed-Railway","ref":"广汕高速线","usage":"main","highspeed":"yes","bridge":"viaduct","status":"operational","color":"#E54848","sourceKey":"way:1207353997"}},{"type":"Feature","geometry":{"type":"LineString","coordinates":[[114.120023,23.1871616],[114.1148783,23.1890028],[114.1127817,23.18965],[114.1099134,23.1904705],[114.1073489,23.1911085],[114.104846,23.1916555]]},"properties":{"key":"way:1207353998@detail:456_92","osmType":"way","osmId":1207353998,"sourceRegion":"guangzhou","featureType":"infrastructure","railClass":"highspeed","mode":"rail","name":"甬广高速线","nameEn":"Ningbo–Guangzhou Highspeed-Railway","ref":"广汕高速线","usage":"main","highspeed":"yes","bridge":"viaduct","status":"operational","color":"#E54848","sourceKey":"way:1207353998"}},{"type":"Feature","geometry":{"type":"LineString","coordinates":[[114.104846,23.1916555],[114.1009868,23.1923335]]},"properties":{"key":"way:1207353999@detail:456_92","osmType":"way","osmId":1207353999,"sourceRegion":"guangzhou","featureType":"infrastructure","railClass":"highspeed","mode":"rail","name":"甬广高速线","nameEn":"Ningbo–Guangzhou Highspeed-Railway","ref":"广汕高速线","usage":"main","highspeed":"yes","status":"operational","color":"#E54848","sourceKey":"way:1207353999"}},{"type":"Feature","geometry":{"type":"LineString","coordinates":[[114.1009994,23.1924149],[114.1048542,23.1917359]]},"properties":{"key":"way:1207354000@detail:456_92","osmType":"way","osmId":1207354000,"sourceRegion":"guangzhou","featureType":"infrastructure","railClass":"highspeed","mode":"rail","name":"甬广高速线","nameEn":"Ningbo–Guangzhou Highspeed-Railway","ref":"广汕高速线","usage":"main","highspeed":"yes","status":"operational","color":"#E54848","sourceKey":"way:1207354000"}},{"type":"Feature","geometry":{"type":"LineString","coordinates":[[114.124494,23.185258],[114.1233793,23.1858121]]},"properties":{"key":"way:1207354001@detail:456_92","osmType":"way","osmId":1207354001,"sourceRegion":"guangzhou","featureType":"infrastructure","railClass":"highspeed","mode":"rail","name":"甬广高速线","nameEn":"Ningbo–Guangzhou Highspeed-Railway","ref":"广汕高速线","usage":"main","highspeed":"yes","status":"operational","color":"#E54848","sourceKey":"way:1207354001"}},{"type":"Feature","geometry":{"type":"LineString","coordinates":[[114.1234156,23.1858786],[114.1245298,23.1853271]]},"properties":{"key":"way:1207354002@detail:456_92","osmType":"way","osmId":1207354002,"sourceRegion":"guangzhou","featureType":"infrastructure","railClass":"highspeed","mode":"rail","name":"甬广高速线","nameEn":"Ningbo–Guangzhou Highspeed-Railway","ref":"广汕高速线","usage":"main","highspeed":"yes","status":"operational","color":"#E54848","sourceKey":"way:1207354002"}},{"type":"Feature","geometry":{"type":"LineString","coordinates":[[114.0608888,23.1972997],[114.0623519,23.197183],[114.067059,23.1966022],[114.0696967,23.1962855],[114.0709675,23.1962339]]},"properties":{"key":"way:1235965866@detail:456_92","osmType":"way","osmId":1235965866,"sourceRegion":"guangzhou","featureType":"infrastructure","railClass":"minor","mode":"rail","name":"未命名","service":"siding","status":"operational","color":"#52636f","sourceKey":"way:1235965866"}},{"type":"Feature","geometry":{"type":"LineString","coordinates":[[114.0608806,23.1972485],[114.0623357,23.1970191],[114.0670428,23.1964383],[114.068813,23.1962889]]},"properties":{"key":"way:1235965867@detail:456_92","osmType":"way","osmId":1235965867,"sourceRegion":"guangzhou","featureType":"infrastructure","railClass":"minor","mode":"rail","name":"未命名","service":"siding","status":"operational","color":"#52636f","sourceKey":"way:1235965867"}},{"type":"Feature","geometry":{"type":"LineString","coordinates":[[114.067059,23.1966022],[114.0688168,23.1963436]]},"properties":{"key":"way:1235965868@detail:456_92","osmType":"way","osmId":1235965868,"sourceRegion":"guangzhou","featureType":"infrastructure","railClass":"minor","mode":"rail","name":"未命名","service":"yard","status":"operational","color":"#52636f","sourceKey":"way:1235965868"}},{"type":"Feature","geometry":{"type":"Point","coordinates":[114.2035591,23.1436482]},"properties":{"key":"node:10271063788","osmType":"node","osmId":10271063788,"sourceRegion":"dongguan","featureType":"station","railClass":"station","mode":"station","name":"博罗","nameEn":"Boluo","status":"operational","color":"#126d75","sourceKey":"node:10271063788","stationGroup":"博罗","hasOperationalRail":true,"hasConstructionRail":false}},{"type":"Feature","geometry":{"type":"LineString","coordinates":[[114.161076,23.1609042],[114.1650355,23.1584269],[114.1678774,23.1567724],[114.1704985,23.1552791],[114.1735239,23.1536655],[114.1763224,23.1522659],[114.1787116,23.1511888],[114.1820369,23.1498136],[114.1859264,23.1484],[114.1920526,23.1465823]]},"properties":{"key":"way:893577878@detail:456_92","osmType":"way","osmId":893577878,"sourceRegion":"dongguan","featureType":"infrastructure","railClass":"highspeed","mode":"rail","name":"甬广高速线","nameEn":"Ningbo–Guangzhou Highspeed-Railway","ref":"广汕高速线","usage":"main","highspeed":"yes","bridge":"viaduct","status":"operational","color":"#E54848","sourceKey":"way:893577878"}},{"type":"Feature","geometry":{"type":"LineString","coordinates":[[114.2268627,23.1367171],[114.2396773,23.1330908],[114.242229,23.1324015],[114.2444974,23.1318299],[114.2468663,23.1313497],[114.2498632,23.1308293],[114.25,23.130808125410788]]},"properties":{"key":"way:933655860@detail:456_92","osmType":"way","osmId":933655860,"sourceRegion":"dongguan","featureType":"infrastructure","railClass":"highspeed","mode":"rail","name":"甬广高速线","nameEn":"Ningbo–Guangzhou Highspeed-Railway","ref":"广汕高速线","usage":"main","highspeed":"yes","bridge":"viaduct","status":"operational","color":"#E54848","sourceKey":"way:933655860"}},{"type":"Feature","geometry":{"type":"LineString","coordinates":[[114.2258202,23.1370013],[114.2268627,23.1367171]]},"properties":{"key":"way:933655861@detail:456_92","osmType":"way","osmId":933655861,"sourceRegion":"dongguan","featureType":"infrastructure","railClass":"highspeed","mode":"rail","name":"甬广高速线","nameEn":"Ningbo–Guangzhou Highspeed-Railway","ref":"广汕高速线","usage":"main","highspeed":"yes","tunnel":"yes","status":"operational","color":"#E54848","sourceKey":"way:933655861"}},{"type":"Feature","geometry":{"type":"LineString","coordinates":[[114.2226923,23.137887],[114.2245297,23.1373667]]},"properties":{"key":"way:933655862@detail:456_92","osmType":"way","osmId":933655862,"sourceRegion":"dongguan","featureType":"infrastructure","railClass":"highspeed","mode":"rail","name":"甬广高速线","nameEn":"Ningbo–Guangzhou Highspeed-Railway","ref":"广汕高速线","usage":"main","highspeed":"yes","status":"operational","color":"#E54848","sourceKey":"way:933655862"}},{"type":"Feature","geometry":{"type":"LineString","coordinates":[[114.2106308,23.1413006],[114.2124759,23.1407798]]},"properties":{"key":"way:933655863@detail:456_92","osmType":"way","osmId":933655863,"sourceRegion":"dongguan","featureType":"infrastructure","railClass":"highspeed","mode":"rail","name":"甬广高速线","nameEn":"Ningbo–Guangzhou Highspeed-Railway","ref":"广汕高速线","usage":"main","highspeed":"yes","tunnel":"yes","status":"operational","color":"#E54848","sourceKey":"way:933655863"}},{"type":"Feature","geometry":{"type":"LineString","coordinates":[[114.1920314,23.1465156],[114.1859131,23.1483318],[114.1820129,23.1497306],[114.1787042,23.1510943],[114.1762802,23.1521872],[114.1734471,23.1536027],[114.1704416,23.1552143],[114.1678262,23.1567012],[114.1649771,23.1583792],[114.1610211,23.1608335]]},"properties":{"key":"way:1123082902@detail:456_92","osmType":"way","osmId":1123082902,"sourceRegion":"dongguan","featureType":"infrastructure","railClass":"highspeed","mode":"rail","name":"甬广高速线","nameEn":"Ningbo–Guangzhou Highspeed-Railway","ref":"广汕高速线","usage":"main","highspeed":"yes","bridge":"viaduct","status":"operational","color":"#E54848","sourceKey":"way:1123082902"}},{"type":"Feature","geometry":{"type":"LineString","coordinates":[[114.2124546,23.1406983],[114.2106104,23.141219]]},"properties":{"key":"way:1123082903@detail:456_92","osmType":"way","osmId":1123082903,"sourceRegion":"dongguan","featureType":"infrastructure","railClass":"highspeed","mode":"rail","name":"甬广高速线","nameEn":"Ningbo–Guangzhou Highspeed-Railway","ref":"广汕高速线","usage":"main","highspeed":"yes","tunnel":"yes","status":"operational","color":"#E54848","sourceKey":"way:1123082903"}},{"type":"Feature","geometry":{"type":"LineString","coordinates":[[114.22451,23.1372943],[114.2226649,23.1378153]]},"properties":{"key":"way:1123082904@detail:456_92","osmType":"way","osmId":1123082904,"sourceRegion":"dongguan","featureType":"infrastructure","railClass":"highspeed","mode":"rail","name":"甬广高速线","nameEn":"Ningbo–Guangzhou Highspeed-Railway","ref":"广汕高速线","usage":"main","highspeed":"yes","status":"operational","color":"#E54848","sourceKey":"way:1123082904"}},{"type":"Feature","geometry":{"type":"LineString","coordinates":[[114.226854,23.1366425],[114.225803,23.1369293]]},"properties":{"key":"way:1123082905@detail:456_92","osmType":"way","osmId":1123082905,"sourceRegion":"dongguan","featureType":"infrastructure","railClass":"highspeed","mode":"rail","name":"甬广高速线","nameEn":"Ningbo–Guangzhou Highspeed-Railway","ref":"广汕高速线","usage":"main","highspeed":"yes","tunnel":"yes","status":"operational","color":"#E54848","sourceKey":"way:1123082905"}},{"type":"Feature","geometry":{"type":"LineString","coordinates":[[114.25,23.13074020986768],[114.2498491,23.1307631],[114.2468565,23.1312702],[114.244493,23.1317561],[114.2421958,23.1323323],[114.2396516,23.1330173],[114.226854,23.1366425]]},"properties":{"key":"way:1123082906@detail:456_92","osmType":"way","osmId":1123082906,"sourceRegion":"dongguan","featureType":"infrastructure","railClass":"highspeed","mode":"rail","name":"甬广高速线","nameEn":"Ningbo–Guangzhou Highspeed-Railway","ref":"广汕高速线","usage":"main","highspeed":"yes","bridge":"viaduct","status":"operational","color":"#E54848","sourceKey":"way:1123082906"}},{"type":"Feature","geometry":{"type":"LineString","coordinates":[[114.1610211,23.1608335],[114.1597087,23.1617193]]},"properties":{"key":"way:1207354003@detail:456_92","osmType":"way","osmId":1207354003,"sourceRegion":"dongguan","featureType":"infrastructure","railClass":"highspeed","mode":"rail","name":"甬广高速线","nameEn":"Ningbo–Guangzhou Highspeed-Railway","ref":"广汕高速线","usage":"main","highspeed":"yes","status":"operational","color":"#E54848","sourceKey":"way:1207354003"}},{"type":"Feature","geometry":{"type":"LineString","coordinates":[[114.1597458,23.1617998],[114.161076,23.1609042]]},"properties":{"key":"way:1207354004@detail:456_92","osmType":"way","osmId":1207354004,"sourceRegion":"dongguan","featureType":"infrastructure","railClass":"highspeed","mode":"rail","name":"甬广高速线","nameEn":"Ningbo–Guangzhou Highspeed-Railway","ref":"广汕高速线","usage":"main","highspeed":"yes","status":"operational","color":"#E54848","sourceKey":"way:1207354004"}},{"type":"Feature","geometry":{"type":"LineString","coordinates":[[114.1945653,23.145831],[114.1996796,23.1443857],[114.2055541,23.1427255]]},"properties":{"key":"way:1207354005@detail:456_92","osmType":"way","osmId":1207354005,"sourceRegion":"dongguan","featureType":"infrastructure","railClass":"highspeed","mode":"rail","name":"甬广高速线","nameEn":"Ningbo–Guangzhou Highspeed-Railway","ref":"广汕高速线","usage":"main","highspeed":"yes","status":"operational","color":"#E54848","sourceKey":"way:1207354005"}},{"type":"Feature","geometry":{"type":"LineString","coordinates":[[114.2055346,23.142671],[114.1996572,23.144326],[114.194546,23.1457653]]},"properties":{"key":"way:1207354006@detail:456_92","osmType":"way","osmId":1207354006,"sourceRegion":"dongguan","featureType":"infrastructure","railClass":"highspeed","mode":"rail","name":"甬广高速线","nameEn":"Ningbo–Guangzhou Highspeed-Railway","ref":"广汕高速线","usage":"main","highspeed":"yes","status":"operational","color":"#E54848","sourceKey":"way:1207354006"}},{"type":"Feature","geometry":{"type":"LineString","coordinates":[[114.1925984,23.1463482],[114.1920314,23.1465156]]},"properties":{"key":"way:1207354007@detail:456_92","osmType":"way","osmId":1207354007,"sourceRegion":"dongguan","featureType":"infrastructure","railClass":"highspeed","mode":"rail","name":"甬广高速线","nameEn":"Ningbo–Guangzhou Highspeed-Railway","ref":"广汕高速线","usage":"main","highspeed":"yes","status":"operational","color":"#E54848","sourceKey":"way:1207354007"}},{"type":"Feature","geometry":{"type":"LineString","coordinates":[[114.1920526,23.1465823],[114.1926159,23.1464073]]},"properties":{"key":"way:1207354008@detail:456_92","osmType":"way","osmId":1207354008,"sourceRegion":"dongguan","featureType":"infrastructure","railClass":"highspeed","mode":"rail","name":"甬广高速线","nameEn":"Ningbo–Guangzhou Highspeed-Railway","ref":"广汕高速线","usage":"main","highspeed":"yes","status":"operational","color":"#E54848","sourceKey":"way:1207354008"}},{"type":"Feature","geometry":{"type":"LineString","coordinates":[[114.194546,23.1457653],[114.1925984,23.1463482]]},"properties":{"key":"way:1207354009@detail:456_92","osmType":"way","osmId":1207354009,"sourceRegion":"dongguan","featureType":"infrastructure","railClass":"highspeed","mode":"rail","name":"甬广高速线","nameEn":"Ningbo–Guangzhou Highspeed-Railway","ref":"广汕高速线","usage":"main","highspeed":"yes","bridge":"viaduct","status":"operational","color":"#E54848","sourceKey":"way:1207354009"}},{"type":"Feature","geometry":{"type":"LineString","coordinates":[[114.1926159,23.1464073],[114.1945653,23.145831]]},"properties":{"key":"way:1207354010@detail:456_92","osmType":"way","osmId":1207354010,"sourceRegion":"dongguan","featureType":"infrastructure","railClass":"highspeed","mode":"rail","name":"甬广高速线","nameEn":"Ningbo–Guangzhou Highspeed-Railway","ref":"广汕高速线","usage":"main","highspeed":"yes","bridge":"viaduct","status":"operational","color":"#E54848","sourceKey":"way:1207354010"}},{"type":"Feature","geometry":{"type":"LineString","coordinates":[[114.2090682,23.141726],[114.2106308,23.1413006]]},"properties":{"key":"way:1207354011@detail:456_92","osmType":"way","osmId":1207354011,"sourceRegion":"dongguan","featureType":"infrastructure","railClass":"highspeed","mode":"rail","name":"甬广高速线","nameEn":"Ningbo–Guangzhou Highspeed-Railway","ref":"广汕高速线","usage":"main","highspeed":"yes","status":"operational","color":"#E54848","sourceKey":"way:1207354011"}},{"type":"Feature","geometry":{"type":"LineString","coordinates":[[114.2106104,23.141219],[114.2090425,23.1416578]]},"properties":{"key":"way:1207354012@detail:456_92","osmType":"way","osmId":1207354012,"sourceRegion":"dongguan","featureType":"infrastructure","railClass":"highspeed","mode":"rail","name":"甬广高速线","nameEn":"Ningbo–Guangzhou Highspeed-Railway","ref":"广汕高速线","usage":"main","highspeed":"yes","status":"operational","color":"#E54848","sourceKey":"way:1207354012"}},{"type":"Feature","geometry":{"type":"LineString","coordinates":[[114.2080419,23.1420055],[114.2090682,23.141726]]},"properties":{"key":"way:1207354013@detail:456_92","osmType":"way","osmId":1207354013,"sourceRegion":"dongguan","featureType":"infrastructure","railClass":"highspeed","mode":"rail","name":"甬广高速线","nameEn":"Ningbo–Guangzhou Highspeed-Railway","ref":"广汕高速线","usage":"main","highspeed":"yes","bridge":"viaduct","status":"operational","color":"#E54848","sourceKey":"way:1207354013"}},{"type":"Feature","geometry":{"type":"LineString","coordinates":[[114.2090425,23.1416578],[114.208025,23.1419425]]},"properties":{"key":"way:1207354014@detail:456_92","osmType":"way","osmId":1207354014,"sourceRegion":"dongguan","featureType":"infrastructure","railClass":"highspeed","mode":"rail","name":"甬广高速线","nameEn":"Ningbo–Guangzhou Highspeed-Railway","ref":"广汕高速线","usage":"main","highspeed":"yes","bridge":"viaduct","status":"operational","color":"#E54848","sourceKey":"way:1207354014"}},{"type":"Feature","geometry":{"type":"LineString","coordinates":[[114.2124759,23.1407798],[114.2181127,23.1391838]]},"properties":{"key":"way:1207354015@detail:456_92","osmType":"way","osmId":1207354015,"sourceRegion":"dongguan","featureType":"infrastructure","railClass":"highspeed","mode":"rail","name":"甬广高速线","nameEn":"Ningbo–Guangzhou Highspeed-Railway","ref":"广汕高速线","usage":"main","highspeed":"yes","bridge":"viaduct","status":"operational","color":"#E54848","sourceKey":"way:1207354015"}},{"type":"Feature","geometry":{"type":"LineString","coordinates":[[114.2180835,23.139109],[114.2124546,23.1406983]]},"properties":{"key":"way:1207354016@detail:456_92","osmType":"way","osmId":1207354016,"sourceRegion":"dongguan","featureType":"infrastructure","railClass":"highspeed","mode":"rail","name":"甬广高速线","nameEn":"Ningbo–Guangzhou Highspeed-Railway","ref":"广汕高速线","usage":"main","highspeed":"yes","bridge":"viaduct","status":"operational","color":"#E54848","sourceKey":"way:1207354016"}},{"type":"Feature","geometry":{"type":"LineString","coordinates":[[114.2181127,23.1391838],[114.2192198,23.1388703]]},"properties":{"key":"way:1207354017@detail:456_92","osmType":"way","osmId":1207354017,"sourceRegion":"dongguan","featureType":"infrastructure","railClass":"highspeed","mode":"rail","name":"甬广高速线","nameEn":"Ningbo–Guangzhou Highspeed-Railway","ref":"广汕高速线","usage":"main","highspeed":"yes","status":"operational","color":"#E54848","sourceKey":"way:1207354017"}},{"type":"Feature","geometry":{"type":"LineString","coordinates":[[114.2191937,23.1387954],[114.2180835,23.139109]]},"properties":{"key":"way:1207354018@detail:456_92","osmType":"way","osmId":1207354018,"sourceRegion":"dongguan","featureType":"infrastructure","railClass":"highspeed","mode":"rail","name":"甬广高速线","nameEn":"Ningbo–Guangzhou Highspeed-Railway","ref":"广汕高速线","usage":"main","highspeed":"yes","status":"operational","color":"#E54848","sourceKey":"way:1207354018"}},{"type":"Feature","geometry":{"type":"LineString","coordinates":[[114.2192198,23.1388703],[114.2204276,23.1385283]]},"properties":{"key":"way:1207354019@detail:456_92","osmType":"way","osmId":1207354019,"sourceRegion":"dongguan","featureType":"infrastructure","railClass":"highspeed","mode":"rail","name":"甬广高速线","nameEn":"Ningbo–Guangzhou Highspeed-Railway","ref":"广汕高速线","usage":"main","highspeed":"yes","bridge":"viaduct","status":"operational","color":"#E54848","sourceKey":"way:1207354019"}},{"type":"Feature","geometry":{"type":"LineString","coordinates":[[114.2203949,23.1384563],[114.2191937,23.1387954]]},"properties":{"key":"way:1207354020@detail:456_92","osmType":"way","osmId":1207354020,"sourceRegion":"dongguan","featureType":"infrastructure","railClass":"highspeed","mode":"rail","name":"甬广高速线","nameEn":"Ningbo–Guangzhou Highspeed-Railway","ref":"广汕高速线","usage":"main","highspeed":"yes","bridge":"viaduct","status":"operational","color":"#E54848","sourceKey":"way:1207354020"}},{"type":"Feature","geometry":{"type":"LineString","coordinates":[[114.2204276,23.1385283],[114.2212018,23.138309]]},"properties":{"key":"way:1207354021@detail:456_92","osmType":"way","osmId":1207354021,"sourceRegion":"dongguan","featureType":"infrastructure","railClass":"highspeed","mode":"rail","name":"甬广高速线","nameEn":"Ningbo–Guangzhou Highspeed-Railway","ref":"广汕高速线","usage":"main","highspeed":"yes","status":"operational","color":"#E54848","sourceKey":"way:1207354021"}},{"type":"Feature","geometry":{"type":"LineString","coordinates":[[114.2211793,23.1382348],[114.2203949,23.1384563]]},"properties":{"key":"way:1207354022@detail:456_92","osmType":"way","osmId":1207354022,"sourceRegion":"dongguan","featureType":"infrastructure","railClass":"highspeed","mode":"rail","name":"甬广高速线","nameEn":"Ningbo–Guangzhou Highspeed-Railway","ref":"广汕高速线","usage":"main","highspeed":"yes","status":"operational","color":"#E54848","sourceKey":"way:1207354022"}},{"type":"Feature","geometry":{"type":"LineString","coordinates":[[114.2212018,23.138309],[114.2226923,23.137887]]},"properties":{"key":"way:1207354023@detail:456_92","osmType":"way","osmId":1207354023,"sourceRegion":"dongguan","featureType":"infrastructure","railClass":"highspeed","mode":"rail","name":"甬广高速线","nameEn":"Ningbo–Guangzhou Highspeed-Railway","ref":"广汕高速线","usage":"main","highspeed":"yes","bridge":"viaduct","status":"operational","color":"#E54848","sourceKey":"way:1207354023"}},{"type":"Feature","geometry":{"type":"LineString","coordinates":[[114.2226649,23.1378153],[114.2211793,23.1382348]]},"properties":{"key":"way:1207354024@detail:456_92","osmType":"way","osmId":1207354024,"sourceRegion":"dongguan","featureType":"infrastructure","railClass":"highspeed","mode":"rail","name":"甬广高速线","nameEn":"Ningbo–Guangzhou Highspeed-Railway","ref":"广汕高速线","usage":"main","highspeed":"yes","bridge":"viaduct","status":"operational","color":"#E54848","sourceKey":"way:1207354024"}},{"type":"Feature","geometry":{"type":"LineString","coordinates":[[114.2245297,23.1373667],[114.2258202,23.1370013]]},"properties":{"key":"way:1207354025@detail:456_92","osmType":"way","osmId":1207354025,"sourceRegion":"dongguan","featureType":"infrastructure","railClass":"highspeed","mode":"rail","name":"甬广高速线","nameEn":"Ningbo–Guangzhou Highspeed-Railway","ref":"广汕高速线","usage":"main","highspeed":"yes","bridge":"viaduct","status":"operational","color":"#E54848","sourceKey":"way:1207354025"}},{"type":"Feature","geometry":{"type":"LineString","coordinates":[[114.225803,23.1369293],[114.22451,23.1372943]]},"properties":{"key":"way:1207354026@detail:456_92","osmType":"way","osmId":1207354026,"sourceRegion":"dongguan","featureType":"infrastructure","railClass":"highspeed","mode":"rail","name":"甬广高速线","nameEn":"Ningbo–Guangzhou Highspeed-Railway","ref":"广汕高速线","usage":"main","highspeed":"yes","bridge":"viaduct","status":"operational","color":"#E54848","sourceKey":"way:1207354026"}},{"type":"Feature","geometry":{"type":"LineString","coordinates":[[114.208025,23.1419425],[114.2072073,23.1421828],[114.2067381,23.1423207]]},"properties":{"key":"way:1390967626@detail:456_92","osmType":"way","osmId":1390967626,"sourceRegion":"dongguan","featureType":"infrastructure","railClass":"highspeed","mode":"rail","name":"甬广高速线","nameEn":"Ningbo–Guangzhou Highspeed-Railway","ref":"广汕高速线","usage":"main","highspeed":"yes","status":"operational","color":"#E54848","sourceKey":"way:1390967626"}},{"type":"Feature","geometry":{"type":"LineString","coordinates":[[114.2067381,23.1423207],[114.2055346,23.142671]]},"properties":{"key":"way:1390967627@detail:456_92","osmType":"way","osmId":1390967627,"sourceRegion":"dongguan","featureType":"infrastructure","railClass":"highspeed","mode":"rail","name":"甬广高速线","nameEn":"Ningbo–Guangzhou Highspeed-Railway","ref":"广汕高速线","usage":"main","highspeed":"yes","bridge":"yes","status":"operational","color":"#E54848","sourceKey":"way:1390967627"}},{"type":"Feature","geometry":{"type":"LineString","coordinates":[[114.2067598,23.1423733],[114.2072327,23.1422376],[114.2080419,23.1420055]]},"properties":{"key":"way:1390967628@detail:456_92","osmType":"way","osmId":1390967628,"sourceRegion":"dongguan","featureType":"infrastructure","railClass":"highspeed","mode":"rail","name":"甬广高速线","nameEn":"Ningbo–Guangzhou Highspeed-Railway","ref":"广汕高速线","usage":"main","highspeed":"yes","status":"operational","color":"#E54848","sourceKey":"way:1390967628"}},{"type":"Feature","geometry":{"type":"LineString","coordinates":[[114.2055541,23.1427255],[114.2067598,23.1423733]]},"properties":{"key":"way:1390967629@detail:456_92","osmType":"way","osmId":1390967629,"sourceRegion":"dongguan","featureType":"infrastructure","railClass":"highspeed","mode":"rail","name":"甬广高速线","nameEn":"Ningbo–Guangzhou Highspeed-Railway","ref":"广汕高速线","usage":"main","highspeed":"yes","bridge":"yes","status":"operational","color":"#E54848","sourceKey":"way:1390967629"}},{"type":"Feature","geometry":{"type":"LineString","coordinates":[[114.2055151,23.1426312],[114.2013196,23.1438087],[114.2008117,23.1439494],[114.2001368,23.144155],[114.1996572,23.144326]]},"properties":{"key":"way:1390967633@detail:456_92","osmType":"way","osmId":1390967633,"sourceRegion":"dongguan","featureType":"infrastructure","railClass":"minor","mode":"rail","name":"未命名","service":"spur","status":"operational","color":"#52636f","sourceKey":"way:1390967633"}},{"type":"Feature","geometry":{"type":"LineString","coordinates":[[114.1996796,23.1443857],[114.2001938,23.1442783],[114.2008727,23.1440952],[114.2013603,23.1439451],[114.2055691,23.1427637]]},"properties":{"key":"way:1390967634@detail:456_92","osmType":"way","osmId":1390967634,"sourceRegion":"dongguan","featureType":"infrastructure","railClass":"minor","mode":"rail","name":"未命名","service":"spur","status":"operational","color":"#52636f","sourceKey":"way:1390967634"}},{"type":"Feature","geometry":{"type":"LineString","coordinates":[[114.2067798,23.1424054],[114.2072327,23.1422376]]},"properties":{"key":"way:1390967635@detail:456_92","osmType":"way","osmId":1390967635,"sourceRegion":"dongguan","featureType":"infrastructure","railClass":"minor","mode":"rail","name":"未命名","service":"spur","status":"operational","color":"#52636f","sourceKey":"way:1390967635"}},{"type":"Feature","geometry":{"type":"LineString","coordinates":[[114.2072073,23.1421828],[114.2067188,23.1422821]]},"properties":{"key":"way:1390967636@detail:456_92","osmType":"way","osmId":1390967636,"sourceRegion":"dongguan","featureType":"infrastructure","railClass":"minor","mode":"rail","name":"未命名","service":"spur","status":"operational","color":"#52636f","sourceKey":"way:1390967636"}},{"type":"Feature","geometry":{"type":"LineString","coordinates":[[114.2067188,23.1422821],[114.206231,23.1424204],[114.2055151,23.1426312]]},"properties":{"key":"way:1390967637@detail:456_92","osmType":"way","osmId":1390967637,"sourceRegion":"dongguan","featureType":"infrastructure","railClass":"minor","mode":"rail","name":"未命名","service":"spur","bridge":"yes","status":"operational","color":"#52636f","sourceKey":"way:1390967637"}},{"type":"Feature","geometry":{"type":"LineString","coordinates":[[114.2055691,23.1427637],[114.2062838,23.1425662],[114.2067798,23.1424054]]},"properties":{"key":"way:1390967638@detail:456_92","osmType":"way","osmId":1390967638,"sourceRegion":"dongguan","featureType":"infrastructure","railClass":"minor","mode":"rail","name":"未命名","service":"spur","bridge":"yes","status":"operational","color":"#52636f","sourceKey":"way:1390967638"}},{"type":"Feature","geometry":{"type":"LineString","coordinates":[[114.04846012209177,23.0],[114.0486064,23.0010004],[114.04863,23.0025785],[114.0484112,23.0047058],[114.0460723,23.0266239],[114.0448964,23.0372755],[114.0445681,23.0431302],[114.0446003,23.0497724],[114.0450616,23.0571153],[114.045641,23.0609415],[114.0467031,23.0652257],[114.0477417,23.0695393],[114.0478168,23.0717286],[114.0473533,23.0745398],[114.0471108,23.0764033],[114.0473383,23.077799],[114.0481708,23.0790801],[114.0551618,23.089625],[114.0560028,23.0913946],[114.056329,23.0930664],[114.0564384,23.0975884]]},"properties":{"key":"way:343706073@detail:456_92","osmType":"way","osmId":343706073,"sourceRegion":"guangdong","featureType":"infrastructure","railClass":"construction","mode":"proposed","name":"3号线","nameEn":"Line 3","operator":"东莞市轨道交通有限公司 Dongguan Rail Transit Corp., Ltd.","tunnel":"yes","status":"construction","color":"#ECA154","dataOrigin":"datum-2026-08-01","sourceKey":"way:343706073"}}]}