{"type":"FeatureCollection","features":[{"type":"Feature","geometry":{"type":"Point","coordinates":[114.3058872,25.1480341]},"properties":{"key":"node:2531823886","osmType":"node","osmId":2531823886,"sourceRegion":"guangdong","featureType":"station","railClass":"minor","mode":"station","name":"南雄","nameEn":"Nanxiong","status":"operational","color":"#52636F","dataOrigin":"datum-2026-08-01","sourceKey":"node:2531823886","stationGroup":"南雄","hasOperationalRail":true,"hasConstructionRail":false}},{"type":"Feature","geometry":{"type":"Point","coordinates":[114.3585091,25.2127095]},"properties":{"key":"node:3797733202","osmType":"node","osmId":3797733202,"sourceRegion":"guangdong","featureType":"station","railClass":"minor","mode":"station","name":"珠玑巷","nameEn":"Zhujixiang","status":"operational","color":"#52636F","dataOrigin":"datum-2026-08-01","sourceKey":"node:3797733202","stationGroup":"珠玑巷","hasOperationalRail":true,"hasConstructionRail":false}},{"type":"Feature","geometry":{"type":"Point","coordinates":[114.3720506,25.2345281]},"properties":{"key":"node:9027139203","osmType":"node","osmId":9027139203,"sourceRegion":"guangdong","featureType":"station","railClass":"minor","mode":"halt","name":"未命名","status":"operational","color":"#52636F","dataOrigin":"datum-2026-08-01","sourceKey":"node:9027139203","stationGroup":"","hasOperationalRail":true,"hasConstructionRail":false}},{"type":"Feature","geometry":{"type":"LineString","coordinates":[[114.3552925,25.208146],[114.351054,25.203562],[114.349312,25.201187],[114.3480527,25.19909],[114.3472074,25.1974792],[114.3439178,25.1899645],[114.3430435,25.1882808]]},"properties":{"key":"way:246101033@detail:457_100","osmType":"way","osmId":246101033,"sourceRegion":"guangdong","featureType":"infrastructure","railClass":"national","mode":"rail","name":"赣韶线","ref":"0069","usage":"main","status":"operational","color":"#E54848","dataOrigin":"datum-2026-08-01","sourceKey":"way:246101033"}},{"type":"Feature","geometry":{"type":"LineString","coordinates":[[114.2992015,25.1373391],[114.2995534,25.1378554],[114.3000813,25.1386299],[114.3009125,25.14008],[114.3019944,25.1419889],[114.3026156,25.1431435],[114.3027934,25.1434466],[114.3044812,25.1463223],[114.3057774,25.1485308],[114.3078575,25.1521804],[114.3082379,25.1528649],[114.3098654,25.1557935],[114.3114315,25.1585196],[114.3127326,25.1607804],[114.3137999,25.1625582]]},"properties":{"key":"way:344376013@detail:457_100","osmType":"way","osmId":344376013,"sourceRegion":"guangdong","featureType":"infrastructure","railClass":"national","mode":"rail","name":"赣韶线","ref":"0069","usage":"main","status":"operational","color":"#E54848","dataOrigin":"datum-2026-08-01","sourceKey":"way:344376013"}},{"type":"Feature","geometry":{"type":"LineString","coordinates":[[114.2868775,25.1279522],[114.2876724,25.1282763],[114.2886856,25.1287213],[114.289614,25.1291827],[114.290791,25.1298089],[114.2918164,25.1304516],[114.2930216,25.1312859],[114.2930794,25.1313259],[114.293966,25.1319397],[114.294754,25.1326097],[114.2957127,25.1334227],[114.2964711,25.1341752],[114.2974237,25.1351365],[114.2982671,25.1361417],[114.2992015,25.1373391]]},"properties":{"key":"way:344376014@detail:457_100","osmType":"way","osmId":344376014,"sourceRegion":"guangdong","featureType":"infrastructure","railClass":"national","mode":"rail","name":"赣韶线","ref":"0069","usage":"main","bridge":"yes","status":"operational","color":"#E54848","dataOrigin":"datum-2026-08-01","sourceKey":"way:344376014"}},{"type":"Feature","geometry":{"type":"LineString","coordinates":[[114.3170937,25.1666394],[114.318194,25.1677298],[114.3191498,25.1685657],[114.3202983,25.1694671],[114.322009,25.1706592],[114.3234627,25.171655],[114.3253099,25.1730433],[114.3272535,25.174388],[114.3289401,25.1755728],[114.3307874,25.1769102],[114.3325302,25.1781604],[114.334514,25.1796068],[114.3362648,25.1808642],[114.337574,25.181889],[114.3387626,25.1829574],[114.3398067,25.183975],[114.3408669,25.1852178],[114.3418306,25.1864679],[114.3425284,25.1874437]]},"properties":{"key":"way:344376015@detail:457_100","osmType":"way","osmId":344376015,"sourceRegion":"guangdong","featureType":"infrastructure","railClass":"national","mode":"rail","name":"赣韶线","ref":"0069","usage":"main","status":"operational","color":"#E54848","dataOrigin":"datum-2026-08-01","sourceKey":"way:344376015"}},{"type":"Feature","geometry":{"type":"LineString","coordinates":[[114.2566887,25.0933137],[114.2569344,25.0944815],[114.2571624,25.0961537],[114.2573905,25.0981317],[114.2576186,25.0998757],[114.2578291,25.101047],[114.258044,25.102028],[114.2583554,25.1031838],[114.2586581,25.1041331],[114.2590265,25.1051776],[114.2595046,25.1063214],[114.2601361,25.1076281],[114.2607502,25.1087481],[114.2616011,25.1101183],[114.2624432,25.1113296],[114.2631284,25.1122111],[114.2639216,25.1131263],[114.2648378,25.1141207],[114.2660088,25.115258]]},"properties":{"key":"way:344376016@detail:457_100","osmType":"way","osmId":344376016,"sourceRegion":"guangdong","featureType":"infrastructure","railClass":"national","mode":"rail","name":"赣韶线","ref":"0069","usage":"main","status":"operational","color":"#E54848","dataOrigin":"datum-2026-08-01","sourceKey":"way:344376016"}},{"type":"Feature","geometry":{"type":"LineString","coordinates":[[114.2767915,25.123766],[114.2774453,25.124096]]},"properties":{"key":"way:344376017@detail:457_100","osmType":"way","osmId":344376017,"sourceRegion":"guangdong","featureType":"infrastructure","railClass":"national","mode":"rail","name":"赣韶线","ref":"0069","usage":"main","bridge":"yes","status":"operational","color":"#E54848","dataOrigin":"datum-2026-08-01","sourceKey":"way:344376017"}},{"type":"Feature","geometry":{"type":"LineString","coordinates":[[114.256487,25.0924438],[114.2566887,25.0933137]]},"properties":{"key":"way:344376018@detail:457_100","osmType":"way","osmId":344376018,"sourceRegion":"guangdong","featureType":"infrastructure","railClass":"national","mode":"rail","name":"赣韶线","ref":"0069","usage":"main","bridge":"yes","status":"operational","color":"#E54848","dataOrigin":"datum-2026-08-01","sourceKey":"way:344376018"}},{"type":"Feature","geometry":{"type":"LineString","coordinates":[[114.3425284,25.1874437],[114.3430435,25.1882808]]},"properties":{"key":"way:344376020@detail:457_100","osmType":"way","osmId":344376020,"sourceRegion":"guangdong","featureType":"infrastructure","railClass":"national","mode":"rail","name":"赣韶线","ref":"0069","usage":"main","bridge":"yes","status":"operational","color":"#E54848","dataOrigin":"datum-2026-08-01","sourceKey":"way:344376020"}},{"type":"Feature","geometry":{"type":"LineString","coordinates":[[114.2660088,25.115258],[114.2678654,25.1170215]]},"properties":{"key":"way:344376021@detail:457_100","osmType":"way","osmId":344376021,"sourceRegion":"guangdong","featureType":"infrastructure","railClass":"national","mode":"rail","name":"赣韶线","ref":"0069","usage":"main","bridge":"yes","status":"operational","color":"#E54848","dataOrigin":"datum-2026-08-01","sourceKey":"way:344376021"}},{"type":"Feature","geometry":{"type":"LineString","coordinates":[[114.2828659,25.1263942],[114.2832928,25.1265606]]},"properties":{"key":"way:344376022@detail:457_100","osmType":"way","osmId":344376022,"sourceRegion":"guangdong","featureType":"infrastructure","railClass":"national","mode":"rail","name":"赣韶线","ref":"0069","usage":"main","bridge":"yes","status":"operational","color":"#E54848","dataOrigin":"datum-2026-08-01","sourceKey":"way:344376022"}},{"type":"Feature","geometry":{"type":"LineString","coordinates":[[114.2832928,25.1265606],[114.285482,25.1274139],[114.2868775,25.1279522]]},"properties":{"key":"way:344376023@detail:457_100","osmType":"way","osmId":344376023,"sourceRegion":"guangdong","featureType":"infrastructure","railClass":"national","mode":"rail","name":"赣韶线","ref":"0069","usage":"main","status":"operational","color":"#E54848","dataOrigin":"datum-2026-08-01","sourceKey":"way:344376023"}},{"type":"Feature","geometry":{"type":"LineString","coordinates":[[114.2554963,25.0894804],[114.2561229,25.0911648],[114.256487,25.0924438]]},"properties":{"key":"way:344376024@detail:457_100","osmType":"way","osmId":344376024,"sourceRegion":"guangdong","featureType":"infrastructure","railClass":"national","mode":"rail","name":"赣韶线","ref":"0069","usage":"main","status":"operational","color":"#E54848","dataOrigin":"datum-2026-08-01","sourceKey":"way:344376024"}},{"type":"Feature","geometry":{"type":"LineString","coordinates":[[114.2531736,25.0850278],[114.2536309,25.0857993],[114.254323,25.0870004],[114.2549447,25.088183],[114.2554963,25.0894804]]},"properties":{"key":"way:344376025@detail:457_100","osmType":"way","osmId":344376025,"sourceRegion":"guangdong","featureType":"infrastructure","railClass":"national","mode":"rail","name":"赣韶线","ref":"0069","usage":"main","bridge":"yes","status":"operational","color":"#E54848","dataOrigin":"datum-2026-08-01","sourceKey":"way:344376025"}},{"type":"Feature","geometry":{"type":"LineString","coordinates":[[114.3137999,25.1625582],[114.3146521,25.1638553],[114.3155758,25.1650257],[114.3164753,25.1660361],[114.3170937,25.1666394]]},"properties":{"key":"way:344376026@detail:457_100","osmType":"way","osmId":344376026,"sourceRegion":"guangdong","featureType":"infrastructure","railClass":"national","mode":"rail","name":"赣韶线","ref":"0069","usage":"main","bridge":"yes","status":"operational","color":"#E54848","dataOrigin":"datum-2026-08-01","sourceKey":"way:344376026"}},{"type":"Feature","geometry":{"type":"LineString","coordinates":[[114.2774453,25.124096],[114.278061,25.1244068],[114.2795839,25.1250934],[114.2825448,25.126269],[114.2828659,25.1263942]]},"properties":{"key":"way:344376027@detail:457_100","osmType":"way","osmId":344376027,"sourceRegion":"guangdong","featureType":"infrastructure","railClass":"national","mode":"rail","name":"赣韶线","ref":"0069","usage":"main","status":"operational","color":"#E54848","dataOrigin":"datum-2026-08-01","sourceKey":"way:344376027"}},{"type":"Feature","geometry":{"type":"LineString","coordinates":[[114.25,25.080329119182945],[114.2508298,25.0815495],[114.2524158,25.0838704],[114.2531736,25.0850278]]},"properties":{"key":"way:344376028@detail:457_100","osmType":"way","osmId":344376028,"sourceRegion":"guangdong","featureType":"infrastructure","railClass":"national","mode":"rail","name":"赣韶线","ref":"0069","usage":"main","status":"operational","color":"#E54848","dataOrigin":"datum-2026-08-01","sourceKey":"way:344376028"}},{"type":"Feature","geometry":{"type":"LineString","coordinates":[[114.2678654,25.1170215],[114.2681931,25.1173511],[114.2695037,25.1185982],[114.2707232,25.1196749],[114.2719852,25.1206912],[114.273145,25.1215246],[114.2742917,25.1223212],[114.2757236,25.1231672],[114.2767915,25.123766]]},"properties":{"key":"way:344376029@detail:457_100","osmType":"way","osmId":344376029,"sourceRegion":"guangdong","featureType":"infrastructure","railClass":"national","mode":"rail","name":"赣韶线","ref":"0069","usage":"main","status":"operational","color":"#E54848","dataOrigin":"datum-2026-08-01","sourceKey":"way:344376029"}},{"type":"Feature","geometry":{"type":"LineString","coordinates":[[114.3082379,25.1528649],[114.3091178,25.1539378],[114.3103838,25.1560872]]},"properties":{"key":"way:689157586@detail:457_100","osmType":"way","osmId":689157586,"sourceRegion":"guangdong","featureType":"infrastructure","railClass":"minor","mode":"rail","name":"未命名","service":"yard","status":"operational","color":"#52636F","dataOrigin":"datum-2026-08-01","sourceKey":"way:689157586"}},{"type":"Feature","geometry":{"type":"LineString","coordinates":[[114.3069291,25.1523451],[114.3079591,25.1539669],[114.3087208,25.154705],[114.3098654,25.1557935]]},"properties":{"key":"way:689157587@detail:457_100","osmType":"way","osmId":689157587,"sourceRegion":"guangdong","featureType":"infrastructure","railClass":"minor","mode":"rail","name":"未命名","service":"yard","status":"operational","color":"#52636F","dataOrigin":"datum-2026-08-01","sourceKey":"way:689157587"}},{"type":"Feature","geometry":{"type":"LineString","coordinates":[[114.2873168,25.1479069],[114.2954922,25.1522577],[114.2966616,25.1530103],[114.2971981,25.1532046],[114.297737,25.1532784],[114.2982012,25.1532726],[114.2986876,25.1531832],[114.2992577,25.1529759],[114.299671,25.1527384],[114.3000623,25.1524347],[114.300302,25.1521591],[114.3006205,25.1517041],[114.3028092,25.1477029],[114.303056,25.1471785],[114.3033036,25.1464393],[114.3033189,25.1457119],[114.3032008,25.1449204],[114.3029696,25.1440516],[114.3027234,25.143483],[114.302203,25.1425121],[114.3021065,25.1423321],[114.3013287,25.1410695],[114.3005615,25.1397243],[114.3001109,25.1390639]]},"properties":{"key":"way:689157599@detail:457_100","osmType":"way","osmId":689157599,"sourceRegion":"guangdong","featureType":"infrastructure","railClass":"minor","mode":"rail","name":"未命名","service":"spur","status":"operational","color":"#52636F","dataOrigin":"datum-2026-08-01","sourceKey":"way:689157599"}},{"type":"Feature","geometry":{"type":"LineString","coordinates":[[114.3026537,25.1424729],[114.3028843,25.1432451],[114.3029648,25.1435121],[114.3032277,25.1439832],[114.3035871,25.1445902],[114.3040323,25.145406],[114.3044812,25.1463223]]},"properties":{"key":"way:895287100@detail:457_100","osmType":"way","osmId":895287100,"sourceRegion":"guangdong","featureType":"infrastructure","railClass":"minor","mode":"rail","name":"未命名","service":"spur","status":"operational","color":"#52636F","dataOrigin":"datum-2026-08-01","sourceKey":"way:895287100"}},{"type":"Feature","geometry":{"type":"LineString","coordinates":[[114.3026156,25.1431435],[114.302203,25.1425121]]},"properties":{"key":"way:895287101@detail:457_100","osmType":"way","osmId":895287101,"sourceRegion":"guangdong","featureType":"infrastructure","railClass":"minor","mode":"rail","name":"未命名","service":"spur","status":"operational","color":"#52636F","dataOrigin":"datum-2026-08-01","sourceKey":"way:895287101"}},{"type":"Feature","geometry":{"type":"LineString","coordinates":[[114.3027934,25.1434466],[114.3031365,25.1443231],[114.3033886,25.1450272],[114.3038553,25.1458771],[114.3046975,25.147465],[114.3053895,25.1486935],[114.3066716,25.1508107],[114.3071866,25.1515973]]},"properties":{"key":"way:895287102@detail:457_100","osmType":"way","osmId":895287102,"sourceRegion":"guangdong","featureType":"infrastructure","railClass":"minor","mode":"rail","name":"未命名","service":"spur","status":"operational","color":"#52636F","dataOrigin":"datum-2026-08-01","sourceKey":"way:895287102"}},{"type":"Feature","geometry":{"type":"LineString","coordinates":[[114.38188745133172,25.25],[114.379051,25.246112],[114.376468,25.242583],[114.3719435,25.2346162],[114.371367,25.233464],[114.3663345,25.224535],[114.3658601,25.2237004]]},"properties":{"key":"way:1351726204@detail:457_100","osmType":"way","osmId":1351726204,"sourceRegion":"guangdong","featureType":"infrastructure","railClass":"national","mode":"rail","name":"赣韶线","ref":"0069","usage":"main","status":"operational","color":"#E54848","dataOrigin":"datum-2026-08-01","sourceKey":"way:1351726204"}},{"type":"Feature","geometry":{"type":"LineString","coordinates":[[114.3658601,25.2237004],[114.3655269,25.2231143]]},"properties":{"key":"way:1351726205@detail:457_100","osmType":"way","osmId":1351726205,"sourceRegion":"guangdong","featureType":"infrastructure","railClass":"national","mode":"rail","name":"赣韶线","ref":"0069","usage":"main","bridge":"yes","status":"operational","color":"#E54848","dataOrigin":"datum-2026-08-01","sourceKey":"way:1351726205"}},{"type":"Feature","geometry":{"type":"LineString","coordinates":[[114.3655269,25.2231143],[114.363596,25.2197178],[114.3624167,25.2179428],[114.3611756,25.2161678],[114.3587236,25.2126105],[114.3577232,25.2111109],[114.3566869,25.2097446],[114.3560832,25.2090204],[114.35557,25.2084461]]},"properties":{"key":"way:1351726206@detail:457_100","osmType":"way","osmId":1351726206,"sourceRegion":"guangdong","featureType":"infrastructure","railClass":"national","mode":"rail","name":"赣韶线","ref":"0069","usage":"main","status":"operational","color":"#E54848","dataOrigin":"datum-2026-08-01","sourceKey":"way:1351726206"}},{"type":"Feature","geometry":{"type":"LineString","coordinates":[[114.35557,25.2084461],[114.3552925,25.208146]]},"properties":{"key":"way:1351726207@detail:457_100","osmType":"way","osmId":1351726207,"sourceRegion":"guangdong","featureType":"infrastructure","railClass":"national","mode":"rail","name":"赣韶线","ref":"0069","usage":"main","bridge":"yes","status":"operational","color":"#E54848","dataOrigin":"datum-2026-08-01","sourceKey":"way:1351726207"}}]}