{"type":"FeatureCollection","features":[{"type":"Feature","geometry":{"type":"Point","coordinates":[114.4611803,23.4050024]},"properties":{"key":"node:8417536174","osmType":"node","osmId":8417536174,"sourceRegion":"guangdong","featureType":"station","railClass":"minor","mode":"station","name":"杨村镇","status":"operational","color":"#52636F","dataOrigin":"datum-2026-08-01","sourceKey":"node:8417536174","stationGroup":"杨村镇","hasOperationalRail":true,"hasConstructionRail":false}},{"type":"Feature","geometry":{"type":"Point","coordinates":[114.4605634,23.3052366]},"properties":{"key":"node:8417536175","osmType":"node","osmId":8417536175,"sourceRegion":"guangdong","featureType":"station","railClass":"minor","mode":"station","name":"泰美","status":"operational","color":"#52636F","dataOrigin":"datum-2026-08-01","sourceKey":"node:8417536175","stationGroup":"泰美","hasOperationalRail":true,"hasConstructionRail":false}},{"type":"Feature","geometry":{"type":"LineString","coordinates":[[114.4781713,23.4125795],[114.477523,23.4119807],[114.4769865,23.4115672],[114.4760853,23.4109764]]},"properties":{"key":"way:180361626@detail:457_93","osmType":"way","osmId":180361626,"sourceRegion":"guangdong","featureType":"infrastructure","railClass":"national","mode":"rail","name":"京九线","nameEn":"Jingjiu Line","ref":"0005","usage":"main","bridge":"yes","status":"operational","color":"#E54848","dataOrigin":"datum-2026-08-01","sourceKey":"way:180361626"}},{"type":"Feature","geometry":{"type":"LineString","coordinates":[[114.4739909,23.4101495],[114.4728935,23.4098195],[114.4718581,23.4096374],[114.4696934,23.4092434],[114.4682747,23.408958],[114.4672877,23.4087168],[114.4665849,23.4084707],[114.4657373,23.4080227],[114.4647825,23.4074369],[114.4608128,23.4047834],[114.4542146,23.4004412],[114.4532973,23.399747],[114.4526321,23.399171],[114.4519186,23.3984128],[114.4513285,23.3974872],[114.4508994,23.396473],[114.4506258,23.3955228],[114.4502897,23.3931887],[114.44872,23.3780694],[114.4481835,23.3761129],[114.4473757,23.3744872],[114.4449727,23.3699996],[114.4437299,23.3674516],[114.442342,23.363287],[114.4423005,23.3621556],[114.4424248,23.3607674],[114.4441752,23.3554616],[114.4444963,23.3542064],[114.4445481,23.3530939],[114.4441954,23.3430557]]},"properties":{"key":"way:180361658@detail:457_93","osmType":"way","osmId":180361658,"sourceRegion":"guangdong","featureType":"infrastructure","railClass":"national","mode":"rail","name":"京九线","nameEn":"Jingjiu Line","ref":"0005","usage":"main","status":"operational","color":"#E54848","dataOrigin":"datum-2026-08-01","sourceKey":"way:180361658"}},{"type":"Feature","geometry":{"type":"LineString","coordinates":[[114.4638049,23.3140136],[114.4637851,23.3137227]]},"properties":{"key":"way:549420396@detail:457_93","osmType":"way","osmId":549420396,"sourceRegion":"guangdong","featureType":"infrastructure","railClass":"national","mode":"rail","name":"京九线","nameEn":"Jingjiu Line","ref":"0005","usage":"main","bridge":"yes","status":"operational","color":"#E54848","dataOrigin":"datum-2026-08-01","sourceKey":"way:549420396"}},{"type":"Feature","geometry":{"type":"LineString","coordinates":[[114.4488615,23.271536],[114.4484525,23.2705398],[114.4479063,23.2696365],[114.4470521,23.2684189],[114.4465213,23.2674411],[114.4462627,23.2667367],[114.4458756,23.2653324],[114.4430266,23.2539996],[114.4425851,23.2524825],[114.4422694,23.2517191],[114.4418965,23.2510513],[114.44121100144258,23.25]]},"properties":{"key":"way:549420397@detail:457_93","osmType":"way","osmId":549420397,"sourceRegion":"guangdong","featureType":"infrastructure","railClass":"national","mode":"rail","name":"京九线","nameEn":"Jingjiu Line","ref":"0005","usage":"main","status":"operational","color":"#E54848","dataOrigin":"datum-2026-08-01","sourceKey":"way:549420397"}},{"type":"Feature","geometry":{"type":"LineString","coordinates":[[114.4739909,23.4101495],[114.4749963,23.4105383],[114.4755918,23.4108927],[114.476096,23.4112275]]},"properties":{"key":"way:549420402@detail:457_93","osmType":"way","osmId":549420402,"sourceRegion":"guangdong","featureType":"infrastructure","railClass":"national","mode":"rail","name":"京九线","nameEn":"Jingjiu Line","ref":"0005","usage":"main","status":"operational","color":"#E54848","dataOrigin":"datum-2026-08-01","sourceKey":"way:549420402"}},{"type":"Feature","geometry":{"type":"LineString","coordinates":[[114.476096,23.4112275],[114.4779307,23.412724]]},"properties":{"key":"way:549420403@detail:457_93","osmType":"way","osmId":549420403,"sourceRegion":"guangdong","featureType":"infrastructure","railClass":"national","mode":"rail","name":"京九线","nameEn":"Jingjiu Line","ref":"0005","usage":"main","bridge":"yes","status":"operational","color":"#E54848","dataOrigin":"datum-2026-08-01","sourceKey":"way:549420403"}},{"type":"Feature","geometry":{"type":"LineString","coordinates":[[114.4779307,23.412724],[114.4794381,23.4139596],[114.4803111,23.4147035]]},"properties":{"key":"way:549420404@detail:457_93","osmType":"way","osmId":549420404,"sourceRegion":"guangdong","featureType":"infrastructure","railClass":"national","mode":"rail","name":"京九线","nameEn":"Jingjiu Line","ref":"0005","usage":"main","status":"operational","color":"#E54848","dataOrigin":"datum-2026-08-01","sourceKey":"way:549420404"}},{"type":"Feature","geometry":{"type":"LineString","coordinates":[[114.4760853,23.4109764],[114.4754416,23.4106417],[114.4746637,23.4103118],[114.4740042,23.4101064]]},"properties":{"key":"way:549420405@detail:457_93","osmType":"way","osmId":549420405,"sourceRegion":"guangdong","featureType":"infrastructure","railClass":"national","mode":"rail","name":"京九线","nameEn":"Jingjiu Line","ref":"0005","usage":"main","status":"operational","color":"#E54848","dataOrigin":"datum-2026-08-01","sourceKey":"way:549420405"}},{"type":"Feature","geometry":{"type":"LineString","coordinates":[[114.4937186,23.4306646],[114.4935926,23.4304243]]},"properties":{"key":"way:549420406@detail:457_93","osmType":"way","osmId":549420406,"sourceRegion":"guangdong","featureType":"infrastructure","railClass":"national","mode":"rail","name":"京九线","nameEn":"Jingjiu Line","ref":"0005","usage":"main","bridge":"yes","status":"operational","color":"#E54848","dataOrigin":"datum-2026-08-01","sourceKey":"way:549420406"}},{"type":"Feature","geometry":{"type":"LineString","coordinates":[[114.4935926,23.4304243],[114.4923363,23.4277314],[114.4909823,23.4250352],[114.4903386,23.4240212],[114.4896197,23.4229974],[114.4886541,23.4217865],[114.487077,23.4202999],[114.4854033,23.4188527],[114.4803111,23.4147035]]},"properties":{"key":"way:549420407@detail:457_93","osmType":"way","osmId":549420407,"sourceRegion":"guangdong","featureType":"infrastructure","railClass":"national","mode":"rail","name":"京九线","nameEn":"Jingjiu Line","ref":"0005","usage":"main","status":"operational","color":"#E54848","dataOrigin":"datum-2026-08-01","sourceKey":"way:549420407"}},{"type":"Feature","geometry":{"type":"LineString","coordinates":[[114.4991146,23.4418358],[114.4972192,23.4379202],[114.495315,23.4340101],[114.4937186,23.4306646]]},"properties":{"key":"way:604406133@detail:457_93","osmType":"way","osmId":604406133,"sourceRegion":"guangdong","featureType":"infrastructure","railClass":"national","mode":"rail","name":"京九线","nameEn":"Jingjiu Line","ref":"0005","usage":"main","status":"operational","color":"#E54848","dataOrigin":"datum-2026-08-01","sourceKey":"way:604406133"}},{"type":"Feature","geometry":{"type":"LineString","coordinates":[[114.4637713,23.3148532],[114.4637968,23.3144222],[114.4638049,23.3140136]]},"properties":{"key":"way:607173397@detail:457_93","osmType":"way","osmId":607173397,"sourceRegion":"guangdong","featureType":"infrastructure","railClass":"national","mode":"rail","name":"京九线","nameEn":"Jingjiu Line","ref":"0005","usage":"main","status":"operational","color":"#E54848","dataOrigin":"datum-2026-08-01","sourceKey":"way:607173397"}},{"type":"Feature","geometry":{"type":"LineString","coordinates":[[114.4636651,23.3156157],[114.4637136,23.3153298],[114.4637713,23.3148532]]},"properties":{"key":"way:607173398@detail:457_93","osmType":"way","osmId":607173398,"sourceRegion":"guangdong","featureType":"infrastructure","railClass":"national","mode":"rail","name":"京九线","nameEn":"Jingjiu Line","ref":"0005","usage":"main","bridge":"yes","status":"operational","color":"#E54848","dataOrigin":"datum-2026-08-01","sourceKey":"way:607173398"}},{"type":"Feature","geometry":{"type":"LineString","coordinates":[[114.4634145,23.3166842],[114.4635433,23.3161353],[114.4636651,23.3156157]]},"properties":{"key":"way:607173399@detail:457_93","osmType":"way","osmId":607173399,"sourceRegion":"guangdong","featureType":"infrastructure","railClass":"national","mode":"rail","name":"京九线","nameEn":"Jingjiu Line","ref":"0005","usage":"main","status":"operational","color":"#E54848","dataOrigin":"datum-2026-08-01","sourceKey":"way:607173399"}},{"type":"Feature","geometry":{"type":"LineString","coordinates":[[114.46298,23.3183213],[114.4634145,23.3166842]]},"properties":{"key":"way:607173400@detail:457_93","osmType":"way","osmId":607173400,"sourceRegion":"guangdong","featureType":"infrastructure","railClass":"national","mode":"rail","name":"京九线","nameEn":"Jingjiu Line","ref":"0005","usage":"main","bridge":"yes","status":"operational","color":"#E54848","dataOrigin":"datum-2026-08-01","sourceKey":"way:607173400"}},{"type":"Feature","geometry":{"type":"LineString","coordinates":[[114.4991706,23.4418138],[114.4972782,23.4379086],[114.4953742,23.4339952],[114.493758,23.4306522]]},"properties":{"key":"way:721540108@detail:457_93","osmType":"way","osmId":721540108,"sourceRegion":"guangdong","featureType":"infrastructure","railClass":"national","mode":"rail","name":"京九线","nameEn":"Jingjiu Line","ref":"0005","usage":"main","status":"operational","color":"#E54848","dataOrigin":"datum-2026-08-01","sourceKey":"way:721540108"}},{"type":"Feature","geometry":{"type":"LineString","coordinates":[[114.493758,23.4306522],[114.4936321,23.4303935]]},"properties":{"key":"way:721540109@detail:457_93","osmType":"way","osmId":721540109,"sourceRegion":"guangdong","featureType":"infrastructure","railClass":"national","mode":"rail","name":"京九线","nameEn":"Jingjiu Line","ref":"0005","usage":"main","bridge":"yes","status":"operational","color":"#E54848","dataOrigin":"datum-2026-08-01","sourceKey":"way:721540109"}},{"type":"Feature","geometry":{"type":"LineString","coordinates":[[114.4936321,23.4303935],[114.4923757,23.4277152],[114.4910206,23.4250169],[114.4903754,23.4240005],[114.4896553,23.422975],[114.4886871,23.4217609],[114.4871073,23.4202717],[114.4854324,23.4188235],[114.4803398,23.4146739],[114.4796795,23.4140827],[114.4781713,23.4125795]]},"properties":{"key":"way:721540110@detail:457_93","osmType":"way","osmId":721540110,"sourceRegion":"guangdong","featureType":"infrastructure","railClass":"national","mode":"rail","name":"京九线","nameEn":"Jingjiu Line","ref":"0005","usage":"main","status":"operational","color":"#E54848","dataOrigin":"datum-2026-08-01","sourceKey":"way:721540110"}},{"type":"Feature","geometry":{"type":"LineString","coordinates":[[114.4491431,23.2716037],[114.4485386,23.270484],[114.447949,23.2696098],[114.4470961,23.2683818],[114.4465668,23.2674234],[114.4463126,23.2667279],[114.4459223,23.2653106],[114.4430899,23.254003],[114.4426518,23.252479],[114.4423307,23.2517013],[114.4419429,23.251006],[114.4412803660327,23.25]]},"properties":{"key":"way:721540112@detail:457_93","osmType":"way","osmId":721540112,"sourceRegion":"guangdong","featureType":"infrastructure","railClass":"national","mode":"rail","name":"京九线","nameEn":"Jingjiu Line","ref":"0005","usage":"main","status":"operational","color":"#E54848","dataOrigin":"datum-2026-08-01","sourceKey":"way:721540112"}},{"type":"Feature","geometry":{"type":"LineString","coordinates":[[114.4740042,23.4101064],[114.4729047,23.4097759],[114.4718674,23.4095935],[114.4697034,23.4091996],[114.4682862,23.4089145],[114.4673027,23.4086742],[114.4666059,23.4084302],[114.465763,23.4079847],[114.4648104,23.4074002],[114.4608413,23.4047472],[114.4542443,23.4004057],[114.4533296,23.3997134],[114.4526674,23.39914],[114.4519584,23.3983867],[114.4513725,23.3974677],[114.4509458,23.3964591],[114.4506737,23.3955141],[114.4503381,23.3931836],[114.4487682,23.3780618],[114.4482297,23.376098],[114.4474197,23.374468],[114.4450168,23.3699806],[114.4437756,23.3674359],[114.4423905,23.3632796],[114.4423493,23.3621567],[114.4424729,23.3607758],[114.4442223,23.3554732],[114.4445448,23.3542125],[114.4445969,23.3530941],[114.4442439,23.3430469]]},"properties":{"key":"way:721540113@detail:457_93","osmType":"way","osmId":721540113,"sourceRegion":"guangdong","featureType":"infrastructure","railClass":"national","mode":"rail","name":"京九线","nameEn":"Jingjiu Line","ref":"0005","usage":"main","status":"operational","color":"#E54848","dataOrigin":"datum-2026-08-01","sourceKey":"way:721540113"}},{"type":"Feature","geometry":{"type":"LineString","coordinates":[[114.4630273,23.3183321],[114.463462,23.3166942]]},"properties":{"key":"way:721540114@detail:457_93","osmType":"way","osmId":721540114,"sourceRegion":"guangdong","featureType":"infrastructure","railClass":"national","mode":"rail","name":"京九线","nameEn":"Jingjiu Line","ref":"0005","usage":"main","bridge":"yes","status":"operational","color":"#E54848","dataOrigin":"datum-2026-08-01","sourceKey":"way:721540114"}},{"type":"Feature","geometry":{"type":"LineString","coordinates":[[114.463462,23.3166942],[114.4635909,23.3161447],[114.463713,23.3156239]]},"properties":{"key":"way:721540115@detail:457_93","osmType":"way","osmId":721540115,"sourceRegion":"guangdong","featureType":"infrastructure","railClass":"national","mode":"rail","name":"京九线","nameEn":"Jingjiu Line","ref":"0005","usage":"main","status":"operational","color":"#E54848","dataOrigin":"datum-2026-08-01","sourceKey":"way:721540115"}},{"type":"Feature","geometry":{"type":"LineString","coordinates":[[114.463713,23.3156239],[114.4637619,23.3153357],[114.4638199,23.3148569]]},"properties":{"key":"way:721540116@detail:457_93","osmType":"way","osmId":721540116,"sourceRegion":"guangdong","featureType":"infrastructure","railClass":"national","mode":"rail","name":"京九线","nameEn":"Jingjiu Line","ref":"0005","usage":"main","bridge":"yes","status":"operational","color":"#E54848","dataOrigin":"datum-2026-08-01","sourceKey":"way:721540116"}},{"type":"Feature","geometry":{"type":"LineString","coordinates":[[114.4638199,23.3148569],[114.4638455,23.3144238],[114.4638537,23.3140126]]},"properties":{"key":"way:721540117@detail:457_93","osmType":"way","osmId":721540117,"sourceRegion":"guangdong","featureType":"infrastructure","railClass":"national","mode":"rail","name":"京九线","nameEn":"Jingjiu Line","ref":"0005","usage":"main","status":"operational","color":"#E54848","dataOrigin":"datum-2026-08-01","sourceKey":"way:721540117"}},{"type":"Feature","geometry":{"type":"LineString","coordinates":[[114.4638537,23.3140126],[114.4638336,23.3137183]]},"properties":{"key":"way:721540118@detail:457_93","osmType":"way","osmId":721540118,"sourceRegion":"guangdong","featureType":"infrastructure","railClass":"national","mode":"rail","name":"京九线","nameEn":"Jingjiu Line","ref":"0005","usage":"main","bridge":"yes","status":"operational","color":"#E54848","dataOrigin":"datum-2026-08-01","sourceKey":"way:721540118"}},{"type":"Feature","geometry":{"type":"LineString","coordinates":[[114.5,23.362792137148848],[114.498449,23.359043],[114.4954192,23.3490297],[114.4916003,23.3233474],[114.4891473,23.3122477],[114.4884735,23.3101792],[114.4876753,23.3081108],[114.4859643,23.3040606],[114.4846104,23.3013329],[114.4831112,23.2985671],[114.4805465,23.294524],[114.4781855,23.2912711],[114.4766036,23.2891866],[114.4733242,23.2854336],[114.4677394,23.2789778]]},"properties":{"key":"way:960214925@detail:457_93","osmType":"way","osmId":960214925,"sourceRegion":"guangdong","featureType":"infrastructure","railClass":"highspeed","mode":"rail","name":"京港高速线","nameEn":"Jinggang High-Speed Line","ref":"3003","usage":"main","highspeed":"yes","bridge":"yes","status":"operational","color":"#E54848","dataOrigin":"datum-2026-08-01","sourceKey":"way:960214925"}},{"type":"Feature","geometry":{"type":"LineString","coordinates":[[114.4667605,23.2778108],[114.4677394,23.2789778]]},"properties":{"key":"way:960214926@detail:457_93","osmType":"way","osmId":960214926,"sourceRegion":"guangdong","featureType":"infrastructure","railClass":"highspeed","mode":"rail","name":"京港高速线","nameEn":"Jinggang High-Speed Line","ref":"3003","usage":"main","highspeed":"yes","tunnel":"yes","status":"operational","color":"#E54848","dataOrigin":"datum-2026-08-01","sourceKey":"way:960214926"}},{"type":"Feature","geometry":{"type":"LineString","coordinates":[[114.466188,23.2770915],[114.4667605,23.2778108]]},"properties":{"key":"way:960214927@detail:457_93","osmType":"way","osmId":960214927,"sourceRegion":"guangdong","featureType":"infrastructure","railClass":"highspeed","mode":"rail","name":"京港高速线","nameEn":"Jinggang High-Speed Line","ref":"3003","usage":"main","highspeed":"yes","bridge":"yes","status":"operational","color":"#E54848","dataOrigin":"datum-2026-08-01","sourceKey":"way:960214927"}},{"type":"Feature","geometry":{"type":"LineString","coordinates":[[114.4650595,23.2755517],[114.466188,23.2770915]]},"properties":{"key":"way:960214928@detail:457_93","osmType":"way","osmId":960214928,"sourceRegion":"guangdong","featureType":"infrastructure","railClass":"highspeed","mode":"rail","name":"京港高速线","nameEn":"Jinggang High-Speed Line","ref":"3003","usage":"main","highspeed":"yes","tunnel":"yes","status":"operational","color":"#E54848","dataOrigin":"datum-2026-08-01","sourceKey":"way:960214928"}},{"type":"Feature","geometry":{"type":"LineString","coordinates":[[114.4641874,23.2743618],[114.4650595,23.2755517]]},"properties":{"key":"way:960214929@detail:457_93","osmType":"way","osmId":960214929,"sourceRegion":"guangdong","featureType":"infrastructure","railClass":"highspeed","mode":"rail","name":"京港高速线","nameEn":"Jinggang High-Speed Line","ref":"3003","usage":"main","highspeed":"yes","bridge":"yes","status":"operational","color":"#E54848","dataOrigin":"datum-2026-08-01","sourceKey":"way:960214929"}},{"type":"Feature","geometry":{"type":"LineString","coordinates":[[114.4615342,23.2706558],[114.4641874,23.2743618]]},"properties":{"key":"way:960214930@detail:457_93","osmType":"way","osmId":960214930,"sourceRegion":"guangdong","featureType":"infrastructure","railClass":"highspeed","mode":"rail","name":"京港高速线","nameEn":"Jinggang High-Speed Line","ref":"3003","usage":"main","highspeed":"yes","tunnel":"yes","status":"operational","color":"#E54848","dataOrigin":"datum-2026-08-01","sourceKey":"way:960214930"}},{"type":"Feature","geometry":{"type":"LineString","coordinates":[[114.4498103,23.2537667],[114.4580993,23.2660541],[114.4615342,23.2706558]]},"properties":{"key":"way:960214931@detail:457_93","osmType":"way","osmId":960214931,"sourceRegion":"guangdong","featureType":"infrastructure","railClass":"highspeed","mode":"rail","name":"京港高速线","nameEn":"Jinggang High-Speed Line","ref":"3003","usage":"main","highspeed":"yes","bridge":"yes","status":"operational","color":"#E54848","dataOrigin":"datum-2026-08-01","sourceKey":"way:960214931"}},{"type":"Feature","geometry":{"type":"LineString","coordinates":[[114.4481882,23.2513912],[114.4498103,23.2537667]]},"properties":{"key":"way:960214932@detail:457_93","osmType":"way","osmId":960214932,"sourceRegion":"guangdong","featureType":"infrastructure","railClass":"highspeed","mode":"rail","name":"京港高速线","nameEn":"Jinggang High-Speed Line","ref":"3003","usage":"main","highspeed":"yes","tunnel":"yes","status":"operational","color":"#E54848","dataOrigin":"datum-2026-08-01","sourceKey":"way:960214932"}},{"type":"Feature","geometry":{"type":"LineString","coordinates":[[114.44723828277014,23.25],[114.4481882,23.2513912]]},"properties":{"key":"way:960214933@detail:457_93","osmType":"way","osmId":960214933,"sourceRegion":"guangdong","featureType":"infrastructure","railClass":"highspeed","mode":"rail","name":"京港高速线","nameEn":"Jinggang High-Speed Line","ref":"3003","usage":"main","highspeed":"yes","bridge":"yes","status":"operational","color":"#E54848","dataOrigin":"datum-2026-08-01","sourceKey":"way:960214933"}},{"type":"Feature","geometry":{"type":"LineString","coordinates":[[114.44739108085919,23.25],[114.4482878,23.2513133]]},"properties":{"key":"way:1017506081@detail:457_93","osmType":"way","osmId":1017506081,"sourceRegion":"guangdong","featureType":"infrastructure","railClass":"highspeed","mode":"rail","name":"京港高速线","nameEn":"Jinggang High-Speed Line","ref":"3003","usage":"main","highspeed":"yes","bridge":"yes","status":"operational","color":"#E54848","dataOrigin":"datum-2026-08-01","sourceKey":"way:1017506081"}},{"type":"Feature","geometry":{"type":"LineString","coordinates":[[114.4499043,23.253689],[114.4482878,23.2513133]]},"properties":{"key":"way:1017506082@detail:457_93","osmType":"way","osmId":1017506082,"sourceRegion":"guangdong","featureType":"infrastructure","railClass":"highspeed","mode":"rail","name":"京港高速线","nameEn":"Jinggang High-Speed Line","ref":"3003","usage":"main","highspeed":"yes","tunnel":"yes","status":"operational","color":"#E54848","dataOrigin":"datum-2026-08-01","sourceKey":"way:1017506082"}},{"type":"Feature","geometry":{"type":"LineString","coordinates":[[114.4616282,23.2705781],[114.4581933,23.2659764],[114.4499043,23.253689]]},"properties":{"key":"way:1017506083@detail:457_93","osmType":"way","osmId":1017506083,"sourceRegion":"guangdong","featureType":"infrastructure","railClass":"highspeed","mode":"rail","name":"京港高速线","nameEn":"Jinggang High-Speed Line","ref":"3003","usage":"main","highspeed":"yes","bridge":"yes","status":"operational","color":"#E54848","dataOrigin":"datum-2026-08-01","sourceKey":"way:1017506083"}},{"type":"Feature","geometry":{"type":"LineString","coordinates":[[114.4642837,23.2742834],[114.4616282,23.2705781]]},"properties":{"key":"way:1017506084@detail:457_93","osmType":"way","osmId":1017506084,"sourceRegion":"guangdong","featureType":"infrastructure","railClass":"highspeed","mode":"rail","name":"京港高速线","nameEn":"Jinggang High-Speed Line","ref":"3003","usage":"main","highspeed":"yes","tunnel":"yes","status":"operational","color":"#E54848","dataOrigin":"datum-2026-08-01","sourceKey":"way:1017506084"}},{"type":"Feature","geometry":{"type":"LineString","coordinates":[[114.465182,23.2754935],[114.4642837,23.2742834]]},"properties":{"key":"way:1017506085@detail:457_93","osmType":"way","osmId":1017506085,"sourceRegion":"guangdong","featureType":"infrastructure","railClass":"highspeed","mode":"rail","name":"京港高速线","nameEn":"Jinggang High-Speed Line","ref":"3003","usage":"main","highspeed":"yes","bridge":"yes","status":"operational","color":"#E54848","dataOrigin":"datum-2026-08-01","sourceKey":"way:1017506085"}},{"type":"Feature","geometry":{"type":"LineString","coordinates":[[114.4663083,23.2770275],[114.465182,23.2754935]]},"properties":{"key":"way:1017506086@detail:457_93","osmType":"way","osmId":1017506086,"sourceRegion":"guangdong","featureType":"infrastructure","railClass":"highspeed","mode":"rail","name":"京港高速线","nameEn":"Jinggang High-Speed Line","ref":"3003","usage":"main","highspeed":"yes","tunnel":"yes","status":"operational","color":"#E54848","dataOrigin":"datum-2026-08-01","sourceKey":"way:1017506086"}},{"type":"Feature","geometry":{"type":"LineString","coordinates":[[114.4668797,23.2777356],[114.4663083,23.2770275]]},"properties":{"key":"way:1017506087@detail:457_93","osmType":"way","osmId":1017506087,"sourceRegion":"guangdong","featureType":"infrastructure","railClass":"highspeed","mode":"rail","name":"京港高速线","nameEn":"Jinggang High-Speed Line","ref":"3003","usage":"main","highspeed":"yes","bridge":"yes","status":"operational","color":"#E54848","dataOrigin":"datum-2026-08-01","sourceKey":"way:1017506087"}},{"type":"Feature","geometry":{"type":"LineString","coordinates":[[114.4678544,23.2789023],[114.4668797,23.2777356]]},"properties":{"key":"way:1017506088@detail:457_93","osmType":"way","osmId":1017506088,"sourceRegion":"guangdong","featureType":"infrastructure","railClass":"highspeed","mode":"rail","name":"京港高速线","nameEn":"Jinggang High-Speed Line","ref":"3003","usage":"main","highspeed":"yes","tunnel":"yes","status":"operational","color":"#E54848","dataOrigin":"datum-2026-08-01","sourceKey":"way:1017506088"}},{"type":"Feature","geometry":{"type":"LineString","coordinates":[[114.444228,23.3425962],[114.4441929,23.3415958],[114.4441206,23.3392427],[114.4444502,23.3377861],[114.4448825,23.3366332],[114.4455089,23.3356902],[114.446725,23.3344885],[114.4498593,23.3322943],[114.4581766,23.326797],[114.4598786,23.3255676],[114.4609522,23.324553],[114.4615902,23.3234966],[114.4630273,23.3183321]]},"properties":{"key":"way:1329600904@detail:457_93","osmType":"way","osmId":1329600904,"sourceRegion":"guangdong","featureType":"infrastructure","railClass":"national","mode":"rail","name":"京九线","nameEn":"Jingjiu Line","ref":"0005","usage":"main","status":"operational","color":"#E54848","dataOrigin":"datum-2026-08-01","sourceKey":"way:1329600904"}},{"type":"Feature","geometry":{"type":"LineString","coordinates":[[114.4442439,23.3430469],[114.444228,23.3425962]]},"properties":{"key":"way:1329600905@detail:457_93","osmType":"way","osmId":1329600905,"sourceRegion":"guangdong","featureType":"infrastructure","railClass":"national","mode":"rail","name":"京九线","nameEn":"Jingjiu Line","ref":"0005","usage":"main","bridge":"yes","status":"operational","color":"#E54848","dataOrigin":"datum-2026-08-01","sourceKey":"way:1329600905"}},{"type":"Feature","geometry":{"type":"LineString","coordinates":[[114.4441795,23.3426014],[114.4441442,23.3415972],[114.4440717,23.3392387],[114.4444031,23.3377742],[114.4448381,23.336614],[114.4454699,23.335663],[114.4466921,23.3344552],[114.4498303,23.3322583],[114.4581473,23.3267612],[114.4598459,23.3255343],[114.4609127,23.3245261],[114.4615445,23.3234799],[114.46298,23.3183213]]},"properties":{"key":"way:1329600906@detail:457_93","osmType":"way","osmId":1329600906,"sourceRegion":"guangdong","featureType":"infrastructure","railClass":"national","mode":"rail","name":"京九线","nameEn":"Jingjiu Line","ref":"0005","usage":"main","status":"operational","color":"#E54848","dataOrigin":"datum-2026-08-01","sourceKey":"way:1329600906"}},{"type":"Feature","geometry":{"type":"LineString","coordinates":[[114.4441954,23.3430557],[114.4441795,23.3426014]]},"properties":{"key":"way:1329600907@detail:457_93","osmType":"way","osmId":1329600907,"sourceRegion":"guangdong","featureType":"infrastructure","railClass":"national","mode":"rail","name":"京九线","nameEn":"Jingjiu Line","ref":"0005","usage":"main","bridge":"yes","status":"operational","color":"#E54848","dataOrigin":"datum-2026-08-01","sourceKey":"way:1329600907"}},{"type":"Feature","geometry":{"type":"LineString","coordinates":[[114.4556827,23.2925762],[114.455521,23.29203]]},"properties":{"key":"way:1329600915@detail:457_93","osmType":"way","osmId":1329600915,"sourceRegion":"guangdong","featureType":"infrastructure","railClass":"national","mode":"rail","name":"京九线","nameEn":"Jingjiu Line","ref":"0005","usage":"main","bridge":"yes","status":"operational","color":"#E54848","dataOrigin":"datum-2026-08-01","sourceKey":"way:1329600915"}},{"type":"Feature","geometry":{"type":"LineString","coordinates":[[114.4638336,23.3137183],[114.4637497,23.3131469],[114.4636581,23.3126495],[114.4635285,23.3121603],[114.4633694,23.3117274],[114.4630177,23.3108398],[114.461242,23.3065361],[114.4588622,23.3007912],[114.4569663,23.2962542],[114.4556827,23.2925762]]},"properties":{"key":"way:1329600916@detail:457_93","osmType":"way","osmId":1329600916,"sourceRegion":"guangdong","featureType":"infrastructure","railClass":"national","mode":"rail","name":"京九线","nameEn":"Jingjiu Line","ref":"0005","usage":"main","status":"operational","color":"#E54848","dataOrigin":"datum-2026-08-01","sourceKey":"way:1329600916"}},{"type":"Feature","geometry":{"type":"LineString","coordinates":[[114.4553872,23.2922411],[114.4553133,23.2920071]]},"properties":{"key":"way:1329600917@detail:457_93","osmType":"way","osmId":1329600917,"sourceRegion":"guangdong","featureType":"infrastructure","railClass":"national","mode":"rail","name":"京九线","nameEn":"Jingjiu Line","ref":"0005","usage":"main","bridge":"yes","status":"operational","color":"#E54848","dataOrigin":"datum-2026-08-01","sourceKey":"way:1329600917"}},{"type":"Feature","geometry":{"type":"LineString","coordinates":[[114.4637851,23.3137227],[114.4637015,23.3131536],[114.4636103,23.3126585],[114.4634817,23.3121728],[114.4633234,23.3117422],[114.462972,23.3108554],[114.4611964,23.306552],[114.4588167,23.3008072],[114.4569201,23.2962685],[114.4553872,23.2922411]]},"properties":{"key":"way:1329600918@detail:457_93","osmType":"way","osmId":1329600918,"sourceRegion":"guangdong","featureType":"infrastructure","railClass":"national","mode":"rail","name":"京九线","nameEn":"Jingjiu Line","ref":"0005","usage":"main","status":"operational","color":"#E54848","dataOrigin":"datum-2026-08-01","sourceKey":"way:1329600918"}},{"type":"Feature","geometry":{"type":"LineString","coordinates":[[114.5,23.443481650310563],[114.4997568,23.4429809],[114.4992855,23.4420479]]},"properties":{"key":"way:1395644035@detail:457_93","osmType":"way","osmId":1395644035,"sourceRegion":"guangdong","featureType":"infrastructure","railClass":"national","mode":"rail","name":"京九线","nameEn":"Jingjiu Line","ref":"0005","usage":"main","status":"operational","color":"#E54848","dataOrigin":"datum-2026-08-01","sourceKey":"way:1395644035"}},{"type":"Feature","geometry":{"type":"LineString","coordinates":[[114.5,23.44362097293902],[114.4996987,23.4430056],[114.4992336,23.4420578]]},"properties":{"key":"way:1395644036@detail:457_93","osmType":"way","osmId":1395644036,"sourceRegion":"guangdong","featureType":"infrastructure","railClass":"national","mode":"rail","name":"京九线","nameEn":"Jingjiu Line","ref":"0005","usage":"main","status":"operational","color":"#E54848","dataOrigin":"datum-2026-08-01","sourceKey":"way:1395644036"}},{"type":"Feature","geometry":{"type":"LineString","coordinates":[[114.4992855,23.4420479],[114.4991706,23.4418138]]},"properties":{"key":"way:1395644037@detail:457_93","osmType":"way","osmId":1395644037,"sourceRegion":"guangdong","featureType":"infrastructure","railClass":"national","mode":"rail","name":"京九线","nameEn":"Jingjiu Line","ref":"0005","usage":"main","bridge":"yes","status":"operational","color":"#E54848","dataOrigin":"datum-2026-08-01","sourceKey":"way:1395644037"}},{"type":"Feature","geometry":{"type":"LineString","coordinates":[[114.4992336,23.4420578],[114.4991146,23.4418358]]},"properties":{"key":"way:1395644038@detail:457_93","osmType":"way","osmId":1395644038,"sourceRegion":"guangdong","featureType":"infrastructure","railClass":"national","mode":"rail","name":"京九线","nameEn":"Jingjiu Line","ref":"0005","usage":"main","bridge":"yes","status":"operational","color":"#E54848","dataOrigin":"datum-2026-08-01","sourceKey":"way:1395644038"}},{"type":"Feature","geometry":{"type":"LineString","coordinates":[[114.4553133,23.2920071],[114.4524043,23.2820744],[114.4515223,23.279529],[114.4510405,23.2780587],[114.4507115,23.2770548],[114.4499121,23.2746606],[114.4497828,23.2742652],[114.4489681,23.2718519]]},"properties":{"key":"way:1491639878@detail:457_93","osmType":"way","osmId":1491639878,"sourceRegion":"guangdong","featureType":"infrastructure","railClass":"national","mode":"rail","name":"京九线","nameEn":"Jingjiu Line","ref":"0005","usage":"main","status":"operational","color":"#E54848","dataOrigin":"datum-2026-08-01","sourceKey":"way:1491639878"}},{"type":"Feature","geometry":{"type":"LineString","coordinates":[[114.4489681,23.2718519],[114.4488615,23.271536]]},"properties":{"key":"way:1491639879@detail:457_93","osmType":"way","osmId":1491639879,"sourceRegion":"guangdong","featureType":"infrastructure","railClass":"national","mode":"rail","name":"京九线","nameEn":"Jingjiu Line","ref":"0005","usage":"main","bridge":"yes","status":"operational","color":"#E54848","dataOrigin":"datum-2026-08-01","sourceKey":"way:1491639879"}},{"type":"Feature","geometry":{"type":"LineString","coordinates":[[114.455521,23.29203],[114.4524511,23.2820618],[114.4515709,23.2795072],[114.451111,23.2780365],[114.4508492,23.2770038],[114.4501699,23.274521],[114.4500383,23.2741404],[114.4492801,23.2719415]]},"properties":{"key":"way:1491639880@detail:457_93","osmType":"way","osmId":1491639880,"sourceRegion":"guangdong","featureType":"infrastructure","railClass":"national","mode":"rail","name":"京九线","nameEn":"Jingjiu Line","ref":"0005","usage":"main","status":"operational","color":"#E54848","dataOrigin":"datum-2026-08-01","sourceKey":"way:1491639880"}},{"type":"Feature","geometry":{"type":"LineString","coordinates":[[114.4492801,23.2719415],[114.4491431,23.2716037]]},"properties":{"key":"way:1491639881@detail:457_93","osmType":"way","osmId":1491639881,"sourceRegion":"guangdong","featureType":"infrastructure","railClass":"national","mode":"rail","name":"京九线","nameEn":"Jingjiu Line","ref":"0005","usage":"main","bridge":"yes","status":"operational","color":"#E54848","dataOrigin":"datum-2026-08-01","sourceKey":"way:1491639881"}}]}