{"type":"FeatureCollection","features":[{"type":"Feature","geometry":{"type":"LineString","coordinates":[[114.5679214,22.7021394],[114.5678706,22.7026572],[114.5678813,22.7041617],[114.567833,22.7046841],[114.5677666,22.7055167],[114.5678001,22.7074744],[114.5677786,22.7087567],[114.567794,22.7091854],[114.5678171,22.7096265],[114.5678614,22.7100603],[114.567892,22.7120622],[114.5679,22.7137026],[114.5678517,22.7143533],[114.5677659,22.7148828],[114.5676349,22.7154583],[114.5674089,22.7160683],[114.5673537,22.7161928],[114.5671159,22.7166744],[114.5667685,22.7172227],[114.5666701,22.7173675],[114.5664504,22.7177092],[114.5659816,22.718242],[114.5656803,22.7185122],[114.5653496,22.7188018],[114.564931,22.7191261],[114.5643283,22.7195238],[114.5633489,22.7200411],[114.5616914,22.7208866],[114.560532,22.7214696],[114.5593684,22.7220719],[114.5585815,22.7225892],[114.5579871,22.7231491],[114.5576983,22.7235081],[114.5573467,22.7239946],[114.5570663,22.7245196]]},"properties":{"key":"way:103216343@detail:458_90","osmType":"way","osmId":103216343,"sourceRegion":"shenzhen","featureType":"infrastructure","railClass":"minor","mode":"rail","name":"港口区连接线","usage":"industrial","status":"operational","color":"#52636f","sourceKey":"way:103216343"}},{"type":"Feature","geometry":{"type":"LineString","coordinates":[[114.5570663,22.7245196],[114.5569742,22.7247821],[114.55661,22.7257164],[114.5550362,22.7296504]]},"properties":{"key":"way:103304598@detail:458_90","osmType":"way","osmId":103304598,"sourceRegion":"shenzhen","featureType":"infrastructure","railClass":"minor","mode":"rail","name":"港口区连接线","usage":"industrial","bridge":"yes","status":"operational","color":"#52636f","sourceKey":"way:103304598"}},{"type":"Feature","geometry":{"type":"LineString","coordinates":[[114.5529309,22.7350242],[114.5519138,22.7376376]]},"properties":{"key":"way:103304599@detail:458_90","osmType":"way","osmId":103304599,"sourceRegion":"shenzhen","featureType":"infrastructure","railClass":"minor","mode":"rail","name":"港口区连接线","usage":"industrial","bridge":"yes","status":"operational","color":"#52636f","sourceKey":"way:103304599"}},{"type":"Feature","geometry":{"type":"LineString","coordinates":[[114.5519138,22.7376376],[114.5517463,22.7380661],[114.5515915,22.7386297],[114.5514743,22.7392474],[114.551445,22.7400001],[114.5514575,22.7406757],[114.5514383,22.7440128]]},"properties":{"key":"way:103304604@detail:458_90","osmType":"way","osmId":103304604,"sourceRegion":"shenzhen","featureType":"infrastructure","railClass":"minor","mode":"rail","name":"港口区连接线","usage":"industrial","status":"operational","color":"#52636f","sourceKey":"way:103304604"}},{"type":"Feature","geometry":{"type":"LineString","coordinates":[[114.5550362,22.7296504],[114.5547014,22.7305113],[114.5540777,22.732152],[114.5529309,22.7350242]]},"properties":{"key":"way:103304605@detail:458_90","osmType":"way","osmId":103304605,"sourceRegion":"shenzhen","featureType":"infrastructure","railClass":"minor","mode":"rail","name":"港口区连接线","usage":"industrial","status":"operational","color":"#52636f","sourceKey":"way:103304605"}},{"type":"Feature","geometry":{"type":"LineString","coordinates":[[114.5514383,22.7440128],[114.5514196,22.7452503]]},"properties":{"key":"way:115731844@detail:458_90","osmType":"way","osmId":115731844,"sourceRegion":"shenzhen","featureType":"infrastructure","railClass":"minor","mode":"rail","name":"港口区连接线","usage":"industrial","bridge":"yes","status":"operational","color":"#52636f","sourceKey":"way:115731844"}},{"type":"Feature","geometry":{"type":"LineString","coordinates":[[114.5514094,22.7497249],[114.55141013222169,22.75]]},"properties":{"key":"way:794761197@detail:458_90","osmType":"way","osmId":794761197,"sourceRegion":"shenzhen","featureType":"infrastructure","railClass":"minor","mode":"rail","name":"港口区连接线","usage":"industrial","bridge":"yes","status":"operational","color":"#52636f","sourceKey":"way:794761197"}},{"type":"Feature","geometry":{"type":"LineString","coordinates":[[114.5514196,22.7452503],[114.5514219,22.7468207],[114.5514094,22.7497249]]},"properties":{"key":"way:794761198@detail:458_90","osmType":"way","osmId":794761198,"sourceRegion":"shenzhen","featureType":"infrastructure","railClass":"minor","mode":"rail","name":"港口区连接线","usage":"industrial","status":"operational","color":"#52636f","sourceKey":"way:794761198"}},{"type":"Feature","geometry":{"type":"LineString","coordinates":[[114.5666742,22.7187845],[114.5682728,22.7181512],[114.568614,22.7180206],[114.5689589,22.7178986],[114.5693072,22.7177852],[114.5696587,22.7176804],[114.5700131,22.7175844],[114.5703702,22.7174972],[114.5707297,22.7174188],[114.5710801,22.7173514],[114.5714323,22.7172925],[114.571786,22.717242],[114.572141,22.7172],[114.5725828,22.71718],[114.5802136,22.7171525]]},"properties":{"key":"way:794761663@detail:458_90","osmType":"way","osmId":794761663,"sourceRegion":"shenzhen","featureType":"infrastructure","railClass":"minor","mode":"rail","name":"纯洲岛支线","usage":"industrial","service":"spur","bridge":"yes","status":"operational","color":"#52636f","sourceKey":"way:794761663"}},{"type":"Feature","geometry":{"type":"LineString","coordinates":[[114.5616914,22.7208866],[114.5643675,22.719794],[114.5666742,22.7187845]]},"properties":{"key":"way:794761664@detail:458_90","osmType":"way","osmId":794761664,"sourceRegion":"shenzhen","featureType":"infrastructure","railClass":"minor","mode":"rail","name":"纯洲岛支线","usage":"industrial","service":"spur","status":"operational","color":"#52636f","sourceKey":"way:794761664"}},{"type":"Feature","geometry":{"type":"LineString","coordinates":[[114.5889665,22.7169389],[114.5889122,22.7169391],[114.5884768,22.7169408],[114.5821748,22.7169663],[114.5820831,22.7169713],[114.5819913,22.716981],[114.5807067,22.7171161],[114.5805641,22.717131],[114.5804688,22.7171409],[114.5802772,22.7171523]]},"properties":{"key":"way:1190935706@detail:458_90","osmType":"way","osmId":1190935706,"sourceRegion":"shenzhen","featureType":"infrastructure","railClass":"minor","mode":"rail","name":"未命名","service":"yard","status":"operational","color":"#52636f","sourceKey":"way:1190935706"}},{"type":"Feature","geometry":{"type":"LineString","coordinates":[[114.5880148,22.7171244],[114.5878754,22.7171177],[114.5877384,22.717107],[114.5875674,22.7170914],[114.5874818,22.7170847],[114.5873937,22.7170815],[114.5869131,22.7170831],[114.5809982,22.717103],[114.5808525,22.7171077],[114.5807067,22.7171161]]},"properties":{"key":"way:1190935707@detail:458_90","osmType":"way","osmId":1190935707,"sourceRegion":"shenzhen","featureType":"infrastructure","railClass":"minor","mode":"rail","name":"未命名","service":"yard","status":"operational","color":"#52636f","sourceKey":"way:1190935707"}},{"type":"Feature","geometry":{"type":"LineString","coordinates":[[114.5869131,22.7170831],[114.5871344,22.7170684],[114.5873573,22.7170465],[114.5879137,22.7169854],[114.5881937,22.7169595],[114.5884768,22.7169408]]},"properties":{"key":"way:1190935708@detail:458_90","osmType":"way","osmId":1190935708,"sourceRegion":"shenzhen","featureType":"infrastructure","railClass":"minor","mode":"rail","name":"未命名","service":"yard","status":"operational","color":"#52636f","sourceKey":"way:1190935708"}},{"type":"Feature","geometry":{"type":"LineString","coordinates":[[114.5884519,22.7171229],[114.588329,22.7171275],[114.588207,22.7171359],[114.5879652,22.7171612],[114.5878795,22.7171683],[114.5877938,22.7171702],[114.5812942,22.7171945],[114.5811881,22.7171909],[114.5810851,22.7171836],[114.580882,22.7171633],[114.5807559,22.7171548],[114.580628,22.717151]]},"properties":{"key":"way:1190935709@detail:458_90","osmType":"way","osmId":1190935709,"sourceRegion":"shenzhen","featureType":"infrastructure","railClass":"minor","mode":"rail","name":"未命名","service":"yard","status":"operational","color":"#52636f","sourceKey":"way:1190935709"}},{"type":"Feature","geometry":{"type":"LineString","coordinates":[[114.5802136,22.7171525],[114.5802772,22.7171523],[114.580564,22.7171513],[114.580628,22.717151],[114.5880148,22.7171244],[114.5884519,22.7171229],[114.5889137,22.7171212],[114.5889678,22.717121]]},"properties":{"key":"way:1190935710@detail:458_90","osmType":"way","osmId":1190935710,"sourceRegion":"shenzhen","featureType":"infrastructure","railClass":"minor","mode":"rail","name":"未命名","usage":"industrial","service":"yard","status":"operational","color":"#52636f","sourceKey":"way:1190935710"}},{"type":"Feature","geometry":{"type":"LineString","coordinates":[[114.5,22.54711613761413],[114.5057401,22.54501],[114.5064481,22.5448488],[114.5069478,22.5447873],[114.5072659,22.5447482],[114.5081193,22.5447459],[114.508807,22.5448086],[114.5094381,22.5449074],[114.5100772,22.5450558],[114.5172712,22.5471049]]},"properties":{"key":"way:1329881175@detail:458_90","osmType":"way","osmId":1329881175,"sourceRegion":"shenzhen","featureType":"infrastructure","railClass":"construction","mode":"construction","name":"深惠城际铁路大鹏支线","usage":"main","tunnel":"yes","status":"construction","color":"#2B8C8A","sourceKey":"way:1329881175"}},{"type":"Feature","geometry":{"type":"LineString","coordinates":[[114.5171831,22.5469268],[114.5101019,22.5449615],[114.5092455,22.5447794],[114.5084292,22.5446628],[114.5074301,22.5446323],[114.5065351,22.544714],[114.5058786,22.5448459],[114.5049319,22.5451764],[114.5,22.54698380777734]]},"properties":{"key":"way:1329881176@detail:458_90","osmType":"way","osmId":1329881176,"sourceRegion":"shenzhen","featureType":"infrastructure","railClass":"construction","mode":"construction","name":"深惠城际铁路大鹏支线","usage":"main","tunnel":"yes","status":"construction","color":"#2B8C8A","sourceKey":"way:1329881176"}},{"type":"Feature","geometry":{"type":"MultiLineString","coordinates":[[[114.5604964,22.7496851],[114.56148291123492,22.75]],[[114.56327589803324,22.75],[114.5636392,22.7475265],[114.5617139,22.746073],[114.559496,22.7478312]]]},"properties":{"key":"way:1459716907@detail:458_90","osmType":"way","osmId":1459716907,"sourceRegion":"shenzhen","featureType":"infrastructure","railClass":"national","mode":"rail","name":"未命名","status":"operational","color":"#E54848","sourceKey":"way:1459716907"}}]}