{"type":"FeatureCollection","features":[{"type":"Feature","geometry":{"type":"Point","coordinates":[114.5572092,23.4803874]},"properties":{"key":"node:8270803358","osmType":"node","osmId":8270803358,"sourceRegion":"guangdong","featureType":"station","railClass":"minor","mode":"station","name":"博罗北","status":"operational","color":"#52636F","dataOrigin":"datum-2026-08-01","sourceKey":"node:8270803358","stationGroup":"博罗北","hasOperationalRail":true,"hasConstructionRail":false}},{"type":"Feature","geometry":{"type":"LineString","coordinates":[[114.56405800628909,23.5],[114.5501927,23.4888692],[114.5486155,23.4876798],[114.5475029,23.4870435],[114.5462255,23.4865384],[114.5391481,23.4843942],[114.5298208,23.4816243]]},"properties":{"key":"way:71707816@detail:458_93","osmType":"way","osmId":71707816,"sourceRegion":"guangdong","featureType":"infrastructure","railClass":"national","mode":"rail","name":"京九线","nameEn":"Jingjiu Line","ref":"0005","usage":"main","status":"operational","color":"#E54848","dataOrigin":"datum-2026-08-01","sourceKey":"way:71707816"}},{"type":"Feature","geometry":{"type":"LineString","coordinates":[[114.5298208,23.4816243],[114.5273909,23.4808954]]},"properties":{"key":"way:549420412@detail:458_93","osmType":"way","osmId":549420412,"sourceRegion":"guangdong","featureType":"infrastructure","railClass":"national","mode":"rail","name":"京九线","nameEn":"Jingjiu Line","ref":"0005","usage":"main","bridge":"yes","status":"operational","color":"#E54848","dataOrigin":"datum-2026-08-01","sourceKey":"way:549420412"}},{"type":"Feature","geometry":{"type":"LineString","coordinates":[[114.5273909,23.4808954],[114.5254526,23.4803126],[114.5247084,23.4800758],[114.5226413,23.4794114],[114.5215159,23.4788346],[114.5208224,23.4784792],[114.5182881,23.4770568],[114.5162078,23.4753568],[114.514884,23.4728415],[114.5135223,23.4684527],[114.5117824,23.4653648],[114.5059133,23.4555121],[114.5053657,23.4545304],[114.5047832,23.4534113],[114.5035015,23.4508417],[114.5025328,23.4488491],[114.5016168,23.4469611]]},"properties":{"key":"way:549420413@detail:458_93","osmType":"way","osmId":549420413,"sourceRegion":"guangdong","featureType":"infrastructure","railClass":"national","mode":"rail","name":"京九线","nameEn":"Jingjiu Line","ref":"0005","usage":"main","status":"operational","color":"#E54848","dataOrigin":"datum-2026-08-01","sourceKey":"way:549420413"}},{"type":"Feature","geometry":{"type":"LineString","coordinates":[[114.5016168,23.4469611],[114.5014298,23.4465748]]},"properties":{"key":"way:604406134@detail:458_93","osmType":"way","osmId":604406134,"sourceRegion":"guangdong","featureType":"infrastructure","railClass":"national","mode":"rail","name":"京九线","nameEn":"Jingjiu Line","ref":"0005","usage":"main","bridge":"yes","status":"operational","color":"#E54848","dataOrigin":"datum-2026-08-01","sourceKey":"way:604406134"}},{"type":"Feature","geometry":{"type":"LineString","coordinates":[[114.564123585235,23.5],[114.5502202,23.4888386],[114.5486334,23.487643],[114.5475245,23.4870087],[114.5462462,23.4865031],[114.5391619,23.4843567],[114.5314085,23.4820452],[114.5296723,23.4814318]]},"properties":{"key":"way:721540104@detail:458_93","osmType":"way","osmId":721540104,"sourceRegion":"guangdong","featureType":"infrastructure","railClass":"national","mode":"rail","name":"京九线","nameEn":"Jingjiu Line","ref":"0005","usage":"main","status":"operational","color":"#E54848","dataOrigin":"datum-2026-08-01","sourceKey":"way:721540104"}},{"type":"Feature","geometry":{"type":"LineString","coordinates":[[114.5296723,23.4814318],[114.5273832,23.4807251]]},"properties":{"key":"way:721540105@detail:458_93","osmType":"way","osmId":721540105,"sourceRegion":"guangdong","featureType":"infrastructure","railClass":"national","mode":"rail","name":"京九线","nameEn":"Jingjiu Line","ref":"0005","usage":"main","bridge":"yes","status":"operational","color":"#E54848","dataOrigin":"datum-2026-08-01","sourceKey":"way:721540105"}},{"type":"Feature","geometry":{"type":"LineString","coordinates":[[114.5273832,23.4807251],[114.5257732,23.4802287],[114.5225793,23.4792294],[114.5208417,23.4784436],[114.5183139,23.4770249],[114.5162429,23.4753325],[114.5149245,23.4728274],[114.5135626,23.468438],[114.5118205,23.4653462],[114.5079717,23.4588275],[114.5073352,23.4576374],[114.5068297,23.4567148],[114.5060243,23.455421],[114.5053983,23.4544393],[114.5048322,23.4533935],[114.5035472,23.4508009],[114.5025935,23.4488272],[114.5016779,23.4469393]]},"properties":{"key":"way:721540106@detail:458_93","osmType":"way","osmId":721540106,"sourceRegion":"guangdong","featureType":"infrastructure","railClass":"national","mode":"rail","name":"京九线","nameEn":"Jingjiu Line","ref":"0005","usage":"main","status":"operational","color":"#E54848","dataOrigin":"datum-2026-08-01","sourceKey":"way:721540106"}},{"type":"Feature","geometry":{"type":"LineString","coordinates":[[114.5016779,23.4469393],[114.5015074,23.4465611]]},"properties":{"key":"way:721540107@detail:458_93","osmType":"way","osmId":721540107,"sourceRegion":"guangdong","featureType":"infrastructure","railClass":"national","mode":"rail","name":"京九线","nameEn":"Jingjiu Line","ref":"0005","usage":"main","bridge":"yes","status":"operational","color":"#E54848","dataOrigin":"datum-2026-08-01","sourceKey":"way:721540107"}},{"type":"Feature","geometry":{"type":"LineString","coordinates":[[114.57566871201313,23.5],[114.5753395,23.4996761],[114.5717586,23.4961091],[114.5678054,23.4919155],[114.5572092,23.4803874],[114.5509667,23.4733754],[114.5480152,23.4699745],[114.5461545,23.4677631],[114.5425919,23.4627793],[114.5414669,23.4610752],[114.5385494,23.4560648],[114.5372349,23.4535252],[114.535127,23.4487838]]},"properties":{"key":"way:819121223@detail:458_93","osmType":"way","osmId":819121223,"sourceRegion":"guangdong","featureType":"infrastructure","railClass":"highspeed","mode":"rail","name":"京港高速线","nameEn":"Jinggang High-Speed Line","ref":"3003","usage":"main","highspeed":"yes","bridge":"yes","status":"operational","color":"#E54848","dataOrigin":"datum-2026-08-01","sourceKey":"way:819121223"}},{"type":"Feature","geometry":{"type":"LineString","coordinates":[[114.535127,23.4487838],[114.5342635,23.4465273]]},"properties":{"key":"way:907909326@detail:458_93","osmType":"way","osmId":907909326,"sourceRegion":"guangdong","featureType":"infrastructure","railClass":"highspeed","mode":"rail","name":"京港高速线","nameEn":"Jinggang High-Speed Line","ref":"3003","usage":"main","highspeed":"yes","tunnel":"yes","status":"operational","color":"#E54848","dataOrigin":"datum-2026-08-01","sourceKey":"way:907909326"}},{"type":"Feature","geometry":{"type":"LineString","coordinates":[[114.5342635,23.4465273],[114.5334445,23.4443452],[114.5310519,23.4370603],[114.5251702,23.4188732]]},"properties":{"key":"way:907909327@detail:458_93","osmType":"way","osmId":907909327,"sourceRegion":"guangdong","featureType":"infrastructure","railClass":"highspeed","mode":"rail","name":"京港高速线","nameEn":"Jinggang High-Speed Line","ref":"3003","usage":"main","highspeed":"yes","bridge":"yes","status":"operational","color":"#E54848","dataOrigin":"datum-2026-08-01","sourceKey":"way:907909327"}},{"type":"Feature","geometry":{"type":"LineString","coordinates":[[114.5251702,23.4188732],[114.5244758,23.4167261]]},"properties":{"key":"way:907909328@detail:458_93","osmType":"way","osmId":907909328,"sourceRegion":"guangdong","featureType":"infrastructure","railClass":"highspeed","mode":"rail","name":"京港高速线","nameEn":"Jinggang High-Speed Line","ref":"3003","usage":"main","highspeed":"yes","tunnel":"yes","status":"operational","color":"#E54848","dataOrigin":"datum-2026-08-01","sourceKey":"way:907909328"}},{"type":"Feature","geometry":{"type":"LineString","coordinates":[[114.5244758,23.4167261],[114.522496,23.4107005],[114.5215579,23.4078561],[114.5187074,23.4001805],[114.5160058,23.3945863],[114.5085604,23.3802486]]},"properties":{"key":"way:907909329@detail:458_93","osmType":"way","osmId":907909329,"sourceRegion":"guangdong","featureType":"infrastructure","railClass":"highspeed","mode":"rail","name":"京港高速线","nameEn":"Jinggang High-Speed Line","ref":"3003","usage":"main","highspeed":"yes","bridge":"yes","status":"operational","color":"#E54848","dataOrigin":"datum-2026-08-01","sourceKey":"way:907909329"}},{"type":"Feature","geometry":{"type":"LineString","coordinates":[[114.5085604,23.3802486],[114.5036998,23.371018],[114.5036076,23.3708448]]},"properties":{"key":"way:907909330@detail:458_93","osmType":"way","osmId":907909330,"sourceRegion":"guangdong","featureType":"infrastructure","railClass":"highspeed","mode":"rail","name":"京港高速线","nameEn":"Jinggang High-Speed Line","ref":"3003","usage":"main","highspeed":"yes","tunnel":"yes","status":"operational","color":"#E54848","dataOrigin":"datum-2026-08-01","sourceKey":"way:907909330"}},{"type":"Feature","geometry":{"type":"LineString","coordinates":[[114.5036076,23.3708448],[114.5023681,23.3685164],[114.5,23.362792137148848]]},"properties":{"key":"way:960214925@detail:458_93","osmType":"way","osmId":960214925,"sourceRegion":"guangdong","featureType":"infrastructure","railClass":"highspeed","mode":"rail","name":"京港高速线","nameEn":"Jinggang High-Speed Line","ref":"3003","usage":"main","highspeed":"yes","bridge":"yes","status":"operational","color":"#E54848","dataOrigin":"datum-2026-08-01","sourceKey":"way:960214925"}},{"type":"Feature","geometry":{"type":"LineString","coordinates":[[114.5015074,23.4465611],[114.5003364,23.4441743],[114.5,23.443481650310563]]},"properties":{"key":"way:1395644035@detail:458_93","osmType":"way","osmId":1395644035,"sourceRegion":"guangdong","featureType":"infrastructure","railClass":"national","mode":"rail","name":"京九线","nameEn":"Jingjiu Line","ref":"0005","usage":"main","status":"operational","color":"#E54848","dataOrigin":"datum-2026-08-01","sourceKey":"way:1395644035"}},{"type":"Feature","geometry":{"type":"LineString","coordinates":[[114.5014298,23.4465748],[114.5002955,23.4442245],[114.5,23.44362097293902]]},"properties":{"key":"way:1395644036@detail:458_93","osmType":"way","osmId":1395644036,"sourceRegion":"guangdong","featureType":"infrastructure","railClass":"national","mode":"rail","name":"京九线","nameEn":"Jingjiu Line","ref":"0005","usage":"main","status":"operational","color":"#E54848","dataOrigin":"datum-2026-08-01","sourceKey":"way:1395644036"}}]}