{"type":"FeatureCollection","features":[{"type":"Feature","geometry":{"type":"Point","coordinates":[114.6782335,23.762174]},"properties":{"key":"node:1908080931","osmType":"node","osmId":1908080931,"sourceRegion":"guangdong","featureType":"station","railClass":"minor","mode":"station","name":"河源","nameEn":"Heyuan","status":"operational","color":"#52636F","dataOrigin":"datum-2026-08-01","sourceKey":"node:1908080931","stationGroup":"河源","hasOperationalRail":true,"hasConstructionRail":false}},{"type":"Feature","geometry":{"type":"Point","coordinates":[114.7471158,23.8069024]},"properties":{"key":"node:8417536171","osmType":"node","osmId":8417536171,"sourceRegion":"guangdong","featureType":"station","railClass":"minor","mode":"station","name":"仙塘","status":"operational","color":"#52636F","dataOrigin":"datum-2026-08-01","sourceKey":"node:8417536171","stationGroup":"仙塘","hasOperationalRail":true,"hasConstructionRail":false}},{"type":"Feature","geometry":{"type":"LineString","coordinates":[[114.6739523,23.7538122],[114.673739,23.7532862],[114.6735094,23.7526981]]},"properties":{"key":"way:200066631@detail:458_95","osmType":"way","osmId":200066631,"sourceRegion":"guangdong","featureType":"infrastructure","railClass":"national","mode":"rail","name":"京九线","nameEn":"Jingjiu Line","ref":"0005","usage":"main","bridge":"yes","status":"operational","color":"#E54848","dataOrigin":"datum-2026-08-01","sourceKey":"way:200066631"}},{"type":"Feature","geometry":{"type":"LineString","coordinates":[[114.6738984,23.7538293],[114.6736819,23.7533068],[114.6734498,23.7527192]]},"properties":{"key":"way:287962974@detail:458_95","osmType":"way","osmId":287962974,"sourceRegion":"guangdong","featureType":"infrastructure","railClass":"national","mode":"rail","name":"京九线","nameEn":"Jingjiu Line","ref":"0005","usage":"main","bridge":"yes","status":"operational","color":"#E54848","dataOrigin":"datum-2026-08-01","sourceKey":"way:287962974"}},{"type":"Feature","geometry":{"type":"LineString","coordinates":[[114.7109545,23.7903501],[114.698391,23.783532],[114.6975714,23.7830107],[114.6968159,23.7824234],[114.692701,23.7782789],[114.6904984,23.7760177],[114.6896884,23.7751857],[114.6891091,23.7746113],[114.6886611,23.7741867],[114.6882749,23.7738676],[114.6879128,23.7736197]]},"properties":{"key":"way:330350338@detail:458_95","osmType":"way","osmId":330350338,"sourceRegion":"guangdong","featureType":"infrastructure","railClass":"national","mode":"rail","name":"京九线","nameEn":"Jingjiu Line","ref":"0005","usage":"main","status":"operational","color":"#E54848","dataOrigin":"datum-2026-08-01","sourceKey":"way:330350338"}},{"type":"Feature","geometry":{"type":"LineString","coordinates":[[114.7401763,23.803373],[114.74235,23.8043478],[114.7439294,23.8052039],[114.75,23.808494273112313]]},"properties":{"key":"way:387646218@detail:458_95","osmType":"way","osmId":387646218,"sourceRegion":"guangdong","featureType":"infrastructure","railClass":"national","mode":"rail","name":"京九线","nameEn":"Jingjiu Line","ref":"0005","usage":"main","status":"operational","color":"#E54848","dataOrigin":"datum-2026-08-01","sourceKey":"way:387646218"}},{"type":"Feature","geometry":{"type":"LineString","coordinates":[[114.729082,23.7986984],[114.7297418,23.7990666]]},"properties":{"key":"way:549630064@detail:458_95","osmType":"way","osmId":549630064,"sourceRegion":"guangdong","featureType":"infrastructure","railClass":"national","mode":"rail","name":"京九线","nameEn":"Jingjiu Line","ref":"0005","usage":"main","bridge":"yes","status":"operational","color":"#E54848","dataOrigin":"datum-2026-08-01","sourceKey":"way:549630064"}},{"type":"Feature","geometry":{"type":"LineString","coordinates":[[114.7112565,23.7907801],[114.7119266,23.7911591],[114.7127098,23.7915395],[114.7136271,23.7919666],[114.7145095,23.7923052],[114.7156897,23.7927176],[114.7176477,23.7934048],[114.7216576,23.7947963],[114.7233776,23.7955354],[114.726676,23.7972578],[114.7278374,23.7979597],[114.729082,23.7986984]]},"properties":{"key":"way:549630065@detail:458_95","osmType":"way","osmId":549630065,"sourceRegion":"guangdong","featureType":"infrastructure","railClass":"national","mode":"rail","name":"京九线","nameEn":"Jingjiu Line","ref":"0005","usage":"main","status":"operational","color":"#E54848","dataOrigin":"datum-2026-08-01","sourceKey":"way:549630065"}},{"type":"Feature","geometry":{"type":"LineString","coordinates":[[114.7300656,23.7989075],[114.7292223,23.7984845]]},"properties":{"key":"way:549630066@detail:458_95","osmType":"way","osmId":549630066,"sourceRegion":"guangdong","featureType":"infrastructure","railClass":"national","mode":"rail","name":"京九线","nameEn":"Jingjiu Line","ref":"0005","usage":"main","bridge":"yes","status":"operational","color":"#E54848","dataOrigin":"datum-2026-08-01","sourceKey":"way:549630066"}},{"type":"Feature","geometry":{"type":"LineString","coordinates":[[114.75,23.80844801216034],[114.742761,23.8045209],[114.7423666,23.8043069],[114.7401974,23.8033166]]},"properties":{"key":"way:549630067@detail:458_95","osmType":"way","osmId":549630067,"sourceRegion":"guangdong","featureType":"infrastructure","railClass":"national","mode":"rail","name":"京九线","nameEn":"Jingjiu Line","ref":"0005","usage":"main","status":"operational","color":"#E54848","dataOrigin":"datum-2026-08-01","sourceKey":"way:549630067"}},{"type":"Feature","geometry":{"type":"LineString","coordinates":[[114.710811,23.7905182],[114.7112565,23.7907801]]},"properties":{"key":"way:549630068@detail:458_95","osmType":"way","osmId":549630068,"sourceRegion":"guangdong","featureType":"infrastructure","railClass":"national","mode":"rail","name":"京九线","nameEn":"Jingjiu Line","ref":"0005","usage":"main","bridge":"yes","status":"operational","color":"#E54848","dataOrigin":"datum-2026-08-01","sourceKey":"way:549630068"}},{"type":"Feature","geometry":{"type":"LineString","coordinates":[[114.6877304,23.774005],[114.6883178,23.7743389],[114.6887336,23.7745941],[114.6892244,23.7749771],[114.6897126,23.7753747],[114.6904314,23.7760767],[114.69263,23.7783454],[114.6967593,23.7824728],[114.6975419,23.7830524],[114.6983714,23.7835789],[114.7081554,23.7888938],[114.710811,23.7905182]]},"properties":{"key":"way:549630069@detail:458_95","osmType":"way","osmId":549630069,"sourceRegion":"guangdong","featureType":"infrastructure","railClass":"national","mode":"rail","name":"京九线","nameEn":"Jingjiu Line","ref":"0005","usage":"main","status":"operational","color":"#E54848","dataOrigin":"datum-2026-08-01","sourceKey":"way:549630069"}},{"type":"Feature","geometry":{"type":"LineString","coordinates":[[114.7113895,23.7905832],[114.7109545,23.7903501]]},"properties":{"key":"way:549630070@detail:458_95","osmType":"way","osmId":549630070,"sourceRegion":"guangdong","featureType":"infrastructure","railClass":"national","mode":"rail","name":"京九线","nameEn":"Jingjiu Line","ref":"0005","usage":"main","bridge":"yes","status":"operational","color":"#E54848","dataOrigin":"datum-2026-08-01","sourceKey":"way:549630070"}},{"type":"Feature","geometry":{"type":"LineString","coordinates":[[114.7292223,23.7984845],[114.7234116,23.7954978],[114.7216764,23.7947571],[114.7176665,23.7933483],[114.7157004,23.7926636],[114.7145605,23.7922193],[114.7138309,23.7918807],[114.7130504,23.7914733],[114.7113895,23.7905832]]},"properties":{"key":"way:549630071@detail:458_95","osmType":"way","osmId":549630071,"sourceRegion":"guangdong","featureType":"infrastructure","railClass":"national","mode":"rail","name":"京九线","nameEn":"Jingjiu Line","ref":"0005","usage":"main","status":"operational","color":"#E54848","dataOrigin":"datum-2026-08-01","sourceKey":"way:549630071"}},{"type":"Feature","geometry":{"type":"LineString","coordinates":[[114.6869645,23.7736072],[114.6877304,23.774005]]},"properties":{"key":"way:549630072@detail:458_95","osmType":"way","osmId":549630072,"sourceRegion":"guangdong","featureType":"infrastructure","railClass":"national","mode":"rail","name":"京九线","nameEn":"Jingjiu Line","ref":"0005","usage":"main","bridge":"yes","status":"operational","color":"#E54848","dataOrigin":"datum-2026-08-01","sourceKey":"way:549630072"}},{"type":"Feature","geometry":{"type":"LineString","coordinates":[[114.6868164,23.7735279],[114.6869645,23.7736072]]},"properties":{"key":"way:549630073@detail:458_95","osmType":"way","osmId":549630073,"sourceRegion":"guangdong","featureType":"infrastructure","railClass":"national","mode":"rail","name":"京九线","nameEn":"Jingjiu Line","ref":"0005","usage":"main","status":"operational","color":"#E54848","dataOrigin":"datum-2026-08-01","sourceKey":"way:549630073"}},{"type":"Feature","geometry":{"type":"LineString","coordinates":[[114.686062,23.7731214],[114.6868164,23.7735279]]},"properties":{"key":"way:549630074@detail:458_95","osmType":"way","osmId":549630074,"sourceRegion":"guangdong","featureType":"infrastructure","railClass":"national","mode":"rail","name":"京九线","nameEn":"Jingjiu Line","ref":"0005","usage":"main","bridge":"yes","status":"operational","color":"#E54848","dataOrigin":"datum-2026-08-01","sourceKey":"way:549630074"}},{"type":"Feature","geometry":{"type":"LineString","coordinates":[[114.6879128,23.7736197],[114.6872744,23.773249]]},"properties":{"key":"way:549630075@detail:458_95","osmType":"way","osmId":549630075,"sourceRegion":"guangdong","featureType":"infrastructure","railClass":"national","mode":"rail","name":"京九线","nameEn":"Jingjiu Line","ref":"0005","usage":"main","bridge":"yes","status":"operational","color":"#E54848","dataOrigin":"datum-2026-08-01","sourceKey":"way:549630075"}},{"type":"Feature","geometry":{"type":"LineString","coordinates":[[114.6872744,23.773249],[114.6866575,23.7730085]]},"properties":{"key":"way:549630076@detail:458_95","osmType":"way","osmId":549630076,"sourceRegion":"guangdong","featureType":"infrastructure","railClass":"national","mode":"rail","name":"京九线","nameEn":"Jingjiu Line","ref":"0005","usage":"main","status":"operational","color":"#E54848","dataOrigin":"datum-2026-08-01","sourceKey":"way:549630076"}},{"type":"Feature","geometry":{"type":"LineString","coordinates":[[114.6866575,23.7730085],[114.6859306,23.772763]]},"properties":{"key":"way:549630077@detail:458_95","osmType":"way","osmId":549630077,"sourceRegion":"guangdong","featureType":"infrastructure","railClass":"national","mode":"rail","name":"京九线","nameEn":"Jingjiu Line","ref":"0005","usage":"main","bridge":"yes","status":"operational","color":"#E54848","dataOrigin":"datum-2026-08-01","sourceKey":"way:549630077"}},{"type":"Feature","geometry":{"type":"LineString","coordinates":[[114.6758859,23.7577799],[114.6767813,23.7595651],[114.6773551,23.7606756],[114.6776117,23.7611282],[114.6785087,23.762909],[114.6787815,23.7634444],[114.6792155,23.7643134],[114.6799218,23.7657144],[114.6800564,23.76598]]},"properties":{"key":"way:549630078@detail:458_95","osmType":"way","osmId":549630078,"sourceRegion":"guangdong","featureType":"infrastructure","railClass":"national","mode":"rail","name":"京九线","nameEn":"Jingjiu Line","ref":"0005","usage":"main","status":"operational","color":"#E54848","dataOrigin":"datum-2026-08-01","sourceKey":"way:549630078"}},{"type":"Feature","geometry":{"type":"LineString","coordinates":[[114.6800531,23.7658993],[114.6797406,23.765242],[114.6788267,23.7634492],[114.6771188,23.7600873],[114.6768708,23.7595925],[114.6759811,23.7578393]]},"properties":{"key":"way:549630079@detail:458_95","osmType":"way","osmId":549630079,"sourceRegion":"guangdong","featureType":"infrastructure","railClass":"national","mode":"rail","name":"京九线","nameEn":"Jingjiu Line","ref":"0005","usage":"main","status":"operational","color":"#E54848","dataOrigin":"datum-2026-08-01","sourceKey":"way:549630079"}},{"type":"Feature","geometry":{"type":"LineString","coordinates":[[114.6735094,23.7526981],[114.6730998,23.7511929],[114.6729541,23.7500803],[114.67294829648039,23.75]]},"properties":{"key":"way:549630082@detail:458_95","osmType":"way","osmId":549630082,"sourceRegion":"guangdong","featureType":"infrastructure","railClass":"national","mode":"rail","name":"京九线","nameEn":"Jingjiu Line","ref":"0005","usage":"main","status":"operational","color":"#E54848","dataOrigin":"datum-2026-08-01","sourceKey":"way:549630082"}},{"type":"Feature","geometry":{"type":"LineString","coordinates":[[114.6734498,23.7527192],[114.6733082,23.7522679],[114.6730438,23.7512014],[114.6728978,23.7500852],[114.67288999536139,23.75]]},"properties":{"key":"way:549630089@detail:458_95","osmType":"way","osmId":549630089,"sourceRegion":"guangdong","featureType":"infrastructure","railClass":"national","mode":"rail","name":"京九线","nameEn":"Jingjiu Line","ref":"0005","usage":"main","status":"operational","color":"#E54848","dataOrigin":"datum-2026-08-01","sourceKey":"way:549630089"}},{"type":"Feature","geometry":{"type":"LineString","coordinates":[[114.7396675,23.8030796],[114.7314642,23.7995641],[114.7300656,23.7989075]]},"properties":{"key":"way:905821382@detail:458_95","osmType":"way","osmId":905821382,"sourceRegion":"guangdong","featureType":"infrastructure","railClass":"national","mode":"rail","name":"京九线","nameEn":"Jingjiu Line","ref":"0005","usage":"main","status":"operational","color":"#E54848","dataOrigin":"datum-2026-08-01","sourceKey":"way:905821382"}},{"type":"Feature","geometry":{"type":"LineString","coordinates":[[114.7401974,23.8033166],[114.7396675,23.8030796]]},"properties":{"key":"way:905821383@detail:458_95","osmType":"way","osmId":905821383,"sourceRegion":"guangdong","featureType":"infrastructure","railClass":"national","mode":"rail","name":"京九线","nameEn":"Jingjiu Line","ref":"0005","usage":"main","bridge":"yes","status":"operational","color":"#E54848","dataOrigin":"datum-2026-08-01","sourceKey":"way:905821383"}},{"type":"Feature","geometry":{"type":"LineString","coordinates":[[114.7297418,23.7990666],[114.7304553,23.7993586],[114.7312331,23.7996482],[114.7321612,23.8000016],[114.7330624,23.800301],[114.7396374,23.8031336]]},"properties":{"key":"way:905821384@detail:458_95","osmType":"way","osmId":905821384,"sourceRegion":"guangdong","featureType":"infrastructure","railClass":"national","mode":"rail","name":"京九线","nameEn":"Jingjiu Line","ref":"0005","usage":"main","status":"operational","color":"#E54848","dataOrigin":"datum-2026-08-01","sourceKey":"way:905821384"}},{"type":"Feature","geometry":{"type":"LineString","coordinates":[[114.7396374,23.8031336],[114.7401763,23.803373]]},"properties":{"key":"way:905821385@detail:458_95","osmType":"way","osmId":905821385,"sourceRegion":"guangdong","featureType":"infrastructure","railClass":"national","mode":"rail","name":"京九线","nameEn":"Jingjiu Line","ref":"0005","usage":"main","bridge":"yes","status":"operational","color":"#E54848","dataOrigin":"datum-2026-08-01","sourceKey":"way:905821385"}},{"type":"Feature","geometry":{"type":"LineString","coordinates":[[114.6800555,23.7660699],[114.680644,23.7672468],[114.6806795,23.7673211],[114.6808456,23.7676684],[114.6809333,23.7678319],[114.6810752,23.7681986],[114.6812165,23.7686065],[114.6813623,23.7690934],[114.6815037,23.7694822],[114.6815829,23.76971],[114.6816111,23.7698255],[114.6816857,23.7701582],[114.6817481,23.7704107],[114.6817999,23.7706157],[114.6818465,23.7707263],[114.6818899,23.7708291],[114.6819283,23.7709114],[114.682007,23.7710431],[114.6829326,23.7720326]]},"properties":{"key":"way:906010362@detail:458_95","osmType":"way","osmId":906010362,"sourceRegion":"guangdong","featureType":"infrastructure","railClass":"minor","mode":"rail","name":"未命名","usage":"industrial","service":"spur","status":"operational","color":"#52636F","dataOrigin":"datum-2026-08-01","sourceKey":"way:906010362"}},{"type":"Feature","geometry":{"type":"LineString","coordinates":[[114.6848167,23.7732971],[114.6839553,23.7726429],[114.6835621,23.7723475],[114.6835186,23.7723148],[114.6831392,23.7720132],[114.6828296,23.7716797],[114.6821207,23.7709166],[114.6819509,23.770679],[114.6818311,23.7704414],[114.6817378,23.770136],[114.6816111,23.7698255]]},"properties":{"key":"way:906010363@detail:458_95","osmType":"way","osmId":906010363,"sourceRegion":"guangdong","featureType":"infrastructure","railClass":"minor","mode":"rail","name":"未命名","usage":"industrial","service":"spur","status":"operational","color":"#52636F","dataOrigin":"datum-2026-08-01","sourceKey":"way:906010363"}},{"type":"Feature","geometry":{"type":"LineString","coordinates":[[114.6817378,23.770136],[114.681926,23.7705465],[114.6820208,23.7706927],[114.6821906,23.7709075],[114.6831442,23.7719036],[114.6835621,23.7723475]]},"properties":{"key":"way:906010364@detail:458_95","osmType":"way","osmId":906010364,"sourceRegion":"guangdong","featureType":"infrastructure","railClass":"minor","mode":"rail","name":"未命名","usage":"industrial","service":"yard","status":"operational","color":"#52636F","dataOrigin":"datum-2026-08-01","sourceKey":"way:906010364"}},{"type":"Feature","geometry":{"type":"LineString","coordinates":[[114.6831392,23.7720132],[114.6834388,23.7723559],[114.6837133,23.77263],[114.6838913,23.7728022],[114.6840429,23.7729499]]},"properties":{"key":"way:906010365@detail:458_95","osmType":"way","osmId":906010365,"sourceRegion":"guangdong","featureType":"infrastructure","railClass":"minor","mode":"rail","name":"未命名","usage":"industrial","service":"spur","status":"operational","color":"#52636F","dataOrigin":"datum-2026-08-01","sourceKey":"way:906010365"}},{"type":"Feature","geometry":{"type":"LineString","coordinates":[[114.6803123,23.7664799],[114.6800555,23.7660699],[114.6799124,23.7657889],[114.6795713,23.7652347],[114.6794454,23.7650172],[114.6792899,23.7647526],[114.6790795,23.7644293],[114.6789781,23.7642519],[114.6785907,23.763472],[114.677395,23.7611135],[114.6771286,23.7605906],[114.6768693,23.7600823],[114.6765669,23.7594739],[114.6763735,23.7591053],[114.6762403,23.7588209],[114.6761216,23.7585381],[114.6760439,23.7583475],[114.6759302,23.7580519],[114.6758,23.7577025],[114.6757466,23.7575608],[114.6756941,23.7574366],[114.67566,23.7573411]]},"properties":{"key":"way:906010369@detail:458_95","osmType":"way","osmId":906010369,"sourceRegion":"guangdong","featureType":"infrastructure","railClass":"minor","mode":"rail","name":"河源站5道","service":"siding","status":"operational","color":"#52636F","dataOrigin":"datum-2026-08-01","sourceKey":"way:906010369"}},{"type":"Feature","geometry":{"type":"LineString","coordinates":[[114.6801106,23.7660129],[114.6800269,23.7657981],[114.6799291,23.7655822],[114.6798048,23.7652932],[114.6796963,23.7650699],[114.6795157,23.7647251],[114.6790811,23.7638659],[114.6789016,23.7634907],[114.6783219,23.7623474],[114.6781976,23.7620883],[114.6779386,23.7615765],[114.6776927,23.7610936],[114.6775003,23.7607129],[114.6771492,23.7600141],[114.6768508,23.7594339],[114.6764655,23.7586561],[114.6763519,23.7584504],[114.6761494,23.7580414],[114.6760696,23.7578974],[114.6759252,23.7576117]]},"properties":{"key":"way:1264706422@detail:458_95","osmType":"way","osmId":1264706422,"sourceRegion":"guangdong","featureType":"infrastructure","railClass":"minor","mode":"rail","name":"河源站3道","service":"siding","status":"operational","color":"#52636F","dataOrigin":"datum-2026-08-01","sourceKey":"way:1264706422"}},{"type":"Feature","geometry":{"type":"LineString","coordinates":[[114.6738984,23.7538293],[114.6743025,23.7546688]]},"properties":{"key":"way:1264706430@detail:458_95","osmType":"way","osmId":1264706430,"sourceRegion":"guangdong","featureType":"infrastructure","railClass":"national","mode":"rail","name":"京九线","nameEn":"Jingjiu Line","ref":"0005","usage":"main","status":"operational","color":"#E54848","dataOrigin":"datum-2026-08-01","sourceKey":"way:1264706430"}},{"type":"Feature","geometry":{"type":"LineString","coordinates":[[114.6743025,23.7546688],[114.6744149,23.7549091]]},"properties":{"key":"way:1264706431@detail:458_95","osmType":"way","osmId":1264706431,"sourceRegion":"guangdong","featureType":"infrastructure","railClass":"national","mode":"rail","name":"京九线","nameEn":"Jingjiu Line","ref":"0005","usage":"main","bridge":"yes","status":"operational","color":"#E54848","dataOrigin":"datum-2026-08-01","sourceKey":"way:1264706431"}},{"type":"Feature","geometry":{"type":"LineString","coordinates":[[114.6743566,23.7546419],[114.6739523,23.7538122]]},"properties":{"key":"way:1264706432@detail:458_95","osmType":"way","osmId":1264706432,"sourceRegion":"guangdong","featureType":"infrastructure","railClass":"national","mode":"rail","name":"京九线","nameEn":"Jingjiu Line","ref":"0005","usage":"main","status":"operational","color":"#E54848","dataOrigin":"datum-2026-08-01","sourceKey":"way:1264706432"}},{"type":"Feature","geometry":{"type":"LineString","coordinates":[[114.6744764,23.7548914],[114.6743566,23.7546419]]},"properties":{"key":"way:1264706433@detail:458_95","osmType":"way","osmId":1264706433,"sourceRegion":"guangdong","featureType":"infrastructure","railClass":"national","mode":"rail","name":"京九线","nameEn":"Jingjiu Line","ref":"0005","usage":"main","bridge":"yes","status":"operational","color":"#E54848","dataOrigin":"datum-2026-08-01","sourceKey":"way:1264706433"}},{"type":"Feature","geometry":{"type":"LineString","coordinates":[[114.6799124,23.7657889],[114.6798424,23.7656328],[114.6797851,23.7655225],[114.6797411,23.7654307],[114.679691,23.7653251],[114.6796084,23.7651714],[114.6794356,23.7648757],[114.6792592,23.7646141],[114.6791617,23.764449],[114.6788876,23.7639495],[114.678708,23.7635833],[114.6785818,23.7633422],[114.6773873,23.7609921],[114.6771307,23.7604903],[114.6770058,23.7602362],[114.676817,23.7598666],[114.6766211,23.7594744],[114.6764343,23.7591089],[114.6763564,23.7589593],[114.6763064,23.7588458],[114.6762615,23.7587489],[114.6762008,23.7586035],[114.6761451,23.7584632],[114.6759927,23.7580879],[114.6759151,23.7578792],[114.6758714,23.7577532]]},"properties":{"key":"way:1265766401@detail:458_95","osmType":"way","osmId":1265766401,"sourceRegion":"guangdong","featureType":"infrastructure","railClass":"minor","mode":"rail","name":"河源站4道","service":"siding","status":"operational","color":"#52636F","dataOrigin":"datum-2026-08-01","sourceKey":"way:1265766401"}},{"type":"Feature","geometry":{"type":"LineString","coordinates":[[114.6795713,23.7652347],[114.6793764,23.7650012],[114.6792686,23.7648547],[114.6791467,23.7646752],[114.6790479,23.7644932],[114.6789504,23.7643048],[114.6788206,23.7640414],[114.678719,23.7638334],[114.6783926,23.7631999],[114.6781028,23.7626426],[114.6777742,23.7620134],[114.6772652,23.7610082],[114.6770554,23.7605683],[114.6768174,23.7601003],[114.6766653,23.7597938],[114.6763551,23.7591759],[114.6761244,23.7587166],[114.6760618,23.7585875],[114.6759672,23.7583846],[114.6758979,23.758197],[114.6758495,23.7580561],[114.6758005,23.7578389],[114.6757466,23.7575608]]},"properties":{"key":"way:1265766402@detail:458_95","osmType":"way","osmId":1265766402,"sourceRegion":"guangdong","featureType":"infrastructure","railClass":"minor","mode":"rail","name":"河源站6道","service":"siding","status":"operational","color":"#52636F","dataOrigin":"datum-2026-08-01","sourceKey":"way:1265766402"}},{"type":"Feature","geometry":{"type":"LineString","coordinates":[[114.6759594,23.7577956],[114.6763519,23.7584504]]},"properties":{"key":"way:1314899267@detail:458_95","osmType":"way","osmId":1314899267,"sourceRegion":"guangdong","featureType":"infrastructure","railClass":"national","mode":"rail","name":"未命名","status":"operational","color":"#E54848","dataOrigin":"datum-2026-08-01","sourceKey":"way:1314899267"}},{"type":"Feature","geometry":{"type":"LineString","coordinates":[[114.6800564,23.76598],[114.6803123,23.7664799],[114.6805078,23.7668688],[114.6809472,23.7677428],[114.6815398,23.7689214],[114.6819529,23.7697413],[114.6822157,23.7702199],[114.6824625,23.7706151],[114.6828192,23.7710398],[114.6831438,23.7713491],[114.6833771,23.7715676],[114.6837848,23.7718621],[114.6841067,23.7720634],[114.6844473,23.7722892],[114.685083,23.772623],[114.686062,23.7731214]]},"properties":{"key":"way:1314899268@detail:458_95","osmType":"way","osmId":1314899268,"sourceRegion":"guangdong","featureType":"infrastructure","railClass":"national","mode":"rail","name":"京九线","nameEn":"Jingjiu Line","ref":"0005","usage":"main","status":"operational","color":"#E54848","dataOrigin":"datum-2026-08-01","sourceKey":"way:1314899268"}},{"type":"Feature","geometry":{"type":"LineString","coordinates":[[114.6859306,23.772763],[114.6849972,23.7724292],[114.6845841,23.7722426],[114.684163,23.7720192],[114.6836346,23.7716731],[114.6832698,23.7713712],[114.6828407,23.7709662],[114.6825269,23.7705661],[114.6822935,23.7702445],[114.6820816,23.7699033],[114.6812304,23.7682233],[114.6802537,23.7662953],[114.6801106,23.7660129],[114.6800531,23.7658993]]},"properties":{"key":"way:1314899269@detail:458_95","osmType":"way","osmId":1314899269,"sourceRegion":"guangdong","featureType":"infrastructure","railClass":"national","mode":"rail","name":"京九线","nameEn":"Jingjiu Line","ref":"0005","usage":"main","status":"operational","color":"#E54848","dataOrigin":"datum-2026-08-01","sourceKey":"way:1314899269"}},{"type":"Feature","geometry":{"type":"LineString","coordinates":[[114.6744149,23.7549091],[114.675176,23.7563786],[114.6753788,23.7567775],[114.67566,23.7573411],[114.6758389,23.7576906],[114.6758714,23.7577532],[114.6758859,23.7577799]]},"properties":{"key":"way:1314899270@detail:458_95","osmType":"way","osmId":1314899270,"sourceRegion":"guangdong","featureType":"infrastructure","railClass":"national","mode":"rail","name":"京九线","nameEn":"Jingjiu Line","ref":"0005","usage":"main","status":"operational","color":"#E54848","dataOrigin":"datum-2026-08-01","sourceKey":"way:1314899270"}},{"type":"Feature","geometry":{"type":"LineString","coordinates":[[114.6759811,23.7578393],[114.6759594,23.7577956],[114.6757565,23.7573868],[114.6749011,23.7557403],[114.6744764,23.7548914]]},"properties":{"key":"way:1314899271@detail:458_95","osmType":"way","osmId":1314899271,"sourceRegion":"guangdong","featureType":"infrastructure","railClass":"national","mode":"rail","name":"京九线","nameEn":"Jingjiu Line","ref":"0005","usage":"main","status":"operational","color":"#E54848","dataOrigin":"datum-2026-08-01","sourceKey":"way:1314899271"}},{"type":"Feature","geometry":{"type":"LineString","coordinates":[[114.6757565,23.7573868],[114.6753788,23.7567775]]},"properties":{"key":"way:1314899272@detail:458_95","osmType":"way","osmId":1314899272,"sourceRegion":"guangdong","featureType":"infrastructure","railClass":"national","mode":"rail","name":"未命名","status":"operational","color":"#E54848","dataOrigin":"datum-2026-08-01","sourceKey":"way:1314899272"}},{"type":"Feature","geometry":{"type":"LineString","coordinates":[[114.675176,23.7563786],[114.6749011,23.7557403]]},"properties":{"key":"way:1314899273@detail:458_95","osmType":"way","osmId":1314899273,"sourceRegion":"guangdong","featureType":"infrastructure","railClass":"national","mode":"rail","name":"未命名","status":"operational","color":"#E54848","dataOrigin":"datum-2026-08-01","sourceKey":"way:1314899273"}},{"type":"Feature","geometry":{"type":"LineString","coordinates":[[114.6802537,23.7662953],[114.6805078,23.7668688]]},"properties":{"key":"way:1314903333@detail:458_95","osmType":"way","osmId":1314903333,"sourceRegion":"guangdong","featureType":"infrastructure","railClass":"national","mode":"rail","name":"未命名","status":"operational","color":"#E54848","dataOrigin":"datum-2026-08-01","sourceKey":"way:1314903333"}},{"type":"Feature","geometry":{"type":"LineString","coordinates":[[114.6812304,23.7682233],[114.6809472,23.7677428]]},"properties":{"key":"way:1314903334@detail:458_95","osmType":"way","osmId":1314903334,"sourceRegion":"guangdong","featureType":"infrastructure","railClass":"national","mode":"rail","name":"未命名","status":"operational","color":"#E54848","dataOrigin":"datum-2026-08-01","sourceKey":"way:1314903334"}},{"type":"Feature","geometry":{"type":"LineString","coordinates":[[114.7439294,23.8052039],[114.7445057,23.8055957],[114.75,23.80855526194883]]},"properties":{"key":"way:1338090511@detail:458_95","osmType":"way","osmId":1338090511,"sourceRegion":"guangdong","featureType":"infrastructure","railClass":"minor","mode":"rail","name":"未命名","usage":"industrial","service":"siding","status":"operational","color":"#52636F","dataOrigin":"datum-2026-08-01","sourceKey":"way:1338090511"}},{"type":"Feature","geometry":{"type":"LineString","coordinates":[[114.75,23.80973061898205],[114.7492364,23.8098127]]},"properties":{"key":"way:1338090516@detail:458_95","osmType":"way","osmId":1338090516,"sourceRegion":"guangdong","featureType":"infrastructure","railClass":"minor","mode":"rail","name":"未命名","service":"yard","status":"operational","color":"#52636F","dataOrigin":"datum-2026-08-01","sourceKey":"way:1338090516"}},{"type":"Feature","geometry":{"type":"LineString","coordinates":[[114.75,23.809341798357753],[114.7488535,23.8094496]]},"properties":{"key":"way:1338090518@detail:458_95","osmType":"way","osmId":1338090518,"sourceRegion":"guangdong","featureType":"infrastructure","railClass":"minor","mode":"rail","name":"未命名","usage":"industrial","service":"yard","status":"operational","color":"#52636F","dataOrigin":"datum-2026-08-01","sourceKey":"way:1338090518"}},{"type":"Feature","geometry":{"type":"LineString","coordinates":[[114.75,23.808872166055046],[114.749901,23.8088649],[114.74882,23.8089292]]},"properties":{"key":"way:1338090519@detail:458_95","osmType":"way","osmId":1338090519,"sourceRegion":"guangdong","featureType":"infrastructure","railClass":"minor","mode":"rail","name":"未命名","usage":"industrial","service":"yard","status":"operational","color":"#52636F","dataOrigin":"datum-2026-08-01","sourceKey":"way:1338090519"}},{"type":"Feature","geometry":{"type":"LineString","coordinates":[[114.75,23.808378559861154],[114.7433019,23.8047708]]},"properties":{"key":"way:1338090521@detail:458_95","osmType":"way","osmId":1338090521,"sourceRegion":"guangdong","featureType":"infrastructure","railClass":"minor","mode":"rail","name":"未命名","usage":"industrial","service":"siding","status":"operational","color":"#52636F","dataOrigin":"datum-2026-08-01","sourceKey":"way:1338090521"}},{"type":"Feature","geometry":{"type":"LineString","coordinates":[[114.7433019,23.8047708],[114.742761,23.8045209]]},"properties":{"key":"way:1338090522@detail:458_95","osmType":"way","osmId":1338090522,"sourceRegion":"guangdong","featureType":"infrastructure","railClass":"minor","mode":"rail","name":"未命名","usage":"industrial","service":"crossover","status":"operational","color":"#52636F","dataOrigin":"datum-2026-08-01","sourceKey":"way:1338090522"}},{"type":"Feature","geometry":{"type":"LineString","coordinates":[[114.7433019,23.8047708],[114.7438276,23.8049966],[114.75,23.808334035962005]]},"properties":{"key":"way:1338090523@detail:458_95","osmType":"way","osmId":1338090523,"sourceRegion":"guangdong","featureType":"infrastructure","railClass":"minor","mode":"rail","name":"未命名","usage":"industrial","service":"siding","status":"operational","color":"#52636F","dataOrigin":"datum-2026-08-01","sourceKey":"way:1338090523"}},{"type":"Feature","geometry":{"type":"LineString","coordinates":[[114.6795977,23.7655504],[114.6798483,23.766241],[114.6799409,23.7664479],[114.6800217,23.7665752],[114.6801323,23.7667004],[114.6802457,23.7668181],[114.6803923,23.7669713],[114.6806795,23.7673211]]},"properties":{"key":"way:1506977608@detail:458_95","osmType":"way","osmId":1506977608,"sourceRegion":"guangdong","featureType":"infrastructure","railClass":"minor","mode":"rail","name":"未命名","usage":"industrial","service":"spur","status":"operational","color":"#52636F","dataOrigin":"datum-2026-08-01","sourceKey":"way:1506977608"}},{"type":"Feature","geometry":{"type":"LineString","coordinates":[[114.6786082,23.7666973],[114.6807497,23.7683468],[114.6809171,23.7685266],[114.6810672,23.7687019],[114.6812209,23.7689482],[114.6813387,23.7691753],[114.6815037,23.7694822]]},"properties":{"key":"way:1506977609@detail:458_95","osmType":"way","osmId":1506977609,"sourceRegion":"guangdong","featureType":"infrastructure","railClass":"minor","mode":"rail","name":"未命名","usage":"industrial","service":"yard","status":"operational","color":"#52636F","dataOrigin":"datum-2026-08-01","sourceKey":"way:1506977609"}},{"type":"Feature","geometry":{"type":"LineString","coordinates":[[114.6789593,23.7662744],[114.6801884,23.7672045],[114.6804088,23.7674233],[114.6807133,23.7678438],[114.6813623,23.7690934]]},"properties":{"key":"way:1506977610@detail:458_95","osmType":"way","osmId":1506977610,"sourceRegion":"guangdong","featureType":"infrastructure","railClass":"minor","mode":"rail","name":"未命名","usage":"industrial","service":"yard","status":"operational","color":"#52636F","dataOrigin":"datum-2026-08-01","sourceKey":"way:1506977610"}}]}