{"type":"FeatureCollection","features":[{"type":"Feature","geometry":{"type":"Point","coordinates":[114.6147966,23.5657904]},"properties":{"key":"node:8417536172","osmType":"node","osmId":8417536172,"sourceRegion":"guangdong","featureType":"station","railClass":"minor","mode":"station","name":"埔前","status":"operational","color":"#52636F","dataOrigin":"datum-2026-08-01","sourceKey":"node:8417536172","stationGroup":"埔前","hasOperationalRail":true,"hasConstructionRail":false}},{"type":"Feature","geometry":{"type":"Point","coordinates":[114.7327598,23.6861322]},"properties":{"key":"node:9329167795","osmType":"node","osmId":9329167795,"sourceRegion":"guangdong","featureType":"station","railClass":"minor","mode":"station","name":"河源东","status":"operational","color":"#52636F","dataOrigin":"datum-2026-08-01","sourceKey":"node:9329167795","stationGroup":"河源东","hasOperationalRail":true,"hasConstructionRail":false}},{"type":"Feature","geometry":{"type":"LineString","coordinates":[[114.6773176,23.7230799],[114.6756004,23.719813]]},"properties":{"key":"way:29721529@detail:458_94","osmType":"way","osmId":29721529,"sourceRegion":"guangdong","featureType":"infrastructure","railClass":"national","mode":"rail","name":"京九线","nameEn":"Jingjiu Line","ref":"0005","usage":"main","bridge":"yes","status":"operational","color":"#E54848","dataOrigin":"datum-2026-08-01","sourceKey":"way:29721529"}},{"type":"Feature","geometry":{"type":"LineString","coordinates":[[114.6098813,23.5583773],[114.6092977,23.5572248],[114.6024227,23.5434665],[114.599365,23.5372157],[114.5989144,23.5363895],[114.5970476,23.5336156],[114.5963636,23.532568],[114.5943251,23.5295654],[114.5918521,23.5258839],[114.5906307,23.52407],[114.5878315,23.5199127],[114.5871583,23.5190544],[114.5864367,23.5182206],[114.5858735,23.517655],[114.58516,23.5169811],[114.5843714,23.5163072],[114.56405800628909,23.5]]},"properties":{"key":"way:71707816@detail:458_94","osmType":"way","osmId":71707816,"sourceRegion":"guangdong","featureType":"infrastructure","railClass":"national","mode":"rail","name":"京九线","nameEn":"Jingjiu Line","ref":"0005","usage":"main","status":"operational","color":"#E54848","dataOrigin":"datum-2026-08-01","sourceKey":"way:71707816"}},{"type":"Feature","geometry":{"type":"LineString","coordinates":[[114.6665928,23.6649185],[114.6662454,23.6638817],[114.6655522,23.6622139],[114.6626262,23.6535301],[114.6602132,23.6465021],[114.6589563,23.6426849],[114.6532788,23.6327659]]},"properties":{"key":"way:124147506@detail:458_94","osmType":"way","osmId":124147506,"sourceRegion":"guangdong","featureType":"infrastructure","railClass":"national","mode":"rail","name":"京九线","nameEn":"Jingjiu Line","ref":"0005","usage":"main","status":"operational","color":"#E54848","dataOrigin":"datum-2026-08-01","sourceKey":"way:124147506"}},{"type":"Feature","geometry":{"type":"LineString","coordinates":[[114.6663917,23.6649554],[114.6660315,23.6639325],[114.6649196,23.6608085],[114.6634839,23.6563054],[114.662535,23.6535324],[114.6602132,23.6465021],[114.6591528,23.6437127],[114.6588282,23.6427521],[114.6585987,23.642309],[114.6565128,23.6387141],[114.6560605,23.6379442],[114.6545011,23.6352352],[114.6537397,23.6339834],[114.6530878,23.6327985]]},"properties":{"key":"way:124147507@detail:458_94","osmType":"way","osmId":124147507,"sourceRegion":"guangdong","featureType":"infrastructure","railClass":"national","mode":"rail","name":"京九线","nameEn":"Jingjiu Line","ref":"0005","usage":"main","status":"operational","color":"#E54848","dataOrigin":"datum-2026-08-01","sourceKey":"way:124147507"}},{"type":"Feature","geometry":{"type":"LineString","coordinates":[[114.6532788,23.6327659],[114.6527692,23.6318837]]},"properties":{"key":"way:124147508@detail:458_94","osmType":"way","osmId":124147508,"sourceRegion":"guangdong","featureType":"infrastructure","railClass":"national","mode":"rail","name":"京九线","nameEn":"Jingjiu Line","ref":"0005","usage":"main","bridge":"yes","status":"operational","color":"#E54848","dataOrigin":"datum-2026-08-01","sourceKey":"way:124147508"}},{"type":"Feature","geometry":{"type":"LineString","coordinates":[[114.6689576,23.6736467],[114.6689227,23.6729343],[114.6687323,23.672023],[114.6683192,23.6708463],[114.6676313,23.6688825],[114.6668875,23.6665124]]},"properties":{"key":"way:124147509@detail:458_94","osmType":"way","osmId":124147509,"sourceRegion":"guangdong","featureType":"infrastructure","railClass":"national","mode":"rail","name":"京九线","nameEn":"Jingjiu Line","ref":"0005","usage":"main","status":"operational","color":"#E54848","dataOrigin":"datum-2026-08-01","sourceKey":"way:124147509"}},{"type":"Feature","geometry":{"type":"LineString","coordinates":[[114.6668875,23.6665124],[114.6663917,23.6649554]]},"properties":{"key":"way:124147510@detail:458_94","osmType":"way","osmId":124147510,"sourceRegion":"guangdong","featureType":"infrastructure","railClass":"national","mode":"rail","name":"京九线","nameEn":"Jingjiu Line","ref":"0005","usage":"main","bridge":"yes","status":"operational","color":"#E54848","dataOrigin":"datum-2026-08-01","sourceKey":"way:124147510"}},{"type":"Feature","geometry":{"type":"LineString","coordinates":[[114.6668849,23.6847898],[114.6666283,23.682433],[114.6665999,23.6813427],[114.6666643,23.6807753],[114.6667609,23.68023],[114.6668816,23.6798222],[114.6670318,23.6793825],[114.6672624,23.6788618],[114.6676295,23.6781146],[114.667974,23.6773933],[114.6683205,23.6767149],[114.6684258,23.6764864],[114.6685043,23.6762801],[114.6685808,23.6760651],[114.6686403,23.6758655]]},"properties":{"key":"way:124147512@detail:458_94","osmType":"way","osmId":124147512,"sourceRegion":"guangdong","featureType":"infrastructure","railClass":"national","mode":"rail","name":"京九线","nameEn":"Jingjiu Line","ref":"0005","usage":"main","status":"operational","color":"#E54848","dataOrigin":"datum-2026-08-01","sourceKey":"way:124147512"}},{"type":"Feature","geometry":{"type":"LineString","coordinates":[[114.6525715,23.6319289],[114.6530878,23.6327985]]},"properties":{"key":"way:124147513@detail:458_94","osmType":"way","osmId":124147513,"sourceRegion":"guangdong","featureType":"infrastructure","railClass":"national","mode":"rail","name":"京九线","nameEn":"Jingjiu Line","ref":"0005","usage":"main","bridge":"yes","status":"operational","color":"#E54848","dataOrigin":"datum-2026-08-01","sourceKey":"way:124147513"}},{"type":"Feature","geometry":{"type":"LineString","coordinates":[[114.6504483,23.6282621],[114.6513876,23.6299126],[114.6519196,23.6308347],[114.6525715,23.6319289]]},"properties":{"key":"way:124147514@detail:458_94","osmType":"way","osmId":124147514,"sourceRegion":"guangdong","featureType":"infrastructure","railClass":"national","mode":"rail","name":"京九线","nameEn":"Jingjiu Line","ref":"0005","usage":"main","status":"operational","color":"#E54848","dataOrigin":"datum-2026-08-01","sourceKey":"way:124147514"}},{"type":"Feature","geometry":{"type":"LineString","coordinates":[[114.6670942,23.6664467],[114.6665928,23.6649185]]},"properties":{"key":"way:180361617@detail:458_94","osmType":"way","osmId":180361617,"sourceRegion":"guangdong","featureType":"infrastructure","railClass":"national","mode":"rail","name":"京九线","nameEn":"Jingjiu Line","ref":"0005","usage":"main","bridge":"yes","status":"operational","color":"#E54848","dataOrigin":"datum-2026-08-01","sourceKey":"way:180361617"}},{"type":"Feature","geometry":{"type":"LineString","coordinates":[[114.616393,23.5517137],[114.6171515,23.5518518],[114.6196529,23.5522993],[114.6227956,23.5528659],[114.6232115,23.5529445],[114.6235196,23.5530239],[114.6239413,23.5531686],[114.6243082,23.5533408],[114.6246259,23.5535217],[114.6249436,23.5537547],[114.6252046,23.5539895],[114.6254693,23.554279],[114.6256687,23.5545314],[114.6262537,23.5552728],[114.6299708,23.5600945]]},"properties":{"key":"way:180361649@detail:458_94","osmType":"way","osmId":180361649,"sourceRegion":"guangdong","featureType":"infrastructure","railClass":"national","mode":"rail","name":"未命名","usage":"branch","status":"operational","color":"#E54848","dataOrigin":"datum-2026-08-01","sourceKey":"way:180361649"}},{"type":"Feature","geometry":{"type":"LineString","coordinates":[[114.6750169,23.7366542],[114.6752876,23.7360881],[114.6757006,23.7353245],[114.6778921,23.7319212],[114.6783587,23.7310448],[114.6787415,23.7301319],[114.6788871,23.7295666],[114.678981,23.7291369],[114.6790293,23.7286728],[114.6790641,23.728221],[114.6790662,23.7278501]]},"properties":{"key":"way:200066630@detail:458_94","osmType":"way","osmId":200066630,"sourceRegion":"guangdong","featureType":"infrastructure","railClass":"national","mode":"rail","name":"京九线","nameEn":"Jingjiu Line","ref":"0005","usage":"main","status":"operational","color":"#E54848","dataOrigin":"datum-2026-08-01","sourceKey":"way:200066630"}},{"type":"Feature","geometry":{"type":"LineString","coordinates":[[114.6749624,23.7366381],[114.675309,23.7359408],[114.6756595,23.735304],[114.6778437,23.7318969],[114.6783185,23.7310276],[114.6786725,23.7301314],[114.6787959,23.7295618],[114.6788737,23.7291198],[114.6789112,23.7286556],[114.6789408,23.7281965],[114.678922,23.7278528]]},"properties":{"key":"way:287962971@detail:458_94","osmType":"way","osmId":287962971,"sourceRegion":"guangdong","featureType":"infrastructure","railClass":"national","mode":"rail","name":"京九线","nameEn":"Jingjiu Line","ref":"0005","usage":"main","status":"operational","color":"#E54848","dataOrigin":"datum-2026-08-01","sourceKey":"way:287962971"}},{"type":"Feature","geometry":{"type":"LineString","coordinates":[[114.6771304,23.723158],[114.6754138,23.7198872]]},"properties":{"key":"way:287962975@detail:458_94","osmType":"way","osmId":287962975,"sourceRegion":"guangdong","featureType":"infrastructure","railClass":"national","mode":"rail","name":"京九线","nameEn":"Jingjiu Line","ref":"0005","usage":"main","bridge":"yes","status":"operational","color":"#E54848","dataOrigin":"datum-2026-08-01","sourceKey":"way:287962975"}},{"type":"Feature","geometry":{"type":"LineString","coordinates":[[114.6746819,23.718427],[114.6742938,23.7176286],[114.6739723,23.7170211],[114.6719923,23.7132522],[114.6698819,23.7092089],[114.6676934,23.7051058],[114.6672374,23.7038653],[114.6671072,23.7028276],[114.6673156,23.7002511],[114.6676543,23.6960046],[114.6677455,23.6941079],[114.6676804,23.6932371],[114.6673411,23.6892212]]},"properties":{"key":"way:387646217@detail:458_94","osmType":"way","osmId":387646217,"sourceRegion":"guangdong","featureType":"infrastructure","railClass":"national","mode":"rail","name":"京九线","nameEn":"Jingjiu Line","ref":"0005","usage":"main","status":"operational","color":"#E54848","dataOrigin":"datum-2026-08-01","sourceKey":"way:387646217"}},{"type":"Feature","geometry":{"type":"LineString","coordinates":[[114.6112819,23.5608311],[114.6114845,23.5611238],[114.6126625,23.5628263],[114.6137688,23.5644504],[114.6147972,23.5659391],[114.6157834,23.5673662],[114.6166259,23.5686089],[114.6171413,23.5693712],[114.6179331,23.5705073]]},"properties":{"key":"way:450251623@detail:458_94","osmType":"way","osmId":450251623,"sourceRegion":"guangdong","featureType":"infrastructure","railClass":"national","mode":"rail","name":"京九线","nameEn":"Jingjiu Line","ref":"0005","usage":"main","status":"operational","color":"#E54848","dataOrigin":"datum-2026-08-01","sourceKey":"way:450251623"}},{"type":"Feature","geometry":{"type":"LineString","coordinates":[[114.6196558,23.5772603],[114.6197222,23.5762746]]},"properties":{"key":"way:549561247@detail:458_94","osmType":"way","osmId":549561247,"sourceRegion":"guangdong","featureType":"infrastructure","railClass":"national","mode":"rail","name":"京九线","nameEn":"Jingjiu Line","ref":"0005","usage":"main","bridge":"yes","status":"operational","color":"#E54848","dataOrigin":"datum-2026-08-01","sourceKey":"way:549561247"}},{"type":"Feature","geometry":{"type":"LineString","coordinates":[[114.6197222,23.5762746],[114.6197291,23.5753292],[114.6195936,23.5739015],[114.6192764,23.572845],[114.6191151,23.57246],[114.6187416,23.5717376],[114.6184048,23.5712265],[114.6179331,23.5705073]]},"properties":{"key":"way:549561248@detail:458_94","osmType":"way","osmId":549561248,"sourceRegion":"guangdong","featureType":"infrastructure","railClass":"national","mode":"rail","name":"京九线","nameEn":"Jingjiu Line","ref":"0005","usage":"main","status":"operational","color":"#E54848","dataOrigin":"datum-2026-08-01","sourceKey":"way:549561248"}},{"type":"Feature","geometry":{"type":"LineString","coordinates":[[114.6109773,23.5599659],[114.610747,23.5596146]]},"properties":{"key":"way:549561257@detail:458_94","osmType":"way","osmId":549561257,"sourceRegion":"guangdong","featureType":"infrastructure","railClass":"minor","mode":"rail","name":"未命名","service":"yard","bridge":"yes","status":"operational","color":"#E54848","dataOrigin":"datum-2026-08-01","sourceKey":"way:549561257"}},{"type":"Feature","geometry":{"type":"LineString","coordinates":[[114.6112386,23.5603463],[114.6109773,23.5599659]]},"properties":{"key":"way:549561258@detail:458_94","osmType":"way","osmId":549561258,"sourceRegion":"guangdong","featureType":"infrastructure","railClass":"minor","mode":"rail","name":"未命名","service":"yard","status":"operational","color":"#E54848","dataOrigin":"datum-2026-08-01","sourceKey":"way:549561258"}},{"type":"Feature","geometry":{"type":"LineString","coordinates":[[114.6114988,23.5607279],[114.6113357,23.5604887],[114.6112386,23.5603463]]},"properties":{"key":"way:549561259@detail:458_94","osmType":"way","osmId":549561259,"sourceRegion":"guangdong","featureType":"infrastructure","railClass":"minor","mode":"rail","name":"未命名","service":"yard","bridge":"yes","status":"operational","color":"#E54848","dataOrigin":"datum-2026-08-01","sourceKey":"way:549561259"}},{"type":"Feature","geometry":{"type":"LineString","coordinates":[[114.6504483,23.6282621],[114.6463354,23.6211449],[114.6450778,23.6191613],[114.6421197,23.6155278],[114.6339884,23.6055696],[114.6281149,23.5985114],[114.6272718,23.5971953],[114.6214074,23.5839933],[114.6199765,23.5807527],[114.6197659,23.580011],[114.6196532,23.5794358],[114.6195906,23.578978],[114.6196558,23.5772603]]},"properties":{"key":"way:549561260@detail:458_94","osmType":"way","osmId":549561260,"sourceRegion":"guangdong","featureType":"infrastructure","railClass":"national","mode":"rail","name":"京九线","nameEn":"Jingjiu Line","ref":"0005","usage":"main","status":"operational","color":"#E54848","dataOrigin":"datum-2026-08-01","sourceKey":"way:549561260"}},{"type":"Feature","geometry":{"type":"LineString","coordinates":[[114.6105576,23.5597223],[114.6107707,23.5600757]]},"properties":{"key":"way:549561264@detail:458_94","osmType":"way","osmId":549561264,"sourceRegion":"guangdong","featureType":"infrastructure","railClass":"national","mode":"rail","name":"京九线","nameEn":"Jingjiu Line","ref":"0005","usage":"main","bridge":"yes","status":"operational","color":"#E54848","dataOrigin":"datum-2026-08-01","sourceKey":"way:549561264"}},{"type":"Feature","geometry":{"type":"LineString","coordinates":[[114.6107707,23.5600757],[114.6110417,23.5604926]]},"properties":{"key":"way:549561266@detail:458_94","osmType":"way","osmId":549561266,"sourceRegion":"guangdong","featureType":"infrastructure","railClass":"national","mode":"rail","name":"京九线","nameEn":"Jingjiu Line","ref":"0005","usage":"main","status":"operational","color":"#E54848","dataOrigin":"datum-2026-08-01","sourceKey":"way:549561266"}},{"type":"Feature","geometry":{"type":"LineString","coordinates":[[114.6110417,23.5604926],[114.6112819,23.5608311]]},"properties":{"key":"way:549561268@detail:458_94","osmType":"way","osmId":549561268,"sourceRegion":"guangdong","featureType":"infrastructure","railClass":"national","mode":"rail","name":"京九线","nameEn":"Jingjiu Line","ref":"0005","usage":"main","bridge":"yes","status":"operational","color":"#E54848","dataOrigin":"datum-2026-08-01","sourceKey":"way:549561268"}},{"type":"Feature","geometry":{"type":"LineString","coordinates":[[114.6098813,23.5583773],[114.6105576,23.5597223]]},"properties":{"key":"way:549561269@detail:458_94","osmType":"way","osmId":549561269,"sourceRegion":"guangdong","featureType":"infrastructure","railClass":"national","mode":"rail","name":"京九线","nameEn":"Jingjiu Line","ref":"0005","usage":"main","status":"operational","color":"#E54848","dataOrigin":"datum-2026-08-01","sourceKey":"way:549561269"}},{"type":"Feature","geometry":{"type":"LineString","coordinates":[[114.6727959,23.7489728],[114.6727905,23.748833]]},"properties":{"key":"way:549630080@detail:458_94","osmType":"way","osmId":549630080,"sourceRegion":"guangdong","featureType":"infrastructure","railClass":"national","mode":"rail","name":"京九线","nameEn":"Jingjiu Line","ref":"0005","usage":"main","bridge":"yes","status":"operational","color":"#E54848","dataOrigin":"datum-2026-08-01","sourceKey":"way:549630080"}},{"type":"Feature","geometry":{"type":"LineString","coordinates":[[114.6728734,23.7489637],[114.6728695,23.7488257]]},"properties":{"key":"way:549630081@detail:458_94","osmType":"way","osmId":549630081,"sourceRegion":"guangdong","featureType":"infrastructure","railClass":"national","mode":"rail","name":"京九线","nameEn":"Jingjiu Line","ref":"0005","usage":"main","bridge":"yes","status":"operational","color":"#E54848","dataOrigin":"datum-2026-08-01","sourceKey":"way:549630081"}},{"type":"Feature","geometry":{"type":"LineString","coordinates":[[114.67294829648039,23.75],[114.6728734,23.7489637]]},"properties":{"key":"way:549630082@detail:458_94","osmType":"way","osmId":549630082,"sourceRegion":"guangdong","featureType":"infrastructure","railClass":"national","mode":"rail","name":"京九线","nameEn":"Jingjiu Line","ref":"0005","usage":"main","status":"operational","color":"#E54848","dataOrigin":"datum-2026-08-01","sourceKey":"way:549630082"}},{"type":"Feature","geometry":{"type":"LineString","coordinates":[[114.6727905,23.748833],[114.6728083,23.7480994],[114.672937,23.7468594],[114.6734205,23.7441519]]},"properties":{"key":"way:549630083@detail:458_94","osmType":"way","osmId":549630083,"sourceRegion":"guangdong","featureType":"infrastructure","railClass":"national","mode":"rail","name":"京九线","nameEn":"Jingjiu Line","ref":"0005","usage":"main","status":"operational","color":"#E54848","dataOrigin":"datum-2026-08-01","sourceKey":"way:549630083"}},{"type":"Feature","geometry":{"type":"LineString","coordinates":[[114.6734205,23.7441519],[114.6734651,23.7438985]]},"properties":{"key":"way:549630084@detail:458_94","osmType":"way","osmId":549630084,"sourceRegion":"guangdong","featureType":"infrastructure","railClass":"national","mode":"rail","name":"京九线","nameEn":"Jingjiu Line","ref":"0005","usage":"main","bridge":"yes","status":"operational","color":"#E54848","dataOrigin":"datum-2026-08-01","sourceKey":"way:549630084"}},{"type":"Feature","geometry":{"type":"LineString","coordinates":[[114.6734681,23.7441719],[114.6735141,23.7439154]]},"properties":{"key":"way:549630085@detail:458_94","osmType":"way","osmId":549630085,"sourceRegion":"guangdong","featureType":"infrastructure","railClass":"national","mode":"rail","name":"京九线","nameEn":"Jingjiu Line","ref":"0005","usage":"main","bridge":"yes","status":"operational","color":"#E54848","dataOrigin":"datum-2026-08-01","sourceKey":"way:549630085"}},{"type":"Feature","geometry":{"type":"LineString","coordinates":[[114.6735141,23.7439154],[114.6742845,23.7396213],[114.6745044,23.7384624],[114.6746439,23.7378044],[114.6749268,23.736894]]},"properties":{"key":"way:549630086@detail:458_94","osmType":"way","osmId":549630086,"sourceRegion":"guangdong","featureType":"infrastructure","railClass":"national","mode":"rail","name":"京九线","nameEn":"Jingjiu Line","ref":"0005","usage":"main","status":"operational","color":"#E54848","dataOrigin":"datum-2026-08-01","sourceKey":"way:549630086"}},{"type":"Feature","geometry":{"type":"LineString","coordinates":[[114.6734651,23.7438985],[114.6742174,23.7396189],[114.6744454,23.7384551],[114.6745795,23.737797],[114.6748715,23.7368759]]},"properties":{"key":"way:549630087@detail:458_94","osmType":"way","osmId":549630087,"sourceRegion":"guangdong","featureType":"infrastructure","railClass":"national","mode":"rail","name":"京九线","nameEn":"Jingjiu Line","ref":"0005","usage":"main","status":"operational","color":"#E54848","dataOrigin":"datum-2026-08-01","sourceKey":"way:549630087"}},{"type":"Feature","geometry":{"type":"LineString","coordinates":[[114.6748715,23.7368759],[114.6749624,23.7366381]]},"properties":{"key":"way:549630088@detail:458_94","osmType":"way","osmId":549630088,"sourceRegion":"guangdong","featureType":"infrastructure","railClass":"national","mode":"rail","name":"京九线","nameEn":"Jingjiu Line","ref":"0005","usage":"main","bridge":"yes","status":"operational","color":"#E54848","dataOrigin":"datum-2026-08-01","sourceKey":"way:549630088"}},{"type":"Feature","geometry":{"type":"LineString","coordinates":[[114.67288999536139,23.75],[114.6727959,23.7489728]]},"properties":{"key":"way:549630089@detail:458_94","osmType":"way","osmId":549630089,"sourceRegion":"guangdong","featureType":"infrastructure","railClass":"national","mode":"rail","name":"京九线","nameEn":"Jingjiu Line","ref":"0005","usage":"main","status":"operational","color":"#E54848","dataOrigin":"datum-2026-08-01","sourceKey":"way:549630089"}},{"type":"Feature","geometry":{"type":"LineString","coordinates":[[114.6749268,23.736894],[114.6750169,23.7366542]]},"properties":{"key":"way:549630090@detail:458_94","osmType":"way","osmId":549630090,"sourceRegion":"guangdong","featureType":"infrastructure","railClass":"national","mode":"rail","name":"京九线","nameEn":"Jingjiu Line","ref":"0005","usage":"main","bridge":"yes","status":"operational","color":"#E54848","dataOrigin":"datum-2026-08-01","sourceKey":"way:549630090"}},{"type":"Feature","geometry":{"type":"LineString","coordinates":[[114.6728695,23.7488257],[114.672878,23.7481017],[114.672981,23.7468601],[114.6734681,23.7441719]]},"properties":{"key":"way:549630091@detail:458_94","osmType":"way","osmId":549630091,"sourceRegion":"guangdong","featureType":"infrastructure","railClass":"national","mode":"rail","name":"京九线","nameEn":"Jingjiu Line","ref":"0005","usage":"main","status":"operational","color":"#E54848","dataOrigin":"datum-2026-08-01","sourceKey":"way:549630091"}},{"type":"Feature","geometry":{"type":"LineString","coordinates":[[114.678922,23.7278528],[114.6789108,23.7276894]]},"properties":{"key":"way:549630092@detail:458_94","osmType":"way","osmId":549630092,"sourceRegion":"guangdong","featureType":"infrastructure","railClass":"national","mode":"rail","name":"京九线","nameEn":"Jingjiu Line","ref":"0005","usage":"main","bridge":"yes","status":"operational","color":"#E54848","dataOrigin":"datum-2026-08-01","sourceKey":"way:549630092"}},{"type":"Feature","geometry":{"type":"LineString","coordinates":[[114.6789108,23.7276894],[114.6788737,23.7273175],[114.6788067,23.7269295],[114.6786886,23.7264212],[114.6784499,23.725768],[114.6782461,23.7252917],[114.6771304,23.723158]]},"properties":{"key":"way:549630093@detail:458_94","osmType":"way","osmId":549630093,"sourceRegion":"guangdong","featureType":"infrastructure","railClass":"national","mode":"rail","name":"京九线","nameEn":"Jingjiu Line","ref":"0005","usage":"main","status":"operational","color":"#E54848","dataOrigin":"datum-2026-08-01","sourceKey":"way:549630093"}},{"type":"Feature","geometry":{"type":"LineString","coordinates":[[114.6790662,23.7278501],[114.6790631,23.7277258]]},"properties":{"key":"way:549630094@detail:458_94","osmType":"way","osmId":549630094,"sourceRegion":"guangdong","featureType":"infrastructure","railClass":"national","mode":"rail","name":"京九线","nameEn":"Jingjiu Line","ref":"0005","usage":"main","bridge":"yes","status":"operational","color":"#E54848","dataOrigin":"datum-2026-08-01","sourceKey":"way:549630094"}},{"type":"Feature","geometry":{"type":"LineString","coordinates":[[114.6790631,23.7277258],[114.6790159,23.7271701],[114.6789461,23.7267576],[114.6788388,23.7263033],[114.6786404,23.7257337],[114.6784312,23.7252327],[114.6780771,23.7245526],[114.6773176,23.7230799]]},"properties":{"key":"way:549630095@detail:458_94","osmType":"way","osmId":549630095,"sourceRegion":"guangdong","featureType":"infrastructure","railClass":"national","mode":"rail","name":"京九线","nameEn":"Jingjiu Line","ref":"0005","usage":"main","status":"operational","color":"#E54848","dataOrigin":"datum-2026-08-01","sourceKey":"way:549630095"}},{"type":"Feature","geometry":{"type":"LineString","coordinates":[[114.6748895,23.718473],[114.6748561,23.7184097]]},"properties":{"key":"way:549630096@detail:458_94","osmType":"way","osmId":549630096,"sourceRegion":"guangdong","featureType":"infrastructure","railClass":"national","mode":"rail","name":"京九线","nameEn":"Jingjiu Line","ref":"0005","usage":"main","bridge":"yes","status":"operational","color":"#E54848","dataOrigin":"datum-2026-08-01","sourceKey":"way:549630096"}},{"type":"Feature","geometry":{"type":"LineString","coordinates":[[114.6747217,23.7185112],[114.6746819,23.718427]]},"properties":{"key":"way:549630097@detail:458_94","osmType":"way","osmId":549630097,"sourceRegion":"guangdong","featureType":"infrastructure","railClass":"national","mode":"rail","name":"京九线","nameEn":"Jingjiu Line","ref":"0005","usage":"main","bridge":"yes","status":"operational","color":"#E54848","dataOrigin":"datum-2026-08-01","sourceKey":"way:549630097"}},{"type":"Feature","geometry":{"type":"LineString","coordinates":[[114.6756004,23.719813],[114.6748895,23.718473]]},"properties":{"key":"way:549630098@detail:458_94","osmType":"way","osmId":549630098,"sourceRegion":"guangdong","featureType":"infrastructure","railClass":"national","mode":"rail","name":"京九线","nameEn":"Jingjiu Line","ref":"0005","usage":"main","status":"operational","color":"#E54848","dataOrigin":"datum-2026-08-01","sourceKey":"way:549630098"}},{"type":"Feature","geometry":{"type":"LineString","coordinates":[[114.6754138,23.7198872],[114.6750489,23.7191896],[114.6747217,23.7185112]]},"properties":{"key":"way:549630099@detail:458_94","osmType":"way","osmId":549630099,"sourceRegion":"guangdong","featureType":"infrastructure","railClass":"national","mode":"rail","name":"京九线","nameEn":"Jingjiu Line","ref":"0005","usage":"main","status":"operational","color":"#E54848","dataOrigin":"datum-2026-08-01","sourceKey":"way:549630099"}},{"type":"Feature","geometry":{"type":"LineString","coordinates":[[114.6673411,23.6892212],[114.6673222,23.6890747]]},"properties":{"key":"way:549630104@detail:458_94","osmType":"way","osmId":549630104,"sourceRegion":"guangdong","featureType":"infrastructure","railClass":"national","mode":"rail","name":"京九线","nameEn":"Jingjiu Line","ref":"0005","usage":"main","bridge":"yes","status":"operational","color":"#E54848","dataOrigin":"datum-2026-08-01","sourceKey":"way:549630104"}},{"type":"Feature","geometry":{"type":"LineString","coordinates":[[114.6674044,23.6892104],[114.6673861,23.689071]]},"properties":{"key":"way:549630105@detail:458_94","osmType":"way","osmId":549630105,"sourceRegion":"guangdong","featureType":"infrastructure","railClass":"national","mode":"rail","name":"京九线","nameEn":"Jingjiu Line","ref":"0005","usage":"main","bridge":"yes","status":"operational","color":"#E54848","dataOrigin":"datum-2026-08-01","sourceKey":"way:549630105"}},{"type":"Feature","geometry":{"type":"LineString","coordinates":[[114.6665852,23.684951],[114.6664451,23.6823098],[114.6664949,23.6813316],[114.6665731,23.6807655],[114.6666804,23.6802251],[114.6668279,23.6798026],[114.6669432,23.6794341],[114.6672088,23.6788618],[114.6675697,23.6781174],[114.6679251,23.6773829],[114.6683729,23.6764741],[114.6684949,23.6761855],[114.6686049,23.6758579]]},"properties":{"key":"way:549630106@detail:458_94","osmType":"way","osmId":549630106,"sourceRegion":"guangdong","featureType":"infrastructure","railClass":"national","mode":"rail","name":"京九线","nameEn":"Jingjiu Line","ref":"0005","usage":"main","status":"operational","color":"#E54848","dataOrigin":"datum-2026-08-01","sourceKey":"way:549630106"}},{"type":"Feature","geometry":{"type":"LineString","coordinates":[[114.6748561,23.7184097],[114.6687503,23.7068519],[114.6678106,23.7050015],[114.6673356,23.7034378],[114.6673356,23.7016151],[114.6679419,23.694222],[114.6675377,23.6904467],[114.6674044,23.6892104]]},"properties":{"key":"way:549630107@detail:458_94","osmType":"way","osmId":549630107,"sourceRegion":"guangdong","featureType":"infrastructure","railClass":"national","mode":"rail","name":"京九线","nameEn":"Jingjiu Line","ref":"0005","usage":"main","status":"operational","color":"#E54848","dataOrigin":"datum-2026-08-01","sourceKey":"way:549630107"}},{"type":"Feature","geometry":{"type":"LineString","coordinates":[[114.6686049,23.6758579],[114.6687833,23.6751511]]},"properties":{"key":"way:549630108@detail:458_94","osmType":"way","osmId":549630108,"sourceRegion":"guangdong","featureType":"infrastructure","railClass":"national","mode":"rail","name":"京九线","nameEn":"Jingjiu Line","ref":"0005","usage":"main","bridge":"yes","status":"operational","color":"#E54848","dataOrigin":"datum-2026-08-01","sourceKey":"way:549630108"}},{"type":"Feature","geometry":{"type":"LineString","coordinates":[[114.6687833,23.6751511],[114.6688584,23.6747715],[114.6689039,23.6744905],[114.6689374,23.6742289],[114.6689576,23.6736467]]},"properties":{"key":"way:549630109@detail:458_94","osmType":"way","osmId":549630109,"sourceRegion":"guangdong","featureType":"infrastructure","railClass":"national","mode":"rail","name":"京九线","nameEn":"Jingjiu Line","ref":"0005","usage":"main","status":"operational","color":"#E54848","dataOrigin":"datum-2026-08-01","sourceKey":"way:549630109"}},{"type":"Feature","geometry":{"type":"LineString","coordinates":[[114.6686403,23.6758655],[114.6688213,23.6751593]]},"properties":{"key":"way:549630110@detail:458_94","osmType":"way","osmId":549630110,"sourceRegion":"guangdong","featureType":"infrastructure","railClass":"national","mode":"rail","name":"京九线","nameEn":"Jingjiu Line","ref":"0005","usage":"main","bridge":"yes","status":"operational","color":"#E54848","dataOrigin":"datum-2026-08-01","sourceKey":"way:549630110"}},{"type":"Feature","geometry":{"type":"LineString","coordinates":[[114.6664949,23.6813316],[114.6664041,23.6806967],[114.666388,23.6801022],[114.6664363,23.6795127],[114.6666294,23.6787021],[114.6668816,23.6780782],[114.6674609,23.6770569],[114.6683039,23.6755657],[114.6683541,23.6754563],[114.6684284,23.6752821],[114.6685668,23.6749644],[114.6688288,23.6740913],[114.6688583,23.6739464]]},"properties":{"key":"way:549630111@detail:458_94","osmType":"way","osmId":549630111,"sourceRegion":"guangdong","featureType":"infrastructure","railClass":"minor","mode":"disused","name":"未命名","status":"operational","color":"#52636F","dataOrigin":"datum-2026-08-01","sourceKey":"way:549630111"}},{"type":"Feature","geometry":{"type":"LineString","coordinates":[[114.6688213,23.6751593],[114.6689039,23.6747858],[114.6689569,23.6744708],[114.6689925,23.6740692],[114.6690112,23.6736123],[114.6689871,23.6729859],[114.6689227,23.6725487],[114.6688288,23.6720402],[114.6685821,23.6712295],[114.66811,23.6695197],[114.667745,23.6684757],[114.6670942,23.6664467]]},"properties":{"key":"way:549630112@detail:458_94","osmType":"way","osmId":549630112,"sourceRegion":"guangdong","featureType":"infrastructure","railClass":"national","mode":"rail","name":"京九线","nameEn":"Jingjiu Line","ref":"0005","usage":"main","status":"operational","color":"#E54848","dataOrigin":"datum-2026-08-01","sourceKey":"way:549630112"}},{"type":"Feature","geometry":{"type":"LineString","coordinates":[[114.666958,23.6854613],[114.6668849,23.6847898]]},"properties":{"key":"way:721540096@detail:458_94","osmType":"way","osmId":721540096,"sourceRegion":"guangdong","featureType":"infrastructure","railClass":"national","mode":"rail","name":"京九线","nameEn":"Jingjiu Line","ref":"0005","usage":"main","bridge":"yes","status":"operational","color":"#E54848","dataOrigin":"datum-2026-08-01","sourceKey":"way:721540096"}},{"type":"Feature","geometry":{"type":"LineString","coordinates":[[114.6673861,23.689071],[114.667259,23.6881018],[114.666958,23.6854613]]},"properties":{"key":"way:721540097@detail:458_94","osmType":"way","osmId":721540097,"sourceRegion":"guangdong","featureType":"infrastructure","railClass":"national","mode":"rail","name":"京九线","nameEn":"Jingjiu Line","ref":"0005","usage":"main","status":"operational","color":"#E54848","dataOrigin":"datum-2026-08-01","sourceKey":"way:721540097"}},{"type":"Feature","geometry":{"type":"LineString","coordinates":[[114.6666628,23.6854772],[114.6665852,23.684951]]},"properties":{"key":"way:721540098@detail:458_94","osmType":"way","osmId":721540098,"sourceRegion":"guangdong","featureType":"infrastructure","railClass":"national","mode":"rail","name":"京九线","nameEn":"Jingjiu Line","ref":"0005","usage":"main","bridge":"yes","status":"operational","color":"#E54848","dataOrigin":"datum-2026-08-01","sourceKey":"way:721540098"}},{"type":"Feature","geometry":{"type":"LineString","coordinates":[[114.6673222,23.6890747],[114.6671969,23.688102],[114.6666628,23.6854772]]},"properties":{"key":"way:721540099@detail:458_94","osmType":"way","osmId":721540099,"sourceRegion":"guangdong","featureType":"infrastructure","railClass":"national","mode":"rail","name":"京九线","nameEn":"Jingjiu Line","ref":"0005","usage":"main","status":"operational","color":"#E54848","dataOrigin":"datum-2026-08-01","sourceKey":"way:721540099"}},{"type":"Feature","geometry":{"type":"LineString","coordinates":[[114.6174291,23.5696979],[114.6170294,23.568926],[114.6167172,23.5683412],[114.6165773,23.5681234],[114.6164952,23.5679977],[114.616342,23.5677783],[114.6152112,23.5661351],[114.6145798,23.5652165],[114.6132956,23.5633403],[114.6114988,23.5607279]]},"properties":{"key":"way:721540100@detail:458_94","osmType":"way","osmId":721540100,"sourceRegion":"guangdong","featureType":"infrastructure","railClass":"minor","mode":"rail","name":"未命名","service":"yard","status":"operational","color":"#E54848","dataOrigin":"datum-2026-08-01","sourceKey":"way:721540100"}},{"type":"Feature","geometry":{"type":"LineString","coordinates":[[114.6197699,23.5762773],[114.6197828,23.5753311],[114.6196744,23.5738866],[114.619322,23.5728192],[114.619135,23.5723894],[114.6189211,23.5719551],[114.6186997,23.5715782],[114.6184323,23.5711672],[114.6181733,23.5707861],[114.617968,23.5704894]]},"properties":{"key":"way:721540101@detail:458_94","osmType":"way","osmId":721540101,"sourceRegion":"guangdong","featureType":"infrastructure","railClass":"national","mode":"rail","name":"京九线","nameEn":"Jingjiu Line","ref":"0005","usage":"main","status":"operational","color":"#E54848","dataOrigin":"datum-2026-08-01","sourceKey":"way:721540101"}},{"type":"Feature","geometry":{"type":"LineString","coordinates":[[114.6197035,23.5772624],[114.6197699,23.5762773]]},"properties":{"key":"way:721540102@detail:458_94","osmType":"way","osmId":721540102,"sourceRegion":"guangdong","featureType":"infrastructure","railClass":"national","mode":"rail","name":"京九线","nameEn":"Jingjiu Line","ref":"0005","usage":"main","bridge":"yes","status":"operational","color":"#E54848","dataOrigin":"datum-2026-08-01","sourceKey":"way:721540102"}},{"type":"Feature","geometry":{"type":"LineString","coordinates":[[114.6504905,23.6282416],[114.6463772,23.6211237],[114.6451177,23.6191371],[114.642158,23.6155016],[114.6340265,23.6055432],[114.6281546,23.598487],[114.6273148,23.5971759],[114.6214517,23.5839768],[114.620022,23.5807389],[114.6198126,23.5800016],[114.6197004,23.5794292],[114.6196385,23.578976],[114.6197035,23.5772624]]},"properties":{"key":"way:721540103@detail:458_94","osmType":"way","osmId":721540103,"sourceRegion":"guangdong","featureType":"infrastructure","railClass":"national","mode":"rail","name":"京九线","nameEn":"Jingjiu Line","ref":"0005","usage":"main","status":"operational","color":"#E54848","dataOrigin":"datum-2026-08-01","sourceKey":"way:721540103"}},{"type":"Feature","geometry":{"type":"LineString","coordinates":[[114.6106227,23.5596872],[114.6103827,23.5592856],[114.6101591,23.55886],[114.6099195,23.5583587],[114.6093369,23.5572082],[114.602462,23.5434502],[114.599404,23.5371987],[114.5989521,23.5363702],[114.5970845,23.533595],[114.5964004,23.5325474],[114.5943618,23.5295446],[114.5918888,23.5258631],[114.5906674,23.5240492],[114.5878674,23.5198907],[114.5871927,23.5190305],[114.5864696,23.5181949],[114.5859049,23.5176279],[114.5851902,23.5169528],[114.5844003,23.5162778],[114.564123585235,23.5]]},"properties":{"key":"way:721540104@detail:458_94","osmType":"way","osmId":721540104,"sourceRegion":"guangdong","featureType":"infrastructure","railClass":"national","mode":"rail","name":"京九线","nameEn":"Jingjiu Line","ref":"0005","usage":"main","status":"operational","color":"#E54848","dataOrigin":"datum-2026-08-01","sourceKey":"way:721540104"}},{"type":"Feature","geometry":{"type":"LineString","coordinates":[[114.6527692,23.6318837],[114.6504905,23.6282416]]},"properties":{"key":"way:721540111@detail:458_94","osmType":"way","osmId":721540111,"sourceRegion":"guangdong","featureType":"infrastructure","railClass":"national","mode":"rail","name":"京九线","nameEn":"Jingjiu Line","ref":"0005","usage":"main","status":"operational","color":"#E54848","dataOrigin":"datum-2026-08-01","sourceKey":"way:721540111"}},{"type":"Feature","geometry":{"type":"LineString","coordinates":[[114.6639178,23.569202],[114.6343114,23.5512544],[114.6272517,23.546825],[114.6209768,23.5424819],[114.6126166,23.5351199],[114.5805454,23.504798],[114.57566871201313,23.5]]},"properties":{"key":"way:819121223@detail:458_94","osmType":"way","osmId":819121223,"sourceRegion":"guangdong","featureType":"infrastructure","railClass":"highspeed","mode":"rail","name":"京港高速线","nameEn":"Jinggang High-Speed Line","ref":"3003","usage":"main","highspeed":"yes","bridge":"yes","status":"operational","color":"#E54848","dataOrigin":"datum-2026-08-01","sourceKey":"way:819121223"}},{"type":"Feature","geometry":{"type":"LineString","coordinates":[[114.75,23.707393158208653],[114.7457286,23.7028481],[114.7413491,23.6977675],[114.7408415,23.6971015]]},"properties":{"key":"way:960214914@detail:458_94","osmType":"way","osmId":960214914,"sourceRegion":"guangdong","featureType":"infrastructure","railClass":"highspeed","mode":"rail","name":"京港高速线","nameEn":"Jinggang High-Speed Line","ref":"3003","usage":"main","highspeed":"yes","tunnel":"yes","status":"operational","color":"#E54848","dataOrigin":"datum-2026-08-01","sourceKey":"way:960214914"}},{"type":"Feature","geometry":{"type":"LineString","coordinates":[[114.7408415,23.6971015],[114.7402574,23.6962629]]},"properties":{"key":"way:960214915@detail:458_94","osmType":"way","osmId":960214915,"sourceRegion":"guangdong","featureType":"infrastructure","railClass":"highspeed","mode":"rail","name":"京港高速线","nameEn":"Jinggang High-Speed Line","ref":"3003","usage":"main","highspeed":"yes","bridge":"yes","status":"operational","color":"#E54848","dataOrigin":"datum-2026-08-01","sourceKey":"way:960214915"}},{"type":"Feature","geometry":{"type":"LineString","coordinates":[[114.7402574,23.6962629],[114.7390738,23.6945637]]},"properties":{"key":"way:960214916@detail:458_94","osmType":"way","osmId":960214916,"sourceRegion":"guangdong","featureType":"infrastructure","railClass":"highspeed","mode":"rail","name":"京港高速线","nameEn":"Jinggang High-Speed Line","ref":"3003","usage":"main","highspeed":"yes","tunnel":"yes","status":"operational","color":"#E54848","dataOrigin":"datum-2026-08-01","sourceKey":"way:960214916"}},{"type":"Feature","geometry":{"type":"LineString","coordinates":[[114.7390738,23.6945637],[114.7376946,23.6925653],[114.7348286,23.688531],[114.7340716,23.6874383],[114.7299097,23.6815989],[114.7287852,23.6800817],[114.7281083,23.6791369],[114.7279045,23.6788372],[114.7260323,23.6759165],[114.7147863,23.6594522],[114.7103497,23.6498567],[114.7065163,23.6397562]]},"properties":{"key":"way:960214917@detail:458_94","osmType":"way","osmId":960214917,"sourceRegion":"guangdong","featureType":"infrastructure","railClass":"highspeed","mode":"rail","name":"京港高速线","nameEn":"Jinggang High-Speed Line","ref":"3003","usage":"main","highspeed":"yes","bridge":"yes","status":"operational","color":"#E54848","dataOrigin":"datum-2026-08-01","sourceKey":"way:960214917"}},{"type":"Feature","geometry":{"type":"LineString","coordinates":[[114.7065163,23.6397562],[114.7050802,23.6359719]]},"properties":{"key":"way:960214918@detail:458_94","osmType":"way","osmId":960214918,"sourceRegion":"guangdong","featureType":"infrastructure","railClass":"highspeed","mode":"rail","name":"京港高速线","nameEn":"Jinggang High-Speed Line","ref":"3003","usage":"main","highspeed":"yes","tunnel":"yes","status":"operational","color":"#E54848","dataOrigin":"datum-2026-08-01","sourceKey":"way:960214918"}},{"type":"Feature","geometry":{"type":"LineString","coordinates":[[114.7050802,23.6359719],[114.7021213,23.628175]]},"properties":{"key":"way:960214919@detail:458_94","osmType":"way","osmId":960214919,"sourceRegion":"guangdong","featureType":"infrastructure","railClass":"highspeed","mode":"rail","name":"京港高速线","nameEn":"Jinggang High-Speed Line","ref":"3003","usage":"main","highspeed":"yes","bridge":"yes","status":"operational","color":"#E54848","dataOrigin":"datum-2026-08-01","sourceKey":"way:960214919"}},{"type":"Feature","geometry":{"type":"LineString","coordinates":[[114.7021213,23.628175],[114.6964352,23.6133722]]},"properties":{"key":"way:960214920@detail:458_94","osmType":"way","osmId":960214920,"sourceRegion":"guangdong","featureType":"infrastructure","railClass":"highspeed","mode":"rail","name":"京港高速线","nameEn":"Jinggang High-Speed Line","ref":"3003","usage":"main","highspeed":"yes","tunnel":"yes","status":"operational","color":"#E54848","dataOrigin":"datum-2026-08-01","sourceKey":"way:960214920"}},{"type":"Feature","geometry":{"type":"LineString","coordinates":[[114.6964352,23.6133722],[114.6954087,23.6106283]]},"properties":{"key":"way:960214921@detail:458_94","osmType":"way","osmId":960214921,"sourceRegion":"guangdong","featureType":"infrastructure","railClass":"highspeed","mode":"rail","name":"京港高速线","nameEn":"Jinggang High-Speed Line","ref":"3003","usage":"main","highspeed":"yes","bridge":"yes","status":"operational","color":"#E54848","dataOrigin":"datum-2026-08-01","sourceKey":"way:960214921"}},{"type":"Feature","geometry":{"type":"LineString","coordinates":[[114.6954087,23.6106283],[114.6918547,23.6011746],[114.6912372,23.5998806],[114.6900218,23.5980029],[114.6830011,23.5884942],[114.6741078,23.5783368],[114.6662986,23.5708745],[114.6656931,23.5703666],[114.6648902,23.5697984],[114.6639178,23.569202]]},"properties":{"key":"way:960214922@detail:458_94","osmType":"way","osmId":960214922,"sourceRegion":"guangdong","featureType":"infrastructure","railClass":"highspeed","mode":"rail","name":"京港高速线","nameEn":"Jinggang High-Speed Line","ref":"3003","usage":"main","highspeed":"yes","tunnel":"yes","status":"operational","color":"#E54848","dataOrigin":"datum-2026-08-01","sourceKey":"way:960214922"}},{"type":"Feature","geometry":{"type":"LineString","coordinates":[[114.7331268,23.6864002],[114.7340096,23.6874881]]},"properties":{"key":"way:1080574658@detail:458_94","osmType":"way","osmId":1080574658,"sourceRegion":"guangdong","featureType":"infrastructure","railClass":"highspeed","mode":"rail","name":"未命名","highspeed":"yes","bridge":"yes","status":"operational","color":"#E54848","dataOrigin":"datum-2026-08-01","sourceKey":"way:1080574658"}},{"type":"Feature","geometry":{"type":"LineString","coordinates":[[114.7348286,23.688531],[114.7340994,23.6874238],[114.7299403,23.6815822],[114.7293674,23.6807387]]},"properties":{"key":"way:1080574660@detail:458_94","osmType":"way","osmId":1080574660,"sourceRegion":"guangdong","featureType":"infrastructure","railClass":"highspeed","mode":"rail","name":"未命名","highspeed":"yes","bridge":"yes","status":"operational","color":"#E54848","dataOrigin":"datum-2026-08-01","sourceKey":"way:1080574660"}},{"type":"Feature","geometry":{"type":"LineString","coordinates":[[114.7347911,23.6885629],[114.7340096,23.6874881],[114.7298437,23.6816411],[114.7287708,23.6802054],[114.7280384,23.679155]]},"properties":{"key":"way:1080574661@detail:458_94","osmType":"way","osmId":1080574661,"sourceRegion":"guangdong","featureType":"infrastructure","railClass":"highspeed","mode":"rail","name":"未命名","highspeed":"yes","bridge":"yes","status":"operational","color":"#E54848","dataOrigin":"datum-2026-08-01","sourceKey":"way:1080574661"}},{"type":"Feature","geometry":{"type":"LineString","coordinates":[[114.7340994,23.6874238],[114.7329657,23.6855087],[114.7304714,23.6820243],[114.7293674,23.6807387],[114.7287852,23.6800817]]},"properties":{"key":"way:1080574662@detail:458_94","osmType":"way","osmId":1080574662,"sourceRegion":"guangdong","featureType":"infrastructure","railClass":"highspeed","mode":"rail","name":"未命名","highspeed":"yes","bridge":"yes","status":"operational","color":"#E54848","dataOrigin":"datum-2026-08-01","sourceKey":"way:1080574662"}},{"type":"Feature","geometry":{"type":"LineString","coordinates":[[114.725984,23.6759534],[114.7278294,23.678874],[114.7280384,23.679155],[114.7287467,23.6801071],[114.7298866,23.6816276],[114.7340416,23.6874649],[114.7347911,23.6885629],[114.7376463,23.6925898],[114.7390008,23.6945596]]},"properties":{"key":"way:1080574663@detail:458_94","osmType":"way","osmId":1080574663,"sourceRegion":"guangdong","featureType":"infrastructure","railClass":"highspeed","mode":"rail","name":"未命名","highspeed":"yes","bridge":"yes","status":"operational","color":"#E54848","dataOrigin":"datum-2026-08-01","sourceKey":"way:1080574663"}},{"type":"Feature","geometry":{"type":"LineString","coordinates":[[114.736222,23.6995209],[114.7369838,23.6984599],[114.7374451,23.6975659],[114.7377562,23.6966228],[114.7380137,23.6958663],[114.7381639,23.6949232],[114.7382176,23.6942944],[114.7380888,23.693646],[114.7377884,23.6929435],[114.7375578,23.6926242],[114.7346637,23.6885838],[114.7331268,23.6864002],[114.7322738,23.6854374],[114.7300798,23.6823473],[114.7292376,23.6809472],[114.7287708,23.6802054]]},"properties":{"key":"way:1080574664@detail:458_94","osmType":"way","osmId":1080574664,"sourceRegion":"guangdong","featureType":"infrastructure","railClass":"highspeed","mode":"rail","name":"未命名","highspeed":"yes","bridge":"yes","status":"operational","color":"#E54848","dataOrigin":"datum-2026-08-01","sourceKey":"way:1080574664"}},{"type":"Feature","geometry":{"type":"LineString","coordinates":[[114.6299708,23.5600945],[114.6302852,23.5604279],[114.6306319,23.5607957],[114.6309839,23.561169],[114.631393,23.5616028],[114.6314883,23.5617114],[114.6315759,23.5618226],[114.6319235,23.5622745]]},"properties":{"key":"way:1239409363@detail:458_94","osmType":"way","osmId":1239409363,"sourceRegion":"guangdong","featureType":"infrastructure","railClass":"minor","mode":"rail","name":"未命名","service":"yard","status":"operational","color":"#52636F","dataOrigin":"datum-2026-08-01","sourceKey":"way:1239409363"}},{"type":"Feature","geometry":{"type":"LineString","coordinates":[[114.6313988,23.5614475],[114.6306319,23.5607957]]},"properties":{"key":"way:1239409364@detail:458_94","osmType":"way","osmId":1239409364,"sourceRegion":"guangdong","featureType":"infrastructure","railClass":"minor","mode":"rail","name":"未命名","service":"yard","status":"operational","color":"#52636F","dataOrigin":"datum-2026-08-01","sourceKey":"way:1239409364"}},{"type":"Feature","geometry":{"type":"LineString","coordinates":[[114.6309839,23.561169],[114.6319168,23.5624095],[114.6369764,23.5690514]]},"properties":{"key":"way:1239409365@detail:458_94","osmType":"way","osmId":1239409365,"sourceRegion":"guangdong","featureType":"infrastructure","railClass":"minor","mode":"rail","name":"未命名","service":"yard","status":"operational","color":"#52636F","dataOrigin":"datum-2026-08-01","sourceKey":"way:1239409365"}},{"type":"Feature","geometry":{"type":"LineString","coordinates":[[114.6302852,23.5604279],[114.6306718,23.560933],[114.6313554,23.5618332],[114.6369018,23.5690997]]},"properties":{"key":"way:1239409366@detail:458_94","osmType":"way","osmId":1239409366,"sourceRegion":"guangdong","featureType":"infrastructure","railClass":"minor","mode":"rail","name":"未命名","service":"yard","status":"operational","color":"#52636F","dataOrigin":"datum-2026-08-01","sourceKey":"way:1239409366"}},{"type":"Feature","geometry":{"type":"LineString","coordinates":[[114.6299708,23.5600945],[114.6302847,23.5605191],[114.6309555,23.5613925],[114.6313723,23.5619398],[114.6368673,23.569122]]},"properties":{"key":"way:1239409367@detail:458_94","osmType":"way","osmId":1239409367,"sourceRegion":"guangdong","featureType":"infrastructure","railClass":"minor","mode":"rail","name":"未命名","service":"yard","status":"operational","color":"#52636F","dataOrigin":"datum-2026-08-01","sourceKey":"way:1239409367"}},{"type":"Feature","geometry":{"type":"LineString","coordinates":[[114.6302847,23.5605191],[114.6305188,23.56091],[114.6309214,23.5615826],[114.6311104,23.5618528],[114.6314256,23.5622682],[114.6366745,23.5692468]]},"properties":{"key":"way:1239409368@detail:458_94","osmType":"way","osmId":1239409368,"sourceRegion":"guangdong","featureType":"infrastructure","railClass":"minor","mode":"rail","name":"未命名","service":"yard","status":"operational","color":"#52636F","dataOrigin":"datum-2026-08-01","sourceKey":"way:1239409368"}},{"type":"Feature","geometry":{"type":"LineString","coordinates":[[114.6305188,23.56091],[114.6308802,23.5613747],[114.6311444,23.5617291],[114.631456,23.5621284],[114.6368129,23.5691573]]},"properties":{"key":"way:1239409369@detail:458_94","osmType":"way","osmId":1239409369,"sourceRegion":"guangdong","featureType":"infrastructure","railClass":"minor","mode":"rail","name":"未命名","service":"yard","status":"operational","color":"#52636F","dataOrigin":"datum-2026-08-01","sourceKey":"way:1239409369"}},{"type":"Feature","geometry":{"type":"LineString","coordinates":[[114.6115423,23.5607025],[114.6121435,23.5615795],[114.6129433,23.5627388],[114.6142017,23.564584],[114.6159193,23.5670824],[114.6163164,23.5676454],[114.6164542,23.5678545],[114.6165679,23.5680536],[114.6167172,23.5683412]]},"properties":{"key":"way:1239409384@detail:458_94","osmType":"way","osmId":1239409384,"sourceRegion":"guangdong","featureType":"infrastructure","railClass":"minor","mode":"rail","name":"未命名","service":"yard","status":"operational","color":"#52636F","dataOrigin":"datum-2026-08-01","sourceKey":"way:1239409384"}},{"type":"Feature","geometry":{"type":"LineString","coordinates":[[114.6100969,23.5586282],[114.6105004,23.5591705],[114.6106723,23.5594239],[114.6107841,23.559594]]},"properties":{"key":"way:1239409386@detail:458_94","osmType":"way","osmId":1239409386,"sourceRegion":"guangdong","featureType":"infrastructure","railClass":"minor","mode":"rail","name":"未命名","service":"yard","status":"operational","color":"#52636F","dataOrigin":"datum-2026-08-01","sourceKey":"way:1239409386"}},{"type":"Feature","geometry":{"type":"LineString","coordinates":[[114.6112798,23.5603188],[114.6115423,23.5607025]]},"properties":{"key":"way:1239409387@detail:458_94","osmType":"way","osmId":1239409387,"sourceRegion":"guangdong","featureType":"infrastructure","railClass":"minor","mode":"rail","name":"未命名","service":"yard","bridge":"yes","status":"operational","color":"#52636F","dataOrigin":"datum-2026-08-01","sourceKey":"way:1239409387"}},{"type":"Feature","geometry":{"type":"LineString","coordinates":[[114.6110214,23.5599414],[114.6112798,23.5603188]]},"properties":{"key":"way:1239409388@detail:458_94","osmType":"way","osmId":1239409388,"sourceRegion":"guangdong","featureType":"infrastructure","railClass":"minor","mode":"rail","name":"未命名","service":"yard","status":"operational","color":"#52636F","dataOrigin":"datum-2026-08-01","sourceKey":"way:1239409388"}},{"type":"Feature","geometry":{"type":"LineString","coordinates":[[114.6107841,23.559594],[114.6110214,23.5599414]]},"properties":{"key":"way:1239409389@detail:458_94","osmType":"way","osmId":1239409389,"sourceRegion":"guangdong","featureType":"infrastructure","railClass":"minor","mode":"rail","name":"未命名","service":"yard","bridge":"yes","status":"operational","color":"#52636F","dataOrigin":"datum-2026-08-01","sourceKey":"way:1239409389"}},{"type":"Feature","geometry":{"type":"LineString","coordinates":[[114.6114704,23.5607445],[114.6115419,23.5608735],[114.6117554,23.5612719],[114.6119803,23.5616242],[114.6128575,23.5628895],[114.6142421,23.5649069],[114.6163006,23.5679128],[114.616573,23.5683349],[114.6167997,23.5687161],[114.6169518,23.5689968]]},"properties":{"key":"way:1239409390@detail:458_94","osmType":"way","osmId":1239409390,"sourceRegion":"guangdong","featureType":"infrastructure","railClass":"minor","mode":"rail","name":"未命名","service":"yard","status":"operational","color":"#52636F","dataOrigin":"datum-2026-08-01","sourceKey":"way:1239409390"}},{"type":"Feature","geometry":{"type":"LineString","coordinates":[[114.6115419,23.5608735],[114.6119619,23.5614741],[114.6123845,23.5620974],[114.6132537,23.5633628],[114.6142947,23.564874],[114.6150734,23.5660142],[114.6162401,23.5676952],[114.6163449,23.5678273],[114.6164952,23.5679977]]},"properties":{"key":"way:1239409391@detail:458_94","osmType":"way","osmId":1239409391,"sourceRegion":"guangdong","featureType":"infrastructure","railClass":"minor","mode":"rail","name":"未命名","service":"yard","status":"operational","color":"#52636F","dataOrigin":"datum-2026-08-01","sourceKey":"way:1239409391"}},{"type":"Feature","geometry":{"type":"LineString","coordinates":[[114.61168,23.5612544],[114.6119803,23.5616242]]},"properties":{"key":"way:1239409392@detail:458_94","osmType":"way","osmId":1239409392,"sourceRegion":"guangdong","featureType":"infrastructure","railClass":"minor","mode":"rail","name":"未命名","service":"crossover","status":"operational","color":"#52636F","dataOrigin":"datum-2026-08-01","sourceKey":"way:1239409392"}},{"type":"Feature","geometry":{"type":"LineString","coordinates":[[114.610747,23.5596146],[114.6105669,23.5593421],[114.6100969,23.5586282],[114.6099195,23.5583587]]},"properties":{"key":"way:1239409397@detail:458_94","osmType":"way","osmId":1239409397,"sourceRegion":"guangdong","featureType":"infrastructure","railClass":"minor","mode":"rail","name":"未命名","service":"yard","status":"operational","color":"#E54848","dataOrigin":"datum-2026-08-01","sourceKey":"way:1239409397"}},{"type":"Feature","geometry":{"type":"LineString","coordinates":[[114.617968,23.5704894],[114.6174291,23.5696979],[114.6169518,23.5689968],[114.6163405,23.5681156],[114.615596,23.5670152],[114.6148808,23.5659811],[114.6137126,23.5642891],[114.6128842,23.5630553],[114.6120654,23.5618319],[114.61168,23.5612544],[114.6113494,23.5607902]]},"properties":{"key":"way:1239409398@detail:458_94","osmType":"way","osmId":1239409398,"sourceRegion":"guangdong","featureType":"infrastructure","railClass":"national","mode":"rail","name":"京九线","nameEn":"Jingjiu Line","ref":"0005","usage":"main","status":"operational","color":"#E54848","dataOrigin":"datum-2026-08-01","sourceKey":"way:1239409398"}},{"type":"Feature","geometry":{"type":"LineString","coordinates":[[114.6108358,23.5600406],[114.6106227,23.5596872]]},"properties":{"key":"way:1239409399@detail:458_94","osmType":"way","osmId":1239409399,"sourceRegion":"guangdong","featureType":"infrastructure","railClass":"national","mode":"rail","name":"京九线","nameEn":"Jingjiu Line","ref":"0005","usage":"main","bridge":"yes","status":"operational","color":"#E54848","dataOrigin":"datum-2026-08-01","sourceKey":"way:1239409399"}},{"type":"Feature","geometry":{"type":"LineString","coordinates":[[114.6111092,23.5604517],[114.6108358,23.5600406]]},"properties":{"key":"way:1239409400@detail:458_94","osmType":"way","osmId":1239409400,"sourceRegion":"guangdong","featureType":"infrastructure","railClass":"national","mode":"rail","name":"京九线","nameEn":"Jingjiu Line","ref":"0005","usage":"main","status":"operational","color":"#E54848","dataOrigin":"datum-2026-08-01","sourceKey":"way:1239409400"}},{"type":"Feature","geometry":{"type":"LineString","coordinates":[[114.6113494,23.5607902],[114.6111092,23.5604517]]},"properties":{"key":"way:1239409401@detail:458_94","osmType":"way","osmId":1239409401,"sourceRegion":"guangdong","featureType":"infrastructure","railClass":"national","mode":"rail","name":"京九线","nameEn":"Jingjiu Line","ref":"0005","usage":"main","bridge":"yes","status":"operational","color":"#E54848","dataOrigin":"datum-2026-08-01","sourceKey":"way:1239409401"}},{"type":"Feature","geometry":{"type":"LineString","coordinates":[[114.6113357,23.5604887],[114.6114704,23.5607445]]},"properties":{"key":"way:1239409402@detail:458_94","osmType":"way","osmId":1239409402,"sourceRegion":"guangdong","featureType":"infrastructure","railClass":"minor","mode":"rail","name":"未命名","service":"yard","bridge":"yes","status":"operational","color":"#52636F","dataOrigin":"datum-2026-08-01","sourceKey":"way:1239409402"}},{"type":"Feature","geometry":{"type":"LineString","coordinates":[[114.6180756,23.5704435],[114.6186672,23.5713146],[114.6195623,23.5726327]]},"properties":{"key":"way:1239409403@detail:458_94","osmType":"way","osmId":1239409403,"sourceRegion":"guangdong","featureType":"infrastructure","railClass":"minor","mode":"rail","name":"未命名","service":"siding","status":"operational","color":"#52636F","dataOrigin":"datum-2026-08-01","sourceKey":"way:1239409403"}},{"type":"Feature","geometry":{"type":"LineString","coordinates":[[114.617968,23.5704894],[114.6186672,23.5713146]]},"properties":{"key":"way:1239409404@detail:458_94","osmType":"way","osmId":1239409404,"sourceRegion":"guangdong","featureType":"infrastructure","railClass":"minor","mode":"rail","name":"未命名","service":"crossover","status":"operational","color":"#52636F","dataOrigin":"datum-2026-08-01","sourceKey":"way:1239409404"}},{"type":"Feature","geometry":{"type":"LineString","coordinates":[[114.6170294,23.568926],[114.6173881,23.5694483],[114.6179899,23.5703172],[114.6180756,23.5704435]]},"properties":{"key":"way:1239409405@detail:458_94","osmType":"way","osmId":1239409405,"sourceRegion":"guangdong","featureType":"infrastructure","railClass":"minor","mode":"rail","name":"未命名","service":"siding","status":"operational","color":"#52636F","dataOrigin":"datum-2026-08-01","sourceKey":"way:1239409405"}},{"type":"Feature","geometry":{"type":"LineString","coordinates":[[114.6166259,23.5686089],[114.6161311,23.567983]]},"properties":{"key":"way:1239409406@detail:458_94","osmType":"way","osmId":1239409406,"sourceRegion":"guangdong","featureType":"infrastructure","railClass":"minor","mode":"rail","name":"未命名","service":"crossover","status":"operational","color":"#52636F","dataOrigin":"datum-2026-08-01","sourceKey":"way:1239409406"}},{"type":"Feature","geometry":{"type":"LineString","coordinates":[[114.6163278,23.5682719],[114.6161311,23.567983],[114.6148124,23.5660455],[114.6134377,23.5640394],[114.6120631,23.5620426],[114.6118125,23.5616761],[114.611665,23.5614526],[114.6114845,23.5611238]]},"properties":{"key":"way:1239409407@detail:458_94","osmType":"way","osmId":1239409407,"sourceRegion":"guangdong","featureType":"infrastructure","railClass":"minor","mode":"rail","name":"未命名","service":"yard","status":"operational","color":"#52636F","dataOrigin":"datum-2026-08-01","sourceKey":"way:1239409407"}},{"type":"Feature","geometry":{"type":"LineString","coordinates":[[114.6105004,23.5591705],[114.6100525,23.5583221],[114.6092303,23.5567794],[114.6091022,23.5565084],[114.6089954,23.5562242],[114.6089097,23.5559374],[114.6088442,23.5555808],[114.6088326,23.555211],[114.6088519,23.5548641],[114.6089087,23.5544987],[114.6089857,23.5542057],[114.6091032,23.5538544],[114.609265,23.5535279],[114.6094373,23.5532463],[114.6096164,23.5530027],[114.6098272,23.5527582],[114.6100429,23.5525376],[114.6103597,23.5522896],[114.6106245,23.5521139],[114.6108517,23.5519974],[114.6111531,23.5518641],[114.6114872,23.5517362],[114.6117577,23.5516655],[114.6120003,23.5516197],[114.6123287,23.5515746],[114.6133955,23.5514705],[114.6138702,23.5514422],[114.6144161,23.5514493],[114.6149485,23.5514828],[114.6154829,23.5515552],[114.61591,23.55163]]},"properties":{"key":"way:1239409410@detail:458_94","osmType":"way","osmId":1239409410,"sourceRegion":"guangdong","featureType":"infrastructure","railClass":"national","mode":"rail","name":"未命名","usage":"branch","status":"operational","color":"#E54848","dataOrigin":"datum-2026-08-01","sourceKey":"way:1239409410"}},{"type":"Feature","geometry":{"type":"LineString","coordinates":[[114.61591,23.55163],[114.6160779,23.5516576],[114.616393,23.5517137]]},"properties":{"key":"way:1239409411@detail:458_94","osmType":"way","osmId":1239409411,"sourceRegion":"guangdong","featureType":"infrastructure","railClass":"national","mode":"rail","name":"未命名","usage":"branch","bridge":"yes","status":"operational","color":"#E54848","dataOrigin":"datum-2026-08-01","sourceKey":"way:1239409411"}}]}