{"type":"FeatureCollection","features":[{"type":"Feature","geometry":{"type":"Point","coordinates":[114.8865223,23.8632827]},"properties":{"key":"node:8417536170","osmType":"node","osmId":8417536170,"sourceRegion":"guangdong","featureType":"station","railClass":"minor","mode":"station","name":"义合","status":"operational","color":"#52636F","dataOrigin":"datum-2026-08-01","sourceKey":"node:8417536170","stationGroup":"义合","hasOperationalRail":true,"hasConstructionRail":false}},{"type":"Feature","geometry":{"type":"LineString","coordinates":[[114.969854,23.888307],[114.968638,23.888205],[114.967341,23.888283],[114.966118,23.888525],[114.964948,23.88894],[114.96027,23.890975],[114.9598405,23.8911889],[114.9591726,23.8914538],[114.9578825,23.8918535],[114.9566916,23.892062],[114.9562275,23.8921355],[114.9551707,23.8921944],[114.952907,23.89229],[114.9501201,23.8924274],[114.945054,23.892687],[114.943835,23.892737],[114.942602,23.892706],[114.941376,23.892553]]},"properties":{"key":"way:27884529@detail:459_95","osmType":"way","osmId":27884529,"sourceRegion":"guangdong","featureType":"infrastructure","railClass":"national","mode":"rail","name":"京九线","nameEn":"Jingjiu Line","ref":"0005","usage":"main","status":"operational","color":"#E54848","dataOrigin":"datum-2026-08-01","sourceKey":"way:27884529"}},{"type":"Feature","geometry":{"type":"LineString","coordinates":[[114.7919126,23.8308733],[114.7874925,23.8285619],[114.7866309,23.8281833],[114.785969,23.8279779],[114.7851509,23.827789],[114.7843032,23.8276591],[114.7768608,23.8270039],[114.7754257,23.8268726],[114.7743201,23.8267609],[114.7737193,23.8266702],[114.7732156,23.826567],[114.7728228,23.8264427]]},"properties":{"key":"way:155320172@detail:459_95","osmType":"way","osmId":155320172,"sourceRegion":"guangdong","featureType":"infrastructure","railClass":"national","mode":"rail","name":"京九线","nameEn":"Jingjiu Line","ref":"0005","usage":"main","status":"operational","color":"#E54848","dataOrigin":"datum-2026-08-01","sourceKey":"way:155320172"}},{"type":"Feature","geometry":{"type":"LineString","coordinates":[[114.8080623,23.8463172],[114.8037649,23.8425869],[114.8029963,23.8418193],[114.8024538,23.8411519],[114.8017787,23.8401738],[114.7997641,23.8365524],[114.7993022,23.8357016],[114.7989294,23.8351446],[114.798342,23.8344798],[114.7976312,23.8339326],[114.7969301,23.8335015],[114.7931818,23.8315124]]},"properties":{"key":"way:199518447@detail:459_95","osmType":"way","osmId":199518447,"sourceRegion":"guangdong","featureType":"infrastructure","railClass":"national","mode":"rail","name":"京九线","nameEn":"Jingjiu Line","ref":"0005","usage":"main","status":"operational","color":"#E54848","dataOrigin":"datum-2026-08-01","sourceKey":"way:199518447"}},{"type":"Feature","geometry":{"type":"LineString","coordinates":[[114.9237,23.8859156],[114.9226527,23.8857433],[114.9214859,23.8853623]]},"properties":{"key":"way:199518448@detail:459_95","osmType":"way","osmId":199518448,"sourceRegion":"guangdong","featureType":"infrastructure","railClass":"national","mode":"rail","name":"京九线","nameEn":"Jingjiu Line","ref":"0005","usage":"main","status":"operational","color":"#E54848","dataOrigin":"datum-2026-08-01","sourceKey":"way:199518448"}},{"type":"Feature","geometry":{"type":"LineString","coordinates":[[114.7583303,23.8150563],[114.7579453,23.8144349]]},"properties":{"key":"way:330350339@detail:459_95","osmType":"way","osmId":330350339,"sourceRegion":"guangdong","featureType":"infrastructure","railClass":"national","mode":"rail","name":"京九线","nameEn":"Jingjiu Line","ref":"0005","usage":"main","bridge":"yes","status":"operational","color":"#E54848","dataOrigin":"datum-2026-08-01","sourceKey":"way:330350339"}},{"type":"Feature","geometry":{"type":"LineString","coordinates":[[114.7710533,23.8251767],[114.7705865,23.8249405]]},"properties":{"key":"way:330350342@detail:459_95","osmType":"way","osmId":330350342,"sourceRegion":"guangdong","featureType":"infrastructure","railClass":"national","mode":"rail","name":"京九线","nameEn":"Jingjiu Line","ref":"0005","usage":"main","bridge":"yes","status":"operational","color":"#E54848","dataOrigin":"datum-2026-08-01","sourceKey":"way:330350342"}},{"type":"Feature","geometry":{"type":"LineString","coordinates":[[114.7730211,23.82607],[114.7721547,23.8257241]]},"properties":{"key":"way:330350344@detail:459_95","osmType":"way","osmId":330350344,"sourceRegion":"guangdong","featureType":"infrastructure","railClass":"national","mode":"rail","name":"京九线","nameEn":"Jingjiu Line","ref":"0005","usage":"main","bridge":"yes","status":"operational","color":"#E54848","dataOrigin":"datum-2026-08-01","sourceKey":"way:330350344"}},{"type":"Feature","geometry":{"type":"LineString","coordinates":[[114.7709102,23.8254017],[114.7704923,23.8250726]]},"properties":{"key":"way:330350345@detail:459_95","osmType":"way","osmId":330350345,"sourceRegion":"guangdong","featureType":"infrastructure","railClass":"national","mode":"rail","name":"京九线","nameEn":"Jingjiu Line","ref":"0005","usage":"main","bridge":"yes","status":"operational","color":"#E54848","dataOrigin":"datum-2026-08-01","sourceKey":"way:330350345"}},{"type":"Feature","geometry":{"type":"LineString","coordinates":[[114.7721547,23.8257241],[114.771626,23.8254924],[114.7710533,23.8251767]]},"properties":{"key":"way:330350347@detail:459_95","osmType":"way","osmId":330350347,"sourceRegion":"guangdong","featureType":"infrastructure","railClass":"national","mode":"rail","name":"京九线","nameEn":"Jingjiu Line","ref":"0005","usage":"main","status":"operational","color":"#E54848","dataOrigin":"datum-2026-08-01","sourceKey":"way:330350347"}},{"type":"Feature","geometry":{"type":"LineString","coordinates":[[114.771861,23.8260364],[114.771347,23.8257174],[114.7709102,23.8254017]]},"properties":{"key":"way:330350348@detail:459_95","osmType":"way","osmId":330350348,"sourceRegion":"guangdong","featureType":"infrastructure","railClass":"national","mode":"rail","name":"京九线","nameEn":"Jingjiu Line","ref":"0005","usage":"main","status":"operational","color":"#E54848","dataOrigin":"datum-2026-08-01","sourceKey":"way:330350348"}},{"type":"Feature","geometry":{"type":"LineString","coordinates":[[114.7728228,23.8264427],[114.7723346,23.8262681],[114.771861,23.8260364]]},"properties":{"key":"way:330350349@detail:459_95","osmType":"way","osmId":330350349,"sourceRegion":"guangdong","featureType":"infrastructure","railClass":"national","mode":"rail","name":"京九线","nameEn":"Jingjiu Line","ref":"0005","usage":"main","bridge":"yes","status":"operational","color":"#E54848","dataOrigin":"datum-2026-08-01","sourceKey":"way:330350349"}},{"type":"Feature","geometry":{"type":"LineString","coordinates":[[114.7705865,23.8249405],[114.7696797,23.8243494],[114.7683911,23.8233737],[114.7641197,23.8200563],[114.7622555,23.8185092],[114.761592,23.817991]]},"properties":{"key":"way:330350350@detail:459_95","osmType":"way","osmId":330350350,"sourceRegion":"guangdong","featureType":"infrastructure","railClass":"national","mode":"rail","name":"京九线","nameEn":"Jingjiu Line","ref":"0005","usage":"main","status":"operational","color":"#E54848","dataOrigin":"datum-2026-08-01","sourceKey":"way:330350350"}},{"type":"Feature","geometry":{"type":"LineString","coordinates":[[114.7919986,23.8307603],[114.7880611,23.8286797],[114.7872135,23.8282797],[114.7864974,23.8280074],[114.7857356,23.8278184],[114.7843087,23.8276123],[114.7768629,23.8269572],[114.7756233,23.8267621],[114.7747894,23.8265982],[114.7739242,23.8263554],[114.7730211,23.82607]]},"properties":{"key":"way:330350351@detail:459_95","osmType":"way","osmId":330350351,"sourceRegion":"guangdong","featureType":"infrastructure","railClass":"national","mode":"rail","name":"京九线","nameEn":"Jingjiu Line","ref":"0005","usage":"main","status":"operational","color":"#E54848","dataOrigin":"datum-2026-08-01","sourceKey":"way:330350351"}},{"type":"Feature","geometry":{"type":"LineString","coordinates":[[114.8769116,23.8623077],[114.8723092,23.8606705],[114.8715337,23.8604518],[114.870519,23.8602662],[114.8693158,23.8601403],[114.861894,23.8599878],[114.861046,23.8599613],[114.8602778,23.8598486],[114.8596544,23.8597227],[114.8589804,23.8594575],[114.8580744,23.8590532]]},"properties":{"key":"way:339190511@detail:459_95","osmType":"way","osmId":339190511,"sourceRegion":"guangdong","featureType":"infrastructure","railClass":"national","mode":"rail","name":"京九线","nameEn":"Jingjiu Line","ref":"0005","usage":"main","status":"operational","color":"#E54848","dataOrigin":"datum-2026-08-01","sourceKey":"way:339190511"}},{"type":"Feature","geometry":{"type":"LineString","coordinates":[[114.876892,23.862217],[114.874428,23.861288],[114.871933,23.860428],[114.8705262,23.8601999],[114.869301,23.860071],[114.866615,23.860006],[114.8638905,23.86001],[114.8625323,23.8599797],[114.8612037,23.8598],[114.859873,23.8594231],[114.8583719,23.8588169]]},"properties":{"key":"way:339190512@detail:459_95","osmType":"way","osmId":339190512,"sourceRegion":"guangdong","featureType":"infrastructure","railClass":"national","mode":"rail","name":"京九线","nameEn":"Jingjiu Line","ref":"0005","usage":"main","status":"operational","color":"#E54848","dataOrigin":"datum-2026-08-01","sourceKey":"way:339190512"}},{"type":"Feature","geometry":{"type":"LineString","coordinates":[[114.8941821,23.8634613],[114.8933856,23.8634852],[114.8923929,23.8635117],[114.8921747,23.8635141],[114.8912432,23.8635244],[114.8897067,23.8634188],[114.885017,23.863121],[114.882256,23.863039],[114.8806907,23.8630346],[114.879456,23.862968],[114.8781329,23.8626436]]},"properties":{"key":"way:339190513@detail:459_95","osmType":"way","osmId":339190513,"sourceRegion":"guangdong","featureType":"infrastructure","railClass":"national","mode":"rail","name":"京九线","nameEn":"Jingjiu Line","ref":"0005","usage":"main","status":"operational","color":"#E54848","dataOrigin":"datum-2026-08-01","sourceKey":"way:339190513"}},{"type":"Feature","geometry":{"type":"LineString","coordinates":[[114.8244681,23.852232],[114.8227179,23.8524379],[114.8222887,23.8524771],[114.8211461,23.8525262],[114.8206151,23.8525188],[114.820025,23.8524697],[114.8179838,23.8522538],[114.8164831,23.8520576],[114.8158206,23.8519116],[114.8150709,23.8516773],[114.8145613,23.851486],[114.813931,23.8511745],[114.8133758,23.8507918],[114.8130297,23.8505514],[114.8123216,23.8499822],[114.8115017,23.8492356],[114.8103204,23.8480053]]},"properties":{"key":"way:339190514@detail:459_95","osmType":"way","osmId":339190514,"sourceRegion":"guangdong","featureType":"infrastructure","railClass":"national","mode":"rail","name":"京九线","nameEn":"Jingjiu Line","ref":"0005","usage":"main","status":"operational","color":"#E54848","dataOrigin":"datum-2026-08-01","sourceKey":"way:339190514"}},{"type":"Feature","geometry":{"type":"LineString","coordinates":[[114.8559856,23.8578525],[114.85363,23.85676],[114.851273,23.855654],[114.849014,23.854485],[114.8481594,23.8538895],[114.8472597,23.8531757],[114.845325,23.8512199],[114.8444847,23.8504293],[114.8438686,23.8499719],[114.8433338,23.8496753],[114.8426003,23.8493753],[114.8416508,23.8491168],[114.8407253,23.8490252],[114.8396576,23.849077],[114.8388101,23.8492952],[114.835854,23.850164],[114.8330455,23.8509008]]},"properties":{"key":"way:339190515@detail:459_95","osmType":"way","osmId":339190515,"sourceRegion":"guangdong","featureType":"infrastructure","railClass":"national","mode":"rail","name":"京九线","nameEn":"Jingjiu Line","ref":"0005","usage":"main","status":"operational","color":"#E54848","dataOrigin":"datum-2026-08-01","sourceKey":"way:339190515"}},{"type":"Feature","geometry":{"type":"LineString","coordinates":[[114.8557913,23.8579396],[114.8537257,23.856952],[114.8498699,23.8551026],[114.8491523,23.8547049],[114.848558,23.8542806],[114.8478187,23.853757],[114.8471954,23.8532068],[114.8452385,23.8512247],[114.8444449,23.8504691],[114.8438346,23.8500161],[114.8433064,23.8497231],[114.8425797,23.8494259],[114.8416391,23.8491698],[114.8407237,23.8490793],[114.8396673,23.8491305],[114.8388271,23.8493468],[114.8358711,23.8502487],[114.8329893,23.8511647]]},"properties":{"key":"way:339190516@detail:459_95","osmType":"way","osmId":339190516,"sourceRegion":"guangdong","featureType":"infrastructure","railClass":"national","mode":"rail","name":"京九线","nameEn":"Jingjiu Line","ref":"0005","usage":"main","status":"operational","color":"#E54848","dataOrigin":"datum-2026-08-01","sourceKey":"way:339190516"}},{"type":"Feature","geometry":{"type":"LineString","coordinates":[[114.9082109,23.8784735],[114.9076167,23.8776718],[114.9071588,23.8767189],[114.9068921,23.875969],[114.9067183,23.8740896],[114.9065588,23.8732987],[114.9063487,23.8726162],[114.9059293,23.8718045],[114.9054212,23.8711121],[114.9048343,23.8705224],[114.9042105,23.8700545],[114.9029286,23.8692501],[114.9018987,23.8686164],[114.9009721,23.8679116],[114.9001291,23.867018],[114.8980556,23.864734],[114.897284,23.8642075],[114.8964399,23.8638]]},"properties":{"key":"way:339190517@detail:459_95","osmType":"way","osmId":339190517,"sourceRegion":"guangdong","featureType":"infrastructure","railClass":"national","mode":"rail","name":"京九线","nameEn":"Jingjiu Line","ref":"0005","usage":"main","status":"operational","color":"#E54848","dataOrigin":"datum-2026-08-01","sourceKey":"way:339190517"}},{"type":"Feature","geometry":{"type":"LineString","coordinates":[[114.9079903,23.8784599],[114.907541,23.877711],[114.9072293,23.877088],[114.9069466,23.8763987],[114.9068307,23.8759878],[114.9066277,23.8739134],[114.9064973,23.8733169],[114.9062886,23.8726367],[114.9058736,23.8718334],[114.9053708,23.8711482],[114.9047902,23.8705648],[114.9041721,23.8701013],[114.9028927,23.8692984],[114.9018604,23.8686632],[114.9007895,23.8679203],[114.8999717,23.8672148],[114.898236,23.8653003],[114.897257,23.8645486],[114.8967073,23.8642559]]},"properties":{"key":"way:339190519@detail:459_95","osmType":"way","osmId":339190519,"sourceRegion":"guangdong","featureType":"infrastructure","railClass":"national","mode":"rail","name":"京九线","nameEn":"Jingjiu Line","ref":"0005","usage":"main","status":"operational","color":"#E54848","dataOrigin":"datum-2026-08-01","sourceKey":"way:339190519"}},{"type":"Feature","geometry":{"type":"LineString","coordinates":[[114.9214133,23.8856373],[114.9182243,23.8840136]]},"properties":{"key":"way:339190520@detail:459_95","osmType":"way","osmId":339190520,"sourceRegion":"guangdong","featureType":"infrastructure","railClass":"national","mode":"rail","name":"京九线","nameEn":"Jingjiu Line","ref":"0005","usage":"main","bridge":"yes","status":"operational","color":"#E54848","dataOrigin":"datum-2026-08-01","sourceKey":"way:339190520"}},{"type":"Feature","geometry":{"type":"LineString","coordinates":[[114.937162,23.8905373],[114.9363149,23.8900575]]},"properties":{"key":"way:339190523@detail:459_95","osmType":"way","osmId":339190523,"sourceRegion":"guangdong","featureType":"infrastructure","railClass":"national","mode":"rail","name":"京九线","nameEn":"Jingjiu Line","ref":"0005","usage":"main","status":"operational","color":"#E54848","dataOrigin":"datum-2026-08-01","sourceKey":"way:339190523"}},{"type":"Feature","geometry":{"type":"LineString","coordinates":[[114.9329592,23.8881357],[114.9324011,23.8877778]]},"properties":{"key":"way:339190526@detail:459_95","osmType":"way","osmId":339190526,"sourceRegion":"guangdong","featureType":"infrastructure","railClass":"national","mode":"rail","name":"京九线","nameEn":"Jingjiu Line","ref":"0005","usage":"main","bridge":"yes","status":"operational","color":"#E54848","dataOrigin":"datum-2026-08-01","sourceKey":"way:339190526"}},{"type":"Feature","geometry":{"type":"LineString","coordinates":[[114.9339495,23.888579],[114.9330998,23.8880258]]},"properties":{"key":"way:339190529@detail:459_95","osmType":"way","osmId":339190529,"sourceRegion":"guangdong","featureType":"infrastructure","railClass":"national","mode":"rail","name":"京九线","nameEn":"Jingjiu Line","ref":"0005","usage":"main","status":"operational","color":"#E54848","dataOrigin":"datum-2026-08-01","sourceKey":"way:339190529"}},{"type":"Feature","geometry":{"type":"LineString","coordinates":[[114.9125092,23.8821755],[114.9118856,23.8819142]]},"properties":{"key":"way:339190532@detail:459_95","osmType":"way","osmId":339190532,"sourceRegion":"guangdong","featureType":"infrastructure","railClass":"national","mode":"rail","name":"京九线","nameEn":"Jingjiu Line","ref":"0005","usage":"main","bridge":"yes","status":"operational","color":"#E54848","dataOrigin":"datum-2026-08-01","sourceKey":"way:339190532"}},{"type":"Feature","geometry":{"type":"LineString","coordinates":[[114.9338869,23.8887785],[114.9329592,23.8881357]]},"properties":{"key":"way:339190536@detail:459_95","osmType":"way","osmId":339190536,"sourceRegion":"guangdong","featureType":"infrastructure","railClass":"national","mode":"rail","name":"京九线","nameEn":"Jingjiu Line","ref":"0005","usage":"main","status":"operational","color":"#E54848","dataOrigin":"datum-2026-08-01","sourceKey":"way:339190536"}},{"type":"Feature","geometry":{"type":"LineString","coordinates":[[114.9345827,23.8892225],[114.9338869,23.8887785]]},"properties":{"key":"way:339190538@detail:459_95","osmType":"way","osmId":339190538,"sourceRegion":"guangdong","featureType":"infrastructure","railClass":"national","mode":"rail","name":"京九线","nameEn":"Jingjiu Line","ref":"0005","usage":"main","bridge":"yes","status":"operational","color":"#E54848","dataOrigin":"datum-2026-08-01","sourceKey":"way:339190538"}},{"type":"Feature","geometry":{"type":"LineString","coordinates":[[114.9368295,23.8906738],[114.9345827,23.8892225]]},"properties":{"key":"way:339190540@detail:459_95","osmType":"way","osmId":339190540,"sourceRegion":"guangdong","featureType":"infrastructure","railClass":"national","mode":"rail","name":"京九线","nameEn":"Jingjiu Line","ref":"0005","usage":"main","status":"operational","color":"#E54848","dataOrigin":"datum-2026-08-01","sourceKey":"way:339190540"}},{"type":"Feature","geometry":{"type":"LineString","coordinates":[[114.91454,23.8826155],[114.9136526,23.8824754]]},"properties":{"key":"way:339190542@detail:459_95","osmType":"way","osmId":339190542,"sourceRegion":"guangdong","featureType":"infrastructure","railClass":"national","mode":"rail","name":"京九线","nameEn":"Jingjiu Line","ref":"0005","usage":"main","bridge":"yes","status":"operational","color":"#E54848","dataOrigin":"datum-2026-08-01","sourceKey":"way:339190542"}},{"type":"Feature","geometry":{"type":"LineString","coordinates":[[114.9145859,23.8828141],[114.9138031,23.8826882]]},"properties":{"key":"way:339190546@detail:459_95","osmType":"way","osmId":339190546,"sourceRegion":"guangdong","featureType":"infrastructure","railClass":"national","mode":"rail","name":"京九线","nameEn":"Jingjiu Line","ref":"0005","usage":"main","bridge":"yes","status":"operational","color":"#E54848","dataOrigin":"datum-2026-08-01","sourceKey":"way:339190546"}},{"type":"Feature","geometry":{"type":"LineString","coordinates":[[114.8330455,23.8509008],[114.8317681,23.8511845]]},"properties":{"key":"way:339190547@detail:459_95","osmType":"way","osmId":339190547,"sourceRegion":"guangdong","featureType":"infrastructure","railClass":"national","mode":"rail","name":"京九线","nameEn":"Jingjiu Line","ref":"0005","usage":"main","bridge":"yes","status":"operational","color":"#E54848","dataOrigin":"datum-2026-08-01","sourceKey":"way:339190547"}},{"type":"Feature","geometry":{"type":"LineString","coordinates":[[114.9387614,23.8914861],[114.937162,23.8905373]]},"properties":{"key":"way:339190548@detail:459_95","osmType":"way","osmId":339190548,"sourceRegion":"guangdong","featureType":"infrastructure","railClass":"national","mode":"rail","name":"京九线","nameEn":"Jingjiu Line","ref":"0005","usage":"main","tunnel":"yes","status":"operational","color":"#E54848","dataOrigin":"datum-2026-08-01","sourceKey":"way:339190548"}},{"type":"Feature","geometry":{"type":"LineString","coordinates":[[114.8780712,23.8627386],[114.8769116,23.8623077]]},"properties":{"key":"way:339190549@detail:459_95","osmType":"way","osmId":339190549,"sourceRegion":"guangdong","featureType":"infrastructure","railClass":"national","mode":"rail","name":"京九线","nameEn":"Jingjiu Line","ref":"0005","usage":"main","bridge":"yes","status":"operational","color":"#E54848","dataOrigin":"datum-2026-08-01","sourceKey":"way:339190549"}},{"type":"Feature","geometry":{"type":"LineString","coordinates":[[114.8580744,23.8590532],[114.8557913,23.8579396]]},"properties":{"key":"way:339190550@detail:459_95","osmType":"way","osmId":339190550,"sourceRegion":"guangdong","featureType":"infrastructure","railClass":"national","mode":"rail","name":"京九线","nameEn":"Jingjiu Line","ref":"0005","usage":"main","bridge":"yes","status":"operational","color":"#E54848","dataOrigin":"datum-2026-08-01","sourceKey":"way:339190550"}},{"type":"Feature","geometry":{"type":"LineString","coordinates":[[114.9401479,23.892104],[114.9387614,23.8914861]]},"properties":{"key":"way:339190551@detail:459_95","osmType":"way","osmId":339190551,"sourceRegion":"guangdong","featureType":"infrastructure","railClass":"national","mode":"rail","name":"京九线","nameEn":"Jingjiu Line","ref":"0005","usage":"main","status":"operational","color":"#E54848","dataOrigin":"datum-2026-08-01","sourceKey":"way:339190551"}},{"type":"Feature","geometry":{"type":"LineString","coordinates":[[114.909063,23.8801698],[114.9088021,23.879845]]},"properties":{"key":"way:339190552@detail:459_95","osmType":"way","osmId":339190552,"sourceRegion":"guangdong","featureType":"infrastructure","railClass":"national","mode":"rail","name":"京九线","nameEn":"Jingjiu Line","ref":"0005","usage":"main","status":"operational","color":"#E54848","dataOrigin":"datum-2026-08-01","sourceKey":"way:339190552"}},{"type":"Feature","geometry":{"type":"LineString","coordinates":[[114.9330998,23.8880258],[114.9325386,23.8876605]]},"properties":{"key":"way:339190553@detail:459_95","osmType":"way","osmId":339190553,"sourceRegion":"guangdong","featureType":"infrastructure","railClass":"national","mode":"rail","name":"京九线","nameEn":"Jingjiu Line","ref":"0005","usage":"main","bridge":"yes","status":"operational","color":"#E54848","dataOrigin":"datum-2026-08-01","sourceKey":"way:339190553"}},{"type":"Feature","geometry":{"type":"LineString","coordinates":[[114.9384893,23.8916877],[114.9368295,23.8906738]]},"properties":{"key":"way:339190554@detail:459_95","osmType":"way","osmId":339190554,"sourceRegion":"guangdong","featureType":"infrastructure","railClass":"national","mode":"rail","name":"京九线","nameEn":"Jingjiu Line","ref":"0005","usage":"main","tunnel":"yes","status":"operational","color":"#E54848","dataOrigin":"datum-2026-08-01","sourceKey":"way:339190554"}},{"type":"Feature","geometry":{"type":"LineString","coordinates":[[114.8781329,23.8626436],[114.876892,23.862217]]},"properties":{"key":"way:339190555@detail:459_95","osmType":"way","osmId":339190555,"sourceRegion":"guangdong","featureType":"infrastructure","railClass":"national","mode":"rail","name":"京九线","nameEn":"Jingjiu Line","ref":"0005","usage":"main","bridge":"yes","status":"operational","color":"#E54848","dataOrigin":"datum-2026-08-01","sourceKey":"way:339190555"}},{"type":"Feature","geometry":{"type":"LineString","coordinates":[[114.912397,23.8824032],[114.9118172,23.8821978]]},"properties":{"key":"way:339190556@detail:459_95","osmType":"way","osmId":339190556,"sourceRegion":"guangdong","featureType":"infrastructure","railClass":"national","mode":"rail","name":"京九线","nameEn":"Jingjiu Line","ref":"0005","usage":"main","bridge":"yes","status":"operational","color":"#E54848","dataOrigin":"datum-2026-08-01","sourceKey":"way:339190556"}},{"type":"Feature","geometry":{"type":"LineString","coordinates":[[114.8312936,23.8516689],[114.8301992,23.851881]]},"properties":{"key":"way:339190557@detail:459_95","osmType":"way","osmId":339190557,"sourceRegion":"guangdong","featureType":"infrastructure","railClass":"national","mode":"rail","name":"京九线","nameEn":"Jingjiu Line","ref":"0005","usage":"main","status":"operational","color":"#E54848","dataOrigin":"datum-2026-08-01","sourceKey":"way:339190557"}},{"type":"Feature","geometry":{"type":"LineString","coordinates":[[114.9091809,23.8796772],[114.9082109,23.8784735]]},"properties":{"key":"way:339190558@detail:459_95","osmType":"way","osmId":339190558,"sourceRegion":"guangdong","featureType":"infrastructure","railClass":"national","mode":"rail","name":"京九线","nameEn":"Jingjiu Line","ref":"0005","usage":"main","tunnel":"yes","status":"operational","color":"#E54848","dataOrigin":"datum-2026-08-01","sourceKey":"way:339190558"}},{"type":"Feature","geometry":{"type":"LineString","coordinates":[[114.9088021,23.879845],[114.9079903,23.8784599]]},"properties":{"key":"way:339190559@detail:459_95","osmType":"way","osmId":339190559,"sourceRegion":"guangdong","featureType":"infrastructure","railClass":"national","mode":"rail","name":"京九线","nameEn":"Jingjiu Line","ref":"0005","usage":"main","tunnel":"yes","status":"operational","color":"#E54848","dataOrigin":"datum-2026-08-01","sourceKey":"way:339190559"}},{"type":"Feature","geometry":{"type":"LineString","coordinates":[[114.8583719,23.8588169],[114.8559856,23.8578525]]},"properties":{"key":"way:339190560@detail:459_95","osmType":"way","osmId":339190560,"sourceRegion":"guangdong","featureType":"infrastructure","railClass":"national","mode":"rail","name":"京九线","nameEn":"Jingjiu Line","ref":"0005","usage":"main","bridge":"yes","status":"operational","color":"#E54848","dataOrigin":"datum-2026-08-01","sourceKey":"way:339190560"}},{"type":"Feature","geometry":{"type":"LineString","coordinates":[[114.9107252,23.8812629],[114.9098084,23.8804243],[114.9091809,23.8796772]]},"properties":{"key":"way:339190561@detail:459_95","osmType":"way","osmId":339190561,"sourceRegion":"guangdong","featureType":"infrastructure","railClass":"national","mode":"rail","name":"京九线","nameEn":"Jingjiu Line","ref":"0005","usage":"main","status":"operational","color":"#E54848","dataOrigin":"datum-2026-08-01","sourceKey":"way:339190561"}},{"type":"Feature","geometry":{"type":"LineString","coordinates":[[114.9214859,23.8853623],[114.9202247,23.8847877],[114.9185262,23.8838578]]},"properties":{"key":"way:339190562@detail:459_95","osmType":"way","osmId":339190562,"sourceRegion":"guangdong","featureType":"infrastructure","railClass":"national","mode":"rail","name":"京九线","nameEn":"Jingjiu Line","ref":"0005","usage":"main","bridge":"yes","status":"operational","color":"#E54848","dataOrigin":"datum-2026-08-01","sourceKey":"way:339190562"}},{"type":"Feature","geometry":{"type":"LineString","coordinates":[[114.9400765,23.8923172],[114.9394025,23.892072],[114.9384893,23.8916877]]},"properties":{"key":"way:339190563@detail:459_95","osmType":"way","osmId":339190563,"sourceRegion":"guangdong","featureType":"infrastructure","railClass":"national","mode":"rail","name":"京九线","nameEn":"Jingjiu Line","ref":"0005","usage":"main","status":"operational","color":"#E54848","dataOrigin":"datum-2026-08-01","sourceKey":"way:339190563"}},{"type":"Feature","geometry":{"type":"LineString","coordinates":[[114.9324011,23.8877778],[114.9318357,23.887526],[114.9313139,23.8873272]]},"properties":{"key":"way:339190564@detail:459_95","osmType":"way","osmId":339190564,"sourceRegion":"guangdong","featureType":"infrastructure","railClass":"national","mode":"rail","name":"京九线","nameEn":"Jingjiu Line","ref":"0005","usage":"main","status":"operational","color":"#E54848","dataOrigin":"datum-2026-08-01","sourceKey":"way:339190564"}},{"type":"Feature","geometry":{"type":"LineString","coordinates":[[114.8967073,23.8642559],[114.8960749,23.8640245],[114.8941759,23.86364]]},"properties":{"key":"way:339190565@detail:459_95","osmType":"way","osmId":339190565,"sourceRegion":"guangdong","featureType":"infrastructure","railClass":"national","mode":"rail","name":"京九线","nameEn":"Jingjiu Line","ref":"0005","usage":"main","tunnel":"yes","status":"operational","color":"#E54848","dataOrigin":"datum-2026-08-01","sourceKey":"way:339190565"}},{"type":"Feature","geometry":{"type":"LineString","coordinates":[[114.9325386,23.8876605],[114.9320162,23.8873475],[114.9314668,23.8870987]]},"properties":{"key":"way:339190566@detail:459_95","osmType":"way","osmId":339190566,"sourceRegion":"guangdong","featureType":"infrastructure","railClass":"national","mode":"rail","name":"京九线","nameEn":"Jingjiu Line","ref":"0005","usage":"main","status":"operational","color":"#E54848","dataOrigin":"datum-2026-08-01","sourceKey":"way:339190566"}},{"type":"Feature","geometry":{"type":"LineString","coordinates":[[114.9118856,23.8819142],[114.9113411,23.8816406],[114.9107252,23.8812629]]},"properties":{"key":"way:339190567@detail:459_95","osmType":"way","osmId":339190567,"sourceRegion":"guangdong","featureType":"infrastructure","railClass":"national","mode":"rail","name":"京九线","nameEn":"Jingjiu Line","ref":"0005","usage":"main","tunnel":"yes","status":"operational","color":"#E54848","dataOrigin":"datum-2026-08-01","sourceKey":"way:339190567"}},{"type":"Feature","geometry":{"type":"LineString","coordinates":[[114.9313139,23.8873272],[114.9304825,23.8870904],[114.9239863,23.8862138]]},"properties":{"key":"way:339190568@detail:459_95","osmType":"way","osmId":339190568,"sourceRegion":"guangdong","featureType":"infrastructure","railClass":"national","mode":"rail","name":"京九线","nameEn":"Jingjiu Line","ref":"0005","usage":"main","tunnel":"yes","status":"operational","color":"#E54848","dataOrigin":"datum-2026-08-01","sourceKey":"way:339190568"}},{"type":"Feature","geometry":{"type":"LineString","coordinates":[[114.8329893,23.8511647],[114.8321851,23.851417],[114.8312936,23.8516689]]},"properties":{"key":"way:339190569@detail:459_95","osmType":"way","osmId":339190569,"sourceRegion":"guangdong","featureType":"infrastructure","railClass":"national","mode":"rail","name":"京九线","nameEn":"Jingjiu Line","ref":"0005","usage":"main","bridge":"yes","status":"operational","color":"#E54848","dataOrigin":"datum-2026-08-01","sourceKey":"way:339190569"}},{"type":"Feature","geometry":{"type":"LineString","coordinates":[[114.9136526,23.8824754],[114.9128773,23.8823297],[114.9125092,23.8821755]]},"properties":{"key":"way:339190570@detail:459_95","osmType":"way","osmId":339190570,"sourceRegion":"guangdong","featureType":"infrastructure","railClass":"national","mode":"rail","name":"京九线","nameEn":"Jingjiu Line","ref":"0005","usage":"main","status":"operational","color":"#E54848","dataOrigin":"datum-2026-08-01","sourceKey":"way:339190570"}},{"type":"Feature","geometry":{"type":"LineString","coordinates":[[114.9314668,23.8870987],[114.9305681,23.8868393],[114.9237,23.8859156]]},"properties":{"key":"way:339190571@detail:459_95","osmType":"way","osmId":339190571,"sourceRegion":"guangdong","featureType":"infrastructure","railClass":"national","mode":"rail","name":"京九线","nameEn":"Jingjiu Line","ref":"0005","usage":"main","tunnel":"yes","status":"operational","color":"#E54848","dataOrigin":"datum-2026-08-01","sourceKey":"way:339190571"}},{"type":"Feature","geometry":{"type":"LineString","coordinates":[[114.9363149,23.8900575],[114.9346241,23.8890182],[114.9339495,23.888579]]},"properties":{"key":"way:339190572@detail:459_95","osmType":"way","osmId":339190572,"sourceRegion":"guangdong","featureType":"infrastructure","railClass":"national","mode":"rail","name":"京九线","nameEn":"Jingjiu Line","ref":"0005","usage":"main","bridge":"yes","status":"operational","color":"#E54848","dataOrigin":"datum-2026-08-01","sourceKey":"way:339190572"}},{"type":"Feature","geometry":{"type":"LineString","coordinates":[[114.9138031,23.8826882],[114.9128826,23.882549],[114.912397,23.8824032]]},"properties":{"key":"way:339190573@detail:459_95","osmType":"way","osmId":339190573,"sourceRegion":"guangdong","featureType":"infrastructure","railClass":"national","mode":"rail","name":"京九线","nameEn":"Jingjiu Line","ref":"0005","usage":"main","status":"operational","color":"#E54848","dataOrigin":"datum-2026-08-01","sourceKey":"way:339190573"}},{"type":"Feature","geometry":{"type":"LineString","coordinates":[[114.9185262,23.8838578],[114.9170628,23.8831929],[114.9157902,23.8828332],[114.91454,23.8826155]]},"properties":{"key":"way:339190574@detail:459_95","osmType":"way","osmId":339190574,"sourceRegion":"guangdong","featureType":"infrastructure","railClass":"national","mode":"rail","name":"京九线","nameEn":"Jingjiu Line","ref":"0005","usage":"main","status":"operational","color":"#E54848","dataOrigin":"datum-2026-08-01","sourceKey":"way:339190574"}},{"type":"Feature","geometry":{"type":"LineString","coordinates":[[114.8964399,23.8638],[114.8957261,23.8636111],[114.8950377,23.8635117],[114.8941821,23.8634613]]},"properties":{"key":"way:339190575@detail:459_95","osmType":"way","osmId":339190575,"sourceRegion":"guangdong","featureType":"infrastructure","railClass":"national","mode":"rail","name":"京九线","nameEn":"Jingjiu Line","ref":"0005","usage":"main","tunnel":"yes","status":"operational","color":"#E54848","dataOrigin":"datum-2026-08-01","sourceKey":"way:339190575"}},{"type":"Feature","geometry":{"type":"LineString","coordinates":[[114.9118172,23.8821978],[114.9112229,23.8818664],[114.9105706,23.8814224],[114.9096936,23.8807663],[114.909063,23.8801698]]},"properties":{"key":"way:339190576@detail:459_95","osmType":"way","osmId":339190576,"sourceRegion":"guangdong","featureType":"infrastructure","railClass":"national","mode":"rail","name":"京九线","nameEn":"Jingjiu Line","ref":"0005","usage":"main","tunnel":"yes","status":"operational","color":"#E54848","dataOrigin":"datum-2026-08-01","sourceKey":"way:339190576"}},{"type":"Feature","geometry":{"type":"LineString","coordinates":[[114.9239863,23.8862138],[114.9230876,23.8861277],[114.922486,23.8860084],[114.9218192,23.8858029],[114.9214133,23.8856373]]},"properties":{"key":"way:339190577@detail:459_95","osmType":"way","osmId":339190577,"sourceRegion":"guangdong","featureType":"infrastructure","railClass":"national","mode":"rail","name":"京九线","nameEn":"Jingjiu Line","ref":"0005","usage":"main","status":"operational","color":"#E54848","dataOrigin":"datum-2026-08-01","sourceKey":"way:339190577"}},{"type":"Feature","geometry":{"type":"LineString","coordinates":[[114.9182243,23.8840136],[114.917456,23.8835895],[114.9167602,23.8833045],[114.9160499,23.8830991],[114.9152962,23.88294],[114.9145859,23.8828141]]},"properties":{"key":"way:339190578@detail:459_95","osmType":"way","osmId":339190578,"sourceRegion":"guangdong","featureType":"infrastructure","railClass":"national","mode":"rail","name":"京九线","nameEn":"Jingjiu Line","ref":"0005","usage":"main","status":"operational","color":"#E54848","dataOrigin":"datum-2026-08-01","sourceKey":"way:339190578"}},{"type":"Feature","geometry":{"type":"LineString","coordinates":[[114.8941759,23.86364],[114.8920587,23.8635605],[114.8893779,23.8634743],[114.8809994,23.8631562],[114.8800209,23.8631164],[114.8789555,23.8629772],[114.8780712,23.8627386]]},"properties":{"key":"way:339190579@detail:459_95","osmType":"way","osmId":339190579,"sourceRegion":"guangdong","featureType":"infrastructure","railClass":"national","mode":"rail","name":"京九线","nameEn":"Jingjiu Line","ref":"0005","usage":"main","status":"operational","color":"#E54848","dataOrigin":"datum-2026-08-01","sourceKey":"way:339190579"}},{"type":"Feature","geometry":{"type":"LineString","coordinates":[[114.75,23.808494273112313],[114.7547641,23.8110765],[114.7555057,23.8115405],[114.7559684,23.8119624],[114.7564566,23.8124826],[114.7568187,23.8129832],[114.7577244,23.8146038]]},"properties":{"key":"way:387646218@detail:459_95","osmType":"way","osmId":387646218,"sourceRegion":"guangdong","featureType":"infrastructure","railClass":"national","mode":"rail","name":"京九线","nameEn":"Jingjiu Line","ref":"0005","usage":"main","status":"operational","color":"#E54848","dataOrigin":"datum-2026-08-01","sourceKey":"way:387646218"}},{"type":"Feature","geometry":{"type":"LineString","coordinates":[[114.8301992,23.851881],[114.8257495,23.8523362]]},"properties":{"key":"way:387646219@detail:459_95","osmType":"way","osmId":387646219,"sourceRegion":"guangdong","featureType":"infrastructure","railClass":"national","mode":"rail","name":"京九线","nameEn":"Jingjiu Line","ref":"0005","usage":"main","status":"operational","color":"#E54848","dataOrigin":"datum-2026-08-01","sourceKey":"way:387646219"}},{"type":"Feature","geometry":{"type":"LineString","coordinates":[[114.9400765,23.8923172],[114.941376,23.892553]]},"properties":{"key":"way:387646220@detail:459_95","osmType":"way","osmId":387646220,"sourceRegion":"guangdong","featureType":"infrastructure","railClass":"national","mode":"rail","name":"京九线","nameEn":"Jingjiu Line","ref":"0005","usage":"main","status":"operational","color":"#E54848","dataOrigin":"datum-2026-08-01","sourceKey":"way:387646220"}},{"type":"Feature","geometry":{"type":"LineString","coordinates":[[114.824456,23.8524942],[114.8233241,23.8526047],[114.82227,23.8526488],[114.8213205,23.8526071],[114.8179811,23.8523005],[114.8164684,23.8521042],[114.8158085,23.851962],[114.8150039,23.8517436],[114.8142099,23.8513953],[114.8135662,23.8510273],[114.8126543,23.8504165],[114.8113668,23.849369],[114.8101061,23.848108]]},"properties":{"key":"way:549630034@detail:459_95","osmType":"way","osmId":549630034,"sourceRegion":"guangdong","featureType":"infrastructure","railClass":"national","mode":"rail","name":"京九线","nameEn":"Jingjiu Line","ref":"0005","usage":"main","status":"operational","color":"#E54848","dataOrigin":"datum-2026-08-01","sourceKey":"way:549630034"}},{"type":"Feature","geometry":{"type":"LineString","coordinates":[[114.8258604,23.8520795],[114.8244681,23.852232]]},"properties":{"key":"way:549630035@detail:459_95","osmType":"way","osmId":549630035,"sourceRegion":"guangdong","featureType":"infrastructure","railClass":"national","mode":"rail","name":"京九线","nameEn":"Jingjiu Line","ref":"0005","usage":"main","bridge":"yes","status":"operational","color":"#E54848","dataOrigin":"datum-2026-08-01","sourceKey":"way:549630035"}},{"type":"Feature","geometry":{"type":"LineString","coordinates":[[114.8317681,23.8511845],[114.830528,23.85146],[114.827881,23.851906],[114.8258604,23.8520795]]},"properties":{"key":"way:549630036@detail:459_95","osmType":"way","osmId":549630036,"sourceRegion":"guangdong","featureType":"infrastructure","railClass":"national","mode":"rail","name":"京九线","nameEn":"Jingjiu Line","ref":"0005","usage":"main","status":"operational","color":"#E54848","dataOrigin":"datum-2026-08-01","sourceKey":"way:549630036"}},{"type":"Feature","geometry":{"type":"LineString","coordinates":[[114.8257495,23.8523362],[114.824456,23.8524942]]},"properties":{"key":"way:549630037@detail:459_95","osmType":"way","osmId":549630037,"sourceRegion":"guangdong","featureType":"infrastructure","railClass":"national","mode":"rail","name":"京九线","nameEn":"Jingjiu Line","ref":"0005","usage":"main","bridge":"yes","status":"operational","color":"#E54848","dataOrigin":"datum-2026-08-01","sourceKey":"way:549630037"}},{"type":"Feature","geometry":{"type":"LineString","coordinates":[[114.8101061,23.848108],[114.8080623,23.8463172]]},"properties":{"key":"way:549630038@detail:459_95","osmType":"way","osmId":549630038,"sourceRegion":"guangdong","featureType":"infrastructure","railClass":"national","mode":"rail","name":"京九线","nameEn":"Jingjiu Line","ref":"0005","usage":"main","bridge":"yes","status":"operational","color":"#E54848","dataOrigin":"datum-2026-08-01","sourceKey":"way:549630038"}},{"type":"Feature","geometry":{"type":"LineString","coordinates":[[114.8103204,23.8480053],[114.8089324,23.8467732],[114.8081299,23.8460927]]},"properties":{"key":"way:549630040@detail:459_95","osmType":"way","osmId":549630040,"sourceRegion":"guangdong","featureType":"infrastructure","railClass":"national","mode":"rail","name":"京九线","nameEn":"Jingjiu Line","ref":"0005","usage":"main","bridge":"yes","status":"operational","color":"#E54848","dataOrigin":"datum-2026-08-01","sourceKey":"way:549630040"}},{"type":"Feature","geometry":{"type":"LineString","coordinates":[[114.8081299,23.8460927],[114.8063028,23.8447348],[114.8030412,23.8417933],[114.8024967,23.8411285],[114.8018557,23.8401373],[114.7998118,23.8365284],[114.7993505,23.835655],[114.7989938,23.8351201],[114.7983795,23.8344405],[114.7976768,23.8338517],[114.7969687,23.8334174],[114.7932538,23.8314154]]},"properties":{"key":"way:549630045@detail:459_95","osmType":"way","osmId":549630045,"sourceRegion":"guangdong","featureType":"infrastructure","railClass":"national","mode":"rail","name":"京九线","nameEn":"Jingjiu Line","ref":"0005","usage":"main","status":"operational","color":"#E54848","dataOrigin":"datum-2026-08-01","sourceKey":"way:549630045"}},{"type":"Feature","geometry":{"type":"LineString","coordinates":[[114.7931818,23.8315124],[114.7919126,23.8308733]]},"properties":{"key":"way:549630049@detail:459_95","osmType":"way","osmId":549630049,"sourceRegion":"guangdong","featureType":"infrastructure","railClass":"national","mode":"rail","name":"京九线","nameEn":"Jingjiu Line","ref":"0005","usage":"main","bridge":"yes","status":"operational","color":"#E54848","dataOrigin":"datum-2026-08-01","sourceKey":"way:549630049"}},{"type":"Feature","geometry":{"type":"LineString","coordinates":[[114.7612502,23.8178855],[114.761526,23.8180932]]},"properties":{"key":"way:549630058@detail:459_95","osmType":"way","osmId":549630058,"sourceRegion":"guangdong","featureType":"infrastructure","railClass":"national","mode":"rail","name":"京九线","nameEn":"Jingjiu Line","ref":"0005","usage":"main","bridge":"yes","status":"operational","color":"#E54848","dataOrigin":"datum-2026-08-01","sourceKey":"way:549630058"}},{"type":"Feature","geometry":{"type":"LineString","coordinates":[[114.761592,23.817991],[114.7613308,23.8177941]]},"properties":{"key":"way:549630059@detail:459_95","osmType":"way","osmId":549630059,"sourceRegion":"guangdong","featureType":"infrastructure","railClass":"national","mode":"rail","name":"京九线","nameEn":"Jingjiu Line","ref":"0005","usage":"main","bridge":"yes","status":"operational","color":"#E54848","dataOrigin":"datum-2026-08-01","sourceKey":"way:549630059"}},{"type":"Feature","geometry":{"type":"LineString","coordinates":[[114.7580817,23.8151677],[114.7584522,23.8155916],[114.7588947,23.8160235],[114.7595698,23.8165929],[114.7612502,23.8178855]]},"properties":{"key":"way:549630060@detail:459_95","osmType":"way","osmId":549630060,"sourceRegion":"guangdong","featureType":"infrastructure","railClass":"national","mode":"rail","name":"京九线","nameEn":"Jingjiu Line","ref":"0005","usage":"main","status":"operational","color":"#E54848","dataOrigin":"datum-2026-08-01","sourceKey":"way:549630060"}},{"type":"Feature","geometry":{"type":"LineString","coordinates":[[114.7613308,23.8177941],[114.7596814,23.8164999],[114.7591093,23.8159769],[114.7586399,23.815464],[114.7583303,23.8150563]]},"properties":{"key":"way:549630061@detail:459_95","osmType":"way","osmId":549630061,"sourceRegion":"guangdong","featureType":"infrastructure","railClass":"national","mode":"rail","name":"京九线","nameEn":"Jingjiu Line","ref":"0005","usage":"main","status":"operational","color":"#E54848","dataOrigin":"datum-2026-08-01","sourceKey":"way:549630061"}},{"type":"Feature","geometry":{"type":"LineString","coordinates":[[114.7577244,23.8146038],[114.7580817,23.8151677]]},"properties":{"key":"way:549630062@detail:459_95","osmType":"way","osmId":549630062,"sourceRegion":"guangdong","featureType":"infrastructure","railClass":"national","mode":"rail","name":"京九线","nameEn":"Jingjiu Line","ref":"0005","usage":"main","bridge":"yes","status":"operational","color":"#E54848","dataOrigin":"datum-2026-08-01","sourceKey":"way:549630062"}},{"type":"Feature","geometry":{"type":"LineString","coordinates":[[114.761526,23.8180932],[114.7683491,23.823411],[114.7693527,23.8242116],[114.7704923,23.8250726]]},"properties":{"key":"way:549630063@detail:459_95","osmType":"way","osmId":549630063,"sourceRegion":"guangdong","featureType":"infrastructure","railClass":"national","mode":"rail","name":"京九线","nameEn":"Jingjiu Line","ref":"0005","usage":"main","status":"operational","color":"#E54848","dataOrigin":"datum-2026-08-01","sourceKey":"way:549630063"}},{"type":"Feature","geometry":{"type":"LineString","coordinates":[[114.7579453,23.8144349],[114.7571164,23.8131108],[114.7566926,23.8125268],[114.7562528,23.8120434],[114.7555554,23.8114618],[114.7521012,23.8095879],[114.75,23.80844801216034]]},"properties":{"key":"way:549630067@detail:459_95","osmType":"way","osmId":549630067,"sourceRegion":"guangdong","featureType":"infrastructure","railClass":"national","mode":"rail","name":"京九线","nameEn":"Jingjiu Line","ref":"0005","usage":"main","status":"operational","color":"#E54848","dataOrigin":"datum-2026-08-01","sourceKey":"way:549630067"}},{"type":"Feature","geometry":{"type":"LineString","coordinates":[[114.7932538,23.8314154],[114.7919986,23.8307603]]},"properties":{"key":"way:905830873@detail:459_95","osmType":"way","osmId":905830873,"sourceRegion":"guangdong","featureType":"infrastructure","railClass":"national","mode":"rail","name":"京九线","nameEn":"Jingjiu Line","ref":"0005","usage":"main","bridge":"yes","status":"operational","color":"#E54848","dataOrigin":"datum-2026-08-01","sourceKey":"way:905830873"}},{"type":"Feature","geometry":{"type":"LineString","coordinates":[[114.9698737,23.8882374],[114.9686391,23.8881284],[114.9673294,23.8882072],[114.9660939,23.8884516],[114.9649149,23.8888698],[114.9602377,23.8909045],[114.9598083,23.8911276],[114.9591699,23.8913189],[114.9580702,23.8915936],[114.9573594,23.8917284],[114.9568525,23.891802],[114.9564958,23.8918364],[114.9559674,23.891878],[114.9552163,23.8919173],[114.950045,23.8920742],[114.9450468,23.8926109],[114.9438343,23.8926606],[114.9426088,23.8926298],[114.941396,23.8924784],[114.9401479,23.892104]]},"properties":{"key":"way:906447972@detail:459_95","osmType":"way","osmId":906447972,"sourceRegion":"guangdong","featureType":"infrastructure","railClass":"national","mode":"rail","name":"京九线","nameEn":"Jingjiu Line","ref":"0005","usage":"main","status":"operational","color":"#E54848","dataOrigin":"datum-2026-08-01","sourceKey":"way:906447972"}},{"type":"Feature","geometry":{"type":"LineString","coordinates":[[115.0,23.913671899896023],[114.9993843,23.9130305],[114.996773,23.910293],[114.994953,23.908389],[114.9947521,23.9082454],[114.9933547,23.906817],[114.9923757,23.9057774],[114.991622,23.9050344],[114.9911821,23.9045954],[114.9905652,23.903953],[114.9899965,23.9035189],[114.988331,23.902203],[114.978266,23.894835],[114.977345,23.894075],[114.976547,23.893189],[114.975121,23.891271],[114.974337,23.890359],[114.973458,23.889523],[114.972375,23.888903],[114.969854,23.888307]]},"properties":{"key":"way:927890310@detail:459_95","osmType":"way","osmId":927890310,"sourceRegion":"guangdong","featureType":"infrastructure","railClass":"national","mode":"rail","name":"京九线","nameEn":"Jingjiu Line","ref":"0005","usage":"main","status":"operational","color":"#E54848","dataOrigin":"datum-2026-08-01","sourceKey":"way:927890310"}},{"type":"Feature","geometry":{"type":"LineString","coordinates":[[115.0,23.913328513095237],[114.999593,23.9129094],[114.9968312,23.9102446],[114.9950135,23.9083431],[114.9924793,23.9054017],[114.9915415,23.904566],[114.9908495,23.9040412],[114.9900421,23.9034797],[114.9883805,23.9021471],[114.978317,23.8947802],[114.977402,23.8940252],[114.97661,23.8931458],[114.9751845,23.8912285],[114.9743964,23.8903117],[114.973508,23.8894668],[114.9724064,23.8888362],[114.9698737,23.8882374]]},"properties":{"key":"way:927890311@detail:459_95","osmType":"way","osmId":927890311,"sourceRegion":"guangdong","featureType":"infrastructure","railClass":"national","mode":"rail","name":"京九线","nameEn":"Jingjiu Line","ref":"0005","usage":"main","status":"operational","color":"#E54848","dataOrigin":"datum-2026-08-01","sourceKey":"way:927890311"}},{"type":"Feature","geometry":{"type":"LineString","coordinates":[[114.9276459,23.8351397],[114.9223727,23.8306155],[114.9169385,23.825993],[114.912529,23.8226462],[114.9080121,23.8197508],[114.9067086,23.8190269],[114.8987746,23.8148923],[114.894247,23.8126348],[114.8763299,23.8038201],[114.8718774,23.801582],[114.8626828,23.7959375],[114.8512459,23.7887024]]},"properties":{"key":"way:960214910@detail:459_95","osmType":"way","osmId":960214910,"sourceRegion":"guangdong","featureType":"infrastructure","railClass":"highspeed","mode":"rail","name":"京港高速线","nameEn":"Jinggang High-Speed Line","ref":"3003","usage":"main","highspeed":"yes","bridge":"yes","status":"operational","color":"#E54848","dataOrigin":"datum-2026-08-01","sourceKey":"way:960214910"}},{"type":"Feature","geometry":{"type":"LineString","coordinates":[[114.802503,23.7578642],[114.8021363,23.7576036]]},"properties":{"key":"way:960214911@detail:459_95","osmType":"way","osmId":960214911,"sourceRegion":"guangdong","featureType":"infrastructure","railClass":"highspeed","mode":"rail","name":"京港高速线","nameEn":"Jinggang High-Speed Line","ref":"3003","usage":"main","highspeed":"yes","bridge":"yes","status":"operational","color":"#E54848","dataOrigin":"datum-2026-08-01","sourceKey":"way:960214911"}},{"type":"Feature","geometry":{"type":"LineString","coordinates":[[114.8021363,23.7576036],[114.7988764,23.7553646],[114.7956988,23.7530353],[114.7948922,23.7523622]]},"properties":{"key":"way:960214912@detail:459_95","osmType":"way","osmId":960214912,"sourceRegion":"guangdong","featureType":"infrastructure","railClass":"highspeed","mode":"rail","name":"京港高速线","nameEn":"Jinggang High-Speed Line","ref":"3003","usage":"main","highspeed":"yes","tunnel":"yes","status":"operational","color":"#E54848","dataOrigin":"datum-2026-08-01","sourceKey":"way:960214912"}},{"type":"Feature","geometry":{"type":"LineString","coordinates":[[114.7948922,23.7523622],[114.79222973877802,23.75]]},"properties":{"key":"way:960214913@detail:459_95","osmType":"way","osmId":960214913,"sourceRegion":"guangdong","featureType":"infrastructure","railClass":"highspeed","mode":"rail","name":"京港高速线","nameEn":"Jinggang High-Speed Line","ref":"3003","usage":"main","highspeed":"yes","bridge":"yes","status":"operational","color":"#E54848","dataOrigin":"datum-2026-08-01","sourceKey":"way:960214913"}},{"type":"Feature","geometry":{"type":"LineString","coordinates":[[115.0,23.88499243330246],[114.9964849,23.8825463]]},"properties":{"key":"way:1014969071@detail:459_95","osmType":"way","osmId":1014969071,"sourceRegion":"guangdong","featureType":"infrastructure","railClass":"highspeed","mode":"rail","name":"京港高速线","nameEn":"Jinggang High-Speed Line","ref":"3003","usage":"main","highspeed":"yes","status":"operational","color":"#E54848","dataOrigin":"datum-2026-08-01","sourceKey":"way:1014969071"}},{"type":"Feature","geometry":{"type":"LineString","coordinates":[[114.9964849,23.8825463],[114.967246,23.8625272],[114.9276459,23.8351397]]},"properties":{"key":"way:1080579751@detail:459_95","osmType":"way","osmId":1080579751,"sourceRegion":"guangdong","featureType":"infrastructure","railClass":"highspeed","mode":"rail","name":"京港高速线","nameEn":"Jinggang High-Speed Line","ref":"3003","usage":"main","highspeed":"yes","tunnel":"yes","status":"operational","color":"#E54848","dataOrigin":"datum-2026-08-01","sourceKey":"way:1080579751"}},{"type":"Feature","geometry":{"type":"LineString","coordinates":[[114.8512459,23.7887024],[114.8385904,23.7812273],[114.802503,23.7578642]]},"properties":{"key":"way:1080579752@detail:459_95","osmType":"way","osmId":1080579752,"sourceRegion":"guangdong","featureType":"infrastructure","railClass":"highspeed","mode":"rail","name":"京港高速线","nameEn":"Jinggang High-Speed Line","ref":"3003","usage":"main","highspeed":"yes","tunnel":"yes","status":"operational","color":"#E54848","dataOrigin":"datum-2026-08-01","sourceKey":"way:1080579752"}},{"type":"Feature","geometry":{"type":"LineString","coordinates":[[114.75,23.80855526194883],[114.7523186,23.8098042],[114.7530658,23.8102058],[114.7536356,23.8105348],[114.7549525,23.8114107],[114.7557838,23.8119874],[114.756148,23.8122694],[114.7563302,23.8124617],[114.756545,23.8127308],[114.7569606,23.8133973]]},"properties":{"key":"way:1338090511@detail:459_95","osmType":"way","osmId":1338090511,"sourceRegion":"guangdong","featureType":"infrastructure","railClass":"minor","mode":"rail","name":"未命名","usage":"industrial","service":"siding","status":"operational","color":"#52636F","dataOrigin":"datum-2026-08-01","sourceKey":"way:1338090511"}},{"type":"Feature","geometry":{"type":"LineString","coordinates":[[114.7549525,23.8114107],[114.7546163,23.8112483],[114.7543174,23.8111586],[114.7540372,23.8110902]]},"properties":{"key":"way:1338090512@detail:459_95","osmType":"way","osmId":1338090512,"sourceRegion":"guangdong","featureType":"infrastructure","railClass":"minor","mode":"rail","name":"未命名","usage":"industrial","service":"crossover","status":"operational","color":"#52636F","dataOrigin":"datum-2026-08-01","sourceKey":"way:1338090512"}},{"type":"Feature","geometry":{"type":"LineString","coordinates":[[114.7540372,23.8110902],[114.7534535,23.810962],[114.751917,23.8103853]]},"properties":{"key":"way:1338090513@detail:459_95","osmType":"way","osmId":1338090513,"sourceRegion":"guangdong","featureType":"infrastructure","railClass":"minor","mode":"rail","name":"未命名","usage":"industrial","service":"yard","status":"operational","color":"#52636F","dataOrigin":"datum-2026-08-01","sourceKey":"way:1338090513"}},{"type":"Feature","geometry":{"type":"LineString","coordinates":[[114.7519637,23.8103297],[114.7534768,23.8109022],[114.7540372,23.8110902]]},"properties":{"key":"way:1338090514@detail:459_95","osmType":"way","osmId":1338090514,"sourceRegion":"guangdong","featureType":"infrastructure","railClass":"minor","mode":"rail","name":"未命名","service":"yard","status":"operational","color":"#52636F","dataOrigin":"datum-2026-08-01","sourceKey":"way:1338090514"}},{"type":"Feature","geometry":{"type":"LineString","coordinates":[[114.7523186,23.8098042],[114.7520711,23.8097102]]},"properties":{"key":"way:1338090515@detail:459_95","osmType":"way","osmId":1338090515,"sourceRegion":"guangdong","featureType":"infrastructure","railClass":"minor","mode":"rail","name":"未命名","usage":"industrial","service":"crossover","status":"operational","color":"#52636F","dataOrigin":"datum-2026-08-01","sourceKey":"way:1338090515"}},{"type":"Feature","geometry":{"type":"LineString","coordinates":[[114.7520711,23.8097102],[114.7518516,23.8096461],[114.7515668,23.8095948],[114.7513426,23.8095863],[114.75,23.80973061898205]]},"properties":{"key":"way:1338090516@detail:459_95","osmType":"way","osmId":1338090516,"sourceRegion":"guangdong","featureType":"infrastructure","railClass":"minor","mode":"rail","name":"未命名","service":"yard","status":"operational","color":"#52636F","dataOrigin":"datum-2026-08-01","sourceKey":"way:1338090516"}},{"type":"Feature","geometry":{"type":"LineString","coordinates":[[114.7520711,23.8097102],[114.7515808,23.8094923]]},"properties":{"key":"way:1338090517@detail:459_95","osmType":"way","osmId":1338090517,"sourceRegion":"guangdong","featureType":"infrastructure","railClass":"minor","mode":"rail","name":"未命名","usage":"industrial","service":"crossover","status":"operational","color":"#52636F","dataOrigin":"datum-2026-08-01","sourceKey":"way:1338090517"}},{"type":"Feature","geometry":{"type":"LineString","coordinates":[[114.7515808,23.8094923],[114.7513286,23.8093983],[114.7510811,23.8093171],[114.7507168,23.8092744],[114.75,23.809341798357753]]},"properties":{"key":"way:1338090518@detail:459_95","osmType":"way","osmId":1338090518,"sourceRegion":"guangdong","featureType":"infrastructure","railClass":"minor","mode":"rail","name":"未命名","usage":"industrial","service":"yard","status":"operational","color":"#52636F","dataOrigin":"datum-2026-08-01","sourceKey":"way:1338090518"}},{"type":"Feature","geometry":{"type":"LineString","coordinates":[[114.7515808,23.8094923],[114.7509512,23.8091267],[114.7506037,23.8089716],[114.7503764,23.8089136],[114.7501517,23.8088833],[114.75,23.808872166055046]]},"properties":{"key":"way:1338090519@detail:459_95","osmType":"way","osmId":1338090519,"sourceRegion":"guangdong","featureType":"infrastructure","railClass":"minor","mode":"rail","name":"未命名","usage":"industrial","service":"yard","status":"operational","color":"#52636F","dataOrigin":"datum-2026-08-01","sourceKey":"way:1338090519"}},{"type":"Feature","geometry":{"type":"LineString","coordinates":[[114.7521012,23.8095879],[114.7512386,23.8090457]]},"properties":{"key":"way:1338090520@detail:459_95","osmType":"way","osmId":1338090520,"sourceRegion":"guangdong","featureType":"infrastructure","railClass":"minor","mode":"rail","name":"未命名","service":"siding","status":"operational","color":"#52636F","dataOrigin":"datum-2026-08-01","sourceKey":"way:1338090520"}},{"type":"Feature","geometry":{"type":"LineString","coordinates":[[114.7512386,23.8090457],[114.75,23.808378559861154]]},"properties":{"key":"way:1338090521@detail:459_95","osmType":"way","osmId":1338090521,"sourceRegion":"guangdong","featureType":"infrastructure","railClass":"minor","mode":"rail","name":"未命名","usage":"industrial","service":"siding","status":"operational","color":"#52636F","dataOrigin":"datum-2026-08-01","sourceKey":"way:1338090521"}},{"type":"Feature","geometry":{"type":"LineString","coordinates":[[114.75,23.808334035962005],[114.7509757,23.8088616],[114.7512386,23.8090457]]},"properties":{"key":"way:1338090523@detail:459_95","osmType":"way","osmId":1338090523,"sourceRegion":"guangdong","featureType":"infrastructure","railClass":"minor","mode":"rail","name":"未命名","usage":"industrial","service":"siding","status":"operational","color":"#52636F","dataOrigin":"datum-2026-08-01","sourceKey":"way:1338090523"}}]}