{"type":"FeatureCollection","features":[{"type":"Feature","geometry":{"type":"LineString","coordinates":[[114.75,22.849444126231486],[114.7537908,22.8490323]]},"properties":{"key":"way:180361631@detail:459_91","osmType":"way","osmId":180361631,"sourceRegion":"shenzhen","featureType":"infrastructure","railClass":"highspeed","mode":"rail","name":"杭深线","nameEn":"Hangzhou-Shenzhen Line","ref":"3009","usage":"main","highspeed":"yes","tunnel":"yes","status":"operational","color":"#E54848","sourceKey":"way:180361631"}},{"type":"Feature","geometry":{"type":"LineString","coordinates":[[114.7537776,22.8489409],[114.75,22.849351294128823]]},"properties":{"key":"way:631440997@detail:459_91","osmType":"way","osmId":631440997,"sourceRegion":"shenzhen","featureType":"infrastructure","railClass":"highspeed","mode":"rail","name":"杭深线","nameEn":"Hangzhou-Shenzhen Line","ref":"3009","usage":"main","highspeed":"yes","tunnel":"yes","status":"operational","color":"#E54848","sourceKey":"way:631440997"}},{"type":"Feature","geometry":{"type":"Point","coordinates":[114.7897316,22.8475822]},"properties":{"key":"node:2719758932","osmType":"node","osmId":2719758932,"sourceRegion":"guangdong","featureType":"station","railClass":"minor","mode":"station","name":"惠东南","nameEn":"Huidongnan","status":"operational","color":"#52636F","dataOrigin":"datum-2026-08-01","sourceKey":"node:2719758932","stationGroup":"惠东南","hasOperationalRail":true,"hasConstructionRail":false}},{"type":"Feature","geometry":{"type":"LineString","coordinates":[[114.8053002,22.8472195],[114.8070458,22.8471284],[114.8084491,22.8470407],[114.810569,22.8468776],[114.8114232,22.846779]]},"properties":{"key":"way:180361612@detail:459_91","osmType":"way","osmId":180361612,"sourceRegion":"guangdong","featureType":"infrastructure","railClass":"highspeed","mode":"rail","name":"杭深线","nameEn":"Hangzhou-Shenzhen Line","ref":"3009","usage":"main","highspeed":"yes","status":"operational","color":"#E54848","dataOrigin":"datum-2026-08-01","sourceKey":"way:180361612"}},{"type":"Feature","geometry":{"type":"LineString","coordinates":[[114.9731246,22.8198577],[114.9806714,22.8179578]]},"properties":{"key":"way:180361629@detail:459_91","osmType":"way","osmId":180361629,"sourceRegion":"guangdong","featureType":"infrastructure","railClass":"highspeed","mode":"rail","name":"杭深线","nameEn":"Hangzhou-Shenzhen Line","ref":"3009","usage":"main","highspeed":"yes","tunnel":"yes","status":"operational","color":"#E54848","dataOrigin":"datum-2026-08-01","sourceKey":"way:180361629"}},{"type":"Feature","geometry":{"type":"LineString","coordinates":[[114.7537908,22.8490323],[114.7542951,22.8489631]]},"properties":{"key":"way:180361633@detail:459_91","osmType":"way","osmId":180361633,"sourceRegion":"guangdong","featureType":"infrastructure","railClass":"highspeed","mode":"rail","name":"杭深线","nameEn":"Hangzhou-Shenzhen Line","ref":"3009","usage":"main","highspeed":"yes","status":"operational","color":"#E54848","dataOrigin":"datum-2026-08-01","sourceKey":"way:180361633"}},{"type":"Feature","geometry":{"type":"LineString","coordinates":[[114.9806714,22.8179578],[114.9848743,22.8169763]]},"properties":{"key":"way:180361638@detail:459_91","osmType":"way","osmId":180361638,"sourceRegion":"guangdong","featureType":"infrastructure","railClass":"highspeed","mode":"rail","name":"杭深线","nameEn":"Hangzhou-Shenzhen Line","ref":"3009","usage":"main","highspeed":"yes","status":"operational","color":"#E54848","dataOrigin":"datum-2026-08-01","sourceKey":"way:180361638"}},{"type":"Feature","geometry":{"type":"LineString","coordinates":[[114.9722744,22.8200792],[114.9731246,22.8198577]]},"properties":{"key":"way:180361647@detail:459_91","osmType":"way","osmId":180361647,"sourceRegion":"guangdong","featureType":"infrastructure","railClass":"highspeed","mode":"rail","name":"杭深线","nameEn":"Hangzhou-Shenzhen Line","ref":"3009","usage":"main","highspeed":"yes","status":"operational","color":"#E54848","dataOrigin":"datum-2026-08-01","sourceKey":"way:180361647"}},{"type":"Feature","geometry":{"type":"LineString","coordinates":[[114.8447774,22.838051],[114.8494005,22.8372228],[114.8906248,22.8334835],[114.8914586,22.8334132]]},"properties":{"key":"way:180361655@detail:459_91","osmType":"way","osmId":180361655,"sourceRegion":"guangdong","featureType":"infrastructure","railClass":"highspeed","mode":"rail","name":"杭深线","nameEn":"Hangzhou-Shenzhen Line","ref":"3009","usage":"main","highspeed":"yes","tunnel":"yes","status":"operational","color":"#E54848","dataOrigin":"datum-2026-08-01","sourceKey":"way:180361655"}},{"type":"Feature","geometry":{"type":"LineString","coordinates":[[114.9666724,22.8214733],[114.9722744,22.8200792]]},"properties":{"key":"way:180361659@detail:459_91","osmType":"way","osmId":180361659,"sourceRegion":"guangdong","featureType":"infrastructure","railClass":"highspeed","mode":"rail","name":"杭深线","nameEn":"Hangzhou-Shenzhen Line","ref":"3009","usage":"main","highspeed":"yes","bridge":"viaduct","status":"operational","color":"#E54848","dataOrigin":"datum-2026-08-01","sourceKey":"way:180361659"}},{"type":"Feature","geometry":{"type":"LineString","coordinates":[[114.9522675,22.8250309],[114.954126,22.8246016]]},"properties":{"key":"way:364205414@detail:459_91","osmType":"way","osmId":364205414,"sourceRegion":"guangdong","featureType":"infrastructure","railClass":"highspeed","mode":"rail","name":"杭深线","nameEn":"Hangzhou-Shenzhen Line","ref":"3009","usage":"main","highspeed":"yes","status":"operational","color":"#E54848","dataOrigin":"datum-2026-08-01","sourceKey":"way:364205414"}},{"type":"Feature","geometry":{"type":"LineString","coordinates":[[114.950347,22.8254784],[114.9522675,22.8250309]]},"properties":{"key":"way:364205417@detail:459_91","osmType":"way","osmId":364205417,"sourceRegion":"guangdong","featureType":"infrastructure","railClass":"highspeed","mode":"rail","name":"杭深线","nameEn":"Hangzhou-Shenzhen Line","ref":"3009","usage":"main","highspeed":"yes","tunnel":"yes","status":"operational","color":"#E54848","dataOrigin":"datum-2026-08-01","sourceKey":"way:364205417"}},{"type":"Feature","geometry":{"type":"LineString","coordinates":[[114.9480164,22.8260693],[114.9490354,22.8258393],[114.950347,22.8254784]]},"properties":{"key":"way:364205419@detail:459_91","osmType":"way","osmId":364205419,"sourceRegion":"guangdong","featureType":"infrastructure","railClass":"highspeed","mode":"rail","name":"杭深线","nameEn":"Hangzhou-Shenzhen Line","ref":"3009","usage":"main","highspeed":"yes","status":"operational","color":"#E54848","dataOrigin":"datum-2026-08-01","sourceKey":"way:364205419"}},{"type":"Feature","geometry":{"type":"LineString","coordinates":[[114.9438042,22.8271662],[114.9480164,22.8260693]]},"properties":{"key":"way:364205422@detail:459_91","osmType":"way","osmId":364205422,"sourceRegion":"guangdong","featureType":"infrastructure","railClass":"highspeed","mode":"rail","name":"杭深线","nameEn":"Hangzhou-Shenzhen Line","ref":"3009","usage":"main","highspeed":"yes","tunnel":"yes","status":"operational","color":"#E54848","dataOrigin":"datum-2026-08-01","sourceKey":"way:364205422"}},{"type":"Feature","geometry":{"type":"LineString","coordinates":[[114.9372222,22.8283651],[114.9392376,22.8280619],[114.9410116,22.8277474],[114.9425687,22.8274495],[114.9438042,22.8271662]]},"properties":{"key":"way:364205425@detail:459_91","osmType":"way","osmId":364205425,"sourceRegion":"guangdong","featureType":"infrastructure","railClass":"highspeed","mode":"rail","name":"杭深线","nameEn":"Hangzhou-Shenzhen Line","ref":"3009","usage":"main","highspeed":"yes","status":"operational","color":"#E54848","dataOrigin":"datum-2026-08-01","sourceKey":"way:364205425"}},{"type":"Feature","geometry":{"type":"LineString","coordinates":[[114.7542951,22.8489631],[114.7570176,22.8486778],[114.7592252,22.8484717],[114.7628313,22.8482919],[114.7646241,22.8482544],[114.7754958,22.8479962]]},"properties":{"key":"way:392187134@detail:459_91","osmType":"way","osmId":392187134,"sourceRegion":"guangdong","featureType":"infrastructure","railClass":"highspeed","mode":"rail","name":"杭深线","nameEn":"Hangzhou-Shenzhen Line","ref":"3009","usage":"main","highspeed":"yes","bridge":"viaduct","status":"operational","color":"#E54848","dataOrigin":"datum-2026-08-01","sourceKey":"way:392187134"}},{"type":"Feature","geometry":{"type":"LineString","coordinates":[[114.7754958,22.8479962],[114.7808169,22.847851],[114.7817273,22.8478262],[114.7820126,22.8478184],[114.7827534,22.8477982]]},"properties":{"key":"way:392187135@detail:459_91","osmType":"way","osmId":392187135,"sourceRegion":"guangdong","featureType":"infrastructure","railClass":"highspeed","mode":"rail","name":"杭深线","nameEn":"Hangzhou-Shenzhen Line","ref":"3009","usage":"main","highspeed":"yes","status":"operational","color":"#E54848","dataOrigin":"datum-2026-08-01","sourceKey":"way:392187135"}},{"type":"Feature","geometry":{"type":"LineString","coordinates":[[114.7827534,22.8477982],[114.7829152,22.8477947],[114.7834314,22.8477835]]},"properties":{"key":"way:392187137@detail:459_91","osmType":"way","osmId":392187137,"sourceRegion":"guangdong","featureType":"infrastructure","railClass":"highspeed","mode":"rail","name":"杭深线","nameEn":"Hangzhou-Shenzhen Line","ref":"3009","usage":"main","highspeed":"yes","bridge":"viaduct","status":"operational","color":"#E54848","dataOrigin":"datum-2026-08-01","sourceKey":"way:392187137"}},{"type":"Feature","geometry":{"type":"LineString","coordinates":[[114.7834314,22.8477835],[114.7842105,22.8477655]]},"properties":{"key":"way:392187138@detail:459_91","osmType":"way","osmId":392187138,"sourceRegion":"guangdong","featureType":"infrastructure","railClass":"highspeed","mode":"rail","name":"杭深线","nameEn":"Hangzhou-Shenzhen Line","ref":"3009","usage":"main","highspeed":"yes","status":"operational","color":"#E54848","dataOrigin":"datum-2026-08-01","sourceKey":"way:392187138"}},{"type":"Feature","geometry":{"type":"LineString","coordinates":[[114.7842105,22.8477655],[114.7847486,22.8477498]]},"properties":{"key":"way:392187139@detail:459_91","osmType":"way","osmId":392187139,"sourceRegion":"guangdong","featureType":"infrastructure","railClass":"highspeed","mode":"rail","name":"杭深线","nameEn":"Hangzhou-Shenzhen Line","ref":"3009","usage":"main","highspeed":"yes","bridge":"viaduct","status":"operational","color":"#E54848","dataOrigin":"datum-2026-08-01","sourceKey":"way:392187139"}},{"type":"Feature","geometry":{"type":"LineString","coordinates":[[114.7847486,22.8477498],[114.7971238,22.8474264],[114.7983184,22.8473951]]},"properties":{"key":"way:392187140@detail:459_91","osmType":"way","osmId":392187140,"sourceRegion":"guangdong","featureType":"infrastructure","railClass":"highspeed","mode":"rail","name":"杭深线","nameEn":"Hangzhou-Shenzhen Line","ref":"3009","usage":"main","highspeed":"yes","status":"operational","color":"#E54848","dataOrigin":"datum-2026-08-01","sourceKey":"way:392187140"}},{"type":"Feature","geometry":{"type":"LineString","coordinates":[[114.7983184,22.8473951],[114.7986447,22.8473869],[114.8053002,22.8472195]]},"properties":{"key":"way:392187816@detail:459_91","osmType":"way","osmId":392187816,"sourceRegion":"guangdong","featureType":"infrastructure","railClass":"highspeed","mode":"rail","name":"杭深线","nameEn":"Hangzhou-Shenzhen Line","ref":"3009","usage":"main","highspeed":"yes","bridge":"viaduct","status":"operational","color":"#E54848","dataOrigin":"datum-2026-08-01","sourceKey":"way:392187816"}},{"type":"Feature","geometry":{"type":"LineString","coordinates":[[114.8914586,22.8334132],[114.90005,22.8327176]]},"properties":{"key":"way:392187817@detail:459_91","osmType":"way","osmId":392187817,"sourceRegion":"guangdong","featureType":"infrastructure","railClass":"highspeed","mode":"rail","name":"杭深线","nameEn":"Hangzhou-Shenzhen Line","ref":"3009","usage":"main","highspeed":"yes","status":"operational","color":"#E54848","dataOrigin":"datum-2026-08-01","sourceKey":"way:392187817"}},{"type":"Feature","geometry":{"type":"LineString","coordinates":[[114.90005,22.8327176],[114.9093859,22.83195],[114.9150982,22.8314503],[114.9190296,22.8311038],[114.9220011,22.8307072],[114.9315553,22.8292544]]},"properties":{"key":"way:392187818@detail:459_91","osmType":"way","osmId":392187818,"sourceRegion":"guangdong","featureType":"infrastructure","railClass":"highspeed","mode":"rail","name":"杭深线","nameEn":"Hangzhou-Shenzhen Line","ref":"3009","usage":"main","highspeed":"yes","bridge":"yes","status":"operational","color":"#E54848","dataOrigin":"datum-2026-08-01","sourceKey":"way:392187818"}},{"type":"Feature","geometry":{"type":"LineString","coordinates":[[114.9315553,22.8292544],[114.936482,22.8284838]]},"properties":{"key":"way:392187819@detail:459_91","osmType":"way","osmId":392187819,"sourceRegion":"guangdong","featureType":"infrastructure","railClass":"highspeed","mode":"rail","name":"杭深线","nameEn":"Hangzhou-Shenzhen Line","ref":"3009","usage":"main","highspeed":"yes","status":"operational","color":"#E54848","dataOrigin":"datum-2026-08-01","sourceKey":"way:392187819"}},{"type":"Feature","geometry":{"type":"LineString","coordinates":[[114.936482,22.8284838],[114.9372222,22.8283651]]},"properties":{"key":"way:392187820@detail:459_91","osmType":"way","osmId":392187820,"sourceRegion":"guangdong","featureType":"infrastructure","railClass":"highspeed","mode":"rail","name":"杭深线","nameEn":"Hangzhou-Shenzhen Line","ref":"3009","usage":"main","highspeed":"yes","bridge":"yes","status":"operational","color":"#E54848","dataOrigin":"datum-2026-08-01","sourceKey":"way:392187820"}},{"type":"Feature","geometry":{"type":"LineString","coordinates":[[114.954126,22.8246016],[114.9553425,22.8243053],[114.9596471,22.8232283],[114.9618697,22.8226835],[114.9638729,22.8221779],[114.9648356,22.8219398]]},"properties":{"key":"way:392187821@detail:459_91","osmType":"way","osmId":392187821,"sourceRegion":"guangdong","featureType":"infrastructure","railClass":"highspeed","mode":"rail","name":"杭深线","nameEn":"Hangzhou-Shenzhen Line","ref":"3009","usage":"main","highspeed":"yes","bridge":"yes","status":"operational","color":"#E54848","dataOrigin":"datum-2026-08-01","sourceKey":"way:392187821"}},{"type":"Feature","geometry":{"type":"LineString","coordinates":[[114.9648356,22.8219398],[114.9666724,22.8214733]]},"properties":{"key":"way:392187822@detail:459_91","osmType":"way","osmId":392187822,"sourceRegion":"guangdong","featureType":"infrastructure","railClass":"highspeed","mode":"rail","name":"杭深线","nameEn":"Hangzhou-Shenzhen Line","ref":"3009","usage":"main","highspeed":"yes","status":"operational","color":"#E54848","dataOrigin":"datum-2026-08-01","sourceKey":"way:392187822"}},{"type":"Feature","geometry":{"type":"LineString","coordinates":[[114.9848743,22.8169763],[114.9948997,22.8144865],[114.9966603,22.8140572]]},"properties":{"key":"way:392187823@detail:459_91","osmType":"way","osmId":392187823,"sourceRegion":"guangdong","featureType":"infrastructure","railClass":"highspeed","mode":"rail","name":"杭深线","nameEn":"Hangzhou-Shenzhen Line","ref":"3009","usage":"main","highspeed":"yes","bridge":"viaduct","status":"operational","color":"#E54848","dataOrigin":"datum-2026-08-01","sourceKey":"way:392187823"}},{"type":"Feature","geometry":{"type":"LineString","coordinates":[[114.9966603,22.8140572],[114.9999771,22.8132157],[115.0,22.813210242168612]]},"properties":{"key":"way:392187824@detail:459_91","osmType":"way","osmId":392187824,"sourceRegion":"guangdong","featureType":"infrastructure","railClass":"highspeed","mode":"rail","name":"杭深线","nameEn":"Hangzhou-Shenzhen Line","ref":"3009","usage":"main","highspeed":"yes","status":"operational","color":"#E54848","dataOrigin":"datum-2026-08-01","sourceKey":"way:392187824"}},{"type":"Feature","geometry":{"type":"LineString","coordinates":[[114.8395327,22.8394319],[114.8400263,22.8393019]]},"properties":{"key":"way:609637666@detail:459_91","osmType":"way","osmId":609637666,"sourceRegion":"guangdong","featureType":"infrastructure","railClass":"highspeed","mode":"rail","name":"杭深线","nameEn":"Hangzhou-Shenzhen Line","ref":"3009","usage":"main","highspeed":"yes","status":"operational","color":"#E54848","dataOrigin":"datum-2026-08-01","sourceKey":"way:609637666"}},{"type":"Feature","geometry":{"type":"LineString","coordinates":[[114.8400263,22.8393019],[114.8405903,22.8391534]]},"properties":{"key":"way:609637667@detail:459_91","osmType":"way","osmId":609637667,"sourceRegion":"guangdong","featureType":"infrastructure","railClass":"highspeed","mode":"rail","name":"杭深线","nameEn":"Hangzhou-Shenzhen Line","ref":"3009","usage":"main","highspeed":"yes","bridge":"yes","status":"operational","color":"#E54848","dataOrigin":"datum-2026-08-01","sourceKey":"way:609637667"}},{"type":"Feature","geometry":{"type":"LineString","coordinates":[[114.8405903,22.8391534],[114.8437545,22.8383203]]},"properties":{"key":"way:609637668@detail:459_91","osmType":"way","osmId":609637668,"sourceRegion":"guangdong","featureType":"infrastructure","railClass":"highspeed","mode":"rail","name":"杭深线","nameEn":"Hangzhou-Shenzhen Line","ref":"3009","usage":"main","highspeed":"yes","status":"operational","color":"#E54848","dataOrigin":"datum-2026-08-01","sourceKey":"way:609637668"}},{"type":"Feature","geometry":{"type":"LineString","coordinates":[[114.8437545,22.8383203],[114.8438866,22.8382855]]},"properties":{"key":"way:609637669@detail:459_91","osmType":"way","osmId":609637669,"sourceRegion":"guangdong","featureType":"infrastructure","railClass":"highspeed","mode":"rail","name":"杭深线","nameEn":"Hangzhou-Shenzhen Line","ref":"3009","usage":"main","highspeed":"yes","bridge":"yes","status":"operational","color":"#E54848","dataOrigin":"datum-2026-08-01","sourceKey":"way:609637669"}},{"type":"Feature","geometry":{"type":"LineString","coordinates":[[114.8114232,22.846779],[114.8152892,22.8460725],[114.8395327,22.8394319]]},"properties":{"key":"way:609637670@detail:459_91","osmType":"way","osmId":609637670,"sourceRegion":"guangdong","featureType":"infrastructure","railClass":"highspeed","mode":"rail","name":"杭深线","nameEn":"Hangzhou-Shenzhen Line","ref":"3009","usage":"main","highspeed":"yes","tunnel":"yes","status":"operational","color":"#E54848","dataOrigin":"datum-2026-08-01","sourceKey":"way:609637670"}},{"type":"Feature","geometry":{"type":"LineString","coordinates":[[114.8438866,22.8382855],[114.8447774,22.838051]]},"properties":{"key":"way:609637671@detail:459_91","osmType":"way","osmId":609637671,"sourceRegion":"guangdong","featureType":"infrastructure","railClass":"highspeed","mode":"rail","name":"杭深线","nameEn":"Hangzhou-Shenzhen Line","ref":"3009","usage":"main","highspeed":"yes","status":"operational","color":"#E54848","dataOrigin":"datum-2026-08-01","sourceKey":"way:609637671"}},{"type":"Feature","geometry":{"type":"LineString","coordinates":[[114.7542821,22.8488717],[114.7537776,22.8489409]]},"properties":{"key":"way:631440998@detail:459_91","osmType":"way","osmId":631440998,"sourceRegion":"guangdong","featureType":"infrastructure","railClass":"highspeed","mode":"rail","name":"杭深线","nameEn":"Hangzhou-Shenzhen Line","ref":"3009","usage":"main","highspeed":"yes","status":"operational","color":"#E54848","dataOrigin":"datum-2026-08-01","sourceKey":"way:631440998"}},{"type":"Feature","geometry":{"type":"LineString","coordinates":[[114.775494,22.8479431],[114.7646215,22.8481622],[114.7628275,22.8481998],[114.7592175,22.8483797],[114.7570069,22.8485861],[114.7542821,22.8488717]]},"properties":{"key":"way:631440999@detail:459_91","osmType":"way","osmId":631440999,"sourceRegion":"guangdong","featureType":"infrastructure","railClass":"highspeed","mode":"rail","name":"杭深线","nameEn":"Hangzhou-Shenzhen Line","ref":"3009","usage":"main","highspeed":"yes","bridge":"viaduct","status":"operational","color":"#E54848","dataOrigin":"datum-2026-08-01","sourceKey":"way:631440999"}},{"type":"Feature","geometry":{"type":"LineString","coordinates":[[114.782752,22.8477568],[114.7793758,22.8478434],[114.775494,22.8479431]]},"properties":{"key":"way:631441000@detail:459_91","osmType":"way","osmId":631441000,"sourceRegion":"guangdong","featureType":"infrastructure","railClass":"highspeed","mode":"rail","name":"杭深线","nameEn":"Hangzhou-Shenzhen Line","ref":"3009","usage":"main","highspeed":"yes","status":"operational","color":"#E54848","dataOrigin":"datum-2026-08-01","sourceKey":"way:631441000"}},{"type":"Feature","geometry":{"type":"LineString","coordinates":[[114.7834341,22.8477395],[114.782752,22.8477568]]},"properties":{"key":"way:631441001@detail:459_91","osmType":"way","osmId":631441001,"sourceRegion":"guangdong","featureType":"infrastructure","railClass":"highspeed","mode":"rail","name":"杭深线","nameEn":"Hangzhou-Shenzhen Line","ref":"3009","usage":"main","highspeed":"yes","bridge":"viaduct","status":"operational","color":"#E54848","dataOrigin":"datum-2026-08-01","sourceKey":"way:631441001"}},{"type":"Feature","geometry":{"type":"LineString","coordinates":[[114.784213,22.8477238],[114.7834341,22.8477395]]},"properties":{"key":"way:631441002@detail:459_91","osmType":"way","osmId":631441002,"sourceRegion":"guangdong","featureType":"infrastructure","railClass":"highspeed","mode":"rail","name":"杭深线","nameEn":"Hangzhou-Shenzhen Line","ref":"3009","usage":"main","highspeed":"yes","status":"operational","color":"#E54848","dataOrigin":"datum-2026-08-01","sourceKey":"way:631441002"}},{"type":"Feature","geometry":{"type":"LineString","coordinates":[[114.7847477,22.847709],[114.7843799,22.8477191],[114.784213,22.8477238]]},"properties":{"key":"way:631441003@detail:459_91","osmType":"way","osmId":631441003,"sourceRegion":"guangdong","featureType":"infrastructure","railClass":"highspeed","mode":"rail","name":"杭深线","nameEn":"Hangzhou-Shenzhen Line","ref":"3009","usage":"main","highspeed":"yes","bridge":"viaduct","status":"operational","color":"#E54848","dataOrigin":"datum-2026-08-01","sourceKey":"way:631441003"}},{"type":"Feature","geometry":{"type":"LineString","coordinates":[[114.7983197,22.8473462],[114.7961147,22.8474051],[114.7849065,22.8477047],[114.7847477,22.847709]]},"properties":{"key":"way:631441004@detail:459_91","osmType":"way","osmId":631441004,"sourceRegion":"guangdong","featureType":"infrastructure","railClass":"highspeed","mode":"rail","name":"杭深线","nameEn":"Hangzhou-Shenzhen Line","ref":"3009","usage":"main","highspeed":"yes","status":"operational","color":"#E54848","dataOrigin":"datum-2026-08-01","sourceKey":"way:631441004"}},{"type":"Feature","geometry":{"type":"LineString","coordinates":[[114.8052999,22.8471612],[114.8000715,22.8472997],[114.7983197,22.8473462]]},"properties":{"key":"way:631441005@detail:459_91","osmType":"way","osmId":631441005,"sourceRegion":"guangdong","featureType":"infrastructure","railClass":"highspeed","mode":"rail","name":"杭深线","nameEn":"Hangzhou-Shenzhen Line","ref":"3009","usage":"main","highspeed":"yes","bridge":"viaduct","status":"operational","color":"#E54848","dataOrigin":"datum-2026-08-01","sourceKey":"way:631441005"}},{"type":"Feature","geometry":{"type":"LineString","coordinates":[[114.8114072,22.8466879],[114.8105586,22.8467859],[114.8084416,22.8469488],[114.8070406,22.8470363],[114.8052999,22.8471612]]},"properties":{"key":"way:631441006@detail:459_91","osmType":"way","osmId":631441006,"sourceRegion":"guangdong","featureType":"infrastructure","railClass":"highspeed","mode":"rail","name":"杭深线","nameEn":"Hangzhou-Shenzhen Line","ref":"3009","usage":"main","highspeed":"yes","status":"operational","color":"#E54848","dataOrigin":"datum-2026-08-01","sourceKey":"way:631441006"}},{"type":"Feature","geometry":{"type":"LineString","coordinates":[[114.8395047,22.8393434],[114.8152652,22.8459829],[114.8114072,22.8466879]]},"properties":{"key":"way:631441007@detail:459_91","osmType":"way","osmId":631441007,"sourceRegion":"guangdong","featureType":"infrastructure","railClass":"highspeed","mode":"rail","name":"杭深线","nameEn":"Hangzhou-Shenzhen Line","ref":"3009","usage":"main","highspeed":"yes","tunnel":"yes","status":"operational","color":"#E54848","dataOrigin":"datum-2026-08-01","sourceKey":"way:631441007"}},{"type":"Feature","geometry":{"type":"LineString","coordinates":[[114.8399988,22.8392132],[114.8395047,22.8393434]]},"properties":{"key":"way:631441008@detail:459_91","osmType":"way","osmId":631441008,"sourceRegion":"guangdong","featureType":"infrastructure","railClass":"highspeed","mode":"rail","name":"杭深线","nameEn":"Hangzhou-Shenzhen Line","ref":"3009","usage":"main","highspeed":"yes","status":"operational","color":"#E54848","dataOrigin":"datum-2026-08-01","sourceKey":"way:631441008"}},{"type":"Feature","geometry":{"type":"LineString","coordinates":[[114.8405628,22.8390647],[114.8399988,22.8392132]]},"properties":{"key":"way:631441009@detail:459_91","osmType":"way","osmId":631441009,"sourceRegion":"guangdong","featureType":"infrastructure","railClass":"highspeed","mode":"rail","name":"杭深线","nameEn":"Hangzhou-Shenzhen Line","ref":"3009","usage":"main","highspeed":"yes","bridge":"yes","status":"operational","color":"#E54848","dataOrigin":"datum-2026-08-01","sourceKey":"way:631441009"}},{"type":"Feature","geometry":{"type":"LineString","coordinates":[[114.843727,22.8382316],[114.8405628,22.8390647]]},"properties":{"key":"way:631441010@detail:459_91","osmType":"way","osmId":631441010,"sourceRegion":"guangdong","featureType":"infrastructure","railClass":"highspeed","mode":"rail","name":"杭深线","nameEn":"Hangzhou-Shenzhen Line","ref":"3009","usage":"main","highspeed":"yes","status":"operational","color":"#E54848","dataOrigin":"datum-2026-08-01","sourceKey":"way:631441010"}},{"type":"Feature","geometry":{"type":"LineString","coordinates":[[114.8438591,22.8381968],[114.843727,22.8382316]]},"properties":{"key":"way:631441011@detail:459_91","osmType":"way","osmId":631441011,"sourceRegion":"guangdong","featureType":"infrastructure","railClass":"highspeed","mode":"rail","name":"杭深线","nameEn":"Hangzhou-Shenzhen Line","ref":"3009","usage":"main","highspeed":"yes","bridge":"yes","status":"operational","color":"#E54848","dataOrigin":"datum-2026-08-01","sourceKey":"way:631441011"}},{"type":"Feature","geometry":{"type":"LineString","coordinates":[[114.8447541,22.8379612],[114.8438591,22.8381968]]},"properties":{"key":"way:631441012@detail:459_91","osmType":"way","osmId":631441012,"sourceRegion":"guangdong","featureType":"infrastructure","railClass":"highspeed","mode":"rail","name":"杭深线","nameEn":"Hangzhou-Shenzhen Line","ref":"3009","usage":"main","highspeed":"yes","status":"operational","color":"#E54848","dataOrigin":"datum-2026-08-01","sourceKey":"way:631441012"}},{"type":"Feature","geometry":{"type":"LineString","coordinates":[[114.8914497,22.8333214],[114.8906153,22.8333917],[114.849386,22.8371315],[114.8447541,22.8379612]]},"properties":{"key":"way:631441013@detail:459_91","osmType":"way","osmId":631441013,"sourceRegion":"guangdong","featureType":"infrastructure","railClass":"highspeed","mode":"rail","name":"杭深线","nameEn":"Hangzhou-Shenzhen Line","ref":"3009","usage":"main","highspeed":"yes","tunnel":"yes","status":"operational","color":"#E54848","dataOrigin":"datum-2026-08-01","sourceKey":"way:631441013"}},{"type":"Feature","geometry":{"type":"LineString","coordinates":[[114.9000412,22.8326257],[114.8914497,22.8333214]]},"properties":{"key":"way:631441014@detail:459_91","osmType":"way","osmId":631441014,"sourceRegion":"guangdong","featureType":"infrastructure","railClass":"highspeed","mode":"rail","name":"杭深线","nameEn":"Hangzhou-Shenzhen Line","ref":"3009","usage":"main","highspeed":"yes","status":"operational","color":"#E54848","dataOrigin":"datum-2026-08-01","sourceKey":"way:631441014"}},{"type":"Feature","geometry":{"type":"LineString","coordinates":[[114.9315388,22.8291634],[114.9219858,22.8306161],[114.9190177,22.8310122],[114.9150887,22.8313585],[114.9093767,22.8318582],[114.9000412,22.8326257]]},"properties":{"key":"way:631441015@detail:459_91","osmType":"way","osmId":631441015,"sourceRegion":"guangdong","featureType":"infrastructure","railClass":"highspeed","mode":"rail","name":"杭深线","nameEn":"Hangzhou-Shenzhen Line","ref":"3009","usage":"main","highspeed":"yes","bridge":"yes","status":"operational","color":"#E54848","dataOrigin":"datum-2026-08-01","sourceKey":"way:631441015"}},{"type":"Feature","geometry":{"type":"LineString","coordinates":[[114.9364651,22.8283929],[114.9315388,22.8291634]]},"properties":{"key":"way:631441016@detail:459_91","osmType":"way","osmId":631441016,"sourceRegion":"guangdong","featureType":"infrastructure","railClass":"highspeed","mode":"rail","name":"杭深线","nameEn":"Hangzhou-Shenzhen Line","ref":"3009","usage":"main","highspeed":"yes","status":"operational","color":"#E54848","dataOrigin":"datum-2026-08-01","sourceKey":"way:631441016"}},{"type":"Feature","geometry":{"type":"LineString","coordinates":[[114.9372056,22.8282742],[114.9364651,22.8283929]]},"properties":{"key":"way:631441017@detail:459_91","osmType":"way","osmId":631441017,"sourceRegion":"guangdong","featureType":"infrastructure","railClass":"highspeed","mode":"rail","name":"杭深线","nameEn":"Hangzhou-Shenzhen Line","ref":"3009","usage":"main","highspeed":"yes","bridge":"yes","status":"operational","color":"#E54848","dataOrigin":"datum-2026-08-01","sourceKey":"way:631441017"}},{"type":"Feature","geometry":{"type":"LineString","coordinates":[[114.9438099,22.8271131],[114.9425696,22.827399],[114.9410545,22.8276801],[114.9392193,22.8279712],[114.9372056,22.8282742]]},"properties":{"key":"way:631441018@detail:459_91","osmType":"way","osmId":631441018,"sourceRegion":"guangdong","featureType":"infrastructure","railClass":"highspeed","mode":"rail","name":"杭深线","nameEn":"Hangzhou-Shenzhen Line","ref":"3009","usage":"main","highspeed":"yes","status":"operational","color":"#E54848","dataOrigin":"datum-2026-08-01","sourceKey":"way:631441018"}},{"type":"Feature","geometry":{"type":"LineString","coordinates":[[114.9479917,22.8259799],[114.9438099,22.8271131]]},"properties":{"key":"way:631441019@detail:459_91","osmType":"way","osmId":631441019,"sourceRegion":"guangdong","featureType":"infrastructure","railClass":"highspeed","mode":"rail","name":"杭深线","nameEn":"Hangzhou-Shenzhen Line","ref":"3009","usage":"main","highspeed":"yes","tunnel":"yes","status":"operational","color":"#E54848","dataOrigin":"datum-2026-08-01","sourceKey":"way:631441019"}},{"type":"Feature","geometry":{"type":"LineString","coordinates":[[114.9503204,22.8253895],[114.9490092,22.8257503],[114.9479917,22.8259799]]},"properties":{"key":"way:631441020@detail:459_91","osmType":"way","osmId":631441020,"sourceRegion":"guangdong","featureType":"infrastructure","railClass":"highspeed","mode":"rail","name":"杭深线","nameEn":"Hangzhou-Shenzhen Line","ref":"3009","usage":"main","highspeed":"yes","status":"operational","color":"#E54848","dataOrigin":"datum-2026-08-01","sourceKey":"way:631441020"}},{"type":"Feature","geometry":{"type":"LineString","coordinates":[[114.9522431,22.8249415],[114.9503204,22.8253895]]},"properties":{"key":"way:631441021@detail:459_91","osmType":"way","osmId":631441021,"sourceRegion":"guangdong","featureType":"infrastructure","railClass":"highspeed","mode":"rail","name":"杭深线","nameEn":"Hangzhou-Shenzhen Line","ref":"3009","usage":"main","highspeed":"yes","tunnel":"yes","status":"operational","color":"#E54848","dataOrigin":"datum-2026-08-01","sourceKey":"way:631441021"}},{"type":"Feature","geometry":{"type":"LineString","coordinates":[[114.9541011,22.8245123],[114.9522431,22.8249415]]},"properties":{"key":"way:631441022@detail:459_91","osmType":"way","osmId":631441022,"sourceRegion":"guangdong","featureType":"infrastructure","railClass":"highspeed","mode":"rail","name":"杭深线","nameEn":"Hangzhou-Shenzhen Line","ref":"3009","usage":"main","highspeed":"yes","status":"operational","color":"#E54848","dataOrigin":"datum-2026-08-01","sourceKey":"way:631441022"}},{"type":"Feature","geometry":{"type":"LineString","coordinates":[[114.9648093,22.8218508],[114.9638467,22.8220889],[114.9618436,22.8225945],[114.9596211,22.8231392],[114.9553166,22.8242162],[114.9541011,22.8245123]]},"properties":{"key":"way:631441023@detail:459_91","osmType":"way","osmId":631441023,"sourceRegion":"guangdong","featureType":"infrastructure","railClass":"highspeed","mode":"rail","name":"杭深线","nameEn":"Hangzhou-Shenzhen Line","ref":"3009","usage":"main","highspeed":"yes","bridge":"yes","status":"operational","color":"#E54848","dataOrigin":"datum-2026-08-01","sourceKey":"way:631441023"}},{"type":"Feature","geometry":{"type":"LineString","coordinates":[[114.9666461,22.8213843],[114.9648093,22.8218508]]},"properties":{"key":"way:631441024@detail:459_91","osmType":"way","osmId":631441024,"sourceRegion":"guangdong","featureType":"infrastructure","railClass":"highspeed","mode":"rail","name":"杭深线","nameEn":"Hangzhou-Shenzhen Line","ref":"3009","usage":"main","highspeed":"yes","status":"operational","color":"#E54848","dataOrigin":"datum-2026-08-01","sourceKey":"way:631441024"}},{"type":"Feature","geometry":{"type":"LineString","coordinates":[[114.9722478,22.8199903],[114.9666461,22.8213843]]},"properties":{"key":"way:631441025@detail:459_91","osmType":"way","osmId":631441025,"sourceRegion":"guangdong","featureType":"infrastructure","railClass":"highspeed","mode":"rail","name":"杭深线","nameEn":"Hangzhou-Shenzhen Line","ref":"3009","usage":"main","highspeed":"yes","bridge":"viaduct","status":"operational","color":"#E54848","dataOrigin":"datum-2026-08-01","sourceKey":"way:631441025"}},{"type":"Feature","geometry":{"type":"LineString","coordinates":[[114.9730978,22.8197688],[114.9722478,22.8199903]]},"properties":{"key":"way:631441026@detail:459_91","osmType":"way","osmId":631441026,"sourceRegion":"guangdong","featureType":"infrastructure","railClass":"highspeed","mode":"rail","name":"杭深线","nameEn":"Hangzhou-Shenzhen Line","ref":"3009","usage":"main","highspeed":"yes","status":"operational","color":"#E54848","dataOrigin":"datum-2026-08-01","sourceKey":"way:631441026"}},{"type":"Feature","geometry":{"type":"LineString","coordinates":[[114.9806459,22.8178686],[114.9730978,22.8197688]]},"properties":{"key":"way:631441027@detail:459_91","osmType":"way","osmId":631441027,"sourceRegion":"guangdong","featureType":"infrastructure","railClass":"highspeed","mode":"rail","name":"杭深线","nameEn":"Hangzhou-Shenzhen Line","ref":"3009","usage":"main","highspeed":"yes","tunnel":"yes","status":"operational","color":"#E54848","dataOrigin":"datum-2026-08-01","sourceKey":"way:631441027"}},{"type":"Feature","geometry":{"type":"LineString","coordinates":[[114.984849,22.8168871],[114.9806459,22.8178686]]},"properties":{"key":"way:631441028@detail:459_91","osmType":"way","osmId":631441028,"sourceRegion":"guangdong","featureType":"infrastructure","railClass":"highspeed","mode":"rail","name":"杭深线","nameEn":"Hangzhou-Shenzhen Line","ref":"3009","usage":"main","highspeed":"yes","status":"operational","color":"#E54848","dataOrigin":"datum-2026-08-01","sourceKey":"way:631441028"}},{"type":"Feature","geometry":{"type":"LineString","coordinates":[[114.9966342,22.8139682],[114.9948739,22.8143974],[114.984849,22.8168871]]},"properties":{"key":"way:631441029@detail:459_91","osmType":"way","osmId":631441029,"sourceRegion":"guangdong","featureType":"infrastructure","railClass":"highspeed","mode":"rail","name":"杭深线","nameEn":"Hangzhou-Shenzhen Line","ref":"3009","usage":"main","highspeed":"yes","bridge":"viaduct","status":"operational","color":"#E54848","dataOrigin":"datum-2026-08-01","sourceKey":"way:631441029"}},{"type":"Feature","geometry":{"type":"LineString","coordinates":[[115.0,22.81311499246303],[114.9999513,22.8131266],[114.9966342,22.8139682]]},"properties":{"key":"way:631441030@detail:459_91","osmType":"way","osmId":631441030,"sourceRegion":"guangdong","featureType":"infrastructure","railClass":"highspeed","mode":"rail","name":"杭深线","nameEn":"Hangzhou-Shenzhen Line","ref":"3009","usage":"main","highspeed":"yes","status":"operational","color":"#E54848","dataOrigin":"datum-2026-08-01","sourceKey":"way:631441030"}},{"type":"Feature","geometry":{"type":"LineString","coordinates":[[114.7613701,22.9339162],[114.7631425,22.9336761],[114.7674018,22.9329967],[114.7693353,22.9326481],[114.7723867,22.9319756]]},"properties":{"key":"way:893577864@detail:459_91","osmType":"way","osmId":893577864,"sourceRegion":"guangdong","featureType":"infrastructure","railClass":"highspeed","mode":"rail","name":"甬广高速线","nameEn":"Ningbo–Guangzhou Highspeed-Railway","ref":"广汕高速线","usage":"main","highspeed":"yes","bridge":"yes","status":"operational","color":"#E54848","dataOrigin":"datum-2026-08-01","sourceKey":"way:893577864"}},{"type":"Feature","geometry":{"type":"LineString","coordinates":[[114.7805269,22.9296794],[114.8476936,22.9100681]]},"properties":{"key":"way:906018983@detail:459_91","osmType":"way","osmId":906018983,"sourceRegion":"guangdong","featureType":"infrastructure","railClass":"highspeed","mode":"rail","name":"甬广高速线","nameEn":"Ningbo–Guangzhou Highspeed-Railway","ref":"广汕高速线","usage":"main","highspeed":"yes","tunnel":"yes","status":"operational","color":"#E54848","dataOrigin":"datum-2026-08-01","sourceKey":"way:906018983"}},{"type":"Feature","geometry":{"type":"LineString","coordinates":[[114.9120704,22.8929718],[114.9651608,22.8898036]]},"properties":{"key":"way:1052993854@detail:459_91","osmType":"way","osmId":1052993854,"sourceRegion":"guangdong","featureType":"infrastructure","railClass":"highspeed","mode":"rail","name":"甬广高速线","nameEn":"Ningbo–Guangzhou Highspeed-Railway","ref":"广汕高速线","usage":"main","highspeed":"yes","tunnel":"yes","status":"operational","color":"#E54848","dataOrigin":"datum-2026-08-01","sourceKey":"way:1052993854"}},{"type":"Feature","geometry":{"type":"LineString","coordinates":[[114.9052094,22.8939533],[114.9062101,22.8937371],[114.9080002,22.8934356],[114.9110492,22.8930658]]},"properties":{"key":"way:1052993855@detail:459_91","osmType":"way","osmId":1052993855,"sourceRegion":"guangdong","featureType":"infrastructure","railClass":"highspeed","mode":"rail","name":"甬广高速线","nameEn":"Ningbo–Guangzhou Highspeed-Railway","ref":"广汕高速线","usage":"main","highspeed":"yes","bridge":"yes","status":"operational","color":"#E54848","dataOrigin":"datum-2026-08-01","sourceKey":"way:1052993855"}},{"type":"Feature","geometry":{"type":"LineString","coordinates":[[114.8539304,22.9083058],[114.9052094,22.8939533]]},"properties":{"key":"way:1052993856@detail:459_91","osmType":"way","osmId":1052993856,"sourceRegion":"guangdong","featureType":"infrastructure","railClass":"highspeed","mode":"rail","name":"甬广高速线","nameEn":"Ningbo–Guangzhou Highspeed-Railway","ref":"广汕高速线","usage":"main","highspeed":"yes","tunnel":"yes","status":"operational","color":"#E54848","dataOrigin":"datum-2026-08-01","sourceKey":"way:1052993856"}},{"type":"Feature","geometry":{"type":"LineString","coordinates":[[114.8476936,22.9100681],[114.8508995,22.9091888]]},"properties":{"key":"way:1052993857@detail:459_91","osmType":"way","osmId":1052993857,"sourceRegion":"guangdong","featureType":"infrastructure","railClass":"highspeed","mode":"rail","name":"甬广高速线","nameEn":"Ningbo–Guangzhou Highspeed-Railway","ref":"广汕高速线","usage":"main","highspeed":"yes","status":"operational","color":"#E54848","dataOrigin":"datum-2026-08-01","sourceKey":"way:1052993857"}},{"type":"Feature","geometry":{"type":"LineString","coordinates":[[114.9651608,22.8898036],[114.9684359,22.8896101]]},"properties":{"key":"way:1052993858@detail:459_91","osmType":"way","osmId":1052993858,"sourceRegion":"guangdong","featureType":"infrastructure","railClass":"highspeed","mode":"rail","name":"甬广高速线","nameEn":"Ningbo–Guangzhou Highspeed-Railway","ref":"广汕高速线","usage":"main","highspeed":"yes","bridge":"yes","status":"operational","color":"#E54848","dataOrigin":"datum-2026-08-01","sourceKey":"way:1052993858"}},{"type":"Feature","geometry":{"type":"LineString","coordinates":[[114.9723056,22.8894194],[114.9834895,22.8887483]]},"properties":{"key":"way:1052993859@detail:459_91","osmType":"way","osmId":1052993859,"sourceRegion":"guangdong","featureType":"infrastructure","railClass":"highspeed","mode":"rail","name":"甬广高速线","nameEn":"Ningbo–Guangzhou Highspeed-Railway","ref":"广汕高速线","usage":"main","highspeed":"yes","bridge":"yes","status":"operational","color":"#E54848","dataOrigin":"datum-2026-08-01","sourceKey":"way:1052993859"}},{"type":"Feature","geometry":{"type":"LineString","coordinates":[[114.9873455,22.8884857],[114.992651,22.8877931]]},"properties":{"key":"way:1052993860@detail:459_91","osmType":"way","osmId":1052993860,"sourceRegion":"guangdong","featureType":"infrastructure","railClass":"highspeed","mode":"rail","name":"甬广高速线","nameEn":"Ningbo–Guangzhou Highspeed-Railway","ref":"广汕高速线","usage":"main","highspeed":"yes","bridge":"yes","status":"operational","color":"#E54848","dataOrigin":"datum-2026-08-01","sourceKey":"way:1052993860"}},{"type":"Feature","geometry":{"type":"LineString","coordinates":[[114.9834895,22.8887483],[114.9849377,22.8886748]]},"properties":{"key":"way:1052993861@detail:459_91","osmType":"way","osmId":1052993861,"sourceRegion":"guangdong","featureType":"infrastructure","railClass":"highspeed","mode":"rail","name":"甬广高速线","nameEn":"Ningbo–Guangzhou Highspeed-Railway","ref":"广汕高速线","usage":"main","highspeed":"yes","status":"operational","color":"#E54848","dataOrigin":"datum-2026-08-01","sourceKey":"way:1052993861"}},{"type":"Feature","geometry":{"type":"LineString","coordinates":[[114.9849377,22.8886748],[114.9873455,22.8884857]]},"properties":{"key":"way:1052993862@detail:459_91","osmType":"way","osmId":1052993862,"sourceRegion":"guangdong","featureType":"infrastructure","railClass":"highspeed","mode":"rail","name":"甬广高速线","nameEn":"Ningbo–Guangzhou Highspeed-Railway","ref":"广汕高速线","usage":"main","highspeed":"yes","tunnel":"yes","status":"operational","color":"#E54848","dataOrigin":"datum-2026-08-01","sourceKey":"way:1052993862"}},{"type":"Feature","geometry":{"type":"LineString","coordinates":[[114.992651,22.8877931],[114.9936854,22.8876424]]},"properties":{"key":"way:1052993863@detail:459_91","osmType":"way","osmId":1052993863,"sourceRegion":"guangdong","featureType":"infrastructure","railClass":"highspeed","mode":"rail","name":"甬广高速线","nameEn":"Ningbo–Guangzhou Highspeed-Railway","ref":"广汕高速线","usage":"main","highspeed":"yes","tunnel":"yes","status":"operational","color":"#E54848","dataOrigin":"datum-2026-08-01","sourceKey":"way:1052993863"}},{"type":"Feature","geometry":{"type":"LineString","coordinates":[[114.9936854,22.8876424],[114.9955916,22.8873646],[114.9972695,22.8870577],[114.998939,22.8867122]]},"properties":{"key":"way:1052993864@detail:459_91","osmType":"way","osmId":1052993864,"sourceRegion":"guangdong","featureType":"infrastructure","railClass":"highspeed","mode":"rail","name":"甬广高速线","nameEn":"Ningbo–Guangzhou Highspeed-Railway","ref":"广汕高速线","usage":"main","highspeed":"yes","bridge":"yes","status":"operational","color":"#E54848","dataOrigin":"datum-2026-08-01","sourceKey":"way:1052993864"}},{"type":"Feature","geometry":{"type":"LineString","coordinates":[[114.998939,22.8867122],[115.0,22.886480077966784]]},"properties":{"key":"way:1052993865@detail:459_91","osmType":"way","osmId":1052993865,"sourceRegion":"guangdong","featureType":"infrastructure","railClass":"highspeed","mode":"rail","name":"甬广高速线","nameEn":"Ningbo–Guangzhou Highspeed-Railway","ref":"广汕高速线","usage":"main","highspeed":"yes","status":"operational","color":"#E54848","dataOrigin":"datum-2026-08-01","sourceKey":"way:1052993865"}},{"type":"Feature","geometry":{"type":"LineString","coordinates":[[114.75,22.934558123217013],[114.7533704,22.9344102]]},"properties":{"key":"way:1123082996@detail:459_91","osmType":"way","osmId":1123082996,"sourceRegion":"guangdong","featureType":"infrastructure","railClass":"highspeed","mode":"rail","name":"甬广高速线","nameEn":"Ningbo–Guangzhou Highspeed-Railway","ref":"广汕高速线","usage":"main","highspeed":"yes","status":"operational","color":"#E54848","dataOrigin":"datum-2026-08-01","sourceKey":"way:1123082996"}},{"type":"Feature","geometry":{"type":"LineString","coordinates":[[114.7533704,22.9344102],[114.7561948,22.9342943]]},"properties":{"key":"way:1123082997@detail:459_91","osmType":"way","osmId":1123082997,"sourceRegion":"guangdong","featureType":"infrastructure","railClass":"highspeed","mode":"rail","name":"甬广高速线","nameEn":"Ningbo–Guangzhou Highspeed-Railway","ref":"广汕高速线","usage":"main","highspeed":"yes","tunnel":"yes","status":"operational","color":"#E54848","dataOrigin":"datum-2026-08-01","sourceKey":"way:1123082997"}},{"type":"Feature","geometry":{"type":"LineString","coordinates":[[114.7533715,22.9343507],[114.75,22.9344967763256]]},"properties":{"key":"way:1123083010@detail:459_91","osmType":"way","osmId":1123083010,"sourceRegion":"guangdong","featureType":"infrastructure","railClass":"highspeed","mode":"rail","name":"甬广高速线","nameEn":"Ningbo–Guangzhou Highspeed-Railway","ref":"广汕高速线","usage":"main","highspeed":"yes","status":"operational","color":"#E54848","dataOrigin":"datum-2026-08-01","sourceKey":"way:1123083010"}},{"type":"Feature","geometry":{"type":"LineString","coordinates":[[114.7561918,22.9342403],[114.7533715,22.9343507]]},"properties":{"key":"way:1123083011@detail:459_91","osmType":"way","osmId":1123083011,"sourceRegion":"guangdong","featureType":"infrastructure","railClass":"highspeed","mode":"rail","name":"甬广高速线","nameEn":"Ningbo–Guangzhou Highspeed-Railway","ref":"广汕高速线","usage":"main","highspeed":"yes","tunnel":"yes","status":"operational","color":"#E54848","dataOrigin":"datum-2026-08-01","sourceKey":"way:1123083011"}},{"type":"Feature","geometry":{"type":"LineString","coordinates":[[114.7561948,22.9342943],[114.7590048,22.9341336],[114.7602811,22.9340163]]},"properties":{"key":"way:1123083012@detail:459_91","osmType":"way","osmId":1123083012,"sourceRegion":"guangdong","featureType":"infrastructure","railClass":"highspeed","mode":"rail","name":"甬广高速线","nameEn":"Ningbo–Guangzhou Highspeed-Railway","ref":"广汕高速线","usage":"main","highspeed":"yes","bridge":"yes","status":"operational","color":"#E54848","dataOrigin":"datum-2026-08-01","sourceKey":"way:1123083012"}},{"type":"Feature","geometry":{"type":"LineString","coordinates":[[114.7602811,22.9340163],[114.7613701,22.9339162]]},"properties":{"key":"way:1123083013@detail:459_91","osmType":"way","osmId":1123083013,"sourceRegion":"guangdong","featureType":"infrastructure","railClass":"highspeed","mode":"rail","name":"甬广高速线","nameEn":"Ningbo–Guangzhou Highspeed-Railway","ref":"广汕高速线","usage":"main","highspeed":"yes","status":"operational","color":"#E54848","dataOrigin":"datum-2026-08-01","sourceKey":"way:1123083013"}},{"type":"Feature","geometry":{"type":"LineString","coordinates":[[114.7602745,22.9339527],[114.7590004,22.9340738],[114.7561918,22.9342403]]},"properties":{"key":"way:1123083014@detail:459_91","osmType":"way","osmId":1123083014,"sourceRegion":"guangdong","featureType":"infrastructure","railClass":"highspeed","mode":"rail","name":"甬广高速线","nameEn":"Ningbo–Guangzhou Highspeed-Railway","ref":"广汕高速线","usage":"main","highspeed":"yes","bridge":"yes","status":"operational","color":"#E54848","dataOrigin":"datum-2026-08-01","sourceKey":"way:1123083014"}},{"type":"Feature","geometry":{"type":"LineString","coordinates":[[114.7613628,22.9338502],[114.7602745,22.9339527]]},"properties":{"key":"way:1123083015@detail:459_91","osmType":"way","osmId":1123083015,"sourceRegion":"guangdong","featureType":"infrastructure","railClass":"highspeed","mode":"rail","name":"甬广高速线","nameEn":"Ningbo–Guangzhou Highspeed-Railway","ref":"广汕高速线","usage":"main","highspeed":"yes","status":"operational","color":"#E54848","dataOrigin":"datum-2026-08-01","sourceKey":"way:1123083015"}},{"type":"Feature","geometry":{"type":"LineString","coordinates":[[114.7723655,22.9319138],[114.769328,22.932582],[114.7673945,22.9329307],[114.7631352,22.9336101],[114.7613628,22.9338502]]},"properties":{"key":"way:1123083016@detail:459_91","osmType":"way","osmId":1123083016,"sourceRegion":"guangdong","featureType":"infrastructure","railClass":"highspeed","mode":"rail","name":"甬广高速线","nameEn":"Ningbo–Guangzhou Highspeed-Railway","ref":"广汕高速线","usage":"main","highspeed":"yes","bridge":"yes","status":"operational","color":"#E54848","dataOrigin":"datum-2026-08-01","sourceKey":"way:1123083016"}},{"type":"Feature","geometry":{"type":"LineString","coordinates":[[114.7805085,22.92961],[114.7777097,22.9304871],[114.7742695,22.9314439]]},"properties":{"key":"way:1123083017@detail:459_91","osmType":"way","osmId":1123083017,"sourceRegion":"guangdong","featureType":"infrastructure","railClass":"highspeed","mode":"rail","name":"甬广高速线","nameEn":"Ningbo–Guangzhou Highspeed-Railway","ref":"广汕高速线","usage":"main","highspeed":"yes","bridge":"yes","status":"operational","color":"#E54848","dataOrigin":"datum-2026-08-01","sourceKey":"way:1123083017"}},{"type":"Feature","geometry":{"type":"LineString","coordinates":[[114.7742799,22.9315056],[114.777717,22.9305531],[114.7805269,22.9296794]]},"properties":{"key":"way:1123083018@detail:459_91","osmType":"way","osmId":1123083018,"sourceRegion":"guangdong","featureType":"infrastructure","railClass":"highspeed","mode":"rail","name":"甬广高速线","nameEn":"Ningbo–Guangzhou Highspeed-Railway","ref":"广汕高速线","usage":"main","highspeed":"yes","bridge":"yes","status":"operational","color":"#E54848","dataOrigin":"datum-2026-08-01","sourceKey":"way:1123083018"}},{"type":"Feature","geometry":{"type":"LineString","coordinates":[[114.7723867,22.9319756],[114.7742799,22.9315056]]},"properties":{"key":"way:1123083019@detail:459_91","osmType":"way","osmId":1123083019,"sourceRegion":"guangdong","featureType":"infrastructure","railClass":"highspeed","mode":"rail","name":"甬广高速线","nameEn":"Ningbo–Guangzhou Highspeed-Railway","ref":"广汕高速线","usage":"main","highspeed":"yes","status":"operational","color":"#E54848","dataOrigin":"datum-2026-08-01","sourceKey":"way:1123083019"}},{"type":"Feature","geometry":{"type":"LineString","coordinates":[[114.7742695,22.9314439],[114.7723655,22.9319138]]},"properties":{"key":"way:1123083020@detail:459_91","osmType":"way","osmId":1123083020,"sourceRegion":"guangdong","featureType":"infrastructure","railClass":"highspeed","mode":"rail","name":"甬广高速线","nameEn":"Ningbo–Guangzhou Highspeed-Railway","ref":"广汕高速线","usage":"main","highspeed":"yes","status":"operational","color":"#E54848","dataOrigin":"datum-2026-08-01","sourceKey":"way:1123083020"}},{"type":"Feature","geometry":{"type":"LineString","coordinates":[[114.8476736,22.910006],[114.7805085,22.92961]]},"properties":{"key":"way:1123083021@detail:459_91","osmType":"way","osmId":1123083021,"sourceRegion":"guangdong","featureType":"infrastructure","railClass":"highspeed","mode":"rail","name":"甬广高速线","nameEn":"Ningbo–Guangzhou Highspeed-Railway","ref":"广汕高速线","usage":"main","highspeed":"yes","tunnel":"yes","status":"operational","color":"#E54848","dataOrigin":"datum-2026-08-01","sourceKey":"way:1123083021"}},{"type":"Feature","geometry":{"type":"LineString","coordinates":[[114.8508995,22.9091888],[114.8539304,22.9083058]]},"properties":{"key":"way:1123083022@detail:459_91","osmType":"way","osmId":1123083022,"sourceRegion":"guangdong","featureType":"infrastructure","railClass":"highspeed","mode":"rail","name":"甬广高速线","nameEn":"Ningbo–Guangzhou Highspeed-Railway","ref":"广汕高速线","usage":"main","highspeed":"yes","bridge":"yes","status":"operational","color":"#E54848","dataOrigin":"datum-2026-08-01","sourceKey":"way:1123083022"}},{"type":"Feature","geometry":{"type":"LineString","coordinates":[[114.8508901,22.9091351],[114.8476736,22.910006]]},"properties":{"key":"way:1123083023@detail:459_91","osmType":"way","osmId":1123083023,"sourceRegion":"guangdong","featureType":"infrastructure","railClass":"highspeed","mode":"rail","name":"甬广高速线","nameEn":"Ningbo–Guangzhou Highspeed-Railway","ref":"广汕高速线","usage":"main","highspeed":"yes","status":"operational","color":"#E54848","dataOrigin":"datum-2026-08-01","sourceKey":"way:1123083023"}},{"type":"Feature","geometry":{"type":"LineString","coordinates":[[114.8539147,22.9082426],[114.8508901,22.9091351]]},"properties":{"key":"way:1123083024@detail:459_91","osmType":"way","osmId":1123083024,"sourceRegion":"guangdong","featureType":"infrastructure","railClass":"highspeed","mode":"rail","name":"甬广高速线","nameEn":"Ningbo–Guangzhou Highspeed-Railway","ref":"广汕高速线","usage":"main","highspeed":"yes","bridge":"yes","status":"operational","color":"#E54848","dataOrigin":"datum-2026-08-01","sourceKey":"way:1123083024"}},{"type":"Feature","geometry":{"type":"LineString","coordinates":[[114.8539147,22.9082426],[114.9051946,22.8938837]]},"properties":{"key":"way:1123083025@detail:459_91","osmType":"way","osmId":1123083025,"sourceRegion":"guangdong","featureType":"infrastructure","railClass":"highspeed","mode":"rail","name":"甬广高速线","nameEn":"Ningbo–Guangzhou Highspeed-Railway","ref":"广汕高速线","usage":"main","highspeed":"yes","tunnel":"yes","status":"operational","color":"#E54848","dataOrigin":"datum-2026-08-01","sourceKey":"way:1123083025"}},{"type":"Feature","geometry":{"type":"LineString","coordinates":[[114.9110389,22.8929969],[114.9079981,22.8933641],[114.9061798,22.8936726],[114.9051946,22.8938837]]},"properties":{"key":"way:1123083026@detail:459_91","osmType":"way","osmId":1123083026,"sourceRegion":"guangdong","featureType":"infrastructure","railClass":"highspeed","mode":"rail","name":"甬广高速线","nameEn":"Ningbo–Guangzhou Highspeed-Railway","ref":"广汕高速线","usage":"main","highspeed":"yes","bridge":"yes","status":"operational","color":"#E54848","dataOrigin":"datum-2026-08-01","sourceKey":"way:1123083026"}},{"type":"Feature","geometry":{"type":"LineString","coordinates":[[114.9651507,22.8897261],[114.9120781,22.8928963]]},"properties":{"key":"way:1124621612@detail:459_91","osmType":"way","osmId":1124621612,"sourceRegion":"guangdong","featureType":"infrastructure","railClass":"highspeed","mode":"rail","name":"甬广高速线","nameEn":"Ningbo–Guangzhou Highspeed-Railway","ref":"广汕高速线","usage":"main","highspeed":"yes","tunnel":"yes","status":"operational","color":"#E54848","dataOrigin":"datum-2026-08-01","sourceKey":"way:1124621612"}},{"type":"Feature","geometry":{"type":"LineString","coordinates":[[114.9684374,22.8895263],[114.9651507,22.8897261]]},"properties":{"key":"way:1124621613@detail:459_91","osmType":"way","osmId":1124621613,"sourceRegion":"guangdong","featureType":"infrastructure","railClass":"highspeed","mode":"rail","name":"甬广高速线","nameEn":"Ningbo–Guangzhou Highspeed-Railway","ref":"广汕高速线","usage":"main","highspeed":"yes","bridge":"yes","status":"operational","color":"#E54848","dataOrigin":"datum-2026-08-01","sourceKey":"way:1124621613"}},{"type":"Feature","geometry":{"type":"LineString","coordinates":[[114.9723026,22.8893412],[114.9684374,22.8895263]]},"properties":{"key":"way:1124621614@detail:459_91","osmType":"way","osmId":1124621614,"sourceRegion":"guangdong","featureType":"infrastructure","railClass":"highspeed","mode":"rail","name":"甬广高速线","nameEn":"Ningbo–Guangzhou Highspeed-Railway","ref":"广汕高速线","usage":"main","highspeed":"yes","status":"operational","color":"#E54848","dataOrigin":"datum-2026-08-01","sourceKey":"way:1124621614"}},{"type":"Feature","geometry":{"type":"LineString","coordinates":[[114.9684359,22.8896101],[114.9723056,22.8894194]]},"properties":{"key":"way:1124621615@detail:459_91","osmType":"way","osmId":1124621615,"sourceRegion":"guangdong","featureType":"infrastructure","railClass":"highspeed","mode":"rail","name":"甬广高速线","nameEn":"Ningbo–Guangzhou Highspeed-Railway","ref":"广汕高速线","usage":"main","highspeed":"yes","status":"operational","color":"#E54848","dataOrigin":"datum-2026-08-01","sourceKey":"way:1124621615"}},{"type":"Feature","geometry":{"type":"LineString","coordinates":[[114.9834919,22.8886897],[114.9723026,22.8893412]]},"properties":{"key":"way:1124621616@detail:459_91","osmType":"way","osmId":1124621616,"sourceRegion":"guangdong","featureType":"infrastructure","railClass":"highspeed","mode":"rail","name":"甬广高速线","nameEn":"Ningbo–Guangzhou Highspeed-Railway","ref":"广汕高速线","usage":"main","highspeed":"yes","bridge":"yes","status":"operational","color":"#E54848","dataOrigin":"datum-2026-08-01","sourceKey":"way:1124621616"}},{"type":"Feature","geometry":{"type":"LineString","coordinates":[[114.9849406,22.8886198],[114.9834919,22.8886897]]},"properties":{"key":"way:1124621617@detail:459_91","osmType":"way","osmId":1124621617,"sourceRegion":"guangdong","featureType":"infrastructure","railClass":"highspeed","mode":"rail","name":"甬广高速线","nameEn":"Ningbo–Guangzhou Highspeed-Railway","ref":"广汕高速线","usage":"main","highspeed":"yes","status":"operational","color":"#E54848","dataOrigin":"datum-2026-08-01","sourceKey":"way:1124621617"}},{"type":"Feature","geometry":{"type":"LineString","coordinates":[[114.9873378,22.8884247],[114.9849406,22.8886198]]},"properties":{"key":"way:1124621618@detail:459_91","osmType":"way","osmId":1124621618,"sourceRegion":"guangdong","featureType":"infrastructure","railClass":"highspeed","mode":"rail","name":"甬广高速线","nameEn":"Ningbo–Guangzhou Highspeed-Railway","ref":"广汕高速线","usage":"main","highspeed":"yes","tunnel":"yes","status":"operational","color":"#E54848","dataOrigin":"datum-2026-08-01","sourceKey":"way:1124621618"}},{"type":"Feature","geometry":{"type":"LineString","coordinates":[[114.9926456,22.8877363],[114.9873378,22.8884247]]},"properties":{"key":"way:1124621619@detail:459_91","osmType":"way","osmId":1124621619,"sourceRegion":"guangdong","featureType":"infrastructure","railClass":"highspeed","mode":"rail","name":"甬广高速线","nameEn":"Ningbo–Guangzhou Highspeed-Railway","ref":"广汕高速线","usage":"main","highspeed":"yes","bridge":"yes","status":"operational","color":"#E54848","dataOrigin":"datum-2026-08-01","sourceKey":"way:1124621619"}},{"type":"Feature","geometry":{"type":"LineString","coordinates":[[114.9936733,22.8875808],[114.9926456,22.8877363]]},"properties":{"key":"way:1124621620@detail:459_91","osmType":"way","osmId":1124621620,"sourceRegion":"guangdong","featureType":"infrastructure","railClass":"highspeed","mode":"rail","name":"甬广高速线","nameEn":"Ningbo–Guangzhou Highspeed-Railway","ref":"广汕高速线","usage":"main","highspeed":"yes","tunnel":"yes","status":"operational","color":"#E54848","dataOrigin":"datum-2026-08-01","sourceKey":"way:1124621620"}},{"type":"Feature","geometry":{"type":"LineString","coordinates":[[114.9989171,22.8866473],[114.997259,22.886989],[114.9955674,22.8872997],[114.9936733,22.8875808]]},"properties":{"key":"way:1124621621@detail:459_91","osmType":"way","osmId":1124621621,"sourceRegion":"guangdong","featureType":"infrastructure","railClass":"highspeed","mode":"rail","name":"甬广高速线","nameEn":"Ningbo–Guangzhou Highspeed-Railway","ref":"广汕高速线","usage":"main","highspeed":"yes","bridge":"yes","status":"operational","color":"#E54848","dataOrigin":"datum-2026-08-01","sourceKey":"way:1124621621"}},{"type":"Feature","geometry":{"type":"LineString","coordinates":[[115.0,22.88640247891262],[114.9989171,22.8866473]]},"properties":{"key":"way:1124621622@detail:459_91","osmType":"way","osmId":1124621622,"sourceRegion":"guangdong","featureType":"infrastructure","railClass":"highspeed","mode":"rail","name":"甬广高速线","nameEn":"Ningbo–Guangzhou Highspeed-Railway","ref":"广汕高速线","usage":"main","highspeed":"yes","status":"operational","color":"#E54848","dataOrigin":"datum-2026-08-01","sourceKey":"way:1124621622"}},{"type":"Feature","geometry":{"type":"LineString","coordinates":[[114.9110492,22.8930658],[114.9120704,22.8929718]]},"properties":{"key":"way:1207365892@detail:459_91","osmType":"way","osmId":1207365892,"sourceRegion":"guangdong","featureType":"infrastructure","railClass":"highspeed","mode":"rail","name":"甬广高速线","nameEn":"Ningbo–Guangzhou Highspeed-Railway","ref":"广汕高速线","usage":"main","highspeed":"yes","status":"operational","color":"#E54848","dataOrigin":"datum-2026-08-01","sourceKey":"way:1207365892"}},{"type":"Feature","geometry":{"type":"LineString","coordinates":[[114.9120781,22.8928963],[114.9110389,22.8929969]]},"properties":{"key":"way:1207365893@detail:459_91","osmType":"way","osmId":1207365893,"sourceRegion":"guangdong","featureType":"infrastructure","railClass":"highspeed","mode":"rail","name":"甬广高速线","nameEn":"Ningbo–Guangzhou Highspeed-Railway","ref":"广汕高速线","usage":"main","highspeed":"yes","status":"operational","color":"#E54848","dataOrigin":"datum-2026-08-01","sourceKey":"way:1207365893"}},{"type":"Feature","geometry":{"type":"LineString","coordinates":[[114.7793758,22.8478434],[114.7808169,22.847851]]},"properties":{"key":"way:1243608039@detail:459_91","osmType":"way","osmId":1243608039,"sourceRegion":"guangdong","featureType":"infrastructure","railClass":"minor","mode":"rail","name":"未命名","service":"crossover","status":"operational","color":"#52636F","dataOrigin":"datum-2026-08-01","sourceKey":"way:1243608039"}},{"type":"Feature","geometry":{"type":"LineString","coordinates":[[114.7834327,22.847768],[114.784212,22.8477278]]},"properties":{"key":"way:1243608040@detail:459_91","osmType":"way","osmId":1243608040,"sourceRegion":"guangdong","featureType":"infrastructure","railClass":"minor","mode":"rail","name":"未命名","service":"crossover","status":"operational","color":"#52636F","dataOrigin":"datum-2026-08-01","sourceKey":"way:1243608040"}},{"type":"Feature","geometry":{"type":"LineString","coordinates":[[114.7829152,22.8477947],[114.7834327,22.847768]]},"properties":{"key":"way:1243608041@detail:459_91","osmType":"way","osmId":1243608041,"sourceRegion":"guangdong","featureType":"infrastructure","railClass":"minor","mode":"rail","name":"未命名","service":"crossover","bridge":"yes","status":"operational","color":"#52636F","dataOrigin":"datum-2026-08-01","sourceKey":"way:1243608041"}},{"type":"Feature","geometry":{"type":"LineString","coordinates":[[114.784212,22.8477278],[114.7843799,22.8477191]]},"properties":{"key":"way:1243608042@detail:459_91","osmType":"way","osmId":1243608042,"sourceRegion":"guangdong","featureType":"infrastructure","railClass":"minor","mode":"rail","name":"未命名","service":"crossover","bridge":"yes","status":"operational","color":"#52636F","dataOrigin":"datum-2026-08-01","sourceKey":"way:1243608042"}},{"type":"Feature","geometry":{"type":"LineString","coordinates":[[114.7847475,22.8477989],[114.7954076,22.8475244],[114.7956898,22.8475171],[114.7973377,22.8474747]]},"properties":{"key":"way:1243608043@detail:459_91","osmType":"way","osmId":1243608043,"sourceRegion":"guangdong","featureType":"infrastructure","railClass":"minor","mode":"rail","name":"未命名","service":"yard","status":"operational","color":"#52636F","dataOrigin":"datum-2026-08-01","sourceKey":"way:1243608043"}},{"type":"Feature","geometry":{"type":"LineString","coordinates":[[114.7770836,22.8480231],[114.7803732,22.8479294],[114.7815405,22.8479033],[114.7827549,22.8478581]]},"properties":{"key":"way:1243608044@detail:459_91","osmType":"way","osmId":1243608044,"sourceRegion":"guangdong","featureType":"infrastructure","railClass":"minor","mode":"rail","name":"未命名","service":"yard","status":"operational","color":"#52636F","dataOrigin":"datum-2026-08-01","sourceKey":"way:1243608044"}},{"type":"Feature","geometry":{"type":"LineString","coordinates":[[114.784213,22.8478163],[114.7843525,22.8478118],[114.7847475,22.8477989]]},"properties":{"key":"way:1243608045@detail:459_91","osmType":"way","osmId":1243608045,"sourceRegion":"guangdong","featureType":"infrastructure","railClass":"minor","mode":"rail","name":"未命名","service":"yard","bridge":"yes","status":"operational","color":"#52636F","dataOrigin":"datum-2026-08-01","sourceKey":"way:1243608045"}},{"type":"Feature","geometry":{"type":"LineString","coordinates":[[114.7834368,22.8478372],[114.784213,22.8478163]]},"properties":{"key":"way:1243608046@detail:459_91","osmType":"way","osmId":1243608046,"sourceRegion":"guangdong","featureType":"infrastructure","railClass":"minor","mode":"rail","name":"未命名","service":"yard","status":"operational","color":"#52636F","dataOrigin":"datum-2026-08-01","sourceKey":"way:1243608046"}},{"type":"Feature","geometry":{"type":"LineString","coordinates":[[114.7827549,22.8478581],[114.7834368,22.8478372]]},"properties":{"key":"way:1243608047@detail:459_91","osmType":"way","osmId":1243608047,"sourceRegion":"guangdong","featureType":"infrastructure","railClass":"minor","mode":"rail","name":"未命名","service":"yard","bridge":"yes","status":"operational","color":"#52636F","dataOrigin":"datum-2026-08-01","sourceKey":"way:1243608047"}},{"type":"Feature","geometry":{"type":"LineString","coordinates":[[114.7820126,22.8478184],[114.7827513,22.8478281]]},"properties":{"key":"way:1243608048@detail:459_91","osmType":"way","osmId":1243608048,"sourceRegion":"guangdong","featureType":"infrastructure","railClass":"minor","mode":"rail","name":"未命名","service":"yard","status":"operational","color":"#52636F","dataOrigin":"datum-2026-08-01","sourceKey":"way:1243608048"}},{"type":"Feature","geometry":{"type":"LineString","coordinates":[[114.7827513,22.8478281],[114.7834368,22.8478372]]},"properties":{"key":"way:1243608049@detail:459_91","osmType":"way","osmId":1243608049,"sourceRegion":"guangdong","featureType":"infrastructure","railClass":"minor","mode":"rail","name":"未命名","service":"yard","bridge":"yes","status":"operational","color":"#52636F","dataOrigin":"datum-2026-08-01","sourceKey":"way:1243608049"}},{"type":"Feature","geometry":{"type":"LineString","coordinates":[[114.7803732,22.8479294],[114.7817273,22.8478262]]},"properties":{"key":"way:1243608050@detail:459_91","osmType":"way","osmId":1243608050,"sourceRegion":"guangdong","featureType":"infrastructure","railClass":"minor","mode":"rail","name":"未命名","service":"yard","status":"operational","color":"#52636F","dataOrigin":"datum-2026-08-01","sourceKey":"way:1243608050"}},{"type":"Feature","geometry":{"type":"LineString","coordinates":[[114.7815405,22.8479033],[114.7807972,22.8479759],[114.7805411,22.8479942],[114.7801639,22.8480033]]},"properties":{"key":"way:1243608051@detail:459_91","osmType":"way","osmId":1243608051,"sourceRegion":"guangdong","featureType":"infrastructure","railClass":"minor","mode":"rail","name":"未命名","service":"siding","status":"operational","color":"#52636F","dataOrigin":"datum-2026-08-01","sourceKey":"way:1243608051"}},{"type":"Feature","geometry":{"type":"LineString","coordinates":[[114.7847469,22.847815],[114.7851413,22.8478183],[114.7868939,22.8478653],[114.7873294,22.8478602],[114.7923304,22.8477242],[114.792815,22.8476957],[114.7946333,22.8475731],[114.7954076,22.8475244]]},"properties":{"key":"way:1243608052@detail:459_91","osmType":"way","osmId":1243608052,"sourceRegion":"guangdong","featureType":"infrastructure","railClass":"minor","mode":"rail","name":"未命名","service":"yard","status":"operational","color":"#52636F","dataOrigin":"datum-2026-08-01","sourceKey":"way:1243608052"}},{"type":"Feature","geometry":{"type":"LineString","coordinates":[[114.7843525,22.8478118],[114.7847469,22.847815]]},"properties":{"key":"way:1243608053@detail:459_91","osmType":"way","osmId":1243608053,"sourceRegion":"guangdong","featureType":"infrastructure","railClass":"minor","mode":"rail","name":"未命名","service":"yard","bridge":"yes","status":"operational","color":"#52636F","dataOrigin":"datum-2026-08-01","sourceKey":"way:1243608053"}},{"type":"Feature","geometry":{"type":"LineString","coordinates":[[114.785507,22.8479763],[114.786559,22.8479479],[114.7931993,22.8477587],[114.7942744,22.8477469]]},"properties":{"key":"way:1243608054@detail:459_91","osmType":"way","osmId":1243608054,"sourceRegion":"guangdong","featureType":"infrastructure","railClass":"minor","mode":"rail","name":"未命名","service":"yard","status":"operational","color":"#52636F","dataOrigin":"datum-2026-08-01","sourceKey":"way:1243608054"}},{"type":"Feature","geometry":{"type":"LineString","coordinates":[[114.7851413,22.8478183],[114.7858542,22.8478999],[114.7861748,22.8479264],[114.786559,22.8479479]]},"properties":{"key":"way:1243608055@detail:459_91","osmType":"way","osmId":1243608055,"sourceRegion":"guangdong","featureType":"infrastructure","railClass":"minor","mode":"rail","name":"未命名","service":"yard","status":"operational","color":"#52636F","dataOrigin":"datum-2026-08-01","sourceKey":"way:1243608055"}},{"type":"Feature","geometry":{"type":"LineString","coordinates":[[114.7931993,22.8477587],[114.7935558,22.8477296],[114.793925,22.8476846],[114.7946333,22.8475731]]},"properties":{"key":"way:1243608056@detail:459_91","osmType":"way","osmId":1243608056,"sourceRegion":"guangdong","featureType":"infrastructure","railClass":"minor","mode":"rail","name":"未命名","service":"yard","status":"operational","color":"#52636F","dataOrigin":"datum-2026-08-01","sourceKey":"way:1243608056"}},{"type":"Feature","geometry":{"type":"LineString","coordinates":[[114.7956898,22.8475171],[114.7971238,22.8474264]]},"properties":{"key":"way:1243608057@detail:459_91","osmType":"way","osmId":1243608057,"sourceRegion":"guangdong","featureType":"infrastructure","railClass":"minor","mode":"rail","name":"未命名","service":"yard","status":"operational","color":"#52636F","dataOrigin":"datum-2026-08-01","sourceKey":"way:1243608057"}},{"type":"Feature","geometry":{"type":"LineString","coordinates":[[114.7986447,22.8473869],[114.8000715,22.8472997]]},"properties":{"key":"way:1243608058@detail:459_91","osmType":"way","osmId":1243608058,"sourceRegion":"guangdong","featureType":"infrastructure","railClass":"minor","mode":"rail","name":"未命名","service":"crossover","bridge":"yes","status":"operational","color":"#52636F","dataOrigin":"datum-2026-08-01","sourceKey":"way:1243608058"}},{"type":"Feature","geometry":{"type":"LineString","coordinates":[[114.7961147,22.8474051],[114.7951996,22.8473913],[114.7946427,22.8473958],[114.7861733,22.8476193],[114.785661,22.847649],[114.7849065,22.8477047]]},"properties":{"key":"way:1243608059@detail:459_91","osmType":"way","osmId":1243608059,"sourceRegion":"guangdong","featureType":"infrastructure","railClass":"minor","mode":"rail","name":"未命名","service":"yard","status":"operational","color":"#52636F","dataOrigin":"datum-2026-08-01","sourceKey":"way:1243608059"}},{"type":"Feature","geometry":{"type":"LineString","coordinates":[[114.77549,22.8484518],[114.7983534,22.847878]]},"properties":{"key":"way:1243631080@detail:459_91","osmType":"way","osmId":1243631080,"sourceRegion":"guangdong","featureType":"infrastructure","railClass":"construction","mode":"construction","name":"深汕高速线","usage":"main","highspeed":"yes","status":"construction","color":"#E54848","dataOrigin":"datum-2026-08-01","sourceKey":"way:1243631080"}},{"type":"Feature","geometry":{"type":"LineString","coordinates":[[114.7983534,22.847878],[114.8053028,22.8477893]]},"properties":{"key":"way:1243631081@detail:459_91","osmType":"way","osmId":1243631081,"sourceRegion":"guangdong","featureType":"infrastructure","railClass":"construction","mode":"construction","name":"深汕高速线","usage":"main","highspeed":"yes","bridge":"yes","status":"construction","color":"#E54848","dataOrigin":"datum-2026-08-01","sourceKey":"way:1243631081"}},{"type":"Feature","geometry":{"type":"LineString","coordinates":[[114.8114178,22.8476975],[114.8224958,22.8474647],[114.8245462,22.8473902],[114.8264614,22.8473038],[114.8282774,22.8471736],[114.8301743,22.8469675],[114.8317828,22.8467499],[114.8335208,22.8464435],[114.8352249,22.8460907],[114.8369503,22.8456812]]},"properties":{"key":"way:1243631082@detail:459_91","osmType":"way","osmId":1243631082,"sourceRegion":"guangdong","featureType":"infrastructure","railClass":"construction","mode":"construction","name":"深汕高速线","usage":"main","highspeed":"yes","tunnel":"yes","status":"construction","color":"#E54848","dataOrigin":"datum-2026-08-01","sourceKey":"way:1243631082"}},{"type":"Feature","geometry":{"type":"LineString","coordinates":[[114.8053028,22.8477893],[114.8114178,22.8476975]]},"properties":{"key":"way:1243631083@detail:459_91","osmType":"way","osmId":1243631083,"sourceRegion":"guangdong","featureType":"infrastructure","railClass":"construction","mode":"construction","name":"深汕高速线","usage":"main","highspeed":"yes","status":"construction","color":"#E54848","dataOrigin":"datum-2026-08-01","sourceKey":"way:1243631083"}},{"type":"Feature","geometry":{"type":"LineString","coordinates":[[114.8420948,22.8441423],[114.8447867,22.8432744]]},"properties":{"key":"way:1243631084@detail:459_91","osmType":"way","osmId":1243631084,"sourceRegion":"guangdong","featureType":"infrastructure","railClass":"construction","mode":"construction","name":"深汕高速线","usage":"main","highspeed":"yes","bridge":"yes","status":"construction","color":"#E54848","dataOrigin":"datum-2026-08-01","sourceKey":"way:1243631084"}},{"type":"Feature","geometry":{"type":"LineString","coordinates":[[114.8369503,22.8456812],[114.8388023,22.8451733]]},"properties":{"key":"way:1243631085@detail:459_91","osmType":"way","osmId":1243631085,"sourceRegion":"guangdong","featureType":"infrastructure","railClass":"construction","mode":"construction","name":"深汕高速线","usage":"main","highspeed":"yes","bridge":"yes","status":"construction","color":"#E54848","dataOrigin":"datum-2026-08-01","sourceKey":"way:1243631085"}},{"type":"Feature","geometry":{"type":"LineString","coordinates":[[114.8388023,22.8451733],[114.8420948,22.8441423]]},"properties":{"key":"way:1243631086@detail:459_91","osmType":"way","osmId":1243631086,"sourceRegion":"guangdong","featureType":"infrastructure","railClass":"construction","mode":"construction","name":"深汕高速线","usage":"main","highspeed":"yes","status":"construction","color":"#E54848","dataOrigin":"datum-2026-08-01","sourceKey":"way:1243631086"}},{"type":"Feature","geometry":{"type":"LineString","coordinates":[[114.8470213,22.8425951],[114.8495551,22.8419303],[114.852129,22.8413426],[114.854632,22.8408923],[114.8572098,22.840495],[114.8774317,22.8379156],[114.8801428,22.8376045],[114.8826443,22.83737],[114.8850517,22.8372416],[114.8874741,22.8372428],[114.8899122,22.8374017],[114.8925898,22.837701]]},"properties":{"key":"way:1243631087@detail:459_91","osmType":"way","osmId":1243631087,"sourceRegion":"guangdong","featureType":"infrastructure","railClass":"construction","mode":"construction","name":"深汕高速线","usage":"main","highspeed":"yes","tunnel":"yes","status":"construction","color":"#E54848","dataOrigin":"datum-2026-08-01","sourceKey":"way:1243631087"}},{"type":"Feature","geometry":{"type":"LineString","coordinates":[[114.8447867,22.8432744],[114.8470213,22.8425951]]},"properties":{"key":"way:1243631088@detail:459_91","osmType":"way","osmId":1243631088,"sourceRegion":"guangdong","featureType":"infrastructure","railClass":"construction","mode":"construction","name":"深汕高速线","usage":"main","highspeed":"yes","status":"construction","color":"#E54848","dataOrigin":"datum-2026-08-01","sourceKey":"way:1243631088"}},{"type":"Feature","geometry":{"type":"LineString","coordinates":[[114.8957716,22.83824],[114.8983211,22.8387959],[114.9006174,22.8393607],[114.9034253,22.8402132]]},"properties":{"key":"way:1243631089@detail:459_91","osmType":"way","osmId":1243631089,"sourceRegion":"guangdong","featureType":"infrastructure","railClass":"construction","mode":"construction","name":"深汕高速线","usage":"main","highspeed":"yes","bridge":"yes","status":"construction","color":"#E54848","dataOrigin":"datum-2026-08-01","sourceKey":"way:1243631089"}},{"type":"Feature","geometry":{"type":"LineString","coordinates":[[114.8925898,22.837701],[114.8957716,22.83824]]},"properties":{"key":"way:1243631090@detail:459_91","osmType":"way","osmId":1243631090,"sourceRegion":"guangdong","featureType":"infrastructure","railClass":"construction","mode":"construction","name":"深汕高速线","usage":"main","highspeed":"yes","status":"construction","color":"#E54848","dataOrigin":"datum-2026-08-01","sourceKey":"way:1243631090"}},{"type":"Feature","geometry":{"type":"LineString","coordinates":[[114.9229919,22.8477935],[114.9435861,22.8572291],[114.9455367,22.858047],[114.9475169,22.8588011],[114.9495239,22.8594839],[114.9516793,22.8601029],[114.9540401,22.8606855],[114.9565391,22.8612072],[114.9589443,22.8616471],[114.9779134,22.8647838]]},"properties":{"key":"way:1243631091@detail:459_91","osmType":"way","osmId":1243631091,"sourceRegion":"guangdong","featureType":"infrastructure","railClass":"construction","mode":"construction","name":"深汕高速线","usage":"main","highspeed":"yes","status":"construction","color":"#E54848","dataOrigin":"datum-2026-08-01","sourceKey":"way:1243631091"}},{"type":"Feature","geometry":{"type":"LineString","coordinates":[[114.9034253,22.8402132],[114.9185211,22.8459116]]},"properties":{"key":"way:1243631092@detail:459_91","osmType":"way","osmId":1243631092,"sourceRegion":"guangdong","featureType":"infrastructure","railClass":"construction","mode":"construction","name":"深汕高速线","usage":"main","highspeed":"yes","tunnel":"yes","status":"construction","color":"#E54848","dataOrigin":"datum-2026-08-01","sourceKey":"way:1243631092"}},{"type":"Feature","geometry":{"type":"LineString","coordinates":[[114.9185211,22.8459116],[114.9229919,22.8477935]]},"properties":{"key":"way:1243631093@detail:459_91","osmType":"way","osmId":1243631093,"sourceRegion":"guangdong","featureType":"infrastructure","railClass":"construction","mode":"construction","name":"深汕高速线","usage":"main","highspeed":"yes","bridge":"yes","status":"construction","color":"#E54848","dataOrigin":"datum-2026-08-01","sourceKey":"way:1243631093"}},{"type":"Feature","geometry":{"type":"LineString","coordinates":[[114.9944948,22.8674493],[114.9968579,22.8677143],[114.9988327,22.8678769],[115.0,22.867943187661]]},"properties":{"key":"way:1243631094@detail:459_91","osmType":"way","osmId":1243631094,"sourceRegion":"guangdong","featureType":"infrastructure","railClass":"construction","mode":"construction","name":"深汕高速线","usage":"main","highspeed":"yes","tunnel":"yes","status":"construction","color":"#E54848","dataOrigin":"datum-2026-08-01","sourceKey":"way:1243631094"}},{"type":"Feature","geometry":{"type":"LineString","coordinates":[[114.9779134,22.8647838],[114.9827726,22.8655764]]},"properties":{"key":"way:1243631095@detail:459_91","osmType":"way","osmId":1243631095,"sourceRegion":"guangdong","featureType":"infrastructure","railClass":"construction","mode":"construction","name":"深汕高速线","usage":"main","highspeed":"yes","bridge":"yes","status":"construction","color":"#E54848","dataOrigin":"datum-2026-08-01","sourceKey":"way:1243631095"}},{"type":"Feature","geometry":{"type":"LineString","coordinates":[[114.9827726,22.8655764],[114.9894569,22.8666808],[114.99128,22.866968],[114.9928406,22.8672158],[114.9944948,22.8674493]]},"properties":{"key":"way:1243631096@detail:459_91","osmType":"way","osmId":1243631096,"sourceRegion":"guangdong","featureType":"infrastructure","railClass":"construction","mode":"construction","name":"深汕高速线","usage":"main","highspeed":"yes","status":"construction","color":"#E54848","dataOrigin":"datum-2026-08-01","sourceKey":"way:1243631096"}},{"type":"Feature","geometry":{"type":"LineString","coordinates":[[114.7531082,22.850915],[114.7626893,22.8494894],[114.7652347,22.8491785],[114.7673936,22.8489448],[114.7696315,22.8487618],[114.7715402,22.8486196],[114.7734659,22.8485211],[114.77549,22.8484518]]},"properties":{"key":"way:1243634956@detail:459_91","osmType":"way","osmId":1243634956,"sourceRegion":"guangdong","featureType":"infrastructure","railClass":"construction","mode":"construction","name":"深汕高速线","usage":"main","highspeed":"yes","bridge":"yes","status":"construction","color":"#E54848","dataOrigin":"datum-2026-08-01","sourceKey":"way:1243634956"}},{"type":"Feature","geometry":{"type":"LineString","coordinates":[[114.75,22.85131821431005],[114.7515744,22.8511334],[114.7531082,22.850915]]},"properties":{"key":"way:1243634957@detail:459_91","osmType":"way","osmId":1243634957,"sourceRegion":"guangdong","featureType":"infrastructure","railClass":"construction","mode":"construction","name":"深汕高速线","usage":"main","highspeed":"yes","tunnel":"yes","status":"construction","color":"#E54848","dataOrigin":"datum-2026-08-01","sourceKey":"way:1243634957"}}]}