{"type":"FeatureCollection","features":[{"type":"Feature","geometry":{"type":"LineString","coordinates":[[114.79222973877802,23.75],[114.7919554,23.7497566]]},"properties":{"key":"way:960214913@detail:459_94","osmType":"way","osmId":960214913,"sourceRegion":"guangdong","featureType":"infrastructure","railClass":"highspeed","mode":"rail","name":"京港高速线","nameEn":"Jinggang High-Speed Line","ref":"3003","usage":"main","highspeed":"yes","bridge":"yes","status":"operational","color":"#E54848","dataOrigin":"datum-2026-08-01","sourceKey":"way:960214913"}},{"type":"Feature","geometry":{"type":"LineString","coordinates":[[114.7919554,23.7497566],[114.7772703,23.7364106],[114.75,23.707393158208653]]},"properties":{"key":"way:960214914@detail:459_94","osmType":"way","osmId":960214914,"sourceRegion":"guangdong","featureType":"infrastructure","railClass":"highspeed","mode":"rail","name":"京港高速线","nameEn":"Jinggang High-Speed Line","ref":"3003","usage":"main","highspeed":"yes","tunnel":"yes","status":"operational","color":"#E54848","dataOrigin":"datum-2026-08-01","sourceKey":"way:960214914"}}]}