{"type":"FeatureCollection","features":[{"type":"Feature","geometry":{"type":"Point","coordinates":[114.964419,24.4605355]},"properties":{"key":"node:2274076590","osmType":"node","osmId":2274076590,"sourceRegion":"guangdong","featureType":"station","railClass":"minor","mode":"station","name":"和平","nameEn":"Heping","status":"operational","color":"#52636F","dataOrigin":"datum-2026-08-01","sourceKey":"node:2274076590","stationGroup":"和平","hasOperationalRail":true,"hasConstructionRail":false}},{"type":"Feature","geometry":{"type":"Point","coordinates":[114.9647222,24.4603523]},"properties":{"key":"node:11741561275","osmType":"node","osmId":11741561275,"sourceRegion":"guangdong","featureType":"station","railClass":"minor","mode":"stop","name":"和平","nameEn":"Heping","status":"operational","color":"#52636F","dataOrigin":"datum-2026-08-01","sourceKey":"node:11741561275","stationGroup":"和平","hasOperationalRail":true,"hasConstructionRail":false}},{"type":"Feature","geometry":{"type":"Point","coordinates":[114.9648661,24.460308]},"properties":{"key":"node:11741561293","osmType":"node","osmId":11741561293,"sourceRegion":"guangdong","featureType":"station","railClass":"minor","mode":"stop","name":"和平","nameEn":"Heping","status":"operational","color":"#52636F","dataOrigin":"datum-2026-08-01","sourceKey":"node:11741561293","stationGroup":"和平","hasOperationalRail":true,"hasConstructionRail":false}},{"type":"Feature","geometry":{"type":"Point","coordinates":[114.9549294,24.4754863]},"properties":{"key":"node:12741513019","osmType":"node","osmId":12741513019,"sourceRegion":"guangdong","featureType":"station","railClass":"minor","mode":"station","name":"和平北","status":"operational","color":"#52636F","dataOrigin":"datum-2026-08-01","sourceKey":"node:12741513019","stationGroup":"和平北","hasOperationalRail":true,"hasConstructionRail":false}},{"type":"Feature","geometry":{"type":"Point","coordinates":[114.9649984,24.4602769]},"properties":{"key":"node:13094264487","osmType":"node","osmId":13094264487,"sourceRegion":"guangdong","featureType":"station","railClass":"minor","mode":"stop","name":"和平","nameEn":"Heping","status":"operational","color":"#52636F","dataOrigin":"datum-2026-08-01","sourceKey":"node:13094264487","stationGroup":"和平","hasOperationalRail":true,"hasConstructionRail":false}},{"type":"Feature","geometry":{"type":"LineString","coordinates":[[114.9602388,24.4521471],[114.9601918,24.4518547],[114.9601572,24.4515254],[114.9601436,24.4512431],[114.9601471,24.4509645],[114.9601583,24.4506339],[114.9602039,24.4502769]]},"properties":{"key":"way:27884525@detail:459_97","osmType":"way","osmId":27884525,"sourceRegion":"guangdong","featureType":"infrastructure","railClass":"national","mode":"rail","name":"京九线","nameEn":"Jingjiu Line","ref":"0005","usage":"main","bridge":"yes","status":"operational","color":"#E54848","dataOrigin":"datum-2026-08-01","sourceKey":"way:27884525"}},{"type":"Feature","geometry":{"type":"LineString","coordinates":[[114.9878549,24.3926862],[114.9878982,24.3924766]]},"properties":{"key":"way:218124190@detail:459_97","osmType":"way","osmId":218124190,"sourceRegion":"guangdong","featureType":"infrastructure","railClass":"national","mode":"rail","name":"京九线","nameEn":"Jingjiu Line","ref":"0005","usage":"main","status":"operational","color":"#E54848","dataOrigin":"datum-2026-08-01","sourceKey":"way:218124190"}},{"type":"Feature","geometry":{"type":"LineString","coordinates":[[114.9684989,24.4794876],[114.9684767,24.4788488]]},"properties":{"key":"way:218124191@detail:459_97","osmType":"way","osmId":218124191,"sourceRegion":"guangdong","featureType":"infrastructure","railClass":"national","mode":"rail","name":"京九线","nameEn":"Jingjiu Line","ref":"0005","usage":"main","status":"operational","color":"#E54848","dataOrigin":"datum-2026-08-01","sourceKey":"way:218124191"}},{"type":"Feature","geometry":{"type":"LineString","coordinates":[[114.9888213,24.3890146],[114.9889268,24.3886905]]},"properties":{"key":"way:218124192@detail:459_97","osmType":"way","osmId":218124192,"sourceRegion":"guangdong","featureType":"infrastructure","railClass":"national","mode":"rail","name":"京九线","nameEn":"Jingjiu Line","ref":"0005","usage":"main","status":"operational","color":"#E54848","dataOrigin":"datum-2026-08-01","sourceKey":"way:218124192"}},{"type":"Feature","geometry":{"type":"LineString","coordinates":[[114.9792179,24.4146833],[114.9793355,24.4142459]]},"properties":{"key":"way:218124193@detail:459_97","osmType":"way","osmId":218124193,"sourceRegion":"guangdong","featureType":"infrastructure","railClass":"national","mode":"rail","name":"京九线","nameEn":"Jingjiu Line","ref":"0005","usage":"main","status":"operational","color":"#E54848","dataOrigin":"datum-2026-08-01","sourceKey":"way:218124193"}},{"type":"Feature","geometry":{"type":"LineString","coordinates":[[114.9675322,24.4726688],[114.967472,24.4722091]]},"properties":{"key":"way:218124194@detail:459_97","osmType":"way","osmId":218124194,"sourceRegion":"guangdong","featureType":"infrastructure","railClass":"national","mode":"rail","name":"京九线","nameEn":"Jingjiu Line","ref":"0005","usage":"main","status":"operational","color":"#E54848","dataOrigin":"datum-2026-08-01","sourceKey":"way:218124194"}},{"type":"Feature","geometry":{"type":"LineString","coordinates":[[114.9684106,24.4869077],[114.9684729,24.485174]]},"properties":{"key":"way:218124195@detail:459_97","osmType":"way","osmId":218124195,"sourceRegion":"guangdong","featureType":"infrastructure","railClass":"national","mode":"rail","name":"京九线","nameEn":"Jingjiu Line","ref":"0005","usage":"main","tunnel":"yes","status":"operational","color":"#E54848","dataOrigin":"datum-2026-08-01","sourceKey":"way:218124195"}},{"type":"Feature","geometry":{"type":"LineString","coordinates":[[114.9885078,24.3901903],[114.9888213,24.3890146]]},"properties":{"key":"way:218124197@detail:459_97","osmType":"way","osmId":218124197,"sourceRegion":"guangdong","featureType":"infrastructure","railClass":"national","mode":"rail","name":"京九线","nameEn":"Jingjiu Line","ref":"0005","usage":"main","bridge":"yes","status":"operational","color":"#E54848","dataOrigin":"datum-2026-08-01","sourceKey":"way:218124197"}},{"type":"Feature","geometry":{"type":"LineString","coordinates":[[114.966947,24.4694968],[114.9667502,24.4686348]]},"properties":{"key":"way:218124198@detail:459_97","osmType":"way","osmId":218124198,"sourceRegion":"guangdong","featureType":"infrastructure","railClass":"minor","mode":"rail","name":"未命名","service":"yard","status":"operational","color":"#52636F","dataOrigin":"datum-2026-08-01","sourceKey":"way:218124198"}},{"type":"Feature","geometry":{"type":"LineString","coordinates":[[114.9793355,24.4142459],[114.9797212,24.4129019]]},"properties":{"key":"way:218124200@detail:459_97","osmType":"way","osmId":218124200,"sourceRegion":"guangdong","featureType":"infrastructure","railClass":"national","mode":"rail","name":"京九线","nameEn":"Jingjiu Line","ref":"0005","usage":"main","bridge":"yes","status":"operational","color":"#E54848","dataOrigin":"datum-2026-08-01","sourceKey":"way:218124200"}},{"type":"Feature","geometry":{"type":"LineString","coordinates":[[114.9678819,24.4747644],[114.9676868,24.4735983]]},"properties":{"key":"way:218124201@detail:459_97","osmType":"way","osmId":218124201,"sourceRegion":"guangdong","featureType":"infrastructure","railClass":"national","mode":"rail","name":"京九线","nameEn":"Jingjiu Line","ref":"0005","usage":"main","status":"operational","color":"#E54848","dataOrigin":"datum-2026-08-01","sourceKey":"way:218124201"}},{"type":"Feature","geometry":{"type":"LineString","coordinates":[[114.968183,24.4890331],[114.9683446,24.4875454]]},"properties":{"key":"way:218124202@detail:459_97","osmType":"way","osmId":218124202,"sourceRegion":"guangdong","featureType":"infrastructure","railClass":"national","mode":"rail","name":"京九线","nameEn":"Jingjiu Line","ref":"0005","usage":"main","tunnel":"yes","status":"operational","color":"#E54848","dataOrigin":"datum-2026-08-01","sourceKey":"way:218124202"}},{"type":"Feature","geometry":{"type":"LineString","coordinates":[[114.9880967,24.3917321],[114.9885078,24.3901903]]},"properties":{"key":"way:218124204@detail:459_97","osmType":"way","osmId":218124204,"sourceRegion":"guangdong","featureType":"infrastructure","railClass":"national","mode":"rail","name":"京九线","nameEn":"Jingjiu Line","ref":"0005","usage":"main","status":"operational","color":"#E54848","dataOrigin":"datum-2026-08-01","sourceKey":"way:218124204"}},{"type":"Feature","geometry":{"type":"LineString","coordinates":[[114.9820229,24.4075231],[114.9824878,24.4065577]]},"properties":{"key":"way:218124205@detail:459_97","osmType":"way","osmId":218124205,"sourceRegion":"guangdong","featureType":"infrastructure","railClass":"national","mode":"rail","name":"京九线","nameEn":"Jingjiu Line","ref":"0005","usage":"main","status":"operational","color":"#E54848","dataOrigin":"datum-2026-08-01","sourceKey":"way:218124205"}},{"type":"Feature","geometry":{"type":"LineString","coordinates":[[114.9684672,24.4819531],[114.9684989,24.4794876]]},"properties":{"key":"way:218124206@detail:459_97","osmType":"way","osmId":218124206,"sourceRegion":"guangdong","featureType":"infrastructure","railClass":"national","mode":"rail","name":"京九线","nameEn":"Jingjiu Line","ref":"0005","usage":"main","tunnel":"yes","status":"operational","color":"#E54848","dataOrigin":"datum-2026-08-01","sourceKey":"way:218124206"}},{"type":"Feature","geometry":{"type":"LineString","coordinates":[[114.9837649,24.4024106],[114.9842697,24.4009106]]},"properties":{"key":"way:218124209@detail:459_97","osmType":"way","osmId":218124209,"sourceRegion":"guangdong","featureType":"infrastructure","railClass":"national","mode":"rail","name":"京九线","nameEn":"Jingjiu Line","ref":"0005","usage":"main","bridge":"yes","status":"operational","color":"#E54848","dataOrigin":"datum-2026-08-01","sourceKey":"way:218124209"}},{"type":"Feature","geometry":{"type":"LineString","coordinates":[[114.978927,24.4157646],[114.9792179,24.4146833]]},"properties":{"key":"way:218124210@detail:459_97","osmType":"way","osmId":218124210,"sourceRegion":"guangdong","featureType":"infrastructure","railClass":"national","mode":"rail","name":"京九线","nameEn":"Jingjiu Line","ref":"0005","usage":"main","tunnel":"yes","status":"operational","color":"#E54848","dataOrigin":"datum-2026-08-01","sourceKey":"way:218124210"}},{"type":"Feature","geometry":{"type":"LineString","coordinates":[[114.9602039,24.4502769],[114.9602414,24.4500464]]},"properties":{"key":"way:218124211@detail:459_97","osmType":"way","osmId":218124211,"sourceRegion":"guangdong","featureType":"infrastructure","railClass":"national","mode":"rail","name":"京九线","nameEn":"Jingjiu Line","ref":"0005","usage":"main","status":"operational","color":"#E54848","dataOrigin":"datum-2026-08-01","sourceKey":"way:218124211"}},{"type":"Feature","geometry":{"type":"LineString","coordinates":[[114.9683446,24.4875454],[114.9684106,24.4869077]]},"properties":{"key":"way:218124212@detail:459_97","osmType":"way","osmId":218124212,"sourceRegion":"guangdong","featureType":"infrastructure","railClass":"national","mode":"rail","name":"京九线","nameEn":"Jingjiu Line","ref":"0005","usage":"main","status":"operational","color":"#E54848","dataOrigin":"datum-2026-08-01","sourceKey":"way:218124212"}},{"type":"Feature","geometry":{"type":"LineString","coordinates":[[114.9736953,24.4333611],[114.9740057,24.4321466]]},"properties":{"key":"way:218124214@detail:459_97","osmType":"way","osmId":218124214,"sourceRegion":"guangdong","featureType":"infrastructure","railClass":"national","mode":"rail","name":"京九线","nameEn":"Jingjiu Line","ref":"0005","usage":"main","status":"operational","color":"#E54848","dataOrigin":"datum-2026-08-01","sourceKey":"way:218124214"}},{"type":"Feature","geometry":{"type":"LineString","coordinates":[[114.9754828,24.4250801],[114.9755731,24.4246375]]},"properties":{"key":"way:218124216@detail:459_97","osmType":"way","osmId":218124216,"sourceRegion":"guangdong","featureType":"infrastructure","railClass":"national","mode":"rail","name":"京九线","nameEn":"Jingjiu Line","ref":"0005","usage":"main","status":"operational","color":"#E54848","dataOrigin":"datum-2026-08-01","sourceKey":"way:218124216"}},{"type":"Feature","geometry":{"type":"LineString","coordinates":[[114.967472,24.4722091],[114.9672659,24.4708274]]},"properties":{"key":"way:218124217@detail:459_97","osmType":"way","osmId":218124217,"sourceRegion":"guangdong","featureType":"infrastructure","railClass":"national","mode":"rail","name":"京九线","nameEn":"Jingjiu Line","ref":"0005","usage":"main","bridge":"yes","status":"operational","color":"#E54848","dataOrigin":"datum-2026-08-01","sourceKey":"way:218124217"}},{"type":"Feature","geometry":{"type":"LineString","coordinates":[[114.9684556,24.4846214],[114.9684822,24.4830313]]},"properties":{"key":"way:218124218@detail:459_97","osmType":"way","osmId":218124218,"sourceRegion":"guangdong","featureType":"infrastructure","railClass":"national","mode":"rail","name":"京九线","nameEn":"Jingjiu Line","ref":"0005","usage":"main","tunnel":"yes","status":"operational","color":"#E54848","dataOrigin":"datum-2026-08-01","sourceKey":"way:218124218"}},{"type":"Feature","geometry":{"type":"LineString","coordinates":[[114.9889268,24.3886905],[114.9892196,24.3878085]]},"properties":{"key":"way:218124219@detail:459_97","osmType":"way","osmId":218124219,"sourceRegion":"guangdong","featureType":"infrastructure","railClass":"national","mode":"rail","name":"京九线","nameEn":"Jingjiu Line","ref":"0005","usage":"main","bridge":"yes","status":"operational","color":"#E54848","dataOrigin":"datum-2026-08-01","sourceKey":"way:218124219"}},{"type":"Feature","geometry":{"type":"LineString","coordinates":[[114.9843521,24.4006794],[114.9849159,24.3995303]]},"properties":{"key":"way:218124221@detail:459_97","osmType":"way","osmId":218124221,"sourceRegion":"guangdong","featureType":"infrastructure","railClass":"national","mode":"rail","name":"京九线","nameEn":"Jingjiu Line","ref":"0005","usage":"main","bridge":"yes","status":"operational","color":"#E54848","dataOrigin":"datum-2026-08-01","sourceKey":"way:218124221"}},{"type":"Feature","geometry":{"type":"LineString","coordinates":[[114.9681941,24.4764357],[114.9678819,24.4747644]]},"properties":{"key":"way:218124222@detail:459_97","osmType":"way","osmId":218124222,"sourceRegion":"guangdong","featureType":"infrastructure","railClass":"national","mode":"rail","name":"京九线","nameEn":"Jingjiu Line","ref":"0005","usage":"main","tunnel":"yes","status":"operational","color":"#E54848","dataOrigin":"datum-2026-08-01","sourceKey":"way:218124222"}},{"type":"Feature","geometry":{"type":"LineString","coordinates":[[114.9878982,24.3924766],[114.9880967,24.3917321]]},"properties":{"key":"way:218124224@detail:459_97","osmType":"way","osmId":218124224,"sourceRegion":"guangdong","featureType":"infrastructure","railClass":"national","mode":"rail","name":"京九线","nameEn":"Jingjiu Line","ref":"0005","usage":"main","tunnel":"yes","status":"operational","color":"#E54848","dataOrigin":"datum-2026-08-01","sourceKey":"way:218124224"}},{"type":"Feature","geometry":{"type":"LineString","coordinates":[[114.9811603,24.409041],[114.9820229,24.4075231]]},"properties":{"key":"way:218124225@detail:459_97","osmType":"way","osmId":218124225,"sourceRegion":"guangdong","featureType":"infrastructure","railClass":"national","mode":"rail","name":"京九线","nameEn":"Jingjiu Line","ref":"0005","usage":"main","tunnel":"yes","status":"operational","color":"#E54848","dataOrigin":"datum-2026-08-01","sourceKey":"way:218124225"}},{"type":"Feature","geometry":{"type":"LineString","coordinates":[[114.9684822,24.4830313],[114.9684672,24.4819531]]},"properties":{"key":"way:218124226@detail:459_97","osmType":"way","osmId":218124226,"sourceRegion":"guangdong","featureType":"infrastructure","railClass":"national","mode":"rail","name":"京九线","nameEn":"Jingjiu Line","ref":"0005","usage":"main","status":"operational","color":"#E54848","dataOrigin":"datum-2026-08-01","sourceKey":"way:218124226"}},{"type":"Feature","geometry":{"type":"LineString","coordinates":[[114.9842697,24.4009106],[114.9843521,24.4006794]]},"properties":{"key":"way:218124229@detail:459_97","osmType":"way","osmId":218124229,"sourceRegion":"guangdong","featureType":"infrastructure","railClass":"national","mode":"rail","name":"京九线","nameEn":"Jingjiu Line","ref":"0005","usage":"main","status":"operational","color":"#E54848","dataOrigin":"datum-2026-08-01","sourceKey":"way:218124229"}},{"type":"Feature","geometry":{"type":"LineString","coordinates":[[114.9684767,24.4788488],[114.9683232,24.4772986]]},"properties":{"key":"way:218124230@detail:459_97","osmType":"way","osmId":218124230,"sourceRegion":"guangdong","featureType":"infrastructure","railClass":"national","mode":"rail","name":"京九线","nameEn":"Jingjiu Line","ref":"0005","usage":"main","tunnel":"yes","status":"operational","color":"#E54848","dataOrigin":"datum-2026-08-01","sourceKey":"way:218124230"}},{"type":"Feature","geometry":{"type":"LineString","coordinates":[[114.9733568,24.4347345],[114.9736953,24.4333611]]},"properties":{"key":"way:218124232@detail:459_97","osmType":"way","osmId":218124232,"sourceRegion":"guangdong","featureType":"infrastructure","railClass":"national","mode":"rail","name":"京九线","nameEn":"Jingjiu Line","ref":"0005","usage":"main","bridge":"yes","status":"operational","color":"#E54848","dataOrigin":"datum-2026-08-01","sourceKey":"way:218124232"}},{"type":"Feature","geometry":{"type":"LineString","coordinates":[[114.9684729,24.485174],[114.9684556,24.4846214]]},"properties":{"key":"way:218124233@detail:459_97","osmType":"way","osmId":218124233,"sourceRegion":"guangdong","featureType":"infrastructure","railClass":"national","mode":"rail","name":"京九线","nameEn":"Jingjiu Line","ref":"0005","usage":"main","status":"operational","color":"#E54848","dataOrigin":"datum-2026-08-01","sourceKey":"way:218124233"}},{"type":"Feature","geometry":{"type":"LineString","coordinates":[[114.9849159,24.3995303],[114.9865082,24.396731]]},"properties":{"key":"way:218124234@detail:459_97","osmType":"way","osmId":218124234,"sourceRegion":"guangdong","featureType":"infrastructure","railClass":"national","mode":"rail","name":"京九线","nameEn":"Jingjiu Line","ref":"0005","usage":"main","status":"operational","color":"#E54848","dataOrigin":"datum-2026-08-01","sourceKey":"way:218124234"}},{"type":"Feature","geometry":{"type":"LineString","coordinates":[[114.9746967,24.4288994],[114.9747939,24.4283002]]},"properties":{"key":"way:218124235@detail:459_97","osmType":"way","osmId":218124235,"sourceRegion":"guangdong","featureType":"infrastructure","railClass":"national","mode":"rail","name":"京九线","nameEn":"Jingjiu Line","ref":"0005","usage":"main","status":"operational","color":"#E54848","dataOrigin":"datum-2026-08-01","sourceKey":"way:218124235"}},{"type":"Feature","geometry":{"type":"LineString","coordinates":[[114.9769289,24.4203731],[114.9777878,24.4189032]]},"properties":{"key":"way:218124236@detail:459_97","osmType":"way","osmId":218124236,"sourceRegion":"guangdong","featureType":"infrastructure","railClass":"national","mode":"rail","name":"京九线","nameEn":"Jingjiu Line","ref":"0005","usage":"main","status":"operational","color":"#E54848","dataOrigin":"datum-2026-08-01","sourceKey":"way:218124236"}},{"type":"Feature","geometry":{"type":"LineString","coordinates":[[114.9683232,24.4772986],[114.9681941,24.4764357]]},"properties":{"key":"way:218124237@detail:459_97","osmType":"way","osmId":218124237,"sourceRegion":"guangdong","featureType":"infrastructure","railClass":"national","mode":"rail","name":"京九线","nameEn":"Jingjiu Line","ref":"0005","usage":"main","status":"operational","color":"#E54848","dataOrigin":"datum-2026-08-01","sourceKey":"way:218124237"}},{"type":"Feature","geometry":{"type":"LineString","coordinates":[[114.9679668,24.4929557],[114.967985,24.4919979]]},"properties":{"key":"way:218124238@detail:459_97","osmType":"way","osmId":218124238,"sourceRegion":"guangdong","featureType":"infrastructure","railClass":"national","mode":"rail","name":"京九线","nameEn":"Jingjiu Line","ref":"0005","usage":"main","bridge":"yes","status":"operational","color":"#E54848","dataOrigin":"datum-2026-08-01","sourceKey":"way:218124238"}},{"type":"Feature","geometry":{"type":"LineString","coordinates":[[114.9876836,24.3935154],[114.9878549,24.3926862]]},"properties":{"key":"way:218124240@detail:459_97","osmType":"way","osmId":218124240,"sourceRegion":"guangdong","featureType":"infrastructure","railClass":"national","mode":"rail","name":"京九线","nameEn":"Jingjiu Line","ref":"0005","usage":"main","bridge":"yes","status":"operational","color":"#E54848","dataOrigin":"datum-2026-08-01","sourceKey":"way:218124240"}},{"type":"Feature","geometry":{"type":"LineString","coordinates":[[114.9721703,24.4372373],[114.9728708,24.4361841]]},"properties":{"key":"way:218124242@detail:459_97","osmType":"way","osmId":218124242,"sourceRegion":"guangdong","featureType":"infrastructure","railClass":"national","mode":"rail","name":"京九线","nameEn":"Jingjiu Line","ref":"0005","usage":"main","tunnel":"yes","status":"operational","color":"#E54848","dataOrigin":"datum-2026-08-01","sourceKey":"way:218124242"}},{"type":"Feature","geometry":{"type":"LineString","coordinates":[[114.9676868,24.4735983],[114.9675322,24.4726688]]},"properties":{"key":"way:218124243@detail:459_97","osmType":"way","osmId":218124243,"sourceRegion":"guangdong","featureType":"infrastructure","railClass":"national","mode":"rail","name":"京九线","nameEn":"Jingjiu Line","ref":"0005","usage":"main","tunnel":"yes","status":"operational","color":"#E54848","dataOrigin":"datum-2026-08-01","sourceKey":"way:218124243"}},{"type":"Feature","geometry":{"type":"LineString","coordinates":[[114.9777878,24.4189032],[114.9781043,24.4182548],[114.9784066,24.4175292]]},"properties":{"key":"way:218124246@detail:459_97","osmType":"way","osmId":218124246,"sourceRegion":"guangdong","featureType":"infrastructure","railClass":"national","mode":"rail","name":"京九线","nameEn":"Jingjiu Line","ref":"0005","usage":"main","bridge":"yes","status":"operational","color":"#E54848","dataOrigin":"datum-2026-08-01","sourceKey":"way:218124246"}},{"type":"Feature","geometry":{"type":"LineString","coordinates":[[114.9865082,24.396731],[114.9870501,24.3956514],[114.9872384,24.3951102]]},"properties":{"key":"way:218124248@detail:459_97","osmType":"way","osmId":218124248,"sourceRegion":"guangdong","featureType":"infrastructure","railClass":"national","mode":"rail","name":"京九线","nameEn":"Jingjiu Line","ref":"0005","usage":"main","bridge":"yes","status":"operational","color":"#E54848","dataOrigin":"datum-2026-08-01","sourceKey":"way:218124248"}},{"type":"Feature","geometry":{"type":"LineString","coordinates":[[114.9830812,24.404637],[114.9833294,24.4038431],[114.9837649,24.4024106]]},"properties":{"key":"way:218124249@detail:459_97","osmType":"way","osmId":218124249,"sourceRegion":"guangdong","featureType":"infrastructure","railClass":"national","mode":"rail","name":"京九线","nameEn":"Jingjiu Line","ref":"0005","usage":"main","status":"operational","color":"#E54848","dataOrigin":"datum-2026-08-01","sourceKey":"way:218124249"}},{"type":"Feature","geometry":{"type":"LineString","coordinates":[[114.9740057,24.4321466],[114.9745019,24.4300018],[114.9746967,24.4288994]]},"properties":{"key":"way:218124250@detail:459_97","osmType":"way","osmId":218124250,"sourceRegion":"guangdong","featureType":"infrastructure","railClass":"national","mode":"rail","name":"京九线","nameEn":"Jingjiu Line","ref":"0005","usage":"main","bridge":"yes","status":"operational","color":"#E54848","dataOrigin":"datum-2026-08-01","sourceKey":"way:218124250"}},{"type":"Feature","geometry":{"type":"LineString","coordinates":[[114.9728708,24.4361841],[114.9732118,24.4352645],[114.9733568,24.4347345]]},"properties":{"key":"way:218124252@detail:459_97","osmType":"way","osmId":218124252,"sourceRegion":"guangdong","featureType":"infrastructure","railClass":"national","mode":"rail","name":"京九线","nameEn":"Jingjiu Line","ref":"0005","usage":"main","status":"operational","color":"#E54848","dataOrigin":"datum-2026-08-01","sourceKey":"way:218124252"}},{"type":"Feature","geometry":{"type":"LineString","coordinates":[[114.9824878,24.4065577],[114.9827632,24.4058093],[114.9830812,24.404637]]},"properties":{"key":"way:218124254@detail:459_97","osmType":"way","osmId":218124254,"sourceRegion":"guangdong","featureType":"infrastructure","railClass":"national","mode":"rail","name":"京九线","nameEn":"Jingjiu Line","ref":"0005","usage":"main","tunnel":"yes","status":"operational","color":"#E54848","dataOrigin":"datum-2026-08-01","sourceKey":"way:218124254"}},{"type":"Feature","geometry":{"type":"LineString","coordinates":[[114.967985,24.4919979],[114.968016,24.490364],[114.968183,24.4890331]]},"properties":{"key":"way:218124255@detail:459_97","osmType":"way","osmId":218124255,"sourceRegion":"guangdong","featureType":"infrastructure","railClass":"national","mode":"rail","name":"京九线","nameEn":"Jingjiu Line","ref":"0005","usage":"main","status":"operational","color":"#E54848","dataOrigin":"datum-2026-08-01","sourceKey":"way:218124255"}},{"type":"Feature","geometry":{"type":"LineString","coordinates":[[114.9707674,24.43883],[114.971388,24.438172],[114.9721703,24.4372373]]},"properties":{"key":"way:218124257@detail:459_97","osmType":"way","osmId":218124257,"sourceRegion":"guangdong","featureType":"infrastructure","railClass":"national","mode":"rail","name":"京九线","nameEn":"Jingjiu Line","ref":"0005","usage":"main","status":"operational","color":"#E54848","dataOrigin":"datum-2026-08-01","sourceKey":"way:218124257"}},{"type":"Feature","geometry":{"type":"LineString","coordinates":[[114.9784066,24.4175292],[114.9786476,24.4168212],[114.978927,24.4157646]]},"properties":{"key":"way:218124259@detail:459_97","osmType":"way","osmId":218124259,"sourceRegion":"guangdong","featureType":"infrastructure","railClass":"national","mode":"rail","name":"京九线","nameEn":"Jingjiu Line","ref":"0005","usage":"main","status":"operational","color":"#E54848","dataOrigin":"datum-2026-08-01","sourceKey":"way:218124259"}},{"type":"Feature","geometry":{"type":"LineString","coordinates":[[114.9872384,24.3951102],[114.987461,24.394395],[114.9876836,24.3935154]]},"properties":{"key":"way:218124260@detail:459_97","osmType":"way","osmId":218124260,"sourceRegion":"guangdong","featureType":"infrastructure","railClass":"national","mode":"rail","name":"京九线","nameEn":"Jingjiu Line","ref":"0005","usage":"main","status":"operational","color":"#E54848","dataOrigin":"datum-2026-08-01","sourceKey":"way:218124260"}},{"type":"Feature","geometry":{"type":"LineString","coordinates":[[114.9747939,24.4283002],[114.9750763,24.426854],[114.9754828,24.4250801]]},"properties":{"key":"way:218124261@detail:459_97","osmType":"way","osmId":218124261,"sourceRegion":"guangdong","featureType":"infrastructure","railClass":"national","mode":"rail","name":"京九线","nameEn":"Jingjiu Line","ref":"0005","usage":"main","tunnel":"yes","status":"operational","color":"#E54848","dataOrigin":"datum-2026-08-01","sourceKey":"way:218124261"}},{"type":"Feature","geometry":{"type":"LineString","coordinates":[[114.9668069,24.4686275],[114.9669963,24.4694812],[114.9672659,24.4708274]]},"properties":{"key":"way:218124262@detail:459_97","osmType":"way","osmId":218124262,"sourceRegion":"guangdong","featureType":"infrastructure","railClass":"national","mode":"rail","name":"京九线","nameEn":"Jingjiu Line","ref":"0005","usage":"main","status":"operational","color":"#E54848","dataOrigin":"datum-2026-08-01","sourceKey":"way:218124262"}},{"type":"Feature","geometry":{"type":"LineString","coordinates":[[114.9614562,24.4546481],[114.9612164,24.4543037],[114.9610623,24.4540689],[114.9609187,24.453841],[114.9607578,24.4535626],[114.96065,24.4533533],[114.9605072,24.4530265]]},"properties":{"key":"way:218124265@detail:459_97","osmType":"way","osmId":218124265,"sourceRegion":"guangdong","featureType":"infrastructure","railClass":"national","mode":"rail","name":"京九线","nameEn":"Jingjiu Line","ref":"0005","usage":"main","bridge":"yes","status":"operational","color":"#E54848","dataOrigin":"datum-2026-08-01","sourceKey":"way:218124265"}},{"type":"Feature","geometry":{"type":"LineString","coordinates":[[114.9755731,24.4246375],[114.9759892,24.4228478],[114.9764171,24.4215077],[114.9769289,24.4203731]]},"properties":{"key":"way:218124266@detail:459_97","osmType":"way","osmId":218124266,"sourceRegion":"guangdong","featureType":"infrastructure","railClass":"national","mode":"rail","name":"京九线","nameEn":"Jingjiu Line","ref":"0005","usage":"main","tunnel":"yes","status":"operational","color":"#E54848","dataOrigin":"datum-2026-08-01","sourceKey":"way:218124266"}},{"type":"Feature","geometry":{"type":"LineString","coordinates":[[114.9676829,24.4986916],[114.967635,24.497974],[114.967943,24.494206],[114.9679668,24.4929557]]},"properties":{"key":"way:218124267@detail:459_97","osmType":"way","osmId":218124267,"sourceRegion":"guangdong","featureType":"infrastructure","railClass":"national","mode":"rail","name":"京九线","nameEn":"Jingjiu Line","ref":"0005","usage":"main","status":"operational","color":"#E54848","dataOrigin":"datum-2026-08-01","sourceKey":"way:218124267"}},{"type":"Feature","geometry":{"type":"LineString","coordinates":[[114.9605072,24.4530265],[114.9604118,24.4527752],[114.9603387,24.4525583],[114.9602828,24.45235],[114.9602388,24.4521471]]},"properties":{"key":"way:218124270@detail:459_97","osmType":"way","osmId":218124270,"sourceRegion":"guangdong","featureType":"infrastructure","railClass":"national","mode":"rail","name":"京九线","nameEn":"Jingjiu Line","ref":"0005","usage":"main","status":"operational","color":"#E54848","dataOrigin":"datum-2026-08-01","sourceKey":"way:218124270"}},{"type":"Feature","geometry":{"type":"LineString","coordinates":[[114.96790935453218,24.5],[114.9677862,24.4993455],[114.9676829,24.4986916]]},"properties":{"key":"way:218124273@detail:459_97","osmType":"way","osmId":218124273,"sourceRegion":"guangdong","featureType":"infrastructure","railClass":"national","mode":"rail","name":"京九线","nameEn":"Jingjiu Line","ref":"0005","usage":"main","bridge":"yes","status":"operational","color":"#E54848","dataOrigin":"datum-2026-08-01","sourceKey":"way:218124273"}},{"type":"Feature","geometry":{"type":"LineString","coordinates":[[114.9797212,24.4129019],[114.9801435,24.4114555],[114.9803946,24.4105843],[114.9807095,24.4098811],[114.9811603,24.409041]]},"properties":{"key":"way:218124274@detail:459_97","osmType":"way","osmId":218124274,"sourceRegion":"guangdong","featureType":"infrastructure","railClass":"national","mode":"rail","name":"京九线","nameEn":"Jingjiu Line","ref":"0005","usage":"main","status":"operational","color":"#E54848","dataOrigin":"datum-2026-08-01","sourceKey":"way:218124274"}},{"type":"Feature","geometry":{"type":"LineString","coordinates":[[114.9623175,24.4559627],[114.9625401,24.4563131],[114.9628553,24.4567672],[114.9632536,24.4573434],[114.9636912,24.4579922],[114.9639443,24.4584006],[114.9641776,24.4588352],[114.9643762,24.4592603],[114.9645089,24.4595823],[114.9646552,24.4599728],[114.964769,24.4603318],[114.9648589,24.4606565],[114.9649656,24.4611004],[114.9657303,24.4643124],[114.9657613,24.4644422]]},"properties":{"key":"way:218124276@detail:459_97","osmType":"way","osmId":218124276,"sourceRegion":"guangdong","featureType":"infrastructure","railClass":"minor","mode":"rail","name":"未命名","service":"siding","status":"operational","color":"#52636F","dataOrigin":"datum-2026-08-01","sourceKey":"way:218124276"}},{"type":"Feature","geometry":{"type":"LineString","coordinates":[[114.9602414,24.4500464],[114.9603327,24.4496877],[114.9605,24.4492153],[114.9607523,24.4486171],[114.9615269,24.4475022],[114.9637312,24.4452708],[114.9690549,24.4404577],[114.9707674,24.43883]]},"properties":{"key":"way:218124277@detail:459_97","osmType":"way","osmId":218124277,"sourceRegion":"guangdong","featureType":"infrastructure","railClass":"national","mode":"rail","name":"京九线","nameEn":"Jingjiu Line","ref":"0005","usage":"main","tunnel":"yes","status":"operational","color":"#E54848","dataOrigin":"datum-2026-08-01","sourceKey":"way:218124277"}},{"type":"Feature","geometry":{"type":"LineString","coordinates":[[114.9892196,24.3878085],[114.9897479,24.386398],[114.9904798,24.3845256]]},"properties":{"key":"way:218124278@detail:459_97","osmType":"way","osmId":218124278,"sourceRegion":"guangdong","featureType":"infrastructure","railClass":"national","mode":"rail","name":"京九线","nameEn":"Jingjiu Line","ref":"0005","usage":"main","status":"operational","color":"#E54848","dataOrigin":"datum-2026-08-01","sourceKey":"way:218124278"}},{"type":"Feature","geometry":{"type":"LineString","coordinates":[[114.9981633,24.3744408],[114.9995597,24.3737085]]},"properties":{"key":"way:218124587@detail:459_97","osmType":"way","osmId":218124587,"sourceRegion":"guangdong","featureType":"infrastructure","railClass":"national","mode":"rail","name":"京九线","nameEn":"Jingjiu Line","ref":"0005","usage":"main","bridge":"yes","status":"operational","color":"#E54848","dataOrigin":"datum-2026-08-01","sourceKey":"way:218124587"}},{"type":"Feature","geometry":{"type":"LineString","coordinates":[[114.9908466,24.383528],[114.9910892,24.3828892]]},"properties":{"key":"way:218124595@detail:459_97","osmType":"way","osmId":218124595,"sourceRegion":"guangdong","featureType":"infrastructure","railClass":"national","mode":"rail","name":"京九线","nameEn":"Jingjiu Line","ref":"0005","usage":"main","status":"operational","color":"#E54848","dataOrigin":"datum-2026-08-01","sourceKey":"way:218124595"}},{"type":"Feature","geometry":{"type":"LineString","coordinates":[[114.9904798,24.3845256],[114.9908466,24.383528]]},"properties":{"key":"way:218124596@detail:459_97","osmType":"way","osmId":218124596,"sourceRegion":"guangdong","featureType":"infrastructure","railClass":"national","mode":"rail","name":"京九线","nameEn":"Jingjiu Line","ref":"0005","usage":"main","bridge":"yes","status":"operational","color":"#E54848","dataOrigin":"datum-2026-08-01","sourceKey":"way:218124596"}},{"type":"Feature","geometry":{"type":"LineString","coordinates":[[114.9910892,24.3828892],[114.9913895,24.3820983]]},"properties":{"key":"way:218124597@detail:459_97","osmType":"way","osmId":218124597,"sourceRegion":"guangdong","featureType":"infrastructure","railClass":"national","mode":"rail","name":"京九线","nameEn":"Jingjiu Line","ref":"0005","usage":"main","tunnel":"yes","status":"operational","color":"#E54848","dataOrigin":"datum-2026-08-01","sourceKey":"way:218124597"}},{"type":"Feature","geometry":{"type":"LineString","coordinates":[[114.9995597,24.3737085],[115.0,24.37348413480569]]},"properties":{"key":"way:218124598@detail:459_97","osmType":"way","osmId":218124598,"sourceRegion":"guangdong","featureType":"infrastructure","railClass":"national","mode":"rail","name":"京九线","nameEn":"Jingjiu Line","ref":"0005","usage":"main","status":"operational","color":"#E54848","dataOrigin":"datum-2026-08-01","sourceKey":"way:218124598"}},{"type":"Feature","geometry":{"type":"LineString","coordinates":[[114.9917293,24.3813021],[114.9920882,24.3803539]]},"properties":{"key":"way:218124599@detail:459_97","osmType":"way","osmId":218124599,"sourceRegion":"guangdong","featureType":"infrastructure","railClass":"national","mode":"rail","name":"京九线","nameEn":"Jingjiu Line","ref":"0005","usage":"main","bridge":"yes","status":"operational","color":"#E54848","dataOrigin":"datum-2026-08-01","sourceKey":"way:218124599"}},{"type":"Feature","geometry":{"type":"LineString","coordinates":[[114.9913895,24.3820983],[114.9917293,24.3813021]]},"properties":{"key":"way:218124600@detail:459_97","osmType":"way","osmId":218124600,"sourceRegion":"guangdong","featureType":"infrastructure","railClass":"national","mode":"rail","name":"京九线","nameEn":"Jingjiu Line","ref":"0005","usage":"main","status":"operational","color":"#E54848","dataOrigin":"datum-2026-08-01","sourceKey":"way:218124600"}},{"type":"Feature","geometry":{"type":"LineString","coordinates":[[114.9925372,24.3792784],[114.9929529,24.3785545]]},"properties":{"key":"way:218124601@detail:459_97","osmType":"way","osmId":218124601,"sourceRegion":"guangdong","featureType":"infrastructure","railClass":"national","mode":"rail","name":"京九线","nameEn":"Jingjiu Line","ref":"0005","usage":"main","bridge":"yes","status":"operational","color":"#E54848","dataOrigin":"datum-2026-08-01","sourceKey":"way:218124601"}},{"type":"Feature","geometry":{"type":"LineString","coordinates":[[114.9920882,24.3803539],[114.9923527,24.3796774],[114.9925372,24.3792784]]},"properties":{"key":"way:218124604@detail:459_97","osmType":"way","osmId":218124604,"sourceRegion":"guangdong","featureType":"infrastructure","railClass":"national","mode":"rail","name":"京九线","nameEn":"Jingjiu Line","ref":"0005","usage":"main","status":"operational","color":"#E54848","dataOrigin":"datum-2026-08-01","sourceKey":"way:218124604"}},{"type":"Feature","geometry":{"type":"LineString","coordinates":[[114.9929529,24.3785545],[114.9932723,24.3780784],[114.9936732,24.3775553],[114.9940481,24.3771328],[114.9944921,24.3766846],[114.9951277,24.3761838],[114.9957478,24.3757431],[114.9963134,24.3754109],[114.9981633,24.3744408]]},"properties":{"key":"way:218124613@detail:459_97","osmType":"way","osmId":218124613,"sourceRegion":"guangdong","featureType":"infrastructure","railClass":"national","mode":"rail","name":"京九线","nameEn":"Jingjiu Line","ref":"0005","usage":"main","status":"operational","color":"#E54848","dataOrigin":"datum-2026-08-01","sourceKey":"way:218124613"}},{"type":"Feature","geometry":{"type":"LineString","coordinates":[[114.9995767,24.3737358],[115.0,24.373520117233863]]},"properties":{"key":"way:906448027@detail:459_97","osmType":"way","osmId":906448027,"sourceRegion":"guangdong","featureType":"infrastructure","railClass":"national","mode":"rail","name":"京九线","nameEn":"Jingjiu Line","ref":"0005","usage":"main","status":"operational","color":"#E54848","dataOrigin":"datum-2026-08-01","sourceKey":"way:906448027"}},{"type":"Feature","geometry":{"type":"LineString","coordinates":[[114.9981805,24.3744681],[114.9995767,24.3737358]]},"properties":{"key":"way:906448028@detail:459_97","osmType":"way","osmId":906448028,"sourceRegion":"guangdong","featureType":"infrastructure","railClass":"national","mode":"rail","name":"京九线","nameEn":"Jingjiu Line","ref":"0005","usage":"main","bridge":"yes","status":"operational","color":"#E54848","dataOrigin":"datum-2026-08-01","sourceKey":"way:906448028"}},{"type":"Feature","geometry":{"type":"LineString","coordinates":[[114.992983,24.37857],[114.9933012,24.3780956],[114.9937008,24.3775742],[114.9940744,24.3771532],[114.9945163,24.3767071],[114.9951496,24.3762081],[114.9957678,24.3757688],[114.9963314,24.3754378],[114.9981805,24.3744681]]},"properties":{"key":"way:906448029@detail:459_97","osmType":"way","osmId":906448029,"sourceRegion":"guangdong","featureType":"infrastructure","railClass":"national","mode":"rail","name":"京九线","nameEn":"Jingjiu Line","ref":"0005","usage":"main","status":"operational","color":"#E54848","dataOrigin":"datum-2026-08-01","sourceKey":"way:906448029"}},{"type":"Feature","geometry":{"type":"LineString","coordinates":[[114.9925685,24.3792918],[114.992983,24.37857]]},"properties":{"key":"way:906448030@detail:459_97","osmType":"way","osmId":906448030,"sourceRegion":"guangdong","featureType":"infrastructure","railClass":"national","mode":"rail","name":"京九线","nameEn":"Jingjiu Line","ref":"0005","usage":"main","bridge":"yes","status":"operational","color":"#E54848","dataOrigin":"datum-2026-08-01","sourceKey":"way:906448030"}},{"type":"Feature","geometry":{"type":"LineString","coordinates":[[114.9921208,24.3803643],[114.9923849,24.3796888],[114.9925685,24.3792918]]},"properties":{"key":"way:906448031@detail:459_97","osmType":"way","osmId":906448031,"sourceRegion":"guangdong","featureType":"infrastructure","railClass":"national","mode":"rail","name":"京九线","nameEn":"Jingjiu Line","ref":"0005","usage":"main","status":"operational","color":"#E54848","dataOrigin":"datum-2026-08-01","sourceKey":"way:906448031"}},{"type":"Feature","geometry":{"type":"LineString","coordinates":[[114.9917617,24.3813129],[114.9921208,24.3803643]]},"properties":{"key":"way:906448032@detail:459_97","osmType":"way","osmId":906448032,"sourceRegion":"guangdong","featureType":"infrastructure","railClass":"national","mode":"rail","name":"京九线","nameEn":"Jingjiu Line","ref":"0005","usage":"main","bridge":"yes","status":"operational","color":"#E54848","dataOrigin":"datum-2026-08-01","sourceKey":"way:906448032"}},{"type":"Feature","geometry":{"type":"LineString","coordinates":[[114.9914219,24.3821091],[114.9917617,24.3813129]]},"properties":{"key":"way:906448033@detail:459_97","osmType":"way","osmId":906448033,"sourceRegion":"guangdong","featureType":"infrastructure","railClass":"national","mode":"rail","name":"京九线","nameEn":"Jingjiu Line","ref":"0005","usage":"main","status":"operational","color":"#E54848","dataOrigin":"datum-2026-08-01","sourceKey":"way:906448033"}},{"type":"Feature","geometry":{"type":"LineString","coordinates":[[114.9911218,24.3828995],[114.9914219,24.3821091]]},"properties":{"key":"way:906448034@detail:459_97","osmType":"way","osmId":906448034,"sourceRegion":"guangdong","featureType":"infrastructure","railClass":"national","mode":"rail","name":"京九线","nameEn":"Jingjiu Line","ref":"0005","usage":"main","tunnel":"yes","status":"operational","color":"#E54848","dataOrigin":"datum-2026-08-01","sourceKey":"way:906448034"}},{"type":"Feature","geometry":{"type":"LineString","coordinates":[[114.9908793,24.3835381],[114.9911218,24.3828995]]},"properties":{"key":"way:906448035@detail:459_97","osmType":"way","osmId":906448035,"sourceRegion":"guangdong","featureType":"infrastructure","railClass":"national","mode":"rail","name":"京九线","nameEn":"Jingjiu Line","ref":"0005","usage":"main","status":"operational","color":"#E54848","dataOrigin":"datum-2026-08-01","sourceKey":"way:906448035"}},{"type":"Feature","geometry":{"type":"LineString","coordinates":[[114.9905124,24.3845359],[114.9908793,24.3835381]]},"properties":{"key":"way:906448036@detail:459_97","osmType":"way","osmId":906448036,"sourceRegion":"guangdong","featureType":"infrastructure","railClass":"national","mode":"rail","name":"京九线","nameEn":"Jingjiu Line","ref":"0005","usage":"main","bridge":"yes","status":"operational","color":"#E54848","dataOrigin":"datum-2026-08-01","sourceKey":"way:906448036"}},{"type":"Feature","geometry":{"type":"LineString","coordinates":[[114.9892525,24.3878181],[114.9897805,24.3864083],[114.9905124,24.3845359]]},"properties":{"key":"way:906448037@detail:459_97","osmType":"way","osmId":906448037,"sourceRegion":"guangdong","featureType":"infrastructure","railClass":"national","mode":"rail","name":"京九线","nameEn":"Jingjiu Line","ref":"0005","usage":"main","status":"operational","color":"#E54848","dataOrigin":"datum-2026-08-01","sourceKey":"way:906448037"}},{"type":"Feature","geometry":{"type":"LineString","coordinates":[[114.9889599,24.3886995],[114.9892525,24.3878181]]},"properties":{"key":"way:906448038@detail:459_97","osmType":"way","osmId":906448038,"sourceRegion":"guangdong","featureType":"infrastructure","railClass":"national","mode":"rail","name":"京九线","nameEn":"Jingjiu Line","ref":"0005","usage":"main","bridge":"yes","status":"operational","color":"#E54848","dataOrigin":"datum-2026-08-01","sourceKey":"way:906448038"}},{"type":"Feature","geometry":{"type":"LineString","coordinates":[[114.9888546,24.3890228],[114.9889599,24.3886995]]},"properties":{"key":"way:906448039@detail:459_97","osmType":"way","osmId":906448039,"sourceRegion":"guangdong","featureType":"infrastructure","railClass":"national","mode":"rail","name":"京九线","nameEn":"Jingjiu Line","ref":"0005","usage":"main","status":"operational","color":"#E54848","dataOrigin":"datum-2026-08-01","sourceKey":"way:906448039"}},{"type":"Feature","geometry":{"type":"LineString","coordinates":[[114.9885413,24.3901977],[114.9888546,24.3890228]]},"properties":{"key":"way:906448040@detail:459_97","osmType":"way","osmId":906448040,"sourceRegion":"guangdong","featureType":"infrastructure","railClass":"national","mode":"rail","name":"京九线","nameEn":"Jingjiu Line","ref":"0005","usage":"main","bridge":"yes","status":"operational","color":"#E54848","dataOrigin":"datum-2026-08-01","sourceKey":"way:906448040"}},{"type":"Feature","geometry":{"type":"LineString","coordinates":[[114.9881303,24.3917395],[114.9885413,24.3901977]]},"properties":{"key":"way:906448041@detail:459_97","osmType":"way","osmId":906448041,"sourceRegion":"guangdong","featureType":"infrastructure","railClass":"national","mode":"rail","name":"京九线","nameEn":"Jingjiu Line","ref":"0005","usage":"main","status":"operational","color":"#E54848","dataOrigin":"datum-2026-08-01","sourceKey":"way:906448041"}},{"type":"Feature","geometry":{"type":"LineString","coordinates":[[114.987932,24.3924832],[114.9881303,24.3917395]]},"properties":{"key":"way:906448042@detail:459_97","osmType":"way","osmId":906448042,"sourceRegion":"guangdong","featureType":"infrastructure","railClass":"national","mode":"rail","name":"京九线","nameEn":"Jingjiu Line","ref":"0005","usage":"main","tunnel":"yes","status":"operational","color":"#E54848","dataOrigin":"datum-2026-08-01","sourceKey":"way:906448042"}},{"type":"Feature","geometry":{"type":"LineString","coordinates":[[114.9878889,24.392692],[114.987932,24.3924832]]},"properties":{"key":"way:906448043@detail:459_97","osmType":"way","osmId":906448043,"sourceRegion":"guangdong","featureType":"infrastructure","railClass":"national","mode":"rail","name":"京九线","nameEn":"Jingjiu Line","ref":"0005","usage":"main","status":"operational","color":"#E54848","dataOrigin":"datum-2026-08-01","sourceKey":"way:906448043"}},{"type":"Feature","geometry":{"type":"LineString","coordinates":[[114.9877175,24.3935219],[114.9878889,24.392692]]},"properties":{"key":"way:906448044@detail:459_97","osmType":"way","osmId":906448044,"sourceRegion":"guangdong","featureType":"infrastructure","railClass":"national","mode":"rail","name":"京九线","nameEn":"Jingjiu Line","ref":"0005","usage":"main","bridge":"yes","status":"operational","color":"#E54848","dataOrigin":"datum-2026-08-01","sourceKey":"way:906448044"}},{"type":"Feature","geometry":{"type":"LineString","coordinates":[[114.9872715,24.3951193],[114.9874945,24.3944028],[114.9877175,24.3935219]]},"properties":{"key":"way:906448045@detail:459_97","osmType":"way","osmId":906448045,"sourceRegion":"guangdong","featureType":"infrastructure","railClass":"national","mode":"rail","name":"京九线","nameEn":"Jingjiu Line","ref":"0005","usage":"main","status":"operational","color":"#E54848","dataOrigin":"datum-2026-08-01","sourceKey":"way:906448045"}},{"type":"Feature","geometry":{"type":"LineString","coordinates":[[114.9865393,24.3967448],[114.9870824,24.3956627],[114.9872715,24.3951193]]},"properties":{"key":"way:906448046@detail:459_97","osmType":"way","osmId":906448046,"sourceRegion":"guangdong","featureType":"infrastructure","railClass":"national","mode":"rail","name":"京九线","nameEn":"Jingjiu Line","ref":"0005","usage":"main","bridge":"yes","status":"operational","color":"#E54848","dataOrigin":"datum-2026-08-01","sourceKey":"way:906448046"}},{"type":"Feature","geometry":{"type":"LineString","coordinates":[[114.9849471,24.399544],[114.9865393,24.3967448]]},"properties":{"key":"way:906448047@detail:459_97","osmType":"way","osmId":906448047,"sourceRegion":"guangdong","featureType":"infrastructure","railClass":"national","mode":"rail","name":"京九线","nameEn":"Jingjiu Line","ref":"0005","usage":"main","status":"operational","color":"#E54848","dataOrigin":"datum-2026-08-01","sourceKey":"way:906448047"}},{"type":"Feature","geometry":{"type":"LineString","coordinates":[[114.9843844,24.4006907],[114.9849471,24.399544]]},"properties":{"key":"way:906448048@detail:459_97","osmType":"way","osmId":906448048,"sourceRegion":"guangdong","featureType":"infrastructure","railClass":"national","mode":"rail","name":"京九线","nameEn":"Jingjiu Line","ref":"0005","usage":"main","bridge":"yes","status":"operational","color":"#E54848","dataOrigin":"datum-2026-08-01","sourceKey":"way:906448048"}},{"type":"Feature","geometry":{"type":"LineString","coordinates":[[114.9843027,24.4009201],[114.9843844,24.4006907]]},"properties":{"key":"way:906448049@detail:459_97","osmType":"way","osmId":906448049,"sourceRegion":"guangdong","featureType":"infrastructure","railClass":"national","mode":"rail","name":"京九线","nameEn":"Jingjiu Line","ref":"0005","usage":"main","status":"operational","color":"#E54848","dataOrigin":"datum-2026-08-01","sourceKey":"way:906448049"}},{"type":"Feature","geometry":{"type":"LineString","coordinates":[[114.9837981,24.4024194],[114.9843027,24.4009201]]},"properties":{"key":"way:906448050@detail:459_97","osmType":"way","osmId":906448050,"sourceRegion":"guangdong","featureType":"infrastructure","railClass":"national","mode":"rail","name":"京九线","nameEn":"Jingjiu Line","ref":"0005","usage":"main","bridge":"yes","status":"operational","color":"#E54848","dataOrigin":"datum-2026-08-01","sourceKey":"way:906448050"}},{"type":"Feature","geometry":{"type":"LineString","coordinates":[[114.9831146,24.4046451],[114.9833627,24.4038516],[114.9837981,24.4024194]]},"properties":{"key":"way:906448051@detail:459_97","osmType":"way","osmId":906448051,"sourceRegion":"guangdong","featureType":"infrastructure","railClass":"national","mode":"rail","name":"京九线","nameEn":"Jingjiu Line","ref":"0005","usage":"main","status":"operational","color":"#E54848","dataOrigin":"datum-2026-08-01","sourceKey":"way:906448051"}},{"type":"Feature","geometry":{"type":"LineString","coordinates":[[114.9825201,24.406569],[114.9827964,24.4058181],[114.9831146,24.4046451]]},"properties":{"key":"way:906448052@detail:459_97","osmType":"way","osmId":906448052,"sourceRegion":"guangdong","featureType":"infrastructure","railClass":"national","mode":"rail","name":"京九线","nameEn":"Jingjiu Line","ref":"0005","usage":"main","tunnel":"yes","status":"operational","color":"#E54848","dataOrigin":"datum-2026-08-01","sourceKey":"way:906448052"}},{"type":"Feature","geometry":{"type":"LineString","coordinates":[[114.9820541,24.4075367],[114.9825201,24.406569]]},"properties":{"key":"way:906448053@detail:459_97","osmType":"way","osmId":906448053,"sourceRegion":"guangdong","featureType":"infrastructure","railClass":"national","mode":"rail","name":"京九线","nameEn":"Jingjiu Line","ref":"0005","usage":"main","status":"operational","color":"#E54848","dataOrigin":"datum-2026-08-01","sourceKey":"way:906448053"}},{"type":"Feature","geometry":{"type":"LineString","coordinates":[[114.9811912,24.4090551],[114.9820541,24.4075367]]},"properties":{"key":"way:906448054@detail:459_97","osmType":"way","osmId":906448054,"sourceRegion":"guangdong","featureType":"infrastructure","railClass":"national","mode":"rail","name":"京九线","nameEn":"Jingjiu Line","ref":"0005","usage":"main","tunnel":"yes","status":"operational","color":"#E54848","dataOrigin":"datum-2026-08-01","sourceKey":"way:906448054"}},{"type":"Feature","geometry":{"type":"LineString","coordinates":[[114.9797546,24.4129099],[114.9801769,24.4114635],[114.9804275,24.4105943],[114.9807411,24.409894],[114.9811912,24.4090551]]},"properties":{"key":"way:906448055@detail:459_97","osmType":"way","osmId":906448055,"sourceRegion":"guangdong","featureType":"infrastructure","railClass":"national","mode":"rail","name":"京九线","nameEn":"Jingjiu Line","ref":"0005","usage":"main","status":"operational","color":"#E54848","dataOrigin":"datum-2026-08-01","sourceKey":"way:906448055"}},{"type":"Feature","geometry":{"type":"LineString","coordinates":[[114.979369,24.4142536],[114.9797546,24.4129099]]},"properties":{"key":"way:906448056@detail:459_97","osmType":"way","osmId":906448056,"sourceRegion":"guangdong","featureType":"infrastructure","railClass":"national","mode":"rail","name":"京九线","nameEn":"Jingjiu Line","ref":"0005","usage":"main","bridge":"yes","status":"operational","color":"#E54848","dataOrigin":"datum-2026-08-01","sourceKey":"way:906448056"}},{"type":"Feature","geometry":{"type":"LineString","coordinates":[[114.9792515,24.4146908],[114.979369,24.4142536]]},"properties":{"key":"way:906448057@detail:459_97","osmType":"way","osmId":906448057,"sourceRegion":"guangdong","featureType":"infrastructure","railClass":"national","mode":"rail","name":"京九线","nameEn":"Jingjiu Line","ref":"0005","usage":"main","status":"operational","color":"#E54848","dataOrigin":"datum-2026-08-01","sourceKey":"way:906448057"}},{"type":"Feature","geometry":{"type":"LineString","coordinates":[[114.9789606,24.415772],[114.9792515,24.4146908]]},"properties":{"key":"way:906448058@detail:459_97","osmType":"way","osmId":906448058,"sourceRegion":"guangdong","featureType":"infrastructure","railClass":"national","mode":"rail","name":"京九线","nameEn":"Jingjiu Line","ref":"0005","usage":"main","tunnel":"yes","status":"operational","color":"#E54848","dataOrigin":"datum-2026-08-01","sourceKey":"way:906448058"}},{"type":"Feature","geometry":{"type":"LineString","coordinates":[[114.9784393,24.4175395],[114.978681,24.4168296],[114.9789606,24.415772]]},"properties":{"key":"way:906448059@detail:459_97","osmType":"way","osmId":906448059,"sourceRegion":"guangdong","featureType":"infrastructure","railClass":"national","mode":"rail","name":"京九线","nameEn":"Jingjiu Line","ref":"0005","usage":"main","status":"operational","color":"#E54848","dataOrigin":"datum-2026-08-01","sourceKey":"way:906448059"}},{"type":"Feature","geometry":{"type":"LineString","coordinates":[[114.9778189,24.418917],[114.9781363,24.4182668],[114.9784393,24.4175395]]},"properties":{"key":"way:906448060@detail:459_97","osmType":"way","osmId":906448060,"sourceRegion":"guangdong","featureType":"infrastructure","railClass":"national","mode":"rail","name":"京九线","nameEn":"Jingjiu Line","ref":"0005","usage":"main","bridge":"yes","status":"operational","color":"#E54848","dataOrigin":"datum-2026-08-01","sourceKey":"way:906448060"}},{"type":"Feature","geometry":{"type":"LineString","coordinates":[[114.9769602,24.4203865],[114.9778189,24.418917]]},"properties":{"key":"way:906448061@detail:459_97","osmType":"way","osmId":906448061,"sourceRegion":"guangdong","featureType":"infrastructure","railClass":"national","mode":"rail","name":"京九线","nameEn":"Jingjiu Line","ref":"0005","usage":"main","status":"operational","color":"#E54848","dataOrigin":"datum-2026-08-01","sourceKey":"way:906448061"}},{"type":"Feature","geometry":{"type":"LineString","coordinates":[[114.975607,24.4246436],[114.9760228,24.4228555],[114.9764498,24.4215181],[114.9769602,24.4203865]]},"properties":{"key":"way:906448062@detail:459_97","osmType":"way","osmId":906448062,"sourceRegion":"guangdong","featureType":"infrastructure","railClass":"national","mode":"rail","name":"京九线","nameEn":"Jingjiu Line","ref":"0005","usage":"main","tunnel":"yes","status":"operational","color":"#E54848","dataOrigin":"datum-2026-08-01","sourceKey":"way:906448062"}},{"type":"Feature","geometry":{"type":"LineString","coordinates":[[114.9755167,24.4250862],[114.975607,24.4246436]]},"properties":{"key":"way:906448063@detail:459_97","osmType":"way","osmId":906448063,"sourceRegion":"guangdong","featureType":"infrastructure","railClass":"national","mode":"rail","name":"京九线","nameEn":"Jingjiu Line","ref":"0005","usage":"main","status":"operational","color":"#E54848","dataOrigin":"datum-2026-08-01","sourceKey":"way:906448063"}},{"type":"Feature","geometry":{"type":"LineString","coordinates":[[114.974828,24.4283053],[114.9751103,24.42686],[114.9755167,24.4250862]]},"properties":{"key":"way:906448064@detail:459_97","osmType":"way","osmId":906448064,"sourceRegion":"guangdong","featureType":"infrastructure","railClass":"national","mode":"rail","name":"京九线","nameEn":"Jingjiu Line","ref":"0005","usage":"main","tunnel":"yes","status":"operational","color":"#E54848","dataOrigin":"datum-2026-08-01","sourceKey":"way:906448064"}},{"type":"Feature","geometry":{"type":"LineString","coordinates":[[114.9747309,24.4289042],[114.974828,24.4283053]]},"properties":{"key":"way:906448065@detail:459_97","osmType":"way","osmId":906448065,"sourceRegion":"guangdong","featureType":"infrastructure","railClass":"national","mode":"rail","name":"京九线","nameEn":"Jingjiu Line","ref":"0005","usage":"main","status":"operational","color":"#E54848","dataOrigin":"datum-2026-08-01","sourceKey":"way:906448065"}},{"type":"Feature","geometry":{"type":"LineString","coordinates":[[114.9740395,24.4321534],[114.9745359,24.4300075],[114.9747309,24.4289042]]},"properties":{"key":"way:906448066@detail:459_97","osmType":"way","osmId":906448066,"sourceRegion":"guangdong","featureType":"infrastructure","railClass":"national","mode":"rail","name":"京九线","nameEn":"Jingjiu Line","ref":"0005","usage":"main","bridge":"yes","status":"operational","color":"#E54848","dataOrigin":"datum-2026-08-01","sourceKey":"way:906448066"}},{"type":"Feature","geometry":{"type":"LineString","coordinates":[[114.973729,24.4333681],[114.9740395,24.4321534]]},"properties":{"key":"way:906448067@detail:459_97","osmType":"way","osmId":906448067,"sourceRegion":"guangdong","featureType":"infrastructure","railClass":"national","mode":"rail","name":"京九线","nameEn":"Jingjiu Line","ref":"0005","usage":"main","status":"operational","color":"#E54848","dataOrigin":"datum-2026-08-01","sourceKey":"way:906448067"}},{"type":"Feature","geometry":{"type":"LineString","coordinates":[[114.9733905,24.4347418],[114.973729,24.4333681]]},"properties":{"key":"way:906448068@detail:459_97","osmType":"way","osmId":906448068,"sourceRegion":"guangdong","featureType":"infrastructure","railClass":"national","mode":"rail","name":"京九线","nameEn":"Jingjiu Line","ref":"0005","usage":"main","bridge":"yes","status":"operational","color":"#E54848","dataOrigin":"datum-2026-08-01","sourceKey":"way:906448068"}},{"type":"Feature","geometry":{"type":"LineString","coordinates":[[114.9729023,24.4361974],[114.973245,24.4352734],[114.9733905,24.4347418]]},"properties":{"key":"way:906448069@detail:459_97","osmType":"way","osmId":906448069,"sourceRegion":"guangdong","featureType":"infrastructure","railClass":"national","mode":"rail","name":"京九线","nameEn":"Jingjiu Line","ref":"0005","usage":"main","status":"operational","color":"#E54848","dataOrigin":"datum-2026-08-01","sourceKey":"way:906448069"}},{"type":"Feature","geometry":{"type":"LineString","coordinates":[[114.9721989,24.437255],[114.9729023,24.4361974]]},"properties":{"key":"way:906448070@detail:459_97","osmType":"way","osmId":906448070,"sourceRegion":"guangdong","featureType":"infrastructure","railClass":"national","mode":"rail","name":"京九线","nameEn":"Jingjiu Line","ref":"0005","usage":"main","tunnel":"yes","status":"operational","color":"#E54848","dataOrigin":"datum-2026-08-01","sourceKey":"way:906448070"}},{"type":"Feature","geometry":{"type":"LineString","coordinates":[[114.970793,24.4388512],[114.9714149,24.4381918],[114.9721989,24.437255]]},"properties":{"key":"way:906448071@detail:459_97","osmType":"way","osmId":906448071,"sourceRegion":"guangdong","featureType":"infrastructure","railClass":"national","mode":"rail","name":"京九线","nameEn":"Jingjiu Line","ref":"0005","usage":"main","status":"operational","color":"#E54848","dataOrigin":"datum-2026-08-01","sourceKey":"way:906448071"}},{"type":"Feature","geometry":{"type":"LineString","coordinates":[[114.9602822,24.4500472],[114.9603742,24.4496951],[114.9605409,24.4492255],[114.9607828,24.4486321],[114.9615546,24.4475213],[114.9637563,24.4452925],[114.9690796,24.4404798],[114.970793,24.4388512]]},"properties":{"key":"way:906448072@detail:459_97","osmType":"way","osmId":906448072,"sourceRegion":"guangdong","featureType":"infrastructure","railClass":"national","mode":"rail","name":"京九线","nameEn":"Jingjiu Line","ref":"0005","usage":"main","tunnel":"yes","status":"operational","color":"#E54848","dataOrigin":"datum-2026-08-01","sourceKey":"way:906448072"}},{"type":"Feature","geometry":{"type":"LineString","coordinates":[[114.9602411,24.4502817],[114.9602822,24.4500472]]},"properties":{"key":"way:906448073@detail:459_97","osmType":"way","osmId":906448073,"sourceRegion":"guangdong","featureType":"infrastructure","railClass":"national","mode":"rail","name":"京九线","nameEn":"Jingjiu Line","ref":"0005","usage":"main","status":"operational","color":"#E54848","dataOrigin":"datum-2026-08-01","sourceKey":"way:906448073"}},{"type":"Feature","geometry":{"type":"LineString","coordinates":[[114.9602891,24.4521512],[114.9602348,24.4518401],[114.9602011,24.4515194],[114.9601851,24.4512467],[114.9601898,24.4509692],[114.9602012,24.45064],[114.9602411,24.4502817]]},"properties":{"key":"way:906448074@detail:459_97","osmType":"way","osmId":906448074,"sourceRegion":"guangdong","featureType":"infrastructure","railClass":"national","mode":"rail","name":"京九线","nameEn":"Jingjiu Line","ref":"0005","usage":"main","bridge":"yes","status":"operational","color":"#E54848","dataOrigin":"datum-2026-08-01","sourceKey":"way:906448074"}},{"type":"Feature","geometry":{"type":"LineString","coordinates":[[114.9605483,24.4530041],[114.9604493,24.4527508],[114.9603827,24.4525478],[114.9603289,24.4523405],[114.9602891,24.4521512]]},"properties":{"key":"way:906448075@detail:459_97","osmType":"way","osmId":906448075,"sourceRegion":"guangdong","featureType":"infrastructure","railClass":"national","mode":"rail","name":"京九线","nameEn":"Jingjiu Line","ref":"0005","usage":"main","status":"operational","color":"#E54848","dataOrigin":"datum-2026-08-01","sourceKey":"way:906448075"}},{"type":"Feature","geometry":{"type":"LineString","coordinates":[[114.9614967,24.4546235],[114.9612527,24.454278],[114.9611016,24.4540508],[114.9609603,24.4538239],[114.9608007,24.4535468],[114.9606968,24.4533388],[114.9605483,24.4530041]]},"properties":{"key":"way:906448076@detail:459_97","osmType":"way","osmId":906448076,"sourceRegion":"guangdong","featureType":"infrastructure","railClass":"national","mode":"rail","name":"京九线","nameEn":"Jingjiu Line","ref":"0005","usage":"main","bridge":"yes","status":"operational","color":"#E54848","dataOrigin":"datum-2026-08-01","sourceKey":"way:906448076"}},{"type":"Feature","geometry":{"type":"LineString","coordinates":[[114.9614562,24.4546481],[114.9614948,24.4547041],[114.9619574,24.4553746],[114.9620158,24.4554593],[114.9628995,24.4567403],[114.9633019,24.4573239],[114.9637333,24.4579681],[114.9639925,24.4583774],[114.9642259,24.4588083],[114.9644361,24.4592438],[114.9645692,24.4595701],[114.9647084,24.4599611],[114.9648213,24.4603123],[114.9649099,24.4606407],[114.9650208,24.461092],[114.9658932,24.4647459],[114.9660095,24.4652437],[114.9660323,24.4653417],[114.9661202,24.4657498],[114.966342,24.4666914]]},"properties":{"key":"way:906448077@detail:459_97","osmType":"way","osmId":906448077,"sourceRegion":"guangdong","featureType":"infrastructure","railClass":"national","mode":"rail","name":"京九线","nameEn":"Jingjiu Line","ref":"0005","usage":"main","status":"operational","color":"#E54848","dataOrigin":"datum-2026-08-01","sourceKey":"way:906448077"}},{"type":"Feature","geometry":{"type":"LineString","coordinates":[[114.966342,24.4666914],[114.9668069,24.4686275]]},"properties":{"key":"way:906448078@detail:459_97","osmType":"way","osmId":906448078,"sourceRegion":"guangdong","featureType":"infrastructure","railClass":"national","mode":"rail","name":"京九线","nameEn":"Jingjiu Line","ref":"0005","usage":"main","bridge":"yes","status":"operational","color":"#E54848","dataOrigin":"datum-2026-08-01","sourceKey":"way:906448078"}},{"type":"Feature","geometry":{"type":"LineString","coordinates":[[114.9673,24.4708219],[114.9670409,24.4694724],[114.9669269,24.4689487],[114.9668531,24.4686264]]},"properties":{"key":"way:906448079@detail:459_97","osmType":"way","osmId":906448079,"sourceRegion":"guangdong","featureType":"infrastructure","railClass":"national","mode":"rail","name":"京九线","nameEn":"Jingjiu Line","ref":"0005","usage":"main","status":"operational","color":"#E54848","dataOrigin":"datum-2026-08-01","sourceKey":"way:906448079"}},{"type":"Feature","geometry":{"type":"LineString","coordinates":[[114.9675063,24.4722051],[114.9673,24.4708219]]},"properties":{"key":"way:906448080@detail:459_97","osmType":"way","osmId":906448080,"sourceRegion":"guangdong","featureType":"infrastructure","railClass":"national","mode":"rail","name":"京九线","nameEn":"Jingjiu Line","ref":"0005","usage":"main","bridge":"yes","status":"operational","color":"#E54848","dataOrigin":"datum-2026-08-01","sourceKey":"way:906448080"}},{"type":"Feature","geometry":{"type":"LineString","coordinates":[[114.9675665,24.4726646],[114.9675063,24.4722051]]},"properties":{"key":"way:906448081@detail:459_97","osmType":"way","osmId":906448081,"sourceRegion":"guangdong","featureType":"infrastructure","railClass":"national","mode":"rail","name":"京九线","nameEn":"Jingjiu Line","ref":"0005","usage":"main","status":"operational","color":"#E54848","dataOrigin":"datum-2026-08-01","sourceKey":"way:906448081"}},{"type":"Feature","geometry":{"type":"LineString","coordinates":[[114.967721,24.4735936],[114.9675665,24.4726646]]},"properties":{"key":"way:906448082@detail:459_97","osmType":"way","osmId":906448082,"sourceRegion":"guangdong","featureType":"infrastructure","railClass":"national","mode":"rail","name":"京九线","nameEn":"Jingjiu Line","ref":"0005","usage":"main","tunnel":"yes","status":"operational","color":"#E54848","dataOrigin":"datum-2026-08-01","sourceKey":"way:906448082"}},{"type":"Feature","geometry":{"type":"LineString","coordinates":[[114.967916,24.4747594],[114.967721,24.4735936]]},"properties":{"key":"way:906448083@detail:459_97","osmType":"way","osmId":906448083,"sourceRegion":"guangdong","featureType":"infrastructure","railClass":"national","mode":"rail","name":"京九线","nameEn":"Jingjiu Line","ref":"0005","usage":"main","status":"operational","color":"#E54848","dataOrigin":"datum-2026-08-01","sourceKey":"way:906448083"}},{"type":"Feature","geometry":{"type":"LineString","coordinates":[[114.9682283,24.4764309],[114.967916,24.4747594]]},"properties":{"key":"way:906448084@detail:459_97","osmType":"way","osmId":906448084,"sourceRegion":"guangdong","featureType":"infrastructure","railClass":"national","mode":"rail","name":"京九线","nameEn":"Jingjiu Line","ref":"0005","usage":"main","tunnel":"yes","status":"operational","color":"#E54848","dataOrigin":"datum-2026-08-01","sourceKey":"way:906448084"}},{"type":"Feature","geometry":{"type":"LineString","coordinates":[[114.9683576,24.4772951],[114.9682283,24.4764309]]},"properties":{"key":"way:906448085@detail:459_97","osmType":"way","osmId":906448085,"sourceRegion":"guangdong","featureType":"infrastructure","railClass":"national","mode":"rail","name":"京九线","nameEn":"Jingjiu Line","ref":"0005","usage":"main","status":"operational","color":"#E54848","dataOrigin":"datum-2026-08-01","sourceKey":"way:906448085"}},{"type":"Feature","geometry":{"type":"LineString","coordinates":[[114.9685112,24.4788469],[114.9683576,24.4772951]]},"properties":{"key":"way:906448086@detail:459_97","osmType":"way","osmId":906448086,"sourceRegion":"guangdong","featureType":"infrastructure","railClass":"national","mode":"rail","name":"京九线","nameEn":"Jingjiu Line","ref":"0005","usage":"main","tunnel":"yes","status":"operational","color":"#E54848","dataOrigin":"datum-2026-08-01","sourceKey":"way:906448086"}},{"type":"Feature","geometry":{"type":"LineString","coordinates":[[114.9685335,24.4794873],[114.9685112,24.4788469]]},"properties":{"key":"way:906448087@detail:459_97","osmType":"way","osmId":906448087,"sourceRegion":"guangdong","featureType":"infrastructure","railClass":"national","mode":"rail","name":"京九线","nameEn":"Jingjiu Line","ref":"0005","usage":"main","status":"operational","color":"#E54848","dataOrigin":"datum-2026-08-01","sourceKey":"way:906448087"}},{"type":"Feature","geometry":{"type":"LineString","coordinates":[[114.9685018,24.4819531],[114.9685335,24.4794873]]},"properties":{"key":"way:906448088@detail:459_97","osmType":"way","osmId":906448088,"sourceRegion":"guangdong","featureType":"infrastructure","railClass":"national","mode":"rail","name":"京九线","nameEn":"Jingjiu Line","ref":"0005","usage":"main","tunnel":"yes","status":"operational","color":"#E54848","dataOrigin":"datum-2026-08-01","sourceKey":"way:906448088"}},{"type":"Feature","geometry":{"type":"LineString","coordinates":[[114.9685168,24.4830313],[114.9685018,24.4819531]]},"properties":{"key":"way:906448089@detail:459_97","osmType":"way","osmId":906448089,"sourceRegion":"guangdong","featureType":"infrastructure","railClass":"national","mode":"rail","name":"京九线","nameEn":"Jingjiu Line","ref":"0005","usage":"main","status":"operational","color":"#E54848","dataOrigin":"datum-2026-08-01","sourceKey":"way:906448089"}},{"type":"Feature","geometry":{"type":"LineString","coordinates":[[114.9684902,24.4846212],[114.9685168,24.4830313]]},"properties":{"key":"way:906448090@detail:459_97","osmType":"way","osmId":906448090,"sourceRegion":"guangdong","featureType":"infrastructure","railClass":"national","mode":"rail","name":"京九线","nameEn":"Jingjiu Line","ref":"0005","usage":"main","tunnel":"yes","status":"operational","color":"#E54848","dataOrigin":"datum-2026-08-01","sourceKey":"way:906448090"}},{"type":"Feature","geometry":{"type":"LineString","coordinates":[[114.9685075,24.4851741],[114.9684902,24.4846212]]},"properties":{"key":"way:906448091@detail:459_97","osmType":"way","osmId":906448091,"sourceRegion":"guangdong","featureType":"infrastructure","railClass":"national","mode":"rail","name":"京九线","nameEn":"Jingjiu Line","ref":"0005","usage":"main","status":"operational","color":"#E54848","dataOrigin":"datum-2026-08-01","sourceKey":"way:906448091"}},{"type":"Feature","geometry":{"type":"LineString","coordinates":[[114.9684451,24.4869097],[114.9685075,24.4851741]]},"properties":{"key":"way:906448092@detail:459_97","osmType":"way","osmId":906448092,"sourceRegion":"guangdong","featureType":"infrastructure","railClass":"national","mode":"rail","name":"京九线","nameEn":"Jingjiu Line","ref":"0005","usage":"main","tunnel":"yes","status":"operational","color":"#E54848","dataOrigin":"datum-2026-08-01","sourceKey":"way:906448092"}},{"type":"Feature","geometry":{"type":"LineString","coordinates":[[114.968379,24.4875484],[114.9684451,24.4869097]]},"properties":{"key":"way:906448093@detail:459_97","osmType":"way","osmId":906448093,"sourceRegion":"guangdong","featureType":"infrastructure","railClass":"national","mode":"rail","name":"京九线","nameEn":"Jingjiu Line","ref":"0005","usage":"main","status":"operational","color":"#E54848","dataOrigin":"datum-2026-08-01","sourceKey":"way:906448093"}},{"type":"Feature","geometry":{"type":"LineString","coordinates":[[114.9682174,24.4890364],[114.968379,24.4875484]]},"properties":{"key":"way:906448094@detail:459_97","osmType":"way","osmId":906448094,"sourceRegion":"guangdong","featureType":"infrastructure","railClass":"national","mode":"rail","name":"京九线","nameEn":"Jingjiu Line","ref":"0005","usage":"main","tunnel":"yes","status":"operational","color":"#E54848","dataOrigin":"datum-2026-08-01","sourceKey":"way:906448094"}},{"type":"Feature","geometry":{"type":"LineString","coordinates":[[114.9680196,24.4919984],[114.9680505,24.4903661],[114.9682174,24.4890364]]},"properties":{"key":"way:906448095@detail:459_97","osmType":"way","osmId":906448095,"sourceRegion":"guangdong","featureType":"infrastructure","railClass":"national","mode":"rail","name":"京九线","nameEn":"Jingjiu Line","ref":"0005","usage":"main","status":"operational","color":"#E54848","dataOrigin":"datum-2026-08-01","sourceKey":"way:906448095"}},{"type":"Feature","geometry":{"type":"LineString","coordinates":[[114.9680014,24.4929562],[114.9680196,24.4919984]]},"properties":{"key":"way:906448096@detail:459_97","osmType":"way","osmId":906448096,"sourceRegion":"guangdong","featureType":"infrastructure","railClass":"national","mode":"rail","name":"京九线","nameEn":"Jingjiu Line","ref":"0005","usage":"main","bridge":"yes","status":"operational","color":"#E54848","dataOrigin":"datum-2026-08-01","sourceKey":"way:906448096"}},{"type":"Feature","geometry":{"type":"LineString","coordinates":[[114.9677173,24.4986884],[114.9676697,24.4979742],[114.9679776,24.4942074],[114.9680014,24.4929562]]},"properties":{"key":"way:906448097@detail:459_97","osmType":"way","osmId":906448097,"sourceRegion":"guangdong","featureType":"infrastructure","railClass":"national","mode":"rail","name":"京九线","nameEn":"Jingjiu Line","ref":"0005","usage":"main","status":"operational","color":"#E54848","dataOrigin":"datum-2026-08-01","sourceKey":"way:906448097"}},{"type":"Feature","geometry":{"type":"LineString","coordinates":[[114.96794446619624,24.5],[114.9678204,24.4993406],[114.9677173,24.4986884]]},"properties":{"key":"way:906448098@detail:459_97","osmType":"way","osmId":906448098,"sourceRegion":"guangdong","featureType":"infrastructure","railClass":"national","mode":"rail","name":"京九线","nameEn":"Jingjiu Line","ref":"0005","usage":"main","bridge":"yes","status":"operational","color":"#E54848","dataOrigin":"datum-2026-08-01","sourceKey":"way:906448098"}},{"type":"Feature","geometry":{"type":"LineString","coordinates":[[114.9560474,24.4061592],[114.9616349,24.3936595],[114.9631208,24.3912264],[114.9646604,24.3888373],[114.9664736,24.3861795],[114.9856567,24.3580047],[115.0,24.34048758277309]]},"properties":{"key":"way:907910457@detail:459_97","osmType":"way","osmId":907910457,"sourceRegion":"guangdong","featureType":"infrastructure","railClass":"highspeed","mode":"rail","name":"京港高速线","nameEn":"Jinggang High-Speed Line","ref":"3003","usage":"main","highspeed":"yes","status":"operational","color":"#E54848","dataOrigin":"datum-2026-08-01","sourceKey":"way:907910457"}},{"type":"Feature","geometry":{"type":"LineString","coordinates":[[114.96035162494324,24.5],[114.9599558,24.4986401],[114.9594194,24.4967509],[114.9580675,24.4907514],[114.9574399,24.4872023],[114.9570653,24.4850479]]},"properties":{"key":"way:1263498299@detail:459_97","osmType":"way","osmId":1263498299,"sourceRegion":"guangdong","featureType":"infrastructure","railClass":"highspeed","mode":"rail","name":"京港高速线","nameEn":"Jinggang High-Speed Line","ref":"3003","usage":"main","highspeed":"yes","status":"operational","color":"#E54848","dataOrigin":"datum-2026-08-01","sourceKey":"way:1263498299"}},{"type":"Feature","geometry":{"type":"LineString","coordinates":[[114.9547397,24.4712743],[114.9549485,24.4721305],[114.9558369,24.4773901],[114.9560292,24.4786303],[114.956114,24.4794388]]},"properties":{"key":"way:1263503080@detail:459_97","osmType":"way","osmId":1263503080,"sourceRegion":"guangdong","featureType":"infrastructure","railClass":"minor","mode":"rail","name":"未命名","service":"siding","highspeed":"yes","status":"operational","color":"#52636F","dataOrigin":"datum-2026-08-01","sourceKey":"way:1263503080"}},{"type":"Feature","geometry":{"type":"LineString","coordinates":[[114.9552609,24.4746485],[114.9548366,24.4721365],[114.9547397,24.4712743]]},"properties":{"key":"way:1263640137@detail:459_97","osmType":"way","osmId":1263640137,"sourceRegion":"guangdong","featureType":"infrastructure","railClass":"highspeed","mode":"rail","name":"京港高速线","nameEn":"Jinggang High-Speed Line","ref":"3003","usage":"main","highspeed":"yes","status":"operational","color":"#E54848","dataOrigin":"datum-2026-08-01","sourceKey":"way:1263640137"}},{"type":"Feature","geometry":{"type":"LineString","coordinates":[[114.956114,24.4794388],[114.9558972,24.4786555],[114.9556757,24.4774058],[114.9549946,24.4733508],[114.9547885,24.4721558],[114.9547397,24.4712743]]},"properties":{"key":"way:1263640138@detail:459_97","osmType":"way","osmId":1263640138,"sourceRegion":"guangdong","featureType":"infrastructure","railClass":"minor","mode":"rail","name":"未命名","service":"siding","highspeed":"yes","status":"operational","color":"#52636F","dataOrigin":"datum-2026-08-01","sourceKey":"way:1263640138"}},{"type":"Feature","geometry":{"type":"LineString","coordinates":[[114.956114,24.4794388],[114.9559389,24.4786406],[114.9557538,24.4775753],[114.9555305,24.4762424],[114.9552609,24.4746485]]},"properties":{"key":"way:1263640140@detail:459_97","osmType":"way","osmId":1263640140,"sourceRegion":"guangdong","featureType":"infrastructure","railClass":"highspeed","mode":"rail","name":"京港高速线","nameEn":"Jinggang High-Speed Line","ref":"3003","usage":"main","highspeed":"yes","status":"operational","color":"#E54848","dataOrigin":"datum-2026-08-01","sourceKey":"way:1263640140"}},{"type":"Feature","geometry":{"type":"LineString","coordinates":[[114.956114,24.4794388],[114.9559868,24.4786448],[114.9551043,24.4733535],[114.9548991,24.4721509],[114.9547397,24.4712743]]},"properties":{"key":"way:1263640141@detail:459_97","osmType":"way","osmId":1263640141,"sourceRegion":"guangdong","featureType":"infrastructure","railClass":"national","mode":"rail","name":"未命名","status":"operational","color":"#E54848","dataOrigin":"datum-2026-08-01","sourceKey":"way:1263640141"}},{"type":"Feature","geometry":{"type":"LineString","coordinates":[[114.9532162,24.4624775],[114.9523539,24.4573538]]},"properties":{"key":"way:1263675435@detail:459_97","osmType":"way","osmId":1263675435,"sourceRegion":"guangdong","featureType":"infrastructure","railClass":"highspeed","mode":"rail","name":"京港高速线","nameEn":"Jinggang High-Speed Line","ref":"3003","usage":"main","highspeed":"yes","status":"operational","color":"#E54848","dataOrigin":"datum-2026-08-01","sourceKey":"way:1263675435"}},{"type":"Feature","geometry":{"type":"LineString","coordinates":[[114.9547397,24.4712743],[114.9535922,24.464626]]},"properties":{"key":"way:1263675437@detail:459_97","osmType":"way","osmId":1263675437,"sourceRegion":"guangdong","featureType":"infrastructure","railClass":"highspeed","mode":"rail","name":"京港高速线","nameEn":"Jinggang High-Speed Line","ref":"3003","usage":"main","highspeed":"yes","status":"operational","color":"#E54848","dataOrigin":"datum-2026-08-01","sourceKey":"way:1263675437"}},{"type":"Feature","geometry":{"type":"LineString","coordinates":[[114.9535922,24.464626],[114.9532162,24.4624775]]},"properties":{"key":"way:1263675438@detail:459_97","osmType":"way","osmId":1263675438,"sourceRegion":"guangdong","featureType":"infrastructure","railClass":"highspeed","mode":"rail","name":"京港高速线","nameEn":"Jinggang High-Speed Line","ref":"3003","usage":"main","highspeed":"yes","bridge":"yes","status":"operational","color":"#E54848","dataOrigin":"datum-2026-08-01","sourceKey":"way:1263675438"}},{"type":"Feature","geometry":{"type":"LineString","coordinates":[[114.9620158,24.4554593],[114.9623175,24.4559627],[114.9626836,24.4566],[114.9628044,24.456787],[114.963212,24.4573654],[114.9636476,24.4580151],[114.9639067,24.458436],[114.9641296,24.4588468],[114.9643359,24.4592795],[114.9644668,24.4595974],[114.9646068,24.4599862],[114.9647222,24.4603523],[114.9648136,24.4606707],[114.9649215,24.4611077],[114.9650258,24.461546],[114.9655151,24.4636269],[114.9655803,24.4638649],[114.9657303,24.4643124]]},"properties":{"key":"way:1263779771@detail:459_97","osmType":"way","osmId":1263779771,"sourceRegion":"guangdong","featureType":"infrastructure","railClass":"minor","mode":"rail","name":"未命名","service":"siding","status":"operational","color":"#52636F","dataOrigin":"datum-2026-08-01","sourceKey":"way:1263779771"}},{"type":"Feature","geometry":{"type":"LineString","coordinates":[[114.9663918,24.4666978],[114.9663506,24.4665221],[114.965775,24.4640672],[114.9657494,24.463958],[114.9655113,24.4629481],[114.9653408,24.4622361],[114.9650646,24.4610821],[114.9649554,24.4606163],[114.9648661,24.460308],[114.96476,24.4599603],[114.9646123,24.4595485],[114.9644787,24.4592354],[114.9642737,24.4587914],[114.9640355,24.4583579],[114.9637791,24.4579465],[114.9633373,24.4572888],[114.9629445,24.4567141],[114.9620483,24.45542],[114.9620015,24.4553524],[114.9615325,24.4546752],[114.9614967,24.4546235]]},"properties":{"key":"way:1263779772@detail:459_97","osmType":"way","osmId":1263779772,"sourceRegion":"guangdong","featureType":"infrastructure","railClass":"national","mode":"rail","name":"京九线","nameEn":"Jingjiu Line","ref":"0005","usage":"main","status":"operational","color":"#E54848","dataOrigin":"datum-2026-08-01","sourceKey":"way:1263779772"}},{"type":"Feature","geometry":{"type":"LineString","coordinates":[[114.9620483,24.45542],[114.9622746,24.4557125],[114.9628392,24.4564083],[114.9630461,24.4566643],[114.9634261,24.457202],[114.9638878,24.4578833],[114.96413,24.4582801],[114.9643826,24.4587355],[114.9646001,24.4591916],[114.9647258,24.4595049],[114.9648777,24.4599168],[114.9649984,24.4602769],[114.9650655,24.4605158],[114.9650985,24.4606559],[114.9652272,24.4612305],[114.9652841,24.4614567],[114.9654621,24.4622162],[114.9655107,24.4624315],[114.9655471,24.4626264],[114.965682,24.463498],[114.965716,24.4637336],[114.9657494,24.463958]]},"properties":{"key":"way:1263779773@detail:459_97","osmType":"way","osmId":1263779773,"sourceRegion":"guangdong","featureType":"infrastructure","railClass":"minor","mode":"rail","name":"未命名","service":"siding","status":"operational","color":"#52636F","dataOrigin":"datum-2026-08-01","sourceKey":"way:1263779773"}},{"type":"Feature","geometry":{"type":"LineString","coordinates":[[114.9662379,24.4664688],[114.9661316,24.4661522],[114.9660667,24.4659803],[114.9659881,24.4658426],[114.9657427,24.4654844],[114.96567,24.465401],[114.9655227,24.4652397],[114.9652146,24.4648651],[114.9650424,24.4645172],[114.9649031,24.4641371],[114.9646955,24.4632608],[114.9645752,24.462784],[114.9644832,24.4623803]]},"properties":{"key":"way:1263779774@detail:459_97","osmType":"way","osmId":1263779774,"sourceRegion":"guangdong","featureType":"infrastructure","railClass":"minor","mode":"rail","name":"未命名","usage":"industrial","service":"spur","status":"operational","color":"#52636F","dataOrigin":"datum-2026-08-01","sourceKey":"way:1263779774"}},{"type":"Feature","geometry":{"type":"LineString","coordinates":[[114.9650258,24.461546],[114.9650655,24.4621132],[114.9650945,24.4623508],[114.9651388,24.4625928],[114.9655666,24.4643664],[114.9657058,24.4650778],[114.9657547,24.4652757],[114.9658238,24.4654963],[114.9658995,24.4656573],[114.9659881,24.4658426]]},"properties":{"key":"way:1263779775@detail:459_97","osmType":"way","osmId":1263779775,"sourceRegion":"guangdong","featureType":"infrastructure","railClass":"minor","mode":"rail","name":"未命名","service":"yard","status":"operational","color":"#52636F","dataOrigin":"datum-2026-08-01","sourceKey":"way:1263779775"}},{"type":"Feature","geometry":{"type":"LineString","coordinates":[[114.9569547,24.4844085],[114.956114,24.4794388]]},"properties":{"key":"way:1263779783@detail:459_97","osmType":"way","osmId":1263779783,"sourceRegion":"guangdong","featureType":"infrastructure","railClass":"highspeed","mode":"rail","name":"京港高速线","nameEn":"Jinggang High-Speed Line","ref":"3003","usage":"main","highspeed":"yes","status":"operational","color":"#E54848","dataOrigin":"datum-2026-08-01","sourceKey":"way:1263779783"}},{"type":"Feature","geometry":{"type":"LineString","coordinates":[[114.9570653,24.4850479],[114.9569547,24.4844085]]},"properties":{"key":"way:1263779784@detail:459_97","osmType":"way","osmId":1263779784,"sourceRegion":"guangdong","featureType":"infrastructure","railClass":"highspeed","mode":"rail","name":"京港高速线","nameEn":"Jinggang High-Speed Line","ref":"3003","usage":"main","highspeed":"yes","tunnel":"yes","status":"operational","color":"#E54848","dataOrigin":"datum-2026-08-01","sourceKey":"way:1263779784"}},{"type":"Feature","geometry":{"type":"LineString","coordinates":[[114.9516248,24.4413151],[114.9541891,24.4127263],[114.9550997,24.4092028],[114.9551898,24.4088574]]},"properties":{"key":"way:1264009499@detail:459_97","osmType":"way","osmId":1264009499,"sourceRegion":"guangdong","featureType":"infrastructure","railClass":"highspeed","mode":"rail","name":"京港高速线","nameEn":"Jinggang High-Speed Line","ref":"3003","usage":"main","highspeed":"yes","status":"operational","color":"#E54848","dataOrigin":"datum-2026-08-01","sourceKey":"way:1264009499"}},{"type":"Feature","geometry":{"type":"LineString","coordinates":[[114.9551898,24.4088574],[114.9560474,24.4061592]]},"properties":{"key":"way:1264009500@detail:459_97","osmType":"way","osmId":1264009500,"sourceRegion":"guangdong","featureType":"infrastructure","railClass":"highspeed","mode":"rail","name":"京港高速线","nameEn":"Jinggang High-Speed Line","ref":"3003","usage":"main","highspeed":"yes","bridge":"yes","status":"operational","color":"#E54848","dataOrigin":"datum-2026-08-01","sourceKey":"way:1264009500"}},{"type":"Feature","geometry":{"type":"LineString","coordinates":[[114.9523539,24.4573538],[114.9519275,24.4548552],[114.9516683,24.4532807],[114.9514245,24.4516869]]},"properties":{"key":"way:1264102566@detail:459_97","osmType":"way","osmId":1264102566,"sourceRegion":"guangdong","featureType":"infrastructure","railClass":"highspeed","mode":"rail","name":"京港高速线","nameEn":"Jinggang High-Speed Line","ref":"3003","usage":"main","highspeed":"yes","bridge":"yes","status":"operational","color":"#E54848","dataOrigin":"datum-2026-08-01","sourceKey":"way:1264102566"}},{"type":"Feature","geometry":{"type":"LineString","coordinates":[[114.9514245,24.4516869],[114.951024,24.4484486],[114.9514982,24.4427226]]},"properties":{"key":"way:1265021413@detail:459_97","osmType":"way","osmId":1265021413,"sourceRegion":"guangdong","featureType":"infrastructure","railClass":"highspeed","mode":"rail","name":"京港高速线","nameEn":"Jinggang High-Speed Line","ref":"3003","usage":"main","highspeed":"yes","status":"operational","color":"#E54848","dataOrigin":"datum-2026-08-01","sourceKey":"way:1265021413"}},{"type":"Feature","geometry":{"type":"LineString","coordinates":[[114.9514982,24.4427226],[114.9516248,24.4413151]]},"properties":{"key":"way:1265021414@detail:459_97","osmType":"way","osmId":1265021414,"sourceRegion":"guangdong","featureType":"infrastructure","railClass":"highspeed","mode":"rail","name":"京港高速线","nameEn":"Jinggang High-Speed Line","ref":"3003","usage":"main","highspeed":"yes","tunnel":"yes","status":"operational","color":"#E54848","dataOrigin":"datum-2026-08-01","sourceKey":"way:1265021414"}},{"type":"Feature","geometry":{"type":"LineString","coordinates":[[114.9657613,24.4644422],[114.965945,24.465323],[114.9661702,24.4661757],[114.9662379,24.4664688],[114.9662895,24.4666925]]},"properties":{"key":"way:1424569921@detail:459_97","osmType":"way","osmId":1424569921,"sourceRegion":"guangdong","featureType":"infrastructure","railClass":"minor","mode":"rail","name":"未命名","service":"yard","status":"operational","color":"#52636F","dataOrigin":"datum-2026-08-01","sourceKey":"way:1424569921"}},{"type":"Feature","geometry":{"type":"LineString","coordinates":[[114.9619574,24.4553746],[114.9617429,24.4550215],[114.9615325,24.4546752]]},"properties":{"key":"way:1424569922@detail:459_97","osmType":"way","osmId":1424569922,"sourceRegion":"guangdong","featureType":"infrastructure","railClass":"minor","mode":"rail","name":"未命名","service":"crossover","status":"operational","color":"#52636F","dataOrigin":"datum-2026-08-01","sourceKey":"way:1424569922"}},{"type":"Feature","geometry":{"type":"LineString","coordinates":[[114.9614948,24.4547041],[114.9617429,24.4550215],[114.9620015,24.4553524]]},"properties":{"key":"way:1424569923@detail:459_97","osmType":"way","osmId":1424569923,"sourceRegion":"guangdong","featureType":"infrastructure","railClass":"minor","mode":"rail","name":"未命名","service":"crossover","status":"operational","color":"#52636F","dataOrigin":"datum-2026-08-01","sourceKey":"way:1424569923"}},{"type":"Feature","geometry":{"type":"LineString","coordinates":[[114.9658932,24.4647459],[114.965775,24.4640672]]},"properties":{"key":"way:1424569924@detail:459_97","osmType":"way","osmId":1424569924,"sourceRegion":"guangdong","featureType":"infrastructure","railClass":"minor","mode":"rail","name":"未命名","service":"crossover","status":"operational","color":"#52636F","dataOrigin":"datum-2026-08-01","sourceKey":"way:1424569924"}},{"type":"Feature","geometry":{"type":"LineString","coordinates":[[114.9657613,24.4644422],[114.9660095,24.4652437]]},"properties":{"key":"way:1424569925@detail:459_97","osmType":"way","osmId":1424569925,"sourceRegion":"guangdong","featureType":"infrastructure","railClass":"minor","mode":"rail","name":"未命名","service":"siding","status":"operational","color":"#52636F","dataOrigin":"datum-2026-08-01","sourceKey":"way:1424569925"}},{"type":"Feature","geometry":{"type":"LineString","coordinates":[[114.9660323,24.4653417],[114.9661702,24.4661757]]},"properties":{"key":"way:1424569926@detail:459_97","osmType":"way","osmId":1424569926,"sourceRegion":"guangdong","featureType":"infrastructure","railClass":"minor","mode":"rail","name":"未命名","service":"yard","status":"operational","color":"#52636F","dataOrigin":"datum-2026-08-01","sourceKey":"way:1424569926"}},{"type":"Feature","geometry":{"type":"LineString","coordinates":[[114.9663506,24.4665221],[114.9661202,24.4657498]]},"properties":{"key":"way:1424569927@detail:459_97","osmType":"way","osmId":1424569927,"sourceRegion":"guangdong","featureType":"infrastructure","railClass":"minor","mode":"rail","name":"未命名","service":"crossover","status":"operational","color":"#52636F","dataOrigin":"datum-2026-08-01","sourceKey":"way:1424569927"}},{"type":"Feature","geometry":{"type":"LineString","coordinates":[[114.9668531,24.4686264],[114.9663918,24.4666978]]},"properties":{"key":"way:1424569928@detail:459_97","osmType":"way","osmId":1424569928,"sourceRegion":"guangdong","featureType":"infrastructure","railClass":"national","mode":"rail","name":"京九线","nameEn":"Jingjiu Line","ref":"0005","usage":"main","bridge":"yes","status":"operational","color":"#E54848","dataOrigin":"datum-2026-08-01","sourceKey":"way:1424569928"}},{"type":"Feature","geometry":{"type":"LineString","coordinates":[[114.9667502,24.4686348],[114.9662895,24.4666925]]},"properties":{"key":"way:1424569929@detail:459_97","osmType":"way","osmId":1424569929,"sourceRegion":"guangdong","featureType":"infrastructure","railClass":"minor","mode":"rail","name":"未命名","service":"yard","bridge":"yes","status":"operational","color":"#52636F","dataOrigin":"datum-2026-08-01","sourceKey":"way:1424569929"}}]}