{"type":"FeatureCollection","features":[{"type":"Feature","geometry":{"type":"Point","coordinates":[114.9842405,24.6042623]},"properties":{"key":"node:5160861670","osmType":"node","osmId":5160861670,"sourceRegion":"guangdong","featureType":"station","railClass":"minor","mode":"stop","name":"上陵","nameEn":"Shangling","status":"operational","color":"#52636F","dataOrigin":"datum-2026-08-01","sourceKey":"node:5160861670","stationGroup":"上陵","hasOperationalRail":true,"hasConstructionRail":false}},{"type":"Feature","geometry":{"type":"Point","coordinates":[114.9843397,24.6042476]},"properties":{"key":"node:8016226687","osmType":"node","osmId":8016226687,"sourceRegion":"guangdong","featureType":"station","railClass":"minor","mode":"station","name":"上陵","nameEn":"Shangling","status":"operational","color":"#52636F","dataOrigin":"datum-2026-08-01","sourceKey":"node:8016226687","stationGroup":"上陵","hasOperationalRail":true,"hasConstructionRail":false}},{"type":"Feature","geometry":{"type":"Point","coordinates":[114.9844186,24.604245]},"properties":{"key":"node:13094166164","osmType":"node","osmId":13094166164,"sourceRegion":"guangdong","featureType":"station","railClass":"minor","mode":"stop","name":"上陵","nameEn":"Shangling","status":"operational","color":"#52636F","dataOrigin":"datum-2026-08-01","sourceKey":"node:13094166164","stationGroup":"上陵","hasOperationalRail":true,"hasConstructionRail":false}},{"type":"Feature","geometry":{"type":"Point","coordinates":[114.9843153,24.6042556]},"properties":{"key":"node:13094166166","osmType":"node","osmId":13094166166,"sourceRegion":"guangdong","featureType":"station","railClass":"minor","mode":"stop","name":"上陵","nameEn":"Shangling","status":"operational","color":"#52636F","dataOrigin":"datum-2026-08-01","sourceKey":"node:13094166166","stationGroup":"上陵","hasOperationalRail":true,"hasConstructionRail":false}},{"type":"Feature","geometry":{"type":"LineString","coordinates":[[114.9727473,24.5212325],[114.9724489,24.520464]]},"properties":{"key":"way:218124189@detail:459_98","osmType":"way","osmId":218124189,"sourceRegion":"guangdong","featureType":"infrastructure","railClass":"national","mode":"rail","name":"京九线","nameEn":"Jingjiu Line","ref":"0005","usage":"main","tunnel":"yes","status":"operational","color":"#E54848","dataOrigin":"datum-2026-08-01","sourceKey":"way:218124189"}},{"type":"Feature","geometry":{"type":"LineString","coordinates":[[114.9685496,24.5083873],[114.9683842,24.5076589]]},"properties":{"key":"way:218124196@detail:459_98","osmType":"way","osmId":218124196,"sourceRegion":"guangdong","featureType":"infrastructure","railClass":"national","mode":"rail","name":"京九线","nameEn":"Jingjiu Line","ref":"0005","usage":"main","tunnel":"yes","status":"operational","color":"#E54848","dataOrigin":"datum-2026-08-01","sourceKey":"way:218124196"}},{"type":"Feature","geometry":{"type":"LineString","coordinates":[[114.9716816,24.518534],[114.9714734,24.5179721]]},"properties":{"key":"way:218124199@detail:459_98","osmType":"way","osmId":218124199,"sourceRegion":"guangdong","featureType":"infrastructure","railClass":"national","mode":"rail","name":"京九线","nameEn":"Jingjiu Line","ref":"0005","usage":"main","bridge":"yes","status":"operational","color":"#E54848","dataOrigin":"datum-2026-08-01","sourceKey":"way:218124199"}},{"type":"Feature","geometry":{"type":"LineString","coordinates":[[114.973841,24.525917],[114.973884,24.5251055]]},"properties":{"key":"way:218124203@detail:459_98","osmType":"way","osmId":218124203,"sourceRegion":"guangdong","featureType":"infrastructure","railClass":"national","mode":"rail","name":"京九线","nameEn":"Jingjiu Line","ref":"0005","usage":"main","tunnel":"yes","status":"operational","color":"#E54848","dataOrigin":"datum-2026-08-01","sourceKey":"way:218124203"}},{"type":"Feature","geometry":{"type":"LineString","coordinates":[[114.9681598,24.5030248],[114.9681776,24.50234]]},"properties":{"key":"way:218124207@detail:459_98","osmType":"way","osmId":218124207,"sourceRegion":"guangdong","featureType":"infrastructure","railClass":"national","mode":"rail","name":"京九线","nameEn":"Jingjiu Line","ref":"0005","usage":"main","status":"operational","color":"#E54848","dataOrigin":"datum-2026-08-01","sourceKey":"way:218124207"}},{"type":"Feature","geometry":{"type":"LineString","coordinates":[[114.9717415,24.518688],[114.9716816,24.518534]]},"properties":{"key":"way:218124208@detail:459_98","osmType":"way","osmId":218124208,"sourceRegion":"guangdong","featureType":"infrastructure","railClass":"national","mode":"rail","name":"京九线","nameEn":"Jingjiu Line","ref":"0005","usage":"main","status":"operational","color":"#E54848","dataOrigin":"datum-2026-08-01","sourceKey":"way:218124208"}},{"type":"Feature","geometry":{"type":"LineString","coordinates":[[114.973688,24.5276795],[114.973841,24.525917]]},"properties":{"key":"way:218124213@detail:459_98","osmType":"way","osmId":218124213,"sourceRegion":"guangdong","featureType":"infrastructure","railClass":"national","mode":"rail","name":"京九线","nameEn":"Jingjiu Line","ref":"0005","usage":"main","status":"operational","color":"#E54848","dataOrigin":"datum-2026-08-01","sourceKey":"way:218124213"}},{"type":"Feature","geometry":{"type":"LineString","coordinates":[[114.9830366,24.5965052],[114.9760146,24.5565531]]},"properties":{"key":"way:218124215@detail:459_98","osmType":"way","osmId":218124215,"sourceRegion":"guangdong","featureType":"infrastructure","railClass":"national","mode":"rail","name":"京九线","nameEn":"Jingjiu Line","ref":"0005","usage":"main","tunnel":"yes","status":"operational","color":"#E54848","dataOrigin":"datum-2026-08-01","sourceKey":"way:218124215"}},{"type":"Feature","geometry":{"type":"LineString","coordinates":[[114.9720813,24.5195411],[114.9717415,24.518688]]},"properties":{"key":"way:218124220@detail:459_98","osmType":"way","osmId":218124220,"sourceRegion":"guangdong","featureType":"infrastructure","railClass":"national","mode":"rail","name":"京九线","nameEn":"Jingjiu Line","ref":"0005","usage":"main","tunnel":"yes","status":"operational","color":"#E54848","dataOrigin":"datum-2026-08-01","sourceKey":"way:218124220"}},{"type":"Feature","geometry":{"type":"LineString","coordinates":[[114.9712697,24.5174478],[114.9709021,24.516523]]},"properties":{"key":"way:218124223@detail:459_98","osmType":"way","osmId":218124223,"sourceRegion":"guangdong","featureType":"infrastructure","railClass":"national","mode":"rail","name":"京九线","nameEn":"Jingjiu Line","ref":"0005","usage":"main","bridge":"yes","status":"operational","color":"#E54848","dataOrigin":"datum-2026-08-01","sourceKey":"way:218124223"}},{"type":"Feature","geometry":{"type":"LineString","coordinates":[[114.9681575,24.5045357],[114.9681598,24.5030248]]},"properties":{"key":"way:218124227@detail:459_98","osmType":"way","osmId":218124227,"sourceRegion":"guangdong","featureType":"infrastructure","railClass":"national","mode":"rail","name":"京九线","nameEn":"Jingjiu Line","ref":"0005","usage":"main","tunnel":"yes","status":"operational","color":"#E54848","dataOrigin":"datum-2026-08-01","sourceKey":"way:218124227"}},{"type":"Feature","geometry":{"type":"LineString","coordinates":[[114.9724489,24.520464],[114.9720813,24.5195411]]},"properties":{"key":"way:218124228@detail:459_98","osmType":"way","osmId":218124228,"sourceRegion":"guangdong","featureType":"infrastructure","railClass":"national","mode":"rail","name":"京九线","nameEn":"Jingjiu Line","ref":"0005","usage":"main","status":"operational","color":"#E54848","dataOrigin":"datum-2026-08-01","sourceKey":"way:218124228"}},{"type":"Feature","geometry":{"type":"LineString","coordinates":[[114.9714734,24.5179721],[114.9712697,24.5174478]]},"properties":{"key":"way:218124231@detail:459_98","osmType":"way","osmId":218124231,"sourceRegion":"guangdong","featureType":"infrastructure","railClass":"national","mode":"rail","name":"京九线","nameEn":"Jingjiu Line","ref":"0005","usage":"main","status":"operational","color":"#E54848","dataOrigin":"datum-2026-08-01","sourceKey":"way:218124231"}},{"type":"Feature","geometry":{"type":"LineString","coordinates":[[114.9709021,24.516523],[114.9707606,24.5160658]]},"properties":{"key":"way:218124239@detail:459_98","osmType":"way","osmId":218124239,"sourceRegion":"guangdong","featureType":"infrastructure","railClass":"national","mode":"rail","name":"京九线","nameEn":"Jingjiu Line","ref":"0005","usage":"main","status":"operational","color":"#E54848","dataOrigin":"datum-2026-08-01","sourceKey":"way:218124239"}},{"type":"Feature","geometry":{"type":"LineString","coordinates":[[114.9733221,24.5424154],[114.9731097,24.5412853]]},"properties":{"key":"way:218124241@detail:459_98","osmType":"way","osmId":218124241,"sourceRegion":"guangdong","featureType":"infrastructure","railClass":"national","mode":"rail","name":"京九线","nameEn":"Jingjiu Line","ref":"0005","usage":"main","tunnel":"yes","status":"operational","color":"#E54848","dataOrigin":"datum-2026-08-01","sourceKey":"way:218124241"}},{"type":"Feature","geometry":{"type":"LineString","coordinates":[[114.9694919,24.5113236],[114.9685496,24.5083873]]},"properties":{"key":"way:218124244@detail:459_98","osmType":"way","osmId":218124244,"sourceRegion":"guangdong","featureType":"infrastructure","railClass":"national","mode":"rail","name":"京九线","nameEn":"Jingjiu Line","ref":"0005","usage":"main","status":"operational","color":"#E54848","dataOrigin":"datum-2026-08-01","sourceKey":"way:218124244"}},{"type":"Feature","geometry":{"type":"LineString","coordinates":[[114.9752196,24.553297],[114.9749371,24.5525258],[114.9737109,24.5498235]]},"properties":{"key":"way:218124245@detail:459_98","osmType":"way","osmId":218124245,"sourceRegion":"guangdong","featureType":"infrastructure","railClass":"national","mode":"rail","name":"京九线","nameEn":"Jingjiu Line","ref":"0005","usage":"main","status":"operational","color":"#E54848","dataOrigin":"datum-2026-08-01","sourceKey":"way:218124245"}},{"type":"Feature","geometry":{"type":"LineString","coordinates":[[114.9731097,24.5412853],[114.9729158,24.540166],[114.972771,24.5391351]]},"properties":{"key":"way:218124247@detail:459_98","osmType":"way","osmId":218124247,"sourceRegion":"guangdong","featureType":"infrastructure","railClass":"national","mode":"rail","name":"京九线","nameEn":"Jingjiu Line","ref":"0005","usage":"main","status":"operational","color":"#E54848","dataOrigin":"datum-2026-08-01","sourceKey":"way:218124247"}},{"type":"Feature","geometry":{"type":"LineString","coordinates":[[114.9736694,24.5450894],[114.973598,24.544389],[114.9733221,24.5424154]]},"properties":{"key":"way:218124251@detail:459_98","osmType":"way","osmId":218124251,"sourceRegion":"guangdong","featureType":"infrastructure","railClass":"national","mode":"rail","name":"京九线","nameEn":"Jingjiu Line","ref":"0005","usage":"main","status":"operational","color":"#E54848","dataOrigin":"datum-2026-08-01","sourceKey":"way:218124251"}},{"type":"Feature","geometry":{"type":"LineString","coordinates":[[114.9757352,24.5547855],[114.975471,24.5538886],[114.9752196,24.553297]]},"properties":{"key":"way:218124253@detail:459_98","osmType":"way","osmId":218124253,"sourceRegion":"guangdong","featureType":"infrastructure","railClass":"national","mode":"rail","name":"京九线","nameEn":"Jingjiu Line","ref":"0005","usage":"main","tunnel":"yes","status":"operational","color":"#E54848","dataOrigin":"datum-2026-08-01","sourceKey":"way:218124253"}},{"type":"Feature","geometry":{"type":"LineString","coordinates":[[114.9760146,24.5565531],[114.9758975,24.5556508],[114.9757352,24.5547855]]},"properties":{"key":"way:218124256@detail:459_98","osmType":"way","osmId":218124256,"sourceRegion":"guangdong","featureType":"infrastructure","railClass":"national","mode":"rail","name":"京九线","nameEn":"Jingjiu Line","ref":"0005","usage":"main","status":"operational","color":"#E54848","dataOrigin":"datum-2026-08-01","sourceKey":"way:218124256"}},{"type":"Feature","geometry":{"type":"LineString","coordinates":[[114.9737109,24.5498235],[114.9735093,24.548963]]},"properties":{"key":"way:218124258@detail:459_98","osmType":"way","osmId":218124258,"sourceRegion":"guangdong","featureType":"infrastructure","railClass":"national","mode":"rail","name":"京九线","nameEn":"Jingjiu Line","ref":"0005","usage":"main","tunnel":"yes","status":"operational","color":"#E54848","dataOrigin":"datum-2026-08-01","sourceKey":"way:218124258"}},{"type":"Feature","geometry":{"type":"LineString","coordinates":[[114.9735093,24.548963],[114.9734498,24.5481261],[114.9734734,24.5473557]]},"properties":{"key":"way:218124264@detail:459_98","osmType":"way","osmId":218124264,"sourceRegion":"guangdong","featureType":"infrastructure","railClass":"national","mode":"rail","name":"京九线","nameEn":"Jingjiu Line","ref":"0005","usage":"main","status":"operational","color":"#E54848","dataOrigin":"datum-2026-08-01","sourceKey":"way:218124264"}},{"type":"Feature","geometry":{"type":"LineString","coordinates":[[114.9707606,24.5160658],[114.9705444,24.5151272],[114.9701712,24.5135949],[114.9694919,24.5113236]]},"properties":{"key":"way:218124268@detail:459_98","osmType":"way","osmId":218124268,"sourceRegion":"guangdong","featureType":"infrastructure","railClass":"national","mode":"rail","name":"京九线","nameEn":"Jingjiu Line","ref":"0005","usage":"main","bridge":"yes","status":"operational","color":"#E54848","dataOrigin":"datum-2026-08-01","sourceKey":"way:218124268"}},{"type":"Feature","geometry":{"type":"LineString","coordinates":[[114.9734734,24.5473557],[114.973598,24.5465211],[114.9736535,24.5457243],[114.9736694,24.5450894]]},"properties":{"key":"way:218124269@detail:459_98","osmType":"way","osmId":218124269,"sourceRegion":"guangdong","featureType":"infrastructure","railClass":"national","mode":"rail","name":"京九线","nameEn":"Jingjiu Line","ref":"0005","usage":"main","bridge":"yes","status":"operational","color":"#E54848","dataOrigin":"datum-2026-08-01","sourceKey":"way:218124269"}},{"type":"Feature","geometry":{"type":"LineString","coordinates":[[114.972771,24.5391351],[114.9727544,24.5381854],[114.9729898,24.533595],[114.973688,24.5276795]]},"properties":{"key":"way:218124271@detail:459_98","osmType":"way","osmId":218124271,"sourceRegion":"guangdong","featureType":"infrastructure","railClass":"national","mode":"rail","name":"京九线","nameEn":"Jingjiu Line","ref":"0005","usage":"main","tunnel":"yes","status":"operational","color":"#E54848","dataOrigin":"datum-2026-08-01","sourceKey":"way:218124271"}},{"type":"Feature","geometry":{"type":"LineString","coordinates":[[114.9683842,24.5076589],[114.968236,24.506663],[114.968174,24.505429],[114.9681575,24.5045357]]},"properties":{"key":"way:218124272@detail:459_98","osmType":"way","osmId":218124272,"sourceRegion":"guangdong","featureType":"infrastructure","railClass":"national","mode":"rail","name":"京九线","nameEn":"Jingjiu Line","ref":"0005","usage":"main","status":"operational","color":"#E54848","dataOrigin":"datum-2026-08-01","sourceKey":"way:218124272"}},{"type":"Feature","geometry":{"type":"LineString","coordinates":[[114.9681776,24.50234],[114.9681441,24.5016744],[114.9680953,24.5009882],[114.96790935453218,24.5]]},"properties":{"key":"way:218124273@detail:459_98","osmType":"way","osmId":218124273,"sourceRegion":"guangdong","featureType":"infrastructure","railClass":"national","mode":"rail","name":"京九线","nameEn":"Jingjiu Line","ref":"0005","usage":"main","bridge":"yes","status":"operational","color":"#E54848","dataOrigin":"datum-2026-08-01","sourceKey":"way:218124273"}},{"type":"Feature","geometry":{"type":"LineString","coordinates":[[114.973884,24.5251055],[114.973858,24.5244917],[114.9738068,24.5240361],[114.973647,24.5235541],[114.973407,24.522653],[114.9727473,24.5212325]]},"properties":{"key":"way:218124275@detail:459_98","osmType":"way","osmId":218124275,"sourceRegion":"guangdong","featureType":"infrastructure","railClass":"national","mode":"rail","name":"京九线","nameEn":"Jingjiu Line","ref":"0005","usage":"main","status":"operational","color":"#E54848","dataOrigin":"datum-2026-08-01","sourceKey":"way:218124275"}},{"type":"Feature","geometry":{"type":"LineString","coordinates":[[114.9795164,24.6306133],[114.979437,24.6294541]]},"properties":{"key":"way:218185575@detail:459_98","osmType":"way","osmId":218185575,"sourceRegion":"guangdong","featureType":"infrastructure","railClass":"national","mode":"rail","name":"京九线","nameEn":"Jingjiu Line","ref":"0005","usage":"main","bridge":"yes","status":"operational","color":"#E54848","dataOrigin":"datum-2026-08-01","sourceKey":"way:218185575"}},{"type":"Feature","geometry":{"type":"LineString","coordinates":[[114.9925786,24.6769547],[114.9920286,24.6760979]]},"properties":{"key":"way:218185578@detail:459_98","osmType":"way","osmId":218185578,"sourceRegion":"guangdong","featureType":"infrastructure","railClass":"national","mode":"rail","name":"京九线","nameEn":"Jingjiu Line","ref":"0005","usage":"main","bridge":"yes","status":"operational","color":"#E54848","dataOrigin":"datum-2026-08-01","sourceKey":"way:218185578"}},{"type":"Feature","geometry":{"type":"LineString","coordinates":[[114.9856585,24.6564021],[114.9850372,24.6523938]]},"properties":{"key":"way:218185580@detail:459_98","osmType":"way","osmId":218185580,"sourceRegion":"guangdong","featureType":"infrastructure","railClass":"national","mode":"rail","name":"京九线","nameEn":"Jingjiu Line","ref":"0005","usage":"main","tunnel":"yes","status":"operational","color":"#E54848","dataOrigin":"datum-2026-08-01","sourceKey":"way:218185580"}},{"type":"Feature","geometry":{"type":"LineString","coordinates":[[114.995127,24.6829673],[114.9947454,24.6820131]]},"properties":{"key":"way:218185582@detail:459_98","osmType":"way","osmId":218185582,"sourceRegion":"guangdong","featureType":"infrastructure","railClass":"national","mode":"rail","name":"京九线","nameEn":"Jingjiu Line","ref":"0005","usage":"main","status":"operational","color":"#E54848","dataOrigin":"datum-2026-08-01","sourceKey":"way:218185582"}},{"type":"Feature","geometry":{"type":"LineString","coordinates":[[114.9947454,24.6820131],[114.9944637,24.681238]]},"properties":{"key":"way:218185583@detail:459_98","osmType":"way","osmId":218185583,"sourceRegion":"guangdong","featureType":"infrastructure","railClass":"national","mode":"rail","name":"京九线","nameEn":"Jingjiu Line","ref":"0005","usage":"main","bridge":"yes","status":"operational","color":"#E54848","dataOrigin":"datum-2026-08-01","sourceKey":"way:218185583"}},{"type":"Feature","geometry":{"type":"LineString","coordinates":[[114.9831758,24.616204],[114.9837308,24.6151214]]},"properties":{"key":"way:218185586@detail:459_98","osmType":"way","osmId":218185586,"sourceRegion":"guangdong","featureType":"infrastructure","railClass":"national","mode":"rail","name":"京九线","nameEn":"Jingjiu Line","ref":"0005","usage":"main","bridge":"yes","status":"operational","color":"#E54848","dataOrigin":"datum-2026-08-01","sourceKey":"way:218185586"}},{"type":"Feature","geometry":{"type":"LineString","coordinates":[[114.9902173,24.6721511],[114.9900547,24.6708839]]},"properties":{"key":"way:218185590@detail:459_98","osmType":"way","osmId":218185590,"sourceRegion":"guangdong","featureType":"infrastructure","railClass":"national","mode":"rail","name":"京九线","nameEn":"Jingjiu Line","ref":"0005","usage":"main","bridge":"yes","status":"operational","color":"#E54848","dataOrigin":"datum-2026-08-01","sourceKey":"way:218185590"}},{"type":"Feature","geometry":{"type":"LineString","coordinates":[[114.9826872,24.6171543],[114.9827785,24.6169707]]},"properties":{"key":"way:218185593@detail:459_98","osmType":"way","osmId":218185593,"sourceRegion":"guangdong","featureType":"infrastructure","railClass":"national","mode":"rail","name":"京九线","nameEn":"Jingjiu Line","ref":"0005","usage":"main","status":"operational","color":"#E54848","dataOrigin":"datum-2026-08-01","sourceKey":"way:218185593"}},{"type":"Feature","geometry":{"type":"LineString","coordinates":[[114.9837308,24.6151214],[114.9838264,24.6149349]]},"properties":{"key":"way:218185596@detail:459_98","osmType":"way","osmId":218185596,"sourceRegion":"guangdong","featureType":"infrastructure","railClass":"national","mode":"rail","name":"京九线","nameEn":"Jingjiu Line","ref":"0005","usage":"main","status":"operational","color":"#E54848","dataOrigin":"datum-2026-08-01","sourceKey":"way:218185596"}},{"type":"Feature","geometry":{"type":"LineString","coordinates":[[114.9897829,24.6691],[114.9895948,24.6678649]]},"properties":{"key":"way:218185597@detail:459_98","osmType":"way","osmId":218185597,"sourceRegion":"guangdong","featureType":"infrastructure","railClass":"national","mode":"rail","name":"京九线","nameEn":"Jingjiu Line","ref":"0005","usage":"main","tunnel":"yes","status":"operational","color":"#E54848","dataOrigin":"datum-2026-08-01","sourceKey":"way:218185597"}},{"type":"Feature","geometry":{"type":"LineString","coordinates":[[114.9845183,24.6482896],[114.9843063,24.6468528]]},"properties":{"key":"way:218185598@detail:459_98","osmType":"way","osmId":218185598,"sourceRegion":"guangdong","featureType":"infrastructure","railClass":"national","mode":"rail","name":"京九线","nameEn":"Jingjiu Line","ref":"0005","usage":"main","bridge":"yes","status":"operational","color":"#E54848","dataOrigin":"datum-2026-08-01","sourceKey":"way:218185598"}},{"type":"Feature","geometry":{"type":"LineString","coordinates":[[114.9888614,24.6657724],[114.9883071,24.6649404]]},"properties":{"key":"way:218185599@detail:459_98","osmType":"way","osmId":218185599,"sourceRegion":"guangdong","featureType":"infrastructure","railClass":"national","mode":"rail","name":"京九线","nameEn":"Jingjiu Line","ref":"0005","usage":"main","status":"operational","color":"#E54848","dataOrigin":"datum-2026-08-01","sourceKey":"way:218185599"}},{"type":"Feature","geometry":{"type":"LineString","coordinates":[[114.9827785,24.6169707],[114.9830992,24.6163285]]},"properties":{"key":"way:218185601@detail:459_98","osmType":"way","osmId":218185601,"sourceRegion":"guangdong","featureType":"infrastructure","railClass":"national","mode":"rail","name":"京九线","nameEn":"Jingjiu Line","ref":"0005","usage":"main","tunnel":"yes","status":"operational","color":"#E54848","dataOrigin":"datum-2026-08-01","sourceKey":"way:218185601"}},{"type":"Feature","geometry":{"type":"LineString","coordinates":[[114.9895948,24.6678649],[114.9895215,24.6674196]]},"properties":{"key":"way:218185605@detail:459_98","osmType":"way","osmId":218185605,"sourceRegion":"guangdong","featureType":"infrastructure","railClass":"national","mode":"rail","name":"京九线","nameEn":"Jingjiu Line","ref":"0005","usage":"main","status":"operational","color":"#E54848","dataOrigin":"datum-2026-08-01","sourceKey":"way:218185605"}},{"type":"Feature","geometry":{"type":"LineString","coordinates":[[114.9819954,24.6185456],[114.9826872,24.6171543]]},"properties":{"key":"way:218185607@detail:459_98","osmType":"way","osmId":218185607,"sourceRegion":"guangdong","featureType":"infrastructure","railClass":"national","mode":"rail","name":"京九线","nameEn":"Jingjiu Line","ref":"0005","usage":"main","bridge":"yes","status":"operational","color":"#E54848","dataOrigin":"datum-2026-08-01","sourceKey":"way:218185607"}},{"type":"Feature","geometry":{"type":"LineString","coordinates":[[114.9830841,24.6416662],[114.9828333,24.6410697]]},"properties":{"key":"way:218185610@detail:459_98","osmType":"way","osmId":218185610,"sourceRegion":"guangdong","featureType":"infrastructure","railClass":"national","mode":"rail","name":"京九线","nameEn":"Jingjiu Line","ref":"0005","usage":"main","status":"operational","color":"#E54848","dataOrigin":"datum-2026-08-01","sourceKey":"way:218185610"}},{"type":"Feature","geometry":{"type":"LineString","coordinates":[[114.9796039,24.6313732],[114.9795164,24.6306133]]},"properties":{"key":"way:218185612@detail:459_98","osmType":"way","osmId":218185612,"sourceRegion":"guangdong","featureType":"infrastructure","railClass":"national","mode":"rail","name":"京九线","nameEn":"Jingjiu Line","ref":"0005","usage":"main","status":"operational","color":"#E54848","dataOrigin":"datum-2026-08-01","sourceKey":"way:218185612"}},{"type":"Feature","geometry":{"type":"LineString","coordinates":[[114.9794338,24.629299],[114.9793406,24.6276567]]},"properties":{"key":"way:218185613@detail:459_98","osmType":"way","osmId":218185613,"sourceRegion":"guangdong","featureType":"infrastructure","railClass":"national","mode":"rail","name":"京九线","nameEn":"Jingjiu Line","ref":"0005","usage":"main","tunnel":"yes","status":"operational","color":"#E54848","dataOrigin":"datum-2026-08-01","sourceKey":"way:218185613"}},{"type":"Feature","geometry":{"type":"LineString","coordinates":[[114.9900547,24.6708839],[114.9897829,24.6691]]},"properties":{"key":"way:218185616@detail:459_98","osmType":"way","osmId":218185616,"sourceRegion":"guangdong","featureType":"infrastructure","railClass":"national","mode":"rail","name":"京九线","nameEn":"Jingjiu Line","ref":"0005","usage":"main","status":"operational","color":"#E54848","dataOrigin":"datum-2026-08-01","sourceKey":"way:218185616"}},{"type":"Feature","geometry":{"type":"LineString","coordinates":[[114.9846517,24.649194],[114.9845183,24.6482896]]},"properties":{"key":"way:218185617@detail:459_98","osmType":"way","osmId":218185617,"sourceRegion":"guangdong","featureType":"infrastructure","railClass":"national","mode":"rail","name":"京九线","nameEn":"Jingjiu Line","ref":"0005","usage":"main","status":"operational","color":"#E54848","dataOrigin":"datum-2026-08-01","sourceKey":"way:218185617"}},{"type":"Feature","geometry":{"type":"LineString","coordinates":[[114.9800144,24.6327108],[114.9799298,24.6325001]]},"properties":{"key":"way:218185619@detail:459_98","osmType":"way","osmId":218185619,"sourceRegion":"guangdong","featureType":"infrastructure","railClass":"national","mode":"rail","name":"京九线","nameEn":"Jingjiu Line","ref":"0005","usage":"main","status":"operational","color":"#E54848","dataOrigin":"datum-2026-08-01","sourceKey":"way:218185619"}},{"type":"Feature","geometry":{"type":"LineString","coordinates":[[114.9850372,24.6523938],[114.9849567,24.6515677]]},"properties":{"key":"way:218185620@detail:459_98","osmType":"way","osmId":218185620,"sourceRegion":"guangdong","featureType":"infrastructure","railClass":"national","mode":"rail","name":"京九线","nameEn":"Jingjiu Line","ref":"0005","usage":"main","status":"operational","color":"#E54848","dataOrigin":"datum-2026-08-01","sourceKey":"way:218185620"}},{"type":"Feature","geometry":{"type":"LineString","coordinates":[[114.9849567,24.6515677],[114.9846517,24.649194]]},"properties":{"key":"way:218185622@detail:459_98","osmType":"way","osmId":218185622,"sourceRegion":"guangdong","featureType":"infrastructure","railClass":"national","mode":"rail","name":"京九线","nameEn":"Jingjiu Line","ref":"0005","usage":"main","bridge":"yes","status":"operational","color":"#E54848","dataOrigin":"datum-2026-08-01","sourceKey":"way:218185622"}},{"type":"Feature","geometry":{"type":"LineString","coordinates":[[114.9806355,24.6344189],[114.9800144,24.6327108]]},"properties":{"key":"way:218185624@detail:459_98","osmType":"way","osmId":218185624,"sourceRegion":"guangdong","featureType":"infrastructure","railClass":"national","mode":"rail","name":"京九线","nameEn":"Jingjiu Line","ref":"0005","usage":"main","bridge":"yes","status":"operational","color":"#E54848","dataOrigin":"datum-2026-08-01","sourceKey":"way:218185624"}},{"type":"Feature","geometry":{"type":"LineString","coordinates":[[114.9830992,24.6163285],[114.9831758,24.616204]]},"properties":{"key":"way:218185625@detail:459_98","osmType":"way","osmId":218185625,"sourceRegion":"guangdong","featureType":"infrastructure","railClass":"national","mode":"rail","name":"京九线","nameEn":"Jingjiu Line","ref":"0005","usage":"main","status":"operational","color":"#E54848","dataOrigin":"datum-2026-08-01","sourceKey":"way:218185625"}},{"type":"Feature","geometry":{"type":"LineString","coordinates":[[114.9803347,24.6216137],[114.9810643,24.6202172]]},"properties":{"key":"way:218185628@detail:459_98","osmType":"way","osmId":218185628,"sourceRegion":"guangdong","featureType":"infrastructure","railClass":"national","mode":"rail","name":"京九线","nameEn":"Jingjiu Line","ref":"0005","usage":"main","tunnel":"yes","status":"operational","color":"#E54848","dataOrigin":"datum-2026-08-01","sourceKey":"way:218185628"}},{"type":"Feature","geometry":{"type":"LineString","coordinates":[[114.979437,24.6294541],[114.9794338,24.629299]]},"properties":{"key":"way:218185638@detail:459_98","osmType":"way","osmId":218185638,"sourceRegion":"guangdong","featureType":"infrastructure","railClass":"national","mode":"rail","name":"京九线","nameEn":"Jingjiu Line","ref":"0005","usage":"main","status":"operational","color":"#E54848","dataOrigin":"datum-2026-08-01","sourceKey":"way:218185638"}},{"type":"Feature","geometry":{"type":"LineString","coordinates":[[115.0,24.693890410130717],[114.9999212,24.6937997]]},"properties":{"key":"way:218185640@detail:459_98","osmType":"way","osmId":218185640,"sourceRegion":"guangdong","featureType":"infrastructure","railClass":"national","mode":"rail","name":"京九线","nameEn":"Jingjiu Line","ref":"0005","usage":"main","tunnel":"yes","status":"operational","color":"#E54848","dataOrigin":"datum-2026-08-01","sourceKey":"way:218185640"}},{"type":"Feature","geometry":{"type":"LineString","coordinates":[[114.9798335,24.622727],[114.9800326,24.6222504],[114.9803347,24.6216137]]},"properties":{"key":"way:218185643@detail:459_98","osmType":"way","osmId":218185643,"sourceRegion":"guangdong","featureType":"infrastructure","railClass":"national","mode":"rail","name":"京九线","nameEn":"Jingjiu Line","ref":"0005","usage":"main","status":"operational","color":"#E54848","dataOrigin":"datum-2026-08-01","sourceKey":"way:218185643"}},{"type":"Feature","geometry":{"type":"LineString","coordinates":[[114.9843063,24.6468528],[114.984076,24.64522],[114.9837789,24.6435882]]},"properties":{"key":"way:218185645@detail:459_98","osmType":"way","osmId":218185645,"sourceRegion":"guangdong","featureType":"infrastructure","railClass":"national","mode":"rail","name":"京九线","nameEn":"Jingjiu Line","ref":"0005","usage":"main","status":"operational","color":"#E54848","dataOrigin":"datum-2026-08-01","sourceKey":"way:218185645"}},{"type":"Feature","geometry":{"type":"LineString","coordinates":[[114.9799298,24.6325001],[114.9797147,24.6318967],[114.9796039,24.6313732]]},"properties":{"key":"way:218185647@detail:459_98","osmType":"way","osmId":218185647,"sourceRegion":"guangdong","featureType":"infrastructure","railClass":"national","mode":"rail","name":"京九线","nameEn":"Jingjiu Line","ref":"0005","usage":"main","tunnel":"yes","status":"operational","color":"#E54848","dataOrigin":"datum-2026-08-01","sourceKey":"way:218185647"}},{"type":"Feature","geometry":{"type":"LineString","coordinates":[[114.9828333,24.6410697],[114.9823074,24.6398167],[114.981841,24.6387839]]},"properties":{"key":"way:218185648@detail:459_98","osmType":"way","osmId":218185648,"sourceRegion":"guangdong","featureType":"infrastructure","railClass":"national","mode":"rail","name":"京九线","nameEn":"Jingjiu Line","ref":"0005","usage":"main","bridge":"yes","status":"operational","color":"#E54848","dataOrigin":"datum-2026-08-01","sourceKey":"way:218185648"}},{"type":"Feature","geometry":{"type":"LineString","coordinates":[[114.9810643,24.6202172],[114.981415,24.619546],[114.9819954,24.6185456]]},"properties":{"key":"way:218185653@detail:459_98","osmType":"way","osmId":218185653,"sourceRegion":"guangdong","featureType":"infrastructure","railClass":"national","mode":"rail","name":"京九线","nameEn":"Jingjiu Line","ref":"0005","usage":"main","status":"operational","color":"#E54848","dataOrigin":"datum-2026-08-01","sourceKey":"way:218185653"}},{"type":"Feature","geometry":{"type":"LineString","coordinates":[[114.9793361,24.6247174],[114.979458,24.623999],[114.9796133,24.623373],[114.9798335,24.622727]]},"properties":{"key":"way:218185654@detail:459_98","osmType":"way","osmId":218185654,"sourceRegion":"guangdong","featureType":"infrastructure","railClass":"national","mode":"rail","name":"京九线","nameEn":"Jingjiu Line","ref":"0005","usage":"main","bridge":"yes","status":"operational","color":"#E54848","dataOrigin":"datum-2026-08-01","sourceKey":"way:218185654"}},{"type":"Feature","geometry":{"type":"LineString","coordinates":[[114.9846072,24.6116491],[114.9844055,24.6127624],[114.9841175,24.6140617],[114.9838264,24.6149349]]},"properties":{"key":"way:218185656@detail:459_98","osmType":"way","osmId":218185656,"sourceRegion":"guangdong","featureType":"infrastructure","railClass":"national","mode":"rail","name":"京九线","nameEn":"Jingjiu Line","ref":"0005","usage":"main","tunnel":"yes","status":"operational","color":"#E54848","dataOrigin":"datum-2026-08-01","sourceKey":"way:218185656"}},{"type":"Feature","geometry":{"type":"LineString","coordinates":[[114.9895215,24.6674196],[114.9893619,24.6667999],[114.9891505,24.6662891],[114.9888614,24.6657724]]},"properties":{"key":"way:218185657@detail:459_98","osmType":"way","osmId":218185657,"sourceRegion":"guangdong","featureType":"infrastructure","railClass":"national","mode":"rail","name":"京九线","nameEn":"Jingjiu Line","ref":"0005","usage":"main","bridge":"yes","status":"operational","color":"#E54848","dataOrigin":"datum-2026-08-01","sourceKey":"way:218185657"}},{"type":"Feature","geometry":{"type":"LineString","coordinates":[[114.9837789,24.6435882],[114.9836565,24.6431441],[114.983474,24.642632],[114.9830841,24.6416662]]},"properties":{"key":"way:218185658@detail:459_98","osmType":"way","osmId":218185658,"sourceRegion":"guangdong","featureType":"infrastructure","railClass":"national","mode":"rail","name":"京九线","nameEn":"Jingjiu Line","ref":"0005","usage":"main","bridge":"yes","status":"operational","color":"#E54848","dataOrigin":"datum-2026-08-01","sourceKey":"way:218185658"}},{"type":"Feature","geometry":{"type":"LineString","coordinates":[[114.9862504,24.6616297],[114.986036,24.66081],[114.98589,24.659791],[114.9856585,24.6564021]]},"properties":{"key":"way:218185659@detail:459_98","osmType":"way","osmId":218185659,"sourceRegion":"guangdong","featureType":"infrastructure","railClass":"national","mode":"rail","name":"京九线","nameEn":"Jingjiu Line","ref":"0005","usage":"main","status":"operational","color":"#E54848","dataOrigin":"datum-2026-08-01","sourceKey":"way:218185659"}},{"type":"Feature","geometry":{"type":"LineString","coordinates":[[114.9883071,24.6649404],[114.986777,24.662789],[114.986339,24.661828],[114.9862504,24.6616297]]},"properties":{"key":"way:218185662@detail:459_98","osmType":"way","osmId":218185662,"sourceRegion":"guangdong","featureType":"infrastructure","railClass":"national","mode":"rail","name":"京九线","nameEn":"Jingjiu Line","ref":"0005","usage":"main","bridge":"yes","status":"operational","color":"#E54848","dataOrigin":"datum-2026-08-01","sourceKey":"way:218185662"}},{"type":"Feature","geometry":{"type":"LineString","coordinates":[[114.9793406,24.6276567],[114.979304,24.626554],[114.9792998,24.6253749],[114.9793361,24.6247174]]},"properties":{"key":"way:218185663@detail:459_98","osmType":"way","osmId":218185663,"sourceRegion":"guangdong","featureType":"infrastructure","railClass":"national","mode":"rail","name":"京九线","nameEn":"Jingjiu Line","ref":"0005","usage":"main","status":"operational","color":"#E54848","dataOrigin":"datum-2026-08-01","sourceKey":"way:218185663"}},{"type":"Feature","geometry":{"type":"LineString","coordinates":[[114.981841,24.6387839],[114.9816162,24.6381954],[114.9810423,24.6356568],[114.9806355,24.6344189]]},"properties":{"key":"way:218185666@detail:459_98","osmType":"way","osmId":218185666,"sourceRegion":"guangdong","featureType":"infrastructure","railClass":"national","mode":"rail","name":"京九线","nameEn":"Jingjiu Line","ref":"0005","usage":"main","status":"operational","color":"#E54848","dataOrigin":"datum-2026-08-01","sourceKey":"way:218185666"}},{"type":"Feature","geometry":{"type":"LineString","coordinates":[[114.9944637,24.681238],[114.9943213,24.6808463],[114.9937114,24.6792772],[114.9931475,24.6780322],[114.9925786,24.6769547]]},"properties":{"key":"way:218185669@detail:459_98","osmType":"way","osmId":218185669,"sourceRegion":"guangdong","featureType":"infrastructure","railClass":"national","mode":"rail","name":"京九线","nameEn":"Jingjiu Line","ref":"0005","usage":"main","status":"operational","color":"#E54848","dataOrigin":"datum-2026-08-01","sourceKey":"way:218185669"}},{"type":"Feature","geometry":{"type":"LineString","coordinates":[[114.9920286,24.6760979],[114.9913452,24.6751434],[114.9910049,24.674537],[114.9906862,24.6738083],[114.9904141,24.6730676],[114.9902173,24.6721511]]},"properties":{"key":"way:218185676@detail:459_98","osmType":"way","osmId":218185676,"sourceRegion":"guangdong","featureType":"infrastructure","railClass":"national","mode":"rail","name":"京九线","nameEn":"Jingjiu Line","ref":"0005","usage":"main","status":"operational","color":"#E54848","dataOrigin":"datum-2026-08-01","sourceKey":"way:218185676"}},{"type":"Feature","geometry":{"type":"LineString","coordinates":[[114.9999212,24.6937997],[114.9983473,24.6919878],[114.9973879,24.6909353],[114.996784,24.6901069],[114.9963588,24.6892851],[114.9960549,24.6885073]]},"properties":{"key":"way:218185677@detail:459_98","osmType":"way","osmId":218185677,"sourceRegion":"guangdong","featureType":"infrastructure","railClass":"national","mode":"rail","name":"京九线","nameEn":"Jingjiu Line","ref":"0005","usage":"main","status":"operational","color":"#E54848","dataOrigin":"datum-2026-08-01","sourceKey":"way:218185677"}},{"type":"Feature","geometry":{"type":"LineString","coordinates":[[114.9960549,24.6885073],[114.9958796,24.6877481],[114.995702,24.686388],[114.9955482,24.6846434],[114.995419,24.68391],[114.995127,24.6829673]]},"properties":{"key":"way:218185678@detail:459_98","osmType":"way","osmId":218185678,"sourceRegion":"guangdong","featureType":"infrastructure","railClass":"national","mode":"rail","name":"京九线","nameEn":"Jingjiu Line","ref":"0005","usage":"main","bridge":"yes","status":"operational","color":"#E54848","dataOrigin":"datum-2026-08-01","sourceKey":"way:218185678"}},{"type":"Feature","geometry":{"type":"LineString","coordinates":[[114.9830366,24.5965052],[114.9833126,24.598052],[114.9836196,24.599752],[114.9836529,24.5999365],[114.9841427,24.6025703],[114.9841882,24.6028246],[114.984215,24.6030551],[114.9842526,24.6034209],[114.9843,24.6039589],[114.9843153,24.6042556],[114.9844626,24.6081229],[114.9844917,24.6088419],[114.9845315,24.6094139],[114.9845449,24.6096076],[114.9845986,24.6106563]]},"properties":{"key":"way:218185681@detail:459_98","osmType":"way","osmId":218185681,"sourceRegion":"guangdong","featureType":"infrastructure","railClass":"national","mode":"rail","name":"京九线","nameEn":"Jingjiu Line","ref":"0005","usage":"main","status":"operational","color":"#E54848","dataOrigin":"datum-2026-08-01","sourceKey":"way:218185681"}},{"type":"Feature","geometry":{"type":"LineString","coordinates":[[114.9836529,24.5999365],[114.9837564,24.6009115],[114.9837939,24.6011236],[114.9840581,24.6025844],[114.9840984,24.6028222],[114.9841265,24.6030722],[114.9841667,24.6034416],[114.9842204,24.6039562],[114.9842405,24.6042623],[114.9843653,24.6078117],[114.984384,24.6079897],[114.9844917,24.6088419]]},"properties":{"key":"way:531687682@detail:459_98","osmType":"way","osmId":531687682,"sourceRegion":"guangdong","featureType":"infrastructure","railClass":"minor","mode":"rail","name":"未命名","service":"siding","status":"operational","color":"#52636F","dataOrigin":"datum-2026-08-01","sourceKey":"way:531687682"}},{"type":"Feature","geometry":{"type":"LineString","coordinates":[[115.0,24.564526703479363],[114.9943256,24.5562575],[114.9852275,24.5426339],[114.9780285,24.5326886],[114.9768698,24.5309415],[114.976033,24.5297409],[114.9751425,24.528394],[114.9742734,24.5271251],[114.9726934,24.5249097]]},"properties":{"key":"way:769907493@detail:459_98","osmType":"way","osmId":769907493,"sourceRegion":"guangdong","featureType":"infrastructure","railClass":"highspeed","mode":"rail","name":"京港高速线","nameEn":"Jinggang High-Speed Line","ref":"3003","usage":"main","highspeed":"yes","status":"operational","color":"#E54848","dataOrigin":"datum-2026-08-01","sourceKey":"way:769907493"}},{"type":"Feature","geometry":{"type":"LineString","coordinates":[[114.9682122,24.5023397],[114.9681786,24.5016727],[114.9681297,24.5009845],[114.96794446619624,24.5]]},"properties":{"key":"way:906448098@detail:459_98","osmType":"way","osmId":906448098,"sourceRegion":"guangdong","featureType":"infrastructure","railClass":"national","mode":"rail","name":"京九线","nameEn":"Jingjiu Line","ref":"0005","usage":"main","bridge":"yes","status":"operational","color":"#E54848","dataOrigin":"datum-2026-08-01","sourceKey":"way:906448098"}},{"type":"Feature","geometry":{"type":"LineString","coordinates":[[114.9681944,24.5030252],[114.9682122,24.5023397]]},"properties":{"key":"way:906448099@detail:459_98","osmType":"way","osmId":906448099,"sourceRegion":"guangdong","featureType":"infrastructure","railClass":"national","mode":"rail","name":"京九线","nameEn":"Jingjiu Line","ref":"0005","usage":"main","status":"operational","color":"#E54848","dataOrigin":"datum-2026-08-01","sourceKey":"way:906448099"}},{"type":"Feature","geometry":{"type":"LineString","coordinates":[[114.9681921,24.5045355],[114.9681944,24.5030252]]},"properties":{"key":"way:906448100@detail:459_98","osmType":"way","osmId":906448100,"sourceRegion":"guangdong","featureType":"infrastructure","railClass":"national","mode":"rail","name":"京九线","nameEn":"Jingjiu Line","ref":"0005","usage":"main","tunnel":"yes","status":"operational","color":"#E54848","dataOrigin":"datum-2026-08-01","sourceKey":"way:906448100"}},{"type":"Feature","geometry":{"type":"LineString","coordinates":[[114.9684183,24.5076536],[114.9682705,24.5066602],[114.9682086,24.505428],[114.9681921,24.5045355]]},"properties":{"key":"way:906448101@detail:459_98","osmType":"way","osmId":906448101,"sourceRegion":"guangdong","featureType":"infrastructure","railClass":"national","mode":"rail","name":"京九线","nameEn":"Jingjiu Line","ref":"0005","usage":"main","status":"operational","color":"#E54848","dataOrigin":"datum-2026-08-01","sourceKey":"way:906448101"}},{"type":"Feature","geometry":{"type":"LineString","coordinates":[[114.9685832,24.5083797],[114.9684183,24.5076536]]},"properties":{"key":"way:906448102@detail:459_98","osmType":"way","osmId":906448102,"sourceRegion":"guangdong","featureType":"infrastructure","railClass":"national","mode":"rail","name":"京九线","nameEn":"Jingjiu Line","ref":"0005","usage":"main","tunnel":"yes","status":"operational","color":"#E54848","dataOrigin":"datum-2026-08-01","sourceKey":"way:906448102"}},{"type":"Feature","geometry":{"type":"LineString","coordinates":[[114.9695252,24.5113151],[114.9685832,24.5083797]]},"properties":{"key":"way:906448103@detail:459_98","osmType":"way","osmId":906448103,"sourceRegion":"guangdong","featureType":"infrastructure","railClass":"national","mode":"rail","name":"京九线","nameEn":"Jingjiu Line","ref":"0005","usage":"main","status":"operational","color":"#E54848","dataOrigin":"datum-2026-08-01","sourceKey":"way:906448103"}},{"type":"Feature","geometry":{"type":"LineString","coordinates":[[114.9707942,24.5160583],[114.9705782,24.5151206],[114.9702048,24.5135874],[114.9695252,24.5113151]]},"properties":{"key":"way:906448104@detail:459_98","osmType":"way","osmId":906448104,"sourceRegion":"guangdong","featureType":"infrastructure","railClass":"national","mode":"rail","name":"京九线","nameEn":"Jingjiu Line","ref":"0005","usage":"main","bridge":"yes","status":"operational","color":"#E54848","dataOrigin":"datum-2026-08-01","sourceKey":"way:906448104"}},{"type":"Feature","geometry":{"type":"LineString","coordinates":[[114.970935,24.5165134],[114.9707942,24.5160583]]},"properties":{"key":"way:906448105@detail:459_98","osmType":"way","osmId":906448105,"sourceRegion":"guangdong","featureType":"infrastructure","railClass":"national","mode":"rail","name":"京九线","nameEn":"Jingjiu Line","ref":"0005","usage":"main","status":"operational","color":"#E54848","dataOrigin":"datum-2026-08-01","sourceKey":"way:906448105"}},{"type":"Feature","geometry":{"type":"LineString","coordinates":[[114.9713023,24.5174372],[114.970935,24.5165134]]},"properties":{"key":"way:906448106@detail:459_98","osmType":"way","osmId":906448106,"sourceRegion":"guangdong","featureType":"infrastructure","railClass":"national","mode":"rail","name":"京九线","nameEn":"Jingjiu Line","ref":"0005","usage":"main","bridge":"yes","status":"operational","color":"#E54848","dataOrigin":"datum-2026-08-01","sourceKey":"way:906448106"}},{"type":"Feature","geometry":{"type":"LineString","coordinates":[[114.9715061,24.5179618],[114.9713023,24.5174372]]},"properties":{"key":"way:906448107@detail:459_98","osmType":"way","osmId":906448107,"sourceRegion":"guangdong","featureType":"infrastructure","railClass":"national","mode":"rail","name":"京九线","nameEn":"Jingjiu Line","ref":"0005","usage":"main","status":"operational","color":"#E54848","dataOrigin":"datum-2026-08-01","sourceKey":"way:906448107"}},{"type":"Feature","geometry":{"type":"LineString","coordinates":[[114.9717143,24.5185237],[114.9715061,24.5179618]]},"properties":{"key":"way:906448108@detail:459_98","osmType":"way","osmId":906448108,"sourceRegion":"guangdong","featureType":"infrastructure","railClass":"national","mode":"rail","name":"京九线","nameEn":"Jingjiu Line","ref":"0005","usage":"main","bridge":"yes","status":"operational","color":"#E54848","dataOrigin":"datum-2026-08-01","sourceKey":"way:906448108"}},{"type":"Feature","geometry":{"type":"LineString","coordinates":[[114.9717741,24.5186774],[114.9717143,24.5185237]]},"properties":{"key":"way:906448109@detail:459_98","osmType":"way","osmId":906448109,"sourceRegion":"guangdong","featureType":"infrastructure","railClass":"national","mode":"rail","name":"京九线","nameEn":"Jingjiu Line","ref":"0005","usage":"main","status":"operational","color":"#E54848","dataOrigin":"datum-2026-08-01","sourceKey":"way:906448109"}},{"type":"Feature","geometry":{"type":"LineString","coordinates":[[114.9721138,24.5195304],[114.9717741,24.5186774]]},"properties":{"key":"way:906448110@detail:459_98","osmType":"way","osmId":906448110,"sourceRegion":"guangdong","featureType":"infrastructure","railClass":"national","mode":"rail","name":"京九线","nameEn":"Jingjiu Line","ref":"0005","usage":"main","tunnel":"yes","status":"operational","color":"#E54848","dataOrigin":"datum-2026-08-01","sourceKey":"way:906448110"}},{"type":"Feature","geometry":{"type":"LineString","coordinates":[[114.9724815,24.5204534],[114.9721138,24.5195304]]},"properties":{"key":"way:906448111@detail:459_98","osmType":"way","osmId":906448111,"sourceRegion":"guangdong","featureType":"infrastructure","railClass":"national","mode":"rail","name":"京九线","nameEn":"Jingjiu Line","ref":"0005","usage":"main","status":"operational","color":"#E54848","dataOrigin":"datum-2026-08-01","sourceKey":"way:906448111"}},{"type":"Feature","geometry":{"type":"LineString","coordinates":[[114.9727796,24.5212211],[114.9724815,24.5204534]]},"properties":{"key":"way:906448112@detail:459_98","osmType":"way","osmId":906448112,"sourceRegion":"guangdong","featureType":"infrastructure","railClass":"national","mode":"rail","name":"京九线","nameEn":"Jingjiu Line","ref":"0005","usage":"main","tunnel":"yes","status":"operational","color":"#E54848","dataOrigin":"datum-2026-08-01","sourceKey":"way:906448112"}},{"type":"Feature","geometry":{"type":"LineString","coordinates":[[114.9739186,24.5251057],[114.9738925,24.5244895],[114.9738409,24.5240299],[114.9736804,24.5235458],[114.9734399,24.5226431],[114.9727796,24.5212211]]},"properties":{"key":"way:906448113@detail:459_98","osmType":"way","osmId":906448113,"sourceRegion":"guangdong","featureType":"infrastructure","railClass":"national","mode":"rail","name":"京九线","nameEn":"Jingjiu Line","ref":"0005","usage":"main","status":"operational","color":"#E54848","dataOrigin":"datum-2026-08-01","sourceKey":"way:906448113"}},{"type":"Feature","geometry":{"type":"LineString","coordinates":[[114.9738755,24.525919],[114.9739186,24.5251057]]},"properties":{"key":"way:906448114@detail:459_98","osmType":"way","osmId":906448114,"sourceRegion":"guangdong","featureType":"infrastructure","railClass":"national","mode":"rail","name":"京九线","nameEn":"Jingjiu Line","ref":"0005","usage":"main","tunnel":"yes","status":"operational","color":"#E54848","dataOrigin":"datum-2026-08-01","sourceKey":"way:906448114"}},{"type":"Feature","geometry":{"type":"LineString","coordinates":[[114.9737224,24.5276824],[114.9738755,24.525919]]},"properties":{"key":"way:906448115@detail:459_98","osmType":"way","osmId":906448115,"sourceRegion":"guangdong","featureType":"infrastructure","railClass":"national","mode":"rail","name":"京九线","nameEn":"Jingjiu Line","ref":"0005","usage":"main","status":"operational","color":"#E54848","dataOrigin":"datum-2026-08-01","sourceKey":"way:906448115"}},{"type":"Feature","geometry":{"type":"LineString","coordinates":[[114.9728055,24.5391328],[114.972789,24.5381859],[114.9730243,24.5335974],[114.9737224,24.5276824]]},"properties":{"key":"way:906448116@detail:459_98","osmType":"way","osmId":906448116,"sourceRegion":"guangdong","featureType":"infrastructure","railClass":"national","mode":"rail","name":"京九线","nameEn":"Jingjiu Line","ref":"0005","usage":"main","tunnel":"yes","status":"operational","color":"#E54848","dataOrigin":"datum-2026-08-01","sourceKey":"way:906448116"}},{"type":"Feature","geometry":{"type":"LineString","coordinates":[[114.9731438,24.5412802],[114.97295,24.5401616],[114.9728055,24.5391328]]},"properties":{"key":"way:906448117@detail:459_98","osmType":"way","osmId":906448117,"sourceRegion":"guangdong","featureType":"infrastructure","railClass":"national","mode":"rail","name":"京九线","nameEn":"Jingjiu Line","ref":"0005","usage":"main","status":"operational","color":"#E54848","dataOrigin":"datum-2026-08-01","sourceKey":"way:906448117"}},{"type":"Feature","geometry":{"type":"LineString","coordinates":[[114.9733563,24.5424108],[114.9731438,24.5412802]]},"properties":{"key":"way:906448118@detail:459_98","osmType":"way","osmId":906448118,"sourceRegion":"guangdong","featureType":"infrastructure","railClass":"national","mode":"rail","name":"京九线","nameEn":"Jingjiu Line","ref":"0005","usage":"main","tunnel":"yes","status":"operational","color":"#E54848","dataOrigin":"datum-2026-08-01","sourceKey":"way:906448118"}},{"type":"Feature","geometry":{"type":"LineString","coordinates":[[114.973704,24.5450883],[114.9736324,24.5443856],[114.9733563,24.5424108]]},"properties":{"key":"way:906448119@detail:459_98","osmType":"way","osmId":906448119,"sourceRegion":"guangdong","featureType":"infrastructure","railClass":"national","mode":"rail","name":"京九线","nameEn":"Jingjiu Line","ref":"0005","usage":"main","status":"operational","color":"#E54848","dataOrigin":"datum-2026-08-01","sourceKey":"way:906448119"}},{"type":"Feature","geometry":{"type":"LineString","coordinates":[[114.9735079,24.5473583],[114.9736324,24.5465242],[114.9736881,24.5457257],[114.973704,24.5450883]]},"properties":{"key":"way:906448120@detail:459_98","osmType":"way","osmId":906448120,"sourceRegion":"guangdong","featureType":"infrastructure","railClass":"national","mode":"rail","name":"京九线","nameEn":"Jingjiu Line","ref":"0005","usage":"main","bridge":"yes","status":"operational","color":"#E54848","dataOrigin":"datum-2026-08-01","sourceKey":"way:906448120"}},{"type":"Feature","geometry":{"type":"LineString","coordinates":[[114.9735511,24.5489427],[114.9734844,24.5481264],[114.9735079,24.5473583]]},"properties":{"key":"way:906448121@detail:459_98","osmType":"way","osmId":906448121,"sourceRegion":"guangdong","featureType":"infrastructure","railClass":"national","mode":"rail","name":"京九线","nameEn":"Jingjiu Line","ref":"0005","usage":"main","status":"operational","color":"#E54848","dataOrigin":"datum-2026-08-01","sourceKey":"way:906448121"}},{"type":"Feature","geometry":{"type":"LineString","coordinates":[[114.9737432,24.5498123],[114.9735511,24.5489427]]},"properties":{"key":"way:906448122@detail:459_98","osmType":"way","osmId":906448122,"sourceRegion":"guangdong","featureType":"infrastructure","railClass":"national","mode":"rail","name":"京九线","nameEn":"Jingjiu Line","ref":"0005","usage":"main","tunnel":"yes","status":"operational","color":"#E54848","dataOrigin":"datum-2026-08-01","sourceKey":"way:906448122"}},{"type":"Feature","geometry":{"type":"LineString","coordinates":[[114.9752521,24.5532864],[114.9749695,24.5525148],[114.9737432,24.5498123]]},"properties":{"key":"way:906448123@detail:459_98","osmType":"way","osmId":906448123,"sourceRegion":"guangdong","featureType":"infrastructure","railClass":"national","mode":"rail","name":"京九线","nameEn":"Jingjiu Line","ref":"0005","usage":"main","status":"operational","color":"#E54848","dataOrigin":"datum-2026-08-01","sourceKey":"way:906448123"}},{"type":"Feature","geometry":{"type":"LineString","coordinates":[[114.975769,24.5547788],[114.9755039,24.5538788],[114.9752521,24.5532864]]},"properties":{"key":"way:906448124@detail:459_98","osmType":"way","osmId":906448124,"sourceRegion":"guangdong","featureType":"infrastructure","railClass":"national","mode":"rail","name":"京九线","nameEn":"Jingjiu Line","ref":"0005","usage":"main","tunnel":"yes","status":"operational","color":"#E54848","dataOrigin":"datum-2026-08-01","sourceKey":"way:906448124"}},{"type":"Feature","geometry":{"type":"LineString","coordinates":[[114.9760489,24.5565488],[114.9759317,24.5556463],[114.975769,24.5547788]]},"properties":{"key":"way:906448125@detail:459_98","osmType":"way","osmId":906448125,"sourceRegion":"guangdong","featureType":"infrastructure","railClass":"national","mode":"rail","name":"京九线","nameEn":"Jingjiu Line","ref":"0005","usage":"main","status":"operational","color":"#E54848","dataOrigin":"datum-2026-08-01","sourceKey":"way:906448125"}},{"type":"Feature","geometry":{"type":"LineString","coordinates":[[114.983084,24.5965068],[114.9760489,24.5565488]]},"properties":{"key":"way:906448126@detail:459_98","osmType":"way","osmId":906448126,"sourceRegion":"guangdong","featureType":"infrastructure","railClass":"national","mode":"rail","name":"京九线","nameEn":"Jingjiu Line","ref":"0005","usage":"main","tunnel":"yes","status":"operational","color":"#E54848","dataOrigin":"datum-2026-08-01","sourceKey":"way:906448126"}},{"type":"Feature","geometry":{"type":"LineString","coordinates":[[114.9846388,24.6106624],[114.9846244,24.6103807],[114.9845342,24.6086211],[114.9845254,24.60845],[114.9843655,24.6042585],[114.9843472,24.6039533],[114.9842969,24.6034148],[114.9842633,24.6030502],[114.9842338,24.6028137],[114.9841917,24.6025648],[114.9836013,24.5993524],[114.9835282,24.5989621],[114.9834988,24.5988054],[114.983084,24.5965068]]},"properties":{"key":"way:906448127@detail:459_98","osmType":"way","osmId":906448127,"sourceRegion":"guangdong","featureType":"infrastructure","railClass":"national","mode":"rail","name":"京九线","nameEn":"Jingjiu Line","ref":"0005","usage":"main","status":"operational","color":"#E54848","dataOrigin":"datum-2026-08-01","sourceKey":"way:906448127"}},{"type":"Feature","geometry":{"type":"LineString","coordinates":[[114.9838588,24.6149462],[114.9841511,24.6140694],[114.9844395,24.6127684],[114.9846513,24.6116441]]},"properties":{"key":"way:906448128@detail:459_98","osmType":"way","osmId":906448128,"sourceRegion":"guangdong","featureType":"infrastructure","railClass":"national","mode":"rail","name":"京九线","nameEn":"Jingjiu Line","ref":"0005","usage":"main","tunnel":"yes","status":"operational","color":"#E54848","dataOrigin":"datum-2026-08-01","sourceKey":"way:906448128"}},{"type":"Feature","geometry":{"type":"LineString","coordinates":[[114.9837622,24.6151347],[114.9838588,24.6149462]]},"properties":{"key":"way:906448129@detail:459_98","osmType":"way","osmId":906448129,"sourceRegion":"guangdong","featureType":"infrastructure","railClass":"national","mode":"rail","name":"京九线","nameEn":"Jingjiu Line","ref":"0005","usage":"main","status":"operational","color":"#E54848","dataOrigin":"datum-2026-08-01","sourceKey":"way:906448129"}},{"type":"Feature","geometry":{"type":"LineString","coordinates":[[114.9832066,24.6162183],[114.9837622,24.6151347]]},"properties":{"key":"way:906448130@detail:459_98","osmType":"way","osmId":906448130,"sourceRegion":"guangdong","featureType":"infrastructure","railClass":"national","mode":"rail","name":"京九线","nameEn":"Jingjiu Line","ref":"0005","usage":"main","bridge":"yes","status":"operational","color":"#E54848","dataOrigin":"datum-2026-08-01","sourceKey":"way:906448130"}},{"type":"Feature","geometry":{"type":"LineString","coordinates":[[114.9831301,24.6163427],[114.9832066,24.6162183]]},"properties":{"key":"way:906448131@detail:459_98","osmType":"way","osmId":906448131,"sourceRegion":"guangdong","featureType":"infrastructure","railClass":"national","mode":"rail","name":"京九线","nameEn":"Jingjiu Line","ref":"0005","usage":"main","status":"operational","color":"#E54848","dataOrigin":"datum-2026-08-01","sourceKey":"way:906448131"}},{"type":"Feature","geometry":{"type":"LineString","coordinates":[[114.98281,24.6169837],[114.9831301,24.6163427]]},"properties":{"key":"way:906448132@detail:459_98","osmType":"way","osmId":906448132,"sourceRegion":"guangdong","featureType":"infrastructure","railClass":"national","mode":"rail","name":"京九线","nameEn":"Jingjiu Line","ref":"0005","usage":"main","tunnel":"yes","status":"operational","color":"#E54848","dataOrigin":"datum-2026-08-01","sourceKey":"way:906448132"}},{"type":"Feature","geometry":{"type":"LineString","coordinates":[[114.9827187,24.6171673],[114.98281,24.6169837]]},"properties":{"key":"way:906448133@detail:459_98","osmType":"way","osmId":906448133,"sourceRegion":"guangdong","featureType":"infrastructure","railClass":"national","mode":"rail","name":"京九线","nameEn":"Jingjiu Line","ref":"0005","usage":"main","status":"operational","color":"#E54848","dataOrigin":"datum-2026-08-01","sourceKey":"way:906448133"}},{"type":"Feature","geometry":{"type":"LineString","coordinates":[[114.9820265,24.6185594],[114.9827187,24.6171673]]},"properties":{"key":"way:906448134@detail:459_98","osmType":"way","osmId":906448134,"sourceRegion":"guangdong","featureType":"infrastructure","railClass":"national","mode":"rail","name":"京九线","nameEn":"Jingjiu Line","ref":"0005","usage":"main","bridge":"yes","status":"operational","color":"#E54848","dataOrigin":"datum-2026-08-01","sourceKey":"way:906448134"}},{"type":"Feature","geometry":{"type":"LineString","coordinates":[[114.9810956,24.6202307],[114.9814459,24.6195601],[114.9820265,24.6185594]]},"properties":{"key":"way:906448135@detail:459_98","osmType":"way","osmId":906448135,"sourceRegion":"guangdong","featureType":"infrastructure","railClass":"national","mode":"rail","name":"京九线","nameEn":"Jingjiu Line","ref":"0005","usage":"main","status":"operational","color":"#E54848","dataOrigin":"datum-2026-08-01","sourceKey":"way:906448135"}},{"type":"Feature","geometry":{"type":"LineString","coordinates":[[114.9803662,24.6216267],[114.9810956,24.6202307]]},"properties":{"key":"way:906448136@detail:459_98","osmType":"way","osmId":906448136,"sourceRegion":"guangdong","featureType":"infrastructure","railClass":"national","mode":"rail","name":"京九线","nameEn":"Jingjiu Line","ref":"0005","usage":"main","tunnel":"yes","status":"operational","color":"#E54848","dataOrigin":"datum-2026-08-01","sourceKey":"way:906448136"}},{"type":"Feature","geometry":{"type":"LineString","coordinates":[[114.9798662,24.6227372],[114.9800647,24.6222622],[114.9803662,24.6216267]]},"properties":{"key":"way:906448137@detail:459_98","osmType":"way","osmId":906448137,"sourceRegion":"guangdong","featureType":"infrastructure","railClass":"national","mode":"rail","name":"京九线","nameEn":"Jingjiu Line","ref":"0005","usage":"main","status":"operational","color":"#E54848","dataOrigin":"datum-2026-08-01","sourceKey":"way:906448137"}},{"type":"Feature","geometry":{"type":"LineString","coordinates":[[114.9793706,24.6247206],[114.979492,24.6240049],[114.9796468,24.6233811],[114.9798662,24.6227372]]},"properties":{"key":"way:906448138@detail:459_98","osmType":"way","osmId":906448138,"sourceRegion":"guangdong","featureType":"infrastructure","railClass":"national","mode":"rail","name":"京九线","nameEn":"Jingjiu Line","ref":"0005","usage":"main","bridge":"yes","status":"operational","color":"#E54848","dataOrigin":"datum-2026-08-01","sourceKey":"way:906448138"}},{"type":"Feature","geometry":{"type":"LineString","coordinates":[[114.9793752,24.6276554],[114.9793386,24.6265535],[114.9793344,24.6253756],[114.9793706,24.6247206]]},"properties":{"key":"way:906448139@detail:459_98","osmType":"way","osmId":906448139,"sourceRegion":"guangdong","featureType":"infrastructure","railClass":"national","mode":"rail","name":"京九线","nameEn":"Jingjiu Line","ref":"0005","usage":"main","status":"operational","color":"#E54848","dataOrigin":"datum-2026-08-01","sourceKey":"way:906448139"}},{"type":"Feature","geometry":{"type":"LineString","coordinates":[[114.9794684,24.6292979],[114.9793752,24.6276554]]},"properties":{"key":"way:906448140@detail:459_98","osmType":"way","osmId":906448140,"sourceRegion":"guangdong","featureType":"infrastructure","railClass":"national","mode":"rail","name":"京九线","nameEn":"Jingjiu Line","ref":"0005","usage":"main","tunnel":"yes","status":"operational","color":"#E54848","dataOrigin":"datum-2026-08-01","sourceKey":"way:906448140"}},{"type":"Feature","geometry":{"type":"LineString","coordinates":[[114.9794716,24.6294528],[114.9794684,24.6292979]]},"properties":{"key":"way:906448141@detail:459_98","osmType":"way","osmId":906448141,"sourceRegion":"guangdong","featureType":"infrastructure","railClass":"national","mode":"rail","name":"京九线","nameEn":"Jingjiu Line","ref":"0005","usage":"main","status":"operational","color":"#E54848","dataOrigin":"datum-2026-08-01","sourceKey":"way:906448141"}},{"type":"Feature","geometry":{"type":"LineString","coordinates":[[114.9795509,24.6306107],[114.9794716,24.6294528]]},"properties":{"key":"way:906448142@detail:459_98","osmType":"way","osmId":906448142,"sourceRegion":"guangdong","featureType":"infrastructure","railClass":"national","mode":"rail","name":"京九线","nameEn":"Jingjiu Line","ref":"0005","usage":"main","bridge":"yes","status":"operational","color":"#E54848","dataOrigin":"datum-2026-08-01","sourceKey":"way:906448142"}},{"type":"Feature","geometry":{"type":"LineString","coordinates":[[114.9796382,24.6313686],[114.9795509,24.6306107]]},"properties":{"key":"way:906448143@detail:459_98","osmType":"way","osmId":906448143,"sourceRegion":"guangdong","featureType":"infrastructure","railClass":"national","mode":"rail","name":"京九线","nameEn":"Jingjiu Line","ref":"0005","usage":"main","status":"operational","color":"#E54848","dataOrigin":"datum-2026-08-01","sourceKey":"way:906448143"}},{"type":"Feature","geometry":{"type":"LineString","coordinates":[[114.9799625,24.6324899],[114.9797483,24.6318889],[114.9796382,24.6313686]]},"properties":{"key":"way:906448144@detail:459_98","osmType":"way","osmId":906448144,"sourceRegion":"guangdong","featureType":"infrastructure","railClass":"national","mode":"rail","name":"京九线","nameEn":"Jingjiu Line","ref":"0005","usage":"main","tunnel":"yes","status":"operational","color":"#E54848","dataOrigin":"datum-2026-08-01","sourceKey":"way:906448144"}},{"type":"Feature","geometry":{"type":"LineString","coordinates":[[114.9800471,24.6327005],[114.9799625,24.6324899]]},"properties":{"key":"way:906448145@detail:459_98","osmType":"way","osmId":906448145,"sourceRegion":"guangdong","featureType":"infrastructure","railClass":"national","mode":"rail","name":"京九线","nameEn":"Jingjiu Line","ref":"0005","usage":"main","status":"operational","color":"#E54848","dataOrigin":"datum-2026-08-01","sourceKey":"way:906448145"}},{"type":"Feature","geometry":{"type":"LineString","coordinates":[[114.9806685,24.6344095],[114.9800471,24.6327005]]},"properties":{"key":"way:906448146@detail:459_98","osmType":"way","osmId":906448146,"sourceRegion":"guangdong","featureType":"infrastructure","railClass":"national","mode":"rail","name":"京九线","nameEn":"Jingjiu Line","ref":"0005","usage":"main","bridge":"yes","status":"operational","color":"#E54848","dataOrigin":"datum-2026-08-01","sourceKey":"way:906448146"}},{"type":"Feature","geometry":{"type":"LineString","coordinates":[[114.9818734,24.6387728],[114.9816496,24.638187],[114.9810759,24.6356491],[114.9806685,24.6344095]]},"properties":{"key":"way:906448147@detail:459_98","osmType":"way","osmId":906448147,"sourceRegion":"guangdong","featureType":"infrastructure","railClass":"national","mode":"rail","name":"京九线","nameEn":"Jingjiu Line","ref":"0005","usage":"main","status":"operational","color":"#E54848","dataOrigin":"datum-2026-08-01","sourceKey":"way:906448147"}},{"type":"Feature","geometry":{"type":"LineString","coordinates":[[114.9828656,24.6410585],[114.9823396,24.6398051],[114.9818734,24.6387728]]},"properties":{"key":"way:906448148@detail:459_98","osmType":"way","osmId":906448148,"sourceRegion":"guangdong","featureType":"infrastructure","railClass":"national","mode":"rail","name":"京九线","nameEn":"Jingjiu Line","ref":"0005","usage":"main","bridge":"yes","status":"operational","color":"#E54848","dataOrigin":"datum-2026-08-01","sourceKey":"way:906448148"}},{"type":"Feature","geometry":{"type":"LineString","coordinates":[[114.9831165,24.6416552],[114.9828656,24.6410585]]},"properties":{"key":"way:906448149@detail:459_98","osmType":"way","osmId":906448149,"sourceRegion":"guangdong","featureType":"infrastructure","railClass":"national","mode":"rail","name":"京九线","nameEn":"Jingjiu Line","ref":"0005","usage":"main","status":"operational","color":"#E54848","dataOrigin":"datum-2026-08-01","sourceKey":"way:906448149"}},{"type":"Feature","geometry":{"type":"LineString","coordinates":[[114.9838128,24.6435818],[114.9836898,24.6431354],[114.9835067,24.6426217],[114.9831165,24.6416552]]},"properties":{"key":"way:906448150@detail:459_98","osmType":"way","osmId":906448150,"sourceRegion":"guangdong","featureType":"infrastructure","railClass":"national","mode":"rail","name":"京九线","nameEn":"Jingjiu Line","ref":"0005","usage":"main","bridge":"yes","status":"operational","color":"#E54848","dataOrigin":"datum-2026-08-01","sourceKey":"way:906448150"}},{"type":"Feature","geometry":{"type":"LineString","coordinates":[[114.9843406,24.6468487],[114.9841102,24.6452154],[114.9838128,24.6435818]]},"properties":{"key":"way:906448151@detail:459_98","osmType":"way","osmId":906448151,"sourceRegion":"guangdong","featureType":"infrastructure","railClass":"national","mode":"rail","name":"京九线","nameEn":"Jingjiu Line","ref":"0005","usage":"main","status":"operational","color":"#E54848","dataOrigin":"datum-2026-08-01","sourceKey":"way:906448151"}},{"type":"Feature","geometry":{"type":"LineString","coordinates":[[114.9845526,24.6482854],[114.9843406,24.6468487]]},"properties":{"key":"way:906448152@detail:459_98","osmType":"way","osmId":906448152,"sourceRegion":"guangdong","featureType":"infrastructure","railClass":"national","mode":"rail","name":"京九线","nameEn":"Jingjiu Line","ref":"0005","usage":"main","bridge":"yes","status":"operational","color":"#E54848","dataOrigin":"datum-2026-08-01","sourceKey":"way:906448152"}},{"type":"Feature","geometry":{"type":"LineString","coordinates":[[114.984686,24.6491901],[114.9845526,24.6482854]]},"properties":{"key":"way:906448153@detail:459_98","osmType":"way","osmId":906448153,"sourceRegion":"guangdong","featureType":"infrastructure","railClass":"national","mode":"rail","name":"京九线","nameEn":"Jingjiu Line","ref":"0005","usage":"main","status":"operational","color":"#E54848","dataOrigin":"datum-2026-08-01","sourceKey":"way:906448153"}},{"type":"Feature","geometry":{"type":"LineString","coordinates":[[114.9849911,24.6515645],[114.984686,24.6491901]]},"properties":{"key":"way:906448154@detail:459_98","osmType":"way","osmId":906448154,"sourceRegion":"guangdong","featureType":"infrastructure","railClass":"national","mode":"rail","name":"京九线","nameEn":"Jingjiu Line","ref":"0005","usage":"main","bridge":"yes","status":"operational","color":"#E54848","dataOrigin":"datum-2026-08-01","sourceKey":"way:906448154"}},{"type":"Feature","geometry":{"type":"LineString","coordinates":[[114.9850716,24.6523902],[114.9849911,24.6515645]]},"properties":{"key":"way:906448155@detail:459_98","osmType":"way","osmId":906448155,"sourceRegion":"guangdong","featureType":"infrastructure","railClass":"national","mode":"rail","name":"京九线","nameEn":"Jingjiu Line","ref":"0005","usage":"main","status":"operational","color":"#E54848","dataOrigin":"datum-2026-08-01","sourceKey":"way:906448155"}},{"type":"Feature","geometry":{"type":"LineString","coordinates":[[114.985693,24.6563989],[114.9850716,24.6523902]]},"properties":{"key":"way:906448156@detail:459_98","osmType":"way","osmId":906448156,"sourceRegion":"guangdong","featureType":"infrastructure","railClass":"national","mode":"rail","name":"京九线","nameEn":"Jingjiu Line","ref":"0005","usage":"main","tunnel":"yes","status":"operational","color":"#E54848","dataOrigin":"datum-2026-08-01","sourceKey":"way:906448156"}},{"type":"Feature","geometry":{"type":"LineString","coordinates":[[114.9862835,24.6616201],[114.9860701,24.6608043],[114.9859245,24.659788],[114.985693,24.6563989]]},"properties":{"key":"way:906448157@detail:459_98","osmType":"way","osmId":906448157,"sourceRegion":"guangdong","featureType":"infrastructure","railClass":"national","mode":"rail","name":"京九线","nameEn":"Jingjiu Line","ref":"0005","usage":"main","status":"operational","color":"#E54848","dataOrigin":"datum-2026-08-01","sourceKey":"way:906448157"}},{"type":"Feature","geometry":{"type":"LineString","coordinates":[[114.9883364,24.6649237],[114.9868078,24.6627743],[114.986371,24.6618161],[114.9862835,24.6616201]]},"properties":{"key":"way:906448158@detail:459_98","osmType":"way","osmId":906448158,"sourceRegion":"guangdong","featureType":"infrastructure","railClass":"national","mode":"rail","name":"京九线","nameEn":"Jingjiu Line","ref":"0005","usage":"main","bridge":"yes","status":"operational","color":"#E54848","dataOrigin":"datum-2026-08-01","sourceKey":"way:906448158"}},{"type":"Feature","geometry":{"type":"LineString","coordinates":[[114.9888917,24.6657571],[114.9883364,24.6649237]]},"properties":{"key":"way:906448159@detail:459_98","osmType":"way","osmId":906448159,"sourceRegion":"guangdong","featureType":"infrastructure","railClass":"national","mode":"rail","name":"京九线","nameEn":"Jingjiu Line","ref":"0005","usage":"main","status":"operational","color":"#E54848","dataOrigin":"datum-2026-08-01","sourceKey":"way:906448159"}},{"type":"Feature","geometry":{"type":"LineString","coordinates":[[114.9895555,24.6674137],[114.9893951,24.6667907],[114.9891822,24.6662764],[114.9888917,24.6657571]]},"properties":{"key":"way:906448160@detail:459_98","osmType":"way","osmId":906448160,"sourceRegion":"guangdong","featureType":"infrastructure","railClass":"national","mode":"rail","name":"京九线","nameEn":"Jingjiu Line","ref":"0005","usage":"main","bridge":"yes","status":"operational","color":"#E54848","dataOrigin":"datum-2026-08-01","sourceKey":"way:906448160"}},{"type":"Feature","geometry":{"type":"LineString","coordinates":[[114.989629,24.6678604],[114.9895555,24.6674137]]},"properties":{"key":"way:906448161@detail:459_98","osmType":"way","osmId":906448161,"sourceRegion":"guangdong","featureType":"infrastructure","railClass":"national","mode":"rail","name":"京九线","nameEn":"Jingjiu Line","ref":"0005","usage":"main","status":"operational","color":"#E54848","dataOrigin":"datum-2026-08-01","sourceKey":"way:906448161"}},{"type":"Feature","geometry":{"type":"LineString","coordinates":[[114.9898172,24.6690957],[114.989629,24.6678604]]},"properties":{"key":"way:906448162@detail:459_98","osmType":"way","osmId":906448162,"sourceRegion":"guangdong","featureType":"infrastructure","railClass":"national","mode":"rail","name":"京九线","nameEn":"Jingjiu Line","ref":"0005","usage":"main","tunnel":"yes","status":"operational","color":"#E54848","dataOrigin":"datum-2026-08-01","sourceKey":"way:906448162"}},{"type":"Feature","geometry":{"type":"LineString","coordinates":[[114.990089,24.6708799],[114.9898172,24.6690957]]},"properties":{"key":"way:906448163@detail:459_98","osmType":"way","osmId":906448163,"sourceRegion":"guangdong","featureType":"infrastructure","railClass":"national","mode":"rail","name":"京九线","nameEn":"Jingjiu Line","ref":"0005","usage":"main","status":"operational","color":"#E54848","dataOrigin":"datum-2026-08-01","sourceKey":"way:906448163"}},{"type":"Feature","geometry":{"type":"LineString","coordinates":[[114.9902515,24.6721463],[114.990089,24.6708799]]},"properties":{"key":"way:906448164@detail:459_98","osmType":"way","osmId":906448164,"sourceRegion":"guangdong","featureType":"infrastructure","railClass":"national","mode":"rail","name":"京九线","nameEn":"Jingjiu Line","ref":"0005","usage":"main","bridge":"yes","status":"operational","color":"#E54848","dataOrigin":"datum-2026-08-01","sourceKey":"way:906448164"}},{"type":"Feature","geometry":{"type":"LineString","coordinates":[[114.9920581,24.6760814],[114.9913752,24.6751276],[114.9910365,24.674524],[114.9907187,24.6737975],[114.9904476,24.6730596],[114.9902515,24.6721463]]},"properties":{"key":"way:906448165@detail:459_98","osmType":"way","osmId":906448165,"sourceRegion":"guangdong","featureType":"infrastructure","railClass":"national","mode":"rail","name":"京九线","nameEn":"Jingjiu Line","ref":"0005","usage":"main","status":"operational","color":"#E54848","dataOrigin":"datum-2026-08-01","sourceKey":"way:906448165"}},{"type":"Feature","geometry":{"type":"LineString","coordinates":[[114.9926092,24.67694],[114.9920581,24.6760814]]},"properties":{"key":"way:906448166@detail:459_98","osmType":"way","osmId":906448166,"sourceRegion":"guangdong","featureType":"infrastructure","railClass":"national","mode":"rail","name":"京九线","nameEn":"Jingjiu Line","ref":"0005","usage":"main","bridge":"yes","status":"operational","color":"#E54848","dataOrigin":"datum-2026-08-01","sourceKey":"way:906448166"}},{"type":"Feature","geometry":{"type":"LineString","coordinates":[[114.9944966,24.6812281],[114.994354,24.6808361],[114.9937437,24.679266],[114.9931791,24.6780194],[114.9926092,24.67694]]},"properties":{"key":"way:906448167@detail:459_98","osmType":"way","osmId":906448167,"sourceRegion":"guangdong","featureType":"infrastructure","railClass":"national","mode":"rail","name":"京九线","nameEn":"Jingjiu Line","ref":"0005","usage":"main","status":"operational","color":"#E54848","dataOrigin":"datum-2026-08-01","sourceKey":"way:906448167"}},{"type":"Feature","geometry":{"type":"LineString","coordinates":[[114.9947781,24.6820028],[114.9944966,24.6812281]]},"properties":{"key":"way:906448168@detail:459_98","osmType":"way","osmId":906448168,"sourceRegion":"guangdong","featureType":"infrastructure","railClass":"national","mode":"rail","name":"京九线","nameEn":"Jingjiu Line","ref":"0005","usage":"main","bridge":"yes","status":"operational","color":"#E54848","dataOrigin":"datum-2026-08-01","sourceKey":"way:906448168"}},{"type":"Feature","geometry":{"type":"LineString","coordinates":[[114.9951595,24.6829566],[114.9947781,24.6820028]]},"properties":{"key":"way:906448169@detail:459_98","osmType":"way","osmId":906448169,"sourceRegion":"guangdong","featureType":"infrastructure","railClass":"national","mode":"rail","name":"京九线","nameEn":"Jingjiu Line","ref":"0005","usage":"main","status":"operational","color":"#E54848","dataOrigin":"datum-2026-08-01","sourceKey":"way:906448169"}},{"type":"Feature","geometry":{"type":"LineString","coordinates":[[114.9960883,24.6884988],[114.9959138,24.687743],[114.9957365,24.6863849],[114.9955826,24.6846397],[114.9954529,24.6839032],[114.9951595,24.6829566]]},"properties":{"key":"way:906448170@detail:459_98","osmType":"way","osmId":906448170,"sourceRegion":"guangdong","featureType":"infrastructure","railClass":"national","mode":"rail","name":"京九线","nameEn":"Jingjiu Line","ref":"0005","usage":"main","bridge":"yes","status":"operational","color":"#E54848","dataOrigin":"datum-2026-08-01","sourceKey":"way:906448170"}},{"type":"Feature","geometry":{"type":"LineString","coordinates":[[114.9999484,24.6937802],[114.9983742,24.691968],[114.9974157,24.6909165],[114.9968143,24.6900914],[114.9963909,24.6892731],[114.9960883,24.6884988]]},"properties":{"key":"way:906448171@detail:459_98","osmType":"way","osmId":906448171,"sourceRegion":"guangdong","featureType":"infrastructure","railClass":"national","mode":"rail","name":"京九线","nameEn":"Jingjiu Line","ref":"0005","usage":"main","status":"operational","color":"#E54848","dataOrigin":"datum-2026-08-01","sourceKey":"way:906448171"}},{"type":"Feature","geometry":{"type":"LineString","coordinates":[[115.0,24.693839599019615],[114.9999484,24.6937802]]},"properties":{"key":"way:906448172@detail:459_98","osmType":"way","osmId":906448172,"sourceRegion":"guangdong","featureType":"infrastructure","railClass":"national","mode":"rail","name":"京九线","nameEn":"Jingjiu Line","ref":"0005","usage":"main","tunnel":"yes","status":"operational","color":"#E54848","dataOrigin":"datum-2026-08-01","sourceKey":"way:906448172"}},{"type":"Feature","geometry":{"type":"LineString","coordinates":[[114.9711901,24.5226041],[114.9705192,24.5215779]]},"properties":{"key":"way:907910458@detail:459_98","osmType":"way","osmId":907910458,"sourceRegion":"guangdong","featureType":"infrastructure","railClass":"highspeed","mode":"rail","name":"京港高速线","nameEn":"Jinggang High-Speed Line","ref":"3003","usage":"main","highspeed":"yes","status":"operational","color":"#E54848","dataOrigin":"datum-2026-08-01","sourceKey":"way:907910458"}},{"type":"Feature","geometry":{"type":"LineString","coordinates":[[114.9705192,24.5215779],[114.9697346,24.5203536]]},"properties":{"key":"way:907910459@detail:459_98","osmType":"way","osmId":907910459,"sourceRegion":"guangdong","featureType":"infrastructure","railClass":"highspeed","mode":"rail","name":"京港高速线","nameEn":"Jinggang High-Speed Line","ref":"3003","usage":"main","highspeed":"yes","tunnel":"yes","status":"operational","color":"#E54848","dataOrigin":"datum-2026-08-01","sourceKey":"way:907910459"}},{"type":"Feature","geometry":{"type":"LineString","coordinates":[[114.9723374,24.524413],[114.9711901,24.5226041]]},"properties":{"key":"way:907910460@detail:459_98","osmType":"way","osmId":907910460,"sourceRegion":"guangdong","featureType":"infrastructure","railClass":"highspeed","mode":"rail","name":"京港高速线","nameEn":"Jinggang High-Speed Line","ref":"3003","usage":"main","highspeed":"yes","tunnel":"yes","status":"operational","color":"#E54848","dataOrigin":"datum-2026-08-01","sourceKey":"way:907910460"}},{"type":"Feature","geometry":{"type":"LineString","coordinates":[[114.9726934,24.5249097],[114.9723374,24.524413]]},"properties":{"key":"way:907910461@detail:459_98","osmType":"way","osmId":907910461,"sourceRegion":"guangdong","featureType":"infrastructure","railClass":"highspeed","mode":"rail","name":"京港高速线","nameEn":"Jinggang High-Speed Line","ref":"3003","usage":"main","highspeed":"yes","status":"operational","color":"#E54848","dataOrigin":"datum-2026-08-01","sourceKey":"way:907910461"}},{"type":"Feature","geometry":{"type":"LineString","coordinates":[[114.9664755,24.5145804],[114.9630779,24.5075435],[114.9627721,24.5068016],[114.9615598,24.5035898],[114.9604815,24.5004462],[114.96035162494324,24.5]]},"properties":{"key":"way:1263498299@detail:459_98","osmType":"way","osmId":1263498299,"sourceRegion":"guangdong","featureType":"infrastructure","railClass":"highspeed","mode":"rail","name":"京港高速线","nameEn":"Jinggang High-Speed Line","ref":"3003","usage":"main","highspeed":"yes","status":"operational","color":"#E54848","dataOrigin":"datum-2026-08-01","sourceKey":"way:1263498299"}},{"type":"Feature","geometry":{"type":"LineString","coordinates":[[114.9834988,24.5988054],[114.9833126,24.598052]]},"properties":{"key":"way:1424564325@detail:459_98","osmType":"way","osmId":1424564325,"sourceRegion":"guangdong","featureType":"infrastructure","railClass":"minor","mode":"rail","name":"未命名","service":"crossover","status":"operational","color":"#52636F","dataOrigin":"datum-2026-08-01","sourceKey":"way:1424564325"}},{"type":"Feature","geometry":{"type":"LineString","coordinates":[[114.9836196,24.599752],[114.9835282,24.5989621]]},"properties":{"key":"way:1424564326@detail:459_98","osmType":"way","osmId":1424564326,"sourceRegion":"guangdong","featureType":"infrastructure","railClass":"minor","mode":"rail","name":"未命名","service":"crossover","status":"operational","color":"#52636F","dataOrigin":"datum-2026-08-01","sourceKey":"way:1424564326"}},{"type":"Feature","geometry":{"type":"LineString","coordinates":[[114.9845315,24.6094139],[114.9845342,24.6086211]]},"properties":{"key":"way:1424564327@detail:459_98","osmType":"way","osmId":1424564327,"sourceRegion":"guangdong","featureType":"infrastructure","railClass":"minor","mode":"rail","name":"未命名","service":"crossover","status":"operational","color":"#52636F","dataOrigin":"datum-2026-08-01","sourceKey":"way:1424564327"}},{"type":"Feature","geometry":{"type":"LineString","coordinates":[[114.9845449,24.6096076],[114.9846244,24.6103807]]},"properties":{"key":"way:1424564328@detail:459_98","osmType":"way","osmId":1424564328,"sourceRegion":"guangdong","featureType":"infrastructure","railClass":"minor","mode":"rail","name":"未命名","service":"crossover","status":"operational","color":"#52636F","dataOrigin":"datum-2026-08-01","sourceKey":"way:1424564328"}},{"type":"Feature","geometry":{"type":"LineString","coordinates":[[114.9845254,24.60845],[114.984545,24.6077873],[114.9845476,24.6075898],[114.9844186,24.604245],[114.9843981,24.6039544],[114.9843518,24.6034112],[114.9843143,24.6030429],[114.9842848,24.6028112],[114.9842405,24.6025539],[114.9839187,24.6007554],[114.9837765,24.6000628],[114.9837282,24.5998713],[114.9836013,24.5993524]]},"properties":{"key":"way:1424564329@detail:459_98","osmType":"way","osmId":1424564329,"sourceRegion":"guangdong","featureType":"infrastructure","railClass":"minor","mode":"rail","name":"未命名","service":"siding","status":"operational","color":"#52636F","dataOrigin":"datum-2026-08-01","sourceKey":"way:1424564329"}},{"type":"Feature","geometry":{"type":"LineString","coordinates":[[114.984651,24.6115729],[114.9846388,24.6106624]]},"properties":{"key":"way:1424564330@detail:459_98","osmType":"way","osmId":1424564330,"sourceRegion":"guangdong","featureType":"infrastructure","railClass":"national","mode":"rail","name":"京九线","nameEn":"Jingjiu Line","ref":"0005","usage":"main","bridge":"yes","status":"operational","color":"#E54848","dataOrigin":"datum-2026-08-01","sourceKey":"way:1424564330"}},{"type":"Feature","geometry":{"type":"LineString","coordinates":[[114.9845986,24.6106563],[114.9846056,24.6115737]]},"properties":{"key":"way:1424564331@detail:459_98","osmType":"way","osmId":1424564331,"sourceRegion":"guangdong","featureType":"infrastructure","railClass":"national","mode":"rail","name":"京九线","nameEn":"Jingjiu Line","ref":"0005","usage":"main","bridge":"yes","status":"operational","color":"#E54848","dataOrigin":"datum-2026-08-01","sourceKey":"way:1424564331"}},{"type":"Feature","geometry":{"type":"LineString","coordinates":[[114.9846513,24.6116441],[114.984651,24.6115729]]},"properties":{"key":"way:1424564332@detail:459_98","osmType":"way","osmId":1424564332,"sourceRegion":"guangdong","featureType":"infrastructure","railClass":"national","mode":"rail","name":"京九线","nameEn":"Jingjiu Line","ref":"0005","usage":"main","status":"operational","color":"#E54848","dataOrigin":"datum-2026-08-01","sourceKey":"way:1424564332"}},{"type":"Feature","geometry":{"type":"LineString","coordinates":[[114.9846056,24.6115737],[114.9846072,24.6116491]]},"properties":{"key":"way:1424564333@detail:459_98","osmType":"way","osmId":1424564333,"sourceRegion":"guangdong","featureType":"infrastructure","railClass":"national","mode":"rail","name":"京九线","nameEn":"Jingjiu Line","ref":"0005","usage":"main","status":"operational","color":"#E54848","dataOrigin":"datum-2026-08-01","sourceKey":"way:1424564333"}},{"type":"Feature","geometry":{"type":"LineString","coordinates":[[114.9697346,24.5203536],[114.9671173,24.5159095],[114.9665233,24.5146793]]},"properties":{"key":"way:1446472733@detail:459_98","osmType":"way","osmId":1446472733,"sourceRegion":"guangdong","featureType":"infrastructure","railClass":"highspeed","mode":"rail","name":"京港高速线","nameEn":"Jinggang High-Speed Line","ref":"3003","usage":"main","highspeed":"yes","status":"operational","color":"#E54848","dataOrigin":"datum-2026-08-01","sourceKey":"way:1446472733"}},{"type":"Feature","geometry":{"type":"LineString","coordinates":[[114.9665233,24.5146793],[114.9664755,24.5145804]]},"properties":{"key":"way:1446472734@detail:459_98","osmType":"way","osmId":1446472734,"sourceRegion":"guangdong","featureType":"infrastructure","railClass":"highspeed","mode":"rail","name":"京港高速线","nameEn":"Jinggang High-Speed Line","ref":"3003","usage":"main","highspeed":"yes","bridge":"yes","status":"operational","color":"#E54848","dataOrigin":"datum-2026-08-01","sourceKey":"way:1446472734"}}]}