{"type":"FeatureCollection","features":[{"type":"Feature","geometry":{"type":"Point","coordinates":[115.0589186,23.956607]},"properties":{"key":"node:7649702035","osmType":"node","osmId":7649702035,"sourceRegion":"guangdong","featureType":"station","railClass":"minor","mode":"station","name":"蓝口","status":"operational","color":"#52636F","dataOrigin":"datum-2026-08-01","sourceKey":"node:7649702035","stationGroup":"蓝口","hasOperationalRail":true,"hasConstructionRail":false}},{"type":"Feature","geometry":{"type":"Point","coordinates":[115.0017758,23.8862282]},"properties":{"key":"node:8270803977","osmType":"node","osmId":8270803977,"sourceRegion":"guangdong","featureType":"station","railClass":"minor","mode":"station","name":"河源北","status":"operational","color":"#52636F","dataOrigin":"datum-2026-08-01","sourceKey":"node:8270803977","stationGroup":"河源北","hasOperationalRail":true,"hasConstructionRail":false}},{"type":"Feature","geometry":{"type":"LineString","coordinates":[[115.0632929,23.9622432],[115.062674,23.961122],[115.05502,23.952058],[115.051706,23.947997],[115.051031,23.946905],[115.049832,23.944642],[115.048802,23.942368],[115.048231,23.941239],[115.047492,23.940199],[115.046591,23.939279],[115.045527,23.938518],[115.041256,23.935756],[115.040166,23.935117],[115.039005,23.934615],[115.0343661,23.9329474]]},"properties":{"key":"way:27884528@detail:460_95","osmType":"way","osmId":27884528,"sourceRegion":"guangdong","featureType":"infrastructure","railClass":"national","mode":"rail","name":"京九线","nameEn":"Jingjiu Line","ref":"0005","usage":"main","status":"operational","color":"#E54848","dataOrigin":"datum-2026-08-01","sourceKey":"way:27884528"}},{"type":"Feature","geometry":{"type":"LineString","coordinates":[[115.0443306,23.910424],[115.0283161,23.9030353]]},"properties":{"key":"way:819121100@detail:460_95","osmType":"way","osmId":819121100,"sourceRegion":"guangdong","featureType":"infrastructure","railClass":"highspeed","mode":"rail","name":"京港高速线","nameEn":"Jinggang High-Speed Line","ref":"3003","usage":"main","highspeed":"yes","tunnel":"yes","status":"operational","color":"#E54848","dataOrigin":"datum-2026-08-01","sourceKey":"way:819121100"}},{"type":"Feature","geometry":{"type":"LineString","coordinates":[[115.0283161,23.9030353],[115.0251563,23.9014318],[115.024412,23.9010341],[115.0236715,23.9006307],[115.0229347,23.9002215],[115.0223159,23.8998717],[115.0216999,23.8995179]]},"properties":{"key":"way:819121101@detail:460_95","osmType":"way","osmId":819121101,"sourceRegion":"guangdong","featureType":"infrastructure","railClass":"highspeed","mode":"rail","name":"京港高速线","nameEn":"Jinggang High-Speed Line","ref":"3003","usage":"main","highspeed":"yes","bridge":"yes","status":"operational","color":"#E54848","dataOrigin":"datum-2026-08-01","sourceKey":"way:819121101"}},{"type":"Feature","geometry":{"type":"LineString","coordinates":[[115.0489433,23.9127609],[115.0443306,23.910424]]},"properties":{"key":"way:819121102@detail:460_95","osmType":"way","osmId":819121102,"sourceRegion":"guangdong","featureType":"infrastructure","railClass":"highspeed","mode":"rail","name":"京港高速线","nameEn":"Jinggang High-Speed Line","ref":"3003","usage":"main","highspeed":"yes","bridge":"yes","status":"operational","color":"#E54848","dataOrigin":"datum-2026-08-01","sourceKey":"way:819121102"}},{"type":"Feature","geometry":{"type":"LineString","coordinates":[[115.0770819,23.9276275],[115.0489433,23.9127609]]},"properties":{"key":"way:819121103@detail:460_95","osmType":"way","osmId":819121103,"sourceRegion":"guangdong","featureType":"infrastructure","railClass":"highspeed","mode":"rail","name":"京港高速线","nameEn":"Jinggang High-Speed Line","ref":"3003","usage":"main","highspeed":"yes","tunnel":"yes","status":"operational","color":"#E54848","dataOrigin":"datum-2026-08-01","sourceKey":"way:819121103"}},{"type":"Feature","geometry":{"type":"LineString","coordinates":[[115.0837129,23.9324805],[115.0782215,23.9284039]]},"properties":{"key":"way:819121109@detail:460_95","osmType":"way","osmId":819121109,"sourceRegion":"guangdong","featureType":"infrastructure","railClass":"highspeed","mode":"rail","name":"京港高速线","nameEn":"Jinggang High-Speed Line","ref":"3003","usage":"main","highspeed":"yes","tunnel":"yes","status":"operational","color":"#E54848","dataOrigin":"datum-2026-08-01","sourceKey":"way:819121109"}},{"type":"Feature","geometry":{"type":"LineString","coordinates":[[115.0782215,23.9284039],[115.0770819,23.9276275]]},"properties":{"key":"way:819121110@detail:460_95","osmType":"way","osmId":819121110,"sourceRegion":"guangdong","featureType":"infrastructure","railClass":"highspeed","mode":"rail","name":"京港高速线","nameEn":"Jinggang High-Speed Line","ref":"3003","usage":"main","highspeed":"yes","bridge":"yes","status":"operational","color":"#E54848","dataOrigin":"datum-2026-08-01","sourceKey":"way:819121110"}},{"type":"Feature","geometry":{"type":"LineString","coordinates":[[115.0847714,23.9332421],[115.0837129,23.9324805]]},"properties":{"key":"way:819121111@detail:460_95","osmType":"way","osmId":819121111,"sourceRegion":"guangdong","featureType":"infrastructure","railClass":"highspeed","mode":"rail","name":"京港高速线","nameEn":"Jinggang High-Speed Line","ref":"3003","usage":"main","highspeed":"yes","bridge":"yes","status":"operational","color":"#E54848","dataOrigin":"datum-2026-08-01","sourceKey":"way:819121111"}},{"type":"Feature","geometry":{"type":"LineString","coordinates":[[115.0852824,23.9336085],[115.0847714,23.9332421]]},"properties":{"key":"way:819121112@detail:460_95","osmType":"way","osmId":819121112,"sourceRegion":"guangdong","featureType":"infrastructure","railClass":"highspeed","mode":"rail","name":"京港高速线","nameEn":"Jinggang High-Speed Line","ref":"3003","usage":"main","highspeed":"yes","tunnel":"yes","status":"operational","color":"#E54848","dataOrigin":"datum-2026-08-01","sourceKey":"way:819121112"}},{"type":"Feature","geometry":{"type":"LineString","coordinates":[[115.0888844,23.936271],[115.0852824,23.9336085]]},"properties":{"key":"way:819121113@detail:460_95","osmType":"way","osmId":819121113,"sourceRegion":"guangdong","featureType":"infrastructure","railClass":"highspeed","mode":"rail","name":"京港高速线","nameEn":"Jinggang High-Speed Line","ref":"3003","usage":"main","highspeed":"yes","bridge":"yes","status":"operational","color":"#E54848","dataOrigin":"datum-2026-08-01","sourceKey":"way:819121113"}},{"type":"Feature","geometry":{"type":"LineString","coordinates":[[115.0916576,23.9383495],[115.0888844,23.936271]]},"properties":{"key":"way:819121114@detail:460_95","osmType":"way","osmId":819121114,"sourceRegion":"guangdong","featureType":"infrastructure","railClass":"highspeed","mode":"rail","name":"京港高速线","nameEn":"Jinggang High-Speed Line","ref":"3003","usage":"main","highspeed":"yes","tunnel":"yes","status":"operational","color":"#E54848","dataOrigin":"datum-2026-08-01","sourceKey":"way:819121114"}},{"type":"Feature","geometry":{"type":"LineString","coordinates":[[115.0935754,23.9399042],[115.0916576,23.9383495]]},"properties":{"key":"way:819121115@detail:460_95","osmType":"way","osmId":819121115,"sourceRegion":"guangdong","featureType":"infrastructure","railClass":"highspeed","mode":"rail","name":"京港高速线","nameEn":"Jinggang High-Speed Line","ref":"3003","usage":"main","highspeed":"yes","bridge":"yes","status":"operational","color":"#E54848","dataOrigin":"datum-2026-08-01","sourceKey":"way:819121115"}},{"type":"Feature","geometry":{"type":"LineString","coordinates":[[115.1026817,23.948405],[115.0986975,23.9442489],[115.0935754,23.9399042]]},"properties":{"key":"way:819121116@detail:460_95","osmType":"way","osmId":819121116,"sourceRegion":"guangdong","featureType":"infrastructure","railClass":"highspeed","mode":"rail","name":"京港高速线","nameEn":"Jinggang High-Speed Line","ref":"3003","usage":"main","highspeed":"yes","tunnel":"yes","status":"operational","color":"#E54848","dataOrigin":"datum-2026-08-01","sourceKey":"way:819121116"}},{"type":"Feature","geometry":{"type":"LineString","coordinates":[[115.1050526,23.9512976],[115.1046782,23.9508137],[115.1042982,23.9503334],[115.1039124,23.9498569],[115.1035211,23.9493843],[115.1031045,23.9488925],[115.1026817,23.948405]]},"properties":{"key":"way:819121117@detail:460_95","osmType":"way","osmId":819121117,"sourceRegion":"guangdong","featureType":"infrastructure","railClass":"highspeed","mode":"rail","name":"京港高速线","nameEn":"Jinggang High-Speed Line","ref":"3003","usage":"main","highspeed":"yes","bridge":"yes","status":"operational","color":"#E54848","dataOrigin":"datum-2026-08-01","sourceKey":"way:819121117"}},{"type":"Feature","geometry":{"type":"LineString","coordinates":[[115.0636607,23.9649749],[115.063693,23.964796],[115.0637171,23.9646161],[115.0637332,23.9644354],[115.0637412,23.9642543],[115.063741,23.9640723],[115.0637327,23.9638905],[115.0637161,23.9637092],[115.0636915,23.9635286],[115.0636587,23.9633491],[115.0636178,23.963171],[115.0632929,23.9622432]]},"properties":{"key":"way:819121124@detail:460_95","osmType":"way","osmId":819121124,"sourceRegion":"guangdong","featureType":"infrastructure","railClass":"national","mode":"rail","name":"京九线","nameEn":"Jingjiu Line","ref":"0005","usage":"main","status":"operational","color":"#E54848","dataOrigin":"datum-2026-08-01","sourceKey":"way:819121124"}},{"type":"Feature","geometry":{"type":"LineString","coordinates":[[115.06284,23.967916],[115.0629714,23.9675945],[115.0630931,23.9672698],[115.063205,23.9669421],[115.0633071,23.9666118],[115.0633993,23.9662791],[115.0634814,23.9659441],[115.0635534,23.9656073],[115.0636115,23.9652917],[115.0636607,23.9649749]]},"properties":{"key":"way:819121125@detail:460_95","osmType":"way","osmId":819121125,"sourceRegion":"guangdong","featureType":"infrastructure","railClass":"national","mode":"rail","name":"京九线","nameEn":"Jingjiu Line","ref":"0005","usage":"main","bridge":"yes","status":"operational","color":"#E54848","dataOrigin":"datum-2026-08-01","sourceKey":"way:819121125"}},{"type":"Feature","geometry":{"type":"LineString","coordinates":[[115.063494,23.9739925],[115.0628829,23.97271],[115.0627869,23.9725037],[115.0626994,23.9722942],[115.0626207,23.9720819],[115.0625508,23.971867],[115.0624897,23.9716499],[115.0624377,23.9714308],[115.0623947,23.9712101],[115.0623607,23.9709865],[115.062336,23.9707619],[115.0623206,23.9705366],[115.0623145,23.970311],[115.0623179,23.9700853],[115.0623306,23.9698598],[115.0623526,23.969635],[115.062384,23.9694111],[115.06284,23.967916]]},"properties":{"key":"way:819121126@detail:460_95","osmType":"way","osmId":819121126,"sourceRegion":"guangdong","featureType":"infrastructure","railClass":"national","mode":"rail","name":"京九线","nameEn":"Jingjiu Line","ref":"0005","usage":"main","status":"operational","color":"#E54848","dataOrigin":"datum-2026-08-01","sourceKey":"way:819121126"}},{"type":"Feature","geometry":{"type":"LineString","coordinates":[[115.0635014,23.9683344],[115.063766,23.967217],[115.064026,23.965968],[115.064044,23.964707]]},"properties":{"key":"way:819121127@detail:460_95","osmType":"way","osmId":819121127,"sourceRegion":"guangdong","featureType":"infrastructure","railClass":"national","mode":"rail","name":"京九线","nameEn":"Jingjiu Line","ref":"0005","usage":"main","bridge":"yes","status":"operational","color":"#E54848","dataOrigin":"datum-2026-08-01","sourceKey":"way:819121127"}},{"type":"Feature","geometry":{"type":"LineString","coordinates":[[115.1134479,23.9657543],[115.1131355,23.9650356],[115.1128145,23.96432],[115.1124851,23.9636077],[115.1121472,23.9628987],[115.1118009,23.9621931],[115.1114463,23.9614909],[115.1110833,23.9607923],[115.110712,23.9600974],[115.1103263,23.9593951],[115.1099322,23.9586967],[115.1095296,23.9580023],[115.1091187,23.957312],[115.1086994,23.9566259],[115.1082719,23.9559441],[115.1078362,23.9552666],[115.1073923,23.9545935],[115.1069404,23.953925],[115.1064803,23.9532611],[115.1060123,23.9526018],[115.1055364,23.9519473],[115.1050526,23.9512976]]},"properties":{"key":"way:819121133@detail:460_95","osmType":"way","osmId":819121133,"sourceRegion":"guangdong","featureType":"infrastructure","railClass":"highspeed","mode":"rail","name":"京港高速线","nameEn":"Jinggang High-Speed Line","ref":"3003","usage":"main","highspeed":"yes","tunnel":"yes","status":"operational","color":"#E54848","dataOrigin":"datum-2026-08-01","sourceKey":"way:819121133"}},{"type":"Feature","geometry":{"type":"LineString","coordinates":[[115.12043944505827,24.0],[115.1195311,23.9959174],[115.117852,23.9853886],[115.1169991,23.9780772],[115.1156473,23.9722934],[115.1134479,23.9657543]]},"properties":{"key":"way:819121136@detail:460_95","osmType":"way","osmId":819121136,"sourceRegion":"guangdong","featureType":"infrastructure","railClass":"highspeed","mode":"rail","name":"京港高速线","nameEn":"Jinggang High-Speed Line","ref":"3003","usage":"main","highspeed":"yes","bridge":"yes","status":"operational","color":"#E54848","dataOrigin":"datum-2026-08-01","sourceKey":"way:819121136"}},{"type":"Feature","geometry":{"type":"LineString","coordinates":[[115.0633617,23.9622285],[115.0627408,23.9610835],[115.0550827,23.9520146],[115.051772,23.9479577],[115.0511007,23.9468716],[115.0499038,23.9446126],[115.0488741,23.9423392],[115.0483,23.9412042],[115.0475546,23.9401552],[115.046645,23.9392263],[115.045574,23.9384603],[115.0413,23.9356964],[115.0402042,23.935054],[115.0390364,23.9345491],[115.0341582,23.9328312],[115.0335014,23.9325999],[115.0328968,23.932339],[115.032282,23.9319963],[115.0316884,23.9316151],[115.0297012,23.9302844],[115.0289952,23.9298673],[115.0283396,23.929566],[115.0273986,23.9292153],[115.0253796,23.9285324],[115.0246902,23.9282626],[115.0242041,23.9280537],[115.0215803,23.9268961],[115.0192931,23.9256727],[115.0159175,23.9236939],[115.0042033,23.917274],[115.003184,23.9165128],[115.0022545,23.9156499],[115.0012611,23.914627]]},"properties":{"key":"way:906447973@detail:460_95","osmType":"way","osmId":906447973,"sourceRegion":"guangdong","featureType":"infrastructure","railClass":"national","mode":"rail","name":"京九线","nameEn":"Jingjiu Line","ref":"0005","usage":"main","status":"operational","color":"#E54848","dataOrigin":"datum-2026-08-01","sourceKey":"way:906447973"}},{"type":"Feature","geometry":{"type":"LineString","coordinates":[[115.064044,23.964707],[115.063825,23.963454],[115.0636446,23.9628572],[115.0633617,23.9622285]]},"properties":{"key":"way:906447974@detail:460_95","osmType":"way","osmId":906447974,"sourceRegion":"guangdong","featureType":"infrastructure","railClass":"national","mode":"rail","name":"京九线","nameEn":"Jingjiu Line","ref":"0005","usage":"main","status":"operational","color":"#E54848","dataOrigin":"datum-2026-08-01","sourceKey":"way:906447974"}},{"type":"Feature","geometry":{"type":"LineString","coordinates":[[115.0000575,23.9137318],[115.0,23.913671899896023]]},"properties":{"key":"way:927890310@detail:460_95","osmType":"way","osmId":927890310,"sourceRegion":"guangdong","featureType":"infrastructure","railClass":"national","mode":"rail","name":"京九线","nameEn":"Jingjiu Line","ref":"0005","usage":"main","status":"operational","color":"#E54848","dataOrigin":"datum-2026-08-01","sourceKey":"way:927890310"}},{"type":"Feature","geometry":{"type":"LineString","coordinates":[[115.0002482,23.9135841],[115.0,23.913328513095237]]},"properties":{"key":"way:927890311@detail:460_95","osmType":"way","osmId":927890311,"sourceRegion":"guangdong","featureType":"infrastructure","railClass":"national","mode":"rail","name":"京九线","nameEn":"Jingjiu Line","ref":"0005","usage":"main","status":"operational","color":"#E54848","dataOrigin":"datum-2026-08-01","sourceKey":"way:927890311"}},{"type":"Feature","geometry":{"type":"LineString","coordinates":[[115.0011277,23.9148253],[115.0000575,23.9137318]]},"properties":{"key":"way:927890312@detail:460_95","osmType":"way","osmId":927890312,"sourceRegion":"guangdong","featureType":"infrastructure","railClass":"national","mode":"rail","name":"京九线","nameEn":"Jingjiu Line","ref":"0005","usage":"main","bridge":"yes","status":"operational","color":"#E54848","dataOrigin":"datum-2026-08-01","sourceKey":"way:927890312"}},{"type":"Feature","geometry":{"type":"LineString","coordinates":[[115.0012611,23.914627],[115.0002482,23.9135841]]},"properties":{"key":"way:927890313@detail:460_95","osmType":"way","osmId":927890313,"sourceRegion":"guangdong","featureType":"infrastructure","railClass":"national","mode":"rail","name":"京九线","nameEn":"Jingjiu Line","ref":"0005","usage":"main","bridge":"yes","status":"operational","color":"#E54848","dataOrigin":"datum-2026-08-01","sourceKey":"way:927890313"}},{"type":"Feature","geometry":{"type":"LineString","coordinates":[[115.0216999,23.8995179],[115.0147981,23.8950182],[115.0119199,23.8931416]]},"properties":{"key":"way:1014969070@detail:460_95","osmType":"way","osmId":1014969070,"sourceRegion":"guangdong","featureType":"infrastructure","railClass":"highspeed","mode":"rail","name":"京港高速线","nameEn":"Jinggang High-Speed Line","ref":"3003","usage":"main","highspeed":"yes","tunnel":"yes","status":"operational","color":"#E54848","dataOrigin":"datum-2026-08-01","sourceKey":"way:1014969070"}},{"type":"Feature","geometry":{"type":"LineString","coordinates":[[115.0119199,23.8931416],[115.0017758,23.8862282],[115.0,23.88499243330246]]},"properties":{"key":"way:1014969071@detail:460_95","osmType":"way","osmId":1014969071,"sourceRegion":"guangdong","featureType":"infrastructure","railClass":"highspeed","mode":"rail","name":"京港高速线","nameEn":"Jinggang High-Speed Line","ref":"3003","usage":"main","highspeed":"yes","status":"operational","color":"#E54848","dataOrigin":"datum-2026-08-01","sourceKey":"way:1014969071"}},{"type":"Feature","geometry":{"type":"LineString","coordinates":[[115.0241666,23.9280994],[115.0244143,23.928219],[115.0246585,23.9283443],[115.0248992,23.9284753],[115.0251362,23.9286118],[115.0254076,23.9287781],[115.0256735,23.9289517],[115.0259336,23.9291325],[115.0261876,23.9293204],[115.0274831,23.9302054],[115.0277448,23.9303643],[115.0280115,23.9305163],[115.0282829,23.9306611],[115.0285587,23.9307987]]},"properties":{"key":"way:1323424137@detail:460_95","osmType":"way","osmId":1323424137,"sourceRegion":"guangdong","featureType":"infrastructure","railClass":"national","mode":"rail","name":"京九线","nameEn":"Jingjiu Line","ref":"0005","usage":"main","status":"operational","color":"#E54848","dataOrigin":"datum-2026-08-01","sourceKey":"way:1323424137"}},{"type":"Feature","geometry":{"type":"LineString","coordinates":[[115.0241666,23.9280994],[115.021544,23.92696],[115.019252,23.925734],[115.0183837,23.9252689],[115.016647,23.9243164],[115.0149518,23.9233946],[115.0135517,23.9226223],[115.0118083,23.9216906],[115.009869,23.9206461],[115.0082128,23.9197218],[115.0073558,23.9192816],[115.0067966,23.9189654],[115.0058565,23.9184321],[115.0048721,23.9179],[115.0040674,23.9174415],[115.0035283,23.917113],[115.0030616,23.9167305],[115.0024983,23.916191],[115.0020397,23.9157644],[115.0011277,23.9148253]]},"properties":{"key":"way:1323424138@detail:460_95","osmType":"way","osmId":1323424138,"sourceRegion":"guangdong","featureType":"infrastructure","railClass":"national","mode":"rail","name":"京九线","nameEn":"Jingjiu Line","ref":"0005","usage":"main","status":"operational","color":"#E54848","dataOrigin":"datum-2026-08-01","sourceKey":"way:1323424138"}},{"type":"Feature","geometry":{"type":"LineString","coordinates":[[115.0839945948856,24.0],[115.0837988,23.9997448]]},"properties":{"key":"way:1341985594@detail:460_95","osmType":"way","osmId":1341985594,"sourceRegion":"guangdong","featureType":"infrastructure","railClass":"national","mode":"rail","name":"京九线","nameEn":"Jingjiu Line","ref":"0005","usage":"main","tunnel":"yes","status":"operational","color":"#E54848","dataOrigin":"datum-2026-08-01","sourceKey":"way:1341985594"}},{"type":"Feature","geometry":{"type":"LineString","coordinates":[[115.0837988,23.9997448],[115.0829392,23.998856],[115.0817959,23.9978392],[115.0784504,23.994898]]},"properties":{"key":"way:1341985595@detail:460_95","osmType":"way","osmId":1341985595,"sourceRegion":"guangdong","featureType":"infrastructure","railClass":"national","mode":"rail","name":"京九线","nameEn":"Jingjiu Line","ref":"0005","usage":"main","status":"operational","color":"#E54848","dataOrigin":"datum-2026-08-01","sourceKey":"way:1341985595"}},{"type":"Feature","geometry":{"type":"LineString","coordinates":[[115.0837934,23.998598],[115.0832739,23.9982333],[115.0824191,23.9974263]]},"properties":{"key":"way:1341985596@detail:460_95","osmType":"way","osmId":1341985596,"sourceRegion":"guangdong","featureType":"infrastructure","railClass":"national","mode":"rail","name":"京九线","nameEn":"Jingjiu Line","ref":"0005","usage":"main","status":"operational","color":"#E54848","dataOrigin":"datum-2026-08-01","sourceKey":"way:1341985596"}},{"type":"Feature","geometry":{"type":"LineString","coordinates":[[115.08462480967594,24.0],[115.0837934,23.998598]]},"properties":{"key":"way:1341985597@detail:460_95","osmType":"way","osmId":1341985597,"sourceRegion":"guangdong","featureType":"infrastructure","railClass":"national","mode":"rail","name":"京九线","nameEn":"Jingjiu Line","ref":"0005","usage":"main","tunnel":"yes","status":"operational","color":"#E54848","dataOrigin":"datum-2026-08-01","sourceKey":"way:1341985597"}},{"type":"Feature","geometry":{"type":"LineString","coordinates":[[115.0813258,23.9966378],[115.078665,23.9947411]]},"properties":{"key":"way:1341985598@detail:460_95","osmType":"way","osmId":1341985598,"sourceRegion":"guangdong","featureType":"infrastructure","railClass":"national","mode":"rail","name":"京九线","nameEn":"Jingjiu Line","ref":"0005","usage":"main","status":"operational","color":"#E54848","dataOrigin":"datum-2026-08-01","sourceKey":"way:1341985598"}},{"type":"Feature","geometry":{"type":"LineString","coordinates":[[115.0824191,23.9974263],[115.0813258,23.9966378]]},"properties":{"key":"way:1341985599@detail:460_95","osmType":"way","osmId":1341985599,"sourceRegion":"guangdong","featureType":"infrastructure","railClass":"national","mode":"rail","name":"京九线","nameEn":"Jingjiu Line","ref":"0005","usage":"main","tunnel":"yes","status":"operational","color":"#E54848","dataOrigin":"datum-2026-08-01","sourceKey":"way:1341985599"}},{"type":"Feature","geometry":{"type":"LineString","coordinates":[[115.0784504,23.994898],[115.0778282,23.9942952]]},"properties":{"key":"way:1341985600@detail:460_95","osmType":"way","osmId":1341985600,"sourceRegion":"guangdong","featureType":"infrastructure","railClass":"national","mode":"rail","name":"京九线","nameEn":"Jingjiu Line","ref":"0005","usage":"main","bridge":"yes","status":"operational","color":"#E54848","dataOrigin":"datum-2026-08-01","sourceKey":"way:1341985600"}},{"type":"Feature","geometry":{"type":"LineString","coordinates":[[115.078665,23.9947411],[115.0779194,23.9941824]]},"properties":{"key":"way:1341985601@detail:460_95","osmType":"way","osmId":1341985601,"sourceRegion":"guangdong","featureType":"infrastructure","railClass":"national","mode":"rail","name":"京九线","nameEn":"Jingjiu Line","ref":"0005","usage":"main","bridge":"yes","status":"operational","color":"#E54848","dataOrigin":"datum-2026-08-01","sourceKey":"way:1341985601"}},{"type":"Feature","geometry":{"type":"LineString","coordinates":[[115.0779194,23.9941824],[115.0773989,23.9937469],[115.0763965,23.9929067],[115.0715889,23.9885142],[115.0707106,23.9875577],[115.0699453,23.9864854],[115.0693511,23.9853551],[115.0682849,23.9831305]]},"properties":{"key":"way:1341985602@detail:460_95","osmType":"way","osmId":1341985602,"sourceRegion":"guangdong","featureType":"infrastructure","railClass":"national","mode":"rail","name":"京九线","nameEn":"Jingjiu Line","ref":"0005","usage":"main","status":"operational","color":"#E54848","dataOrigin":"datum-2026-08-01","sourceKey":"way:1341985602"}},{"type":"Feature","geometry":{"type":"LineString","coordinates":[[115.0778282,23.9942952],[115.077306,23.993772],[115.076305,23.992933],[115.071499,23.988542],[115.070623,23.987588],[115.06986,23.986519],[115.069267,23.985391],[115.0681347,23.9832286]]},"properties":{"key":"way:1341985603@detail:460_95","osmType":"way","osmId":1341985603,"sourceRegion":"guangdong","featureType":"infrastructure","railClass":"national","mode":"rail","name":"京九线","nameEn":"Jingjiu Line","ref":"0005","usage":"main","status":"operational","color":"#E54848","dataOrigin":"datum-2026-08-01","sourceKey":"way:1341985603"}},{"type":"Feature","geometry":{"type":"LineString","coordinates":[[115.0682849,23.9831305],[115.0678503,23.9822238]]},"properties":{"key":"way:1341985604@detail:460_95","osmType":"way","osmId":1341985604,"sourceRegion":"guangdong","featureType":"infrastructure","railClass":"national","mode":"rail","name":"京九线","nameEn":"Jingjiu Line","ref":"0005","usage":"main","bridge":"yes","status":"operational","color":"#E54848","dataOrigin":"datum-2026-08-01","sourceKey":"way:1341985604"}},{"type":"Feature","geometry":{"type":"LineString","coordinates":[[115.0681347,23.9832286],[115.0677484,23.9822385]]},"properties":{"key":"way:1341985605@detail:460_95","osmType":"way","osmId":1341985605,"sourceRegion":"guangdong","featureType":"infrastructure","railClass":"national","mode":"rail","name":"京九线","nameEn":"Jingjiu Line","ref":"0005","usage":"main","bridge":"yes","status":"operational","color":"#E54848","dataOrigin":"datum-2026-08-01","sourceKey":"way:1341985605"}},{"type":"Feature","geometry":{"type":"LineString","coordinates":[[115.0678503,23.9822238],[115.0677421,23.9819992],[115.0660023,23.9787546],[115.0637797,23.9744343],[115.0635772,23.9739548],[115.0633013,23.9733011],[115.0630061,23.9720912],[115.0629378,23.9708486],[115.0631265,23.9696257],[115.0635014,23.9683344]]},"properties":{"key":"way:1341985606@detail:460_95","osmType":"way","osmId":1341985606,"sourceRegion":"guangdong","featureType":"infrastructure","railClass":"national","mode":"rail","name":"京九线","nameEn":"Jingjiu Line","ref":"0005","usage":"main","status":"operational","color":"#E54848","dataOrigin":"datum-2026-08-01","sourceKey":"way:1341985606"}},{"type":"Feature","geometry":{"type":"LineString","coordinates":[[115.0677484,23.9822385],[115.067658,23.982035],[115.065918,23.97879],[115.063696,23.974471],[115.063494,23.9739925]]},"properties":{"key":"way:1341985607@detail:460_95","osmType":"way","osmId":1341985607,"sourceRegion":"guangdong","featureType":"infrastructure","railClass":"national","mode":"rail","name":"京九线","nameEn":"Jingjiu Line","ref":"0005","usage":"main","status":"operational","color":"#E54848","dataOrigin":"datum-2026-08-01","sourceKey":"way:1341985607"}},{"type":"Feature","geometry":{"type":"LineString","coordinates":[[115.0300527,23.9313904],[115.0303221,23.9314792],[115.0306535,23.9315979],[115.0309477,23.9317083],[115.0312401,23.9318228],[115.0315306,23.9319412],[115.0330219,23.9324805],[115.0341296,23.9328654],[115.0343661,23.9329474]]},"properties":{"key":"way:1525179362@detail:460_95","osmType":"way","osmId":1525179362,"sourceRegion":"guangdong","featureType":"infrastructure","railClass":"national","mode":"rail","name":"京九线","nameEn":"Jingjiu Line","ref":"0005","usage":"main","status":"operational","color":"#E54848","dataOrigin":"datum-2026-08-01","sourceKey":"way:1525179362"}},{"type":"Feature","geometry":{"type":"LineString","coordinates":[[115.0285587,23.9307987],[115.0288269,23.9309237],[115.0290989,23.9310418],[115.0293743,23.931153],[115.029653,23.9312572],[115.0300527,23.9313904]]},"properties":{"key":"way:1525179363@detail:460_95","osmType":"way","osmId":1525179363,"sourceRegion":"guangdong","featureType":"infrastructure","railClass":"national","mode":"rail","name":"京九线","nameEn":"Jingjiu Line","ref":"0005","usage":"main","bridge":"yes","status":"operational","color":"#E54848","dataOrigin":"datum-2026-08-01","sourceKey":"way:1525179363"}}]}