{"type":"FeatureCollection","features":[{"type":"Feature","geometry":{"type":"Point","coordinates":[115.058708,24.3098595]},"properties":{"key":"node:8417536130","osmType":"node","osmId":8417536130,"sourceRegion":"guangdong","featureType":"station","railClass":"minor","mode":"station","name":"林寨","status":"operational","color":"#52636F","dataOrigin":"datum-2026-08-01","sourceKey":"node:8417536130","stationGroup":"林寨","hasOperationalRail":true,"hasConstructionRail":false}},{"type":"Feature","geometry":{"type":"LineString","coordinates":[[115.1468446,24.2721116],[115.1474572,24.2706398],[115.1478499,24.2696381],[115.1482678,24.268804],[115.1487001,24.2681406],[115.149154,24.2675757],[115.1495719,24.2672013],[115.1500834,24.2668138],[115.150667,24.2664131],[115.1527166,24.2652612],[115.1532599,24.264979]]},"properties":{"key":"way:156467192@detail:460_97","osmType":"way","osmId":156467192,"sourceRegion":"guangdong","featureType":"infrastructure","railClass":"national","mode":"rail","name":"京九线","nameEn":"Jingjiu Line","ref":"0005","usage":"main","status":"operational","color":"#E54848","dataOrigin":"datum-2026-08-01","sourceKey":"way:156467192"}},{"type":"Feature","geometry":{"type":"LineString","coordinates":[[115.1390241,24.2769939],[115.1399906,24.277002],[115.1404707,24.2769477]]},"properties":{"key":"way:156467195@detail:460_97","osmType":"way","osmId":156467195,"sourceRegion":"guangdong","featureType":"infrastructure","railClass":"national","mode":"rail","name":"京九线","nameEn":"Jingjiu Line","ref":"0005","usage":"main","status":"operational","color":"#E54848","dataOrigin":"datum-2026-08-01","sourceKey":"way:156467195"}},{"type":"Feature","geometry":{"type":"LineString","coordinates":[[115.146304,24.2731761],[115.1468446,24.2721116]]},"properties":{"key":"way:156467199@detail:460_97","osmType":"way","osmId":156467199,"sourceRegion":"guangdong","featureType":"infrastructure","railClass":"national","mode":"rail","name":"京九线","nameEn":"Jingjiu Line","ref":"0005","usage":"main","tunnel":"yes","status":"operational","color":"#E54848","dataOrigin":"datum-2026-08-01","sourceKey":"way:156467199"}},{"type":"Feature","geometry":{"type":"LineString","coordinates":[[115.1589417,24.2592963],[115.1597703,24.2583308]]},"properties":{"key":"way:156467200@detail:460_97","osmType":"way","osmId":156467200,"sourceRegion":"guangdong","featureType":"infrastructure","railClass":"national","mode":"rail","name":"京九线","nameEn":"Jingjiu Line","ref":"0005","usage":"main","bridge":"yes","status":"operational","color":"#E54848","dataOrigin":"datum-2026-08-01","sourceKey":"way:156467200"}},{"type":"Feature","geometry":{"type":"LineString","coordinates":[[115.138091,24.2769183],[115.1390241,24.2769939]]},"properties":{"key":"way:156467205@detail:460_97","osmType":"way","osmId":156467205,"sourceRegion":"guangdong","featureType":"infrastructure","railClass":"national","mode":"rail","name":"京九线","nameEn":"Jingjiu Line","ref":"0005","usage":"main","tunnel":"yes","status":"operational","color":"#E54848","dataOrigin":"datum-2026-08-01","sourceKey":"way:156467205"}},{"type":"Feature","geometry":{"type":"LineString","coordinates":[[115.1665065,24.2525307],[115.1672846,24.2511644]]},"properties":{"key":"way:156467207@detail:460_97","osmType":"way","osmId":156467207,"sourceRegion":"guangdong","featureType":"infrastructure","railClass":"national","mode":"rail","name":"京九线","nameEn":"Jingjiu Line","ref":"0005","usage":"main","tunnel":"yes","status":"operational","color":"#E54848","dataOrigin":"datum-2026-08-01","sourceKey":"way:156467207"}},{"type":"Feature","geometry":{"type":"LineString","coordinates":[[115.1617227,24.2564456],[115.1627962,24.2557231],[115.1639849,24.2548495]]},"properties":{"key":"way:156467214@detail:460_97","osmType":"way","osmId":156467214,"sourceRegion":"guangdong","featureType":"infrastructure","railClass":"national","mode":"rail","name":"京九线","nameEn":"Jingjiu Line","ref":"0005","usage":"main","bridge":"yes","status":"operational","color":"#E54848","dataOrigin":"datum-2026-08-01","sourceKey":"way:156467214"}},{"type":"Feature","geometry":{"type":"LineString","coordinates":[[115.1597703,24.2583308],[115.1604403,24.2574703],[115.160887,24.2570171],[115.1611752,24.2567215],[115.1617227,24.2564456]]},"properties":{"key":"way:156467220@detail:460_97","osmType":"way","osmId":156467220,"sourceRegion":"guangdong","featureType":"infrastructure","railClass":"national","mode":"rail","name":"京九线","nameEn":"Jingjiu Line","ref":"0005","usage":"main","status":"operational","color":"#E54848","dataOrigin":"datum-2026-08-01","sourceKey":"way:156467220"}},{"type":"Feature","geometry":{"type":"LineString","coordinates":[[115.1639849,24.2548495],[115.1651016,24.2540415],[115.1656852,24.2536014],[115.1660454,24.2532139],[115.1665065,24.2525307]]},"properties":{"key":"way:156467221@detail:460_97","osmType":"way","osmId":156467221,"sourceRegion":"guangdong","featureType":"infrastructure","railClass":"national","mode":"rail","name":"京九线","nameEn":"Jingjiu Line","ref":"0005","usage":"main","status":"operational","color":"#E54848","dataOrigin":"datum-2026-08-01","sourceKey":"way:156467221"}},{"type":"Feature","geometry":{"type":"LineString","coordinates":[[115.1672846,24.2511644],[115.16794664312434,24.25]]},"properties":{"key":"way:156467225@detail:460_97","osmType":"way","osmId":156467225,"sourceRegion":"guangdong","featureType":"infrastructure","railClass":"national","mode":"rail","name":"京九线","nameEn":"Jingjiu Line","ref":"0005","usage":"main","status":"operational","color":"#E54848","dataOrigin":"datum-2026-08-01","sourceKey":"way:156467225"}},{"type":"Feature","geometry":{"type":"LineString","coordinates":[[115.1532599,24.264979],[115.1542623,24.264436],[115.15499,24.2638711],[115.1555196,24.2633424],[115.1560167,24.2627513],[115.1574864,24.2610895],[115.1583077,24.2599992],[115.1589417,24.2592963]]},"properties":{"key":"way:156467235@detail:460_97","osmType":"way","osmId":156467235,"sourceRegion":"guangdong","featureType":"infrastructure","railClass":"national","mode":"rail","name":"京九线","nameEn":"Jingjiu Line","ref":"0005","usage":"main","status":"operational","color":"#E54848","dataOrigin":"datum-2026-08-01","sourceKey":"way:156467235"}},{"type":"Feature","geometry":{"type":"LineString","coordinates":[[115.0021349,24.372214],[115.0025142,24.3718563],[115.002874,24.3714742],[115.0031369,24.3711],[115.0035008,24.3705206],[115.0039286,24.3696462],[115.00464,24.368154],[115.0056,24.366124],[115.00621,24.36518],[115.006898,24.364286],[115.007629,24.363434],[115.008219,24.362486],[115.008639,24.361461],[115.00883,24.3607936]]},"properties":{"key":"way:218124585@detail:460_97","osmType":"way","osmId":218124585,"sourceRegion":"guangdong","featureType":"infrastructure","railClass":"national","mode":"rail","name":"京九线","nameEn":"Jingjiu Line","ref":"0005","usage":"main","status":"operational","color":"#E54848","dataOrigin":"datum-2026-08-01","sourceKey":"way:218124585"}},{"type":"Feature","geometry":{"type":"LineString","coordinates":[[115.00883,24.3607936],[115.0095707,24.3585583]]},"properties":{"key":"way:218124586@detail:460_97","osmType":"way","osmId":218124586,"sourceRegion":"guangdong","featureType":"infrastructure","railClass":"national","mode":"rail","name":"京九线","nameEn":"Jingjiu Line","ref":"0005","usage":"main","bridge":"yes","status":"operational","color":"#E54848","dataOrigin":"datum-2026-08-01","sourceKey":"way:218124586"}},{"type":"Feature","geometry":{"type":"LineString","coordinates":[[115.0169036,24.3403348],[115.0171417,24.3395194]]},"properties":{"key":"way:218124589@detail:460_97","osmType":"way","osmId":218124589,"sourceRegion":"guangdong","featureType":"infrastructure","railClass":"national","mode":"rail","name":"京九线","nameEn":"Jingjiu Line","ref":"0005","usage":"main","tunnel":"yes","status":"operational","color":"#E54848","dataOrigin":"datum-2026-08-01","sourceKey":"way:218124589"}},{"type":"Feature","geometry":{"type":"LineString","coordinates":[[115.0165466,24.341061],[115.0167402,24.3407419],[115.0168593,24.3404508]]},"properties":{"key":"way:218124591@detail:460_97","osmType":"way","osmId":218124591,"sourceRegion":"guangdong","featureType":"infrastructure","railClass":"national","mode":"rail","name":"京九线","nameEn":"Jingjiu Line","ref":"0005","usage":"main","bridge":"yes","status":"operational","color":"#E54848","dataOrigin":"datum-2026-08-01","sourceKey":"way:218124591"}},{"type":"Feature","geometry":{"type":"LineString","coordinates":[[115.0171417,24.3395194],[115.0172206,24.3387348]]},"properties":{"key":"way:218124594@detail:460_97","osmType":"way","osmId":218124594,"sourceRegion":"guangdong","featureType":"infrastructure","railClass":"national","mode":"rail","name":"京九线","nameEn":"Jingjiu Line","ref":"0005","usage":"main","status":"operational","color":"#E54848","dataOrigin":"datum-2026-08-01","sourceKey":"way:218124594"}},{"type":"Feature","geometry":{"type":"LineString","coordinates":[[115.0,24.37348413480569],[115.0006147,24.3731709]]},"properties":{"key":"way:218124598@detail:460_97","osmType":"way","osmId":218124598,"sourceRegion":"guangdong","featureType":"infrastructure","railClass":"national","mode":"rail","name":"京九线","nameEn":"Jingjiu Line","ref":"0005","usage":"main","status":"operational","color":"#E54848","dataOrigin":"datum-2026-08-01","sourceKey":"way:218124598"}},{"type":"Feature","geometry":{"type":"LineString","coordinates":[[115.0168593,24.3404508],[115.0169036,24.3403348]]},"properties":{"key":"way:218124602@detail:460_97","osmType":"way","osmId":218124602,"sourceRegion":"guangdong","featureType":"infrastructure","railClass":"national","mode":"rail","name":"京九线","nameEn":"Jingjiu Line","ref":"0005","usage":"main","status":"operational","color":"#E54848","dataOrigin":"datum-2026-08-01","sourceKey":"way:218124602"}},{"type":"Feature","geometry":{"type":"LineString","coordinates":[[115.0102264,24.3509823],[115.0103634,24.3503206],[115.0107397,24.3492027]]},"properties":{"key":"way:218124603@detail:460_97","osmType":"way","osmId":218124603,"sourceRegion":"guangdong","featureType":"infrastructure","railClass":"national","mode":"rail","name":"京九线","nameEn":"Jingjiu Line","ref":"0005","usage":"main","bridge":"yes","status":"operational","color":"#E54848","dataOrigin":"datum-2026-08-01","sourceKey":"way:218124603"}},{"type":"Feature","geometry":{"type":"LineString","coordinates":[[115.0102477,24.3562277],[115.0103008,24.3550694],[115.0102078,24.3530628]]},"properties":{"key":"way:218124605@detail:460_97","osmType":"way","osmId":218124605,"sourceRegion":"guangdong","featureType":"infrastructure","railClass":"national","mode":"rail","name":"京九线","nameEn":"Jingjiu Line","ref":"0005","usage":"main","bridge":"yes","status":"operational","color":"#E54848","dataOrigin":"datum-2026-08-01","sourceKey":"way:218124605"}},{"type":"Feature","geometry":{"type":"LineString","coordinates":[[115.0095707,24.3585583],[115.010026,24.357125],[115.0101651,24.3566691],[115.0102477,24.3562277]]},"properties":{"key":"way:218124606@detail:460_97","osmType":"way","osmId":218124606,"sourceRegion":"guangdong","featureType":"infrastructure","railClass":"national","mode":"rail","name":"京九线","nameEn":"Jingjiu Line","ref":"0005","usage":"main","status":"operational","color":"#E54848","dataOrigin":"datum-2026-08-01","sourceKey":"way:218124606"}},{"type":"Feature","geometry":{"type":"LineString","coordinates":[[115.0172206,24.3387348],[115.0172306,24.3383243],[115.0171807,24.3376022],[115.0170721,24.3370216]]},"properties":{"key":"way:218124607@detail:460_97","osmType":"way","osmId":218124607,"sourceRegion":"guangdong","featureType":"infrastructure","railClass":"national","mode":"rail","name":"京九线","nameEn":"Jingjiu Line","ref":"0005","usage":"main","tunnel":"yes","status":"operational","color":"#E54848","dataOrigin":"datum-2026-08-01","sourceKey":"way:218124607"}},{"type":"Feature","geometry":{"type":"LineString","coordinates":[[115.0102078,24.3530628],[115.010122,24.352422],[115.01018,24.3515597],[115.0102264,24.3509823]]},"properties":{"key":"way:218124608@detail:460_97","osmType":"way","osmId":218124608,"sourceRegion":"guangdong","featureType":"infrastructure","railClass":"national","mode":"rail","name":"京九线","nameEn":"Jingjiu Line","ref":"0005","usage":"main","status":"operational","color":"#E54848","dataOrigin":"datum-2026-08-01","sourceKey":"way:218124608"}},{"type":"Feature","geometry":{"type":"LineString","coordinates":[[115.0006147,24.3731709],[115.0011645,24.3728891],[115.0016917,24.3725601],[115.0021349,24.372214]]},"properties":{"key":"way:218124609@detail:460_97","osmType":"way","osmId":218124609,"sourceRegion":"guangdong","featureType":"infrastructure","railClass":"national","mode":"rail","name":"京九线","nameEn":"Jingjiu Line","ref":"0005","usage":"main","bridge":"yes","status":"operational","color":"#E54848","dataOrigin":"datum-2026-08-01","sourceKey":"way:218124609"}},{"type":"Feature","geometry":{"type":"LineString","coordinates":[[115.0107397,24.3492027],[115.011336,24.347974],[115.013371,24.344921],[115.014089,24.343919],[115.015809,24.342085],[115.0165466,24.341061]]},"properties":{"key":"way:218124610@detail:460_97","osmType":"way","osmId":218124610,"sourceRegion":"guangdong","featureType":"infrastructure","railClass":"national","mode":"rail","name":"京九线","nameEn":"Jingjiu Line","ref":"0005","usage":"main","status":"operational","color":"#E54848","dataOrigin":"datum-2026-08-01","sourceKey":"way:218124610"}},{"type":"Feature","geometry":{"type":"LineString","coordinates":[[115.0170721,24.3370216],[115.0170185,24.336764]]},"properties":{"key":"way:218124612@detail:460_97","osmType":"way","osmId":218124612,"sourceRegion":"guangdong","featureType":"infrastructure","railClass":"national","mode":"rail","name":"京九线","nameEn":"Jingjiu Line","ref":"0005","usage":"main","status":"operational","color":"#E54848","dataOrigin":"datum-2026-08-01","sourceKey":"way:218124612"}},{"type":"Feature","geometry":{"type":"LineString","coordinates":[[115.015953,24.3335174],[115.01585,24.332928],[115.0158291,24.3323943],[115.0158342,24.3317067],[115.0159015,24.3311548],[115.0160595,24.3305422],[115.0163433,24.3299139],[115.0166029,24.3294109],[115.0169788,24.3289131],[115.0174176,24.3284286],[115.0179688,24.3279802],[115.0185803,24.327559],[115.0196851,24.3269369]]},"properties":{"key":"way:218126931@detail:460_97","osmType":"way","osmId":218126931,"sourceRegion":"guangdong","featureType":"infrastructure","railClass":"national","mode":"rail","name":"京九线","nameEn":"Jingjiu Line","ref":"0005","usage":"main","status":"operational","color":"#E54848","dataOrigin":"datum-2026-08-01","sourceKey":"way:218126931"}},{"type":"Feature","geometry":{"type":"LineString","coordinates":[[115.0207743,24.326273],[115.0214057,24.3258632]]},"properties":{"key":"way:218126932@detail:460_97","osmType":"way","osmId":218126932,"sourceRegion":"guangdong","featureType":"infrastructure","railClass":"national","mode":"rail","name":"京九线","nameEn":"Jingjiu Line","ref":"0005","usage":"main","tunnel":"yes","status":"operational","color":"#E54848","dataOrigin":"datum-2026-08-01","sourceKey":"way:218126932"}},{"type":"Feature","geometry":{"type":"LineString","coordinates":[[115.0196851,24.3269369],[115.0205192,24.3264386]]},"properties":{"key":"way:218126933@detail:460_97","osmType":"way","osmId":218126933,"sourceRegion":"guangdong","featureType":"infrastructure","railClass":"national","mode":"rail","name":"京九线","nameEn":"Jingjiu Line","ref":"0005","usage":"main","tunnel":"yes","status":"operational","color":"#E54848","dataOrigin":"datum-2026-08-01","sourceKey":"way:218126933"}},{"type":"Feature","geometry":{"type":"LineString","coordinates":[[115.0205192,24.3264386],[115.0207743,24.326273]]},"properties":{"key":"way:218126934@detail:460_97","osmType":"way","osmId":218126934,"sourceRegion":"guangdong","featureType":"infrastructure","railClass":"national","mode":"rail","name":"京九线","nameEn":"Jingjiu Line","ref":"0005","usage":"main","status":"operational","color":"#E54848","dataOrigin":"datum-2026-08-01","sourceKey":"way:218126934"}},{"type":"Feature","geometry":{"type":"LineString","coordinates":[[115.0170185,24.336764],[115.0167809,24.3360745]]},"properties":{"key":"way:218126935@detail:460_97","osmType":"way","osmId":218126935,"sourceRegion":"guangdong","featureType":"infrastructure","railClass":"national","mode":"rail","name":"京九线","nameEn":"Jingjiu Line","ref":"0005","usage":"main","bridge":"yes","status":"operational","color":"#E54848","dataOrigin":"datum-2026-08-01","sourceKey":"way:218126935"}},{"type":"Feature","geometry":{"type":"LineString","coordinates":[[115.0167809,24.3360745],[115.0163967,24.3351218]]},"properties":{"key":"way:218126936@detail:460_97","osmType":"way","osmId":218126936,"sourceRegion":"guangdong","featureType":"infrastructure","railClass":"national","mode":"rail","name":"京九线","nameEn":"Jingjiu Line","ref":"0005","usage":"main","status":"operational","color":"#E54848","dataOrigin":"datum-2026-08-01","sourceKey":"way:218126936"}},{"type":"Feature","geometry":{"type":"LineString","coordinates":[[115.0163967,24.3351218],[115.0161307,24.334282],[115.015953,24.3335174]]},"properties":{"key":"way:218126937@detail:460_97","osmType":"way","osmId":218126937,"sourceRegion":"guangdong","featureType":"infrastructure","railClass":"national","mode":"rail","name":"京九线","nameEn":"Jingjiu Line","ref":"0005","usage":"main","tunnel":"yes","status":"operational","color":"#E54848","dataOrigin":"datum-2026-08-01","sourceKey":"way:218126937"}},{"type":"Feature","geometry":{"type":"LineString","coordinates":[[115.0214057,24.3258632],[115.0226067,24.3249238],[115.0238375,24.3239105],[115.0245155,24.3233192]]},"properties":{"key":"way:218126938@detail:460_97","osmType":"way","osmId":218126938,"sourceRegion":"guangdong","featureType":"infrastructure","railClass":"national","mode":"rail","name":"京九线","nameEn":"Jingjiu Line","ref":"0005","usage":"main","status":"operational","color":"#E54848","dataOrigin":"datum-2026-08-01","sourceKey":"way:218126938"}},{"type":"Feature","geometry":{"type":"LineString","coordinates":[[115.0775944,24.2966157],[115.0781469,24.2956745]]},"properties":{"key":"way:218127762@detail:460_97","osmType":"way","osmId":218127762,"sourceRegion":"guangdong","featureType":"infrastructure","railClass":"national","mode":"rail","name":"京九线","nameEn":"Jingjiu Line","ref":"0005","usage":"main","tunnel":"yes","status":"operational","color":"#E54848","dataOrigin":"datum-2026-08-01","sourceKey":"way:218127762"}},{"type":"Feature","geometry":{"type":"LineString","coordinates":[[115.0752251,24.2995949],[115.0761308,24.2986146]]},"properties":{"key":"way:218127765@detail:460_97","osmType":"way","osmId":218127765,"sourceRegion":"guangdong","featureType":"infrastructure","railClass":"national","mode":"rail","name":"京九线","nameEn":"Jingjiu Line","ref":"0005","usage":"main","bridge":"yes","status":"operational","color":"#E54848","dataOrigin":"datum-2026-08-01","sourceKey":"way:218127765"}},{"type":"Feature","geometry":{"type":"LineString","coordinates":[[115.025982,24.321786],[115.0273842,24.320371]]},"properties":{"key":"way:218127768@detail:460_97","osmType":"way","osmId":218127768,"sourceRegion":"guangdong","featureType":"infrastructure","railClass":"national","mode":"rail","name":"京九线","nameEn":"Jingjiu Line","ref":"0005","usage":"main","status":"operational","color":"#E54848","dataOrigin":"datum-2026-08-01","sourceKey":"way:218127768"}},{"type":"Feature","geometry":{"type":"LineString","coordinates":[[115.0245155,24.3233192],[115.025982,24.321786]]},"properties":{"key":"way:218127771@detail:460_97","osmType":"way","osmId":218127771,"sourceRegion":"guangdong","featureType":"infrastructure","railClass":"national","mode":"rail","name":"京九线","nameEn":"Jingjiu Line","ref":"0005","usage":"main","bridge":"yes","status":"operational","color":"#E54848","dataOrigin":"datum-2026-08-01","sourceKey":"way:218127771"}},{"type":"Feature","geometry":{"type":"LineString","coordinates":[[115.0354432,24.3147694],[115.0368861,24.3140508]]},"properties":{"key":"way:218127773@detail:460_97","osmType":"way","osmId":218127773,"sourceRegion":"guangdong","featureType":"infrastructure","railClass":"national","mode":"rail","name":"京九线","nameEn":"Jingjiu Line","ref":"0005","usage":"main","bridge":"yes","status":"operational","color":"#E54848","dataOrigin":"datum-2026-08-01","sourceKey":"way:218127773"}},{"type":"Feature","geometry":{"type":"LineString","coordinates":[[115.0624994,24.3088883],[115.0627121,24.3088347]]},"properties":{"key":"way:218127774@detail:460_97","osmType":"way","osmId":218127774,"sourceRegion":"guangdong","featureType":"infrastructure","railClass":"national","mode":"rail","name":"京九线","nameEn":"Jingjiu Line","ref":"0005","usage":"main","bridge":"yes","status":"operational","color":"#E54848","dataOrigin":"datum-2026-08-01","sourceKey":"way:218127774"}},{"type":"Feature","geometry":{"type":"LineString","coordinates":[[115.0273842,24.320371],[115.027963,24.3198182]]},"properties":{"key":"way:218127775@detail:460_97","osmType":"way","osmId":218127775,"sourceRegion":"guangdong","featureType":"infrastructure","railClass":"national","mode":"rail","name":"京九线","nameEn":"Jingjiu Line","ref":"0005","usage":"main","tunnel":"yes","status":"operational","color":"#E54848","dataOrigin":"datum-2026-08-01","sourceKey":"way:218127775"}},{"type":"Feature","geometry":{"type":"LineString","coordinates":[[115.0818299,24.2913604],[115.0858934,24.2886369],[115.0866732,24.288197]]},"properties":{"key":"way:218127778@detail:460_97","osmType":"way","osmId":218127778,"sourceRegion":"guangdong","featureType":"infrastructure","railClass":"national","mode":"rail","name":"京九线","nameEn":"Jingjiu Line","ref":"0005","usage":"main","bridge":"yes","status":"operational","color":"#E54848","dataOrigin":"datum-2026-08-01","sourceKey":"way:218127778"}},{"type":"Feature","geometry":{"type":"LineString","coordinates":[[115.0393211,24.3128935],[115.0399233,24.3127099],[115.0404937,24.3125968]]},"properties":{"key":"way:218127781@detail:460_97","osmType":"way","osmId":218127781,"sourceRegion":"guangdong","featureType":"infrastructure","railClass":"national","mode":"rail","name":"京九线","nameEn":"Jingjiu Line","ref":"0005","usage":"main","bridge":"yes","status":"operational","color":"#E54848","dataOrigin":"datum-2026-08-01","sourceKey":"way:218127781"}},{"type":"Feature","geometry":{"type":"LineString","coordinates":[[115.0368861,24.3140508],[115.0384613,24.3132664],[115.0393211,24.3128935]]},"properties":{"key":"way:218127784@detail:460_97","osmType":"way","osmId":218127784,"sourceRegion":"guangdong","featureType":"infrastructure","railClass":"national","mode":"rail","name":"京九线","nameEn":"Jingjiu Line","ref":"0005","usage":"main","status":"operational","color":"#E54848","dataOrigin":"datum-2026-08-01","sourceKey":"way:218127784"}},{"type":"Feature","geometry":{"type":"LineString","coordinates":[[115.0794852,24.2936871],[115.0798193,24.293217],[115.0802907,24.2927303]]},"properties":{"key":"way:218127786@detail:460_97","osmType":"way","osmId":218127786,"sourceRegion":"guangdong","featureType":"infrastructure","railClass":"national","mode":"rail","name":"京九线","nameEn":"Jingjiu Line","ref":"0005","usage":"main","tunnel":"yes","status":"operational","color":"#E54848","dataOrigin":"datum-2026-08-01","sourceKey":"way:218127786"}},{"type":"Feature","geometry":{"type":"LineString","coordinates":[[115.0404937,24.3125968],[115.04103,24.3125266],[115.0417595,24.3124916]]},"properties":{"key":"way:218127791@detail:460_97","osmType":"way","osmId":218127791,"sourceRegion":"guangdong","featureType":"infrastructure","railClass":"national","mode":"rail","name":"京九线","nameEn":"Jingjiu Line","ref":"0005","usage":"main","status":"operational","color":"#E54848","dataOrigin":"datum-2026-08-01","sourceKey":"way:218127791"}},{"type":"Feature","geometry":{"type":"LineString","coordinates":[[115.0781469,24.2956745],[115.078779,24.294718],[115.0794852,24.2936871]]},"properties":{"key":"way:218127795@detail:460_97","osmType":"way","osmId":218127795,"sourceRegion":"guangdong","featureType":"infrastructure","railClass":"national","mode":"rail","name":"京九线","nameEn":"Jingjiu Line","ref":"0005","usage":"main","status":"operational","color":"#E54848","dataOrigin":"datum-2026-08-01","sourceKey":"way:218127795"}},{"type":"Feature","geometry":{"type":"LineString","coordinates":[[115.0688735,24.3069037],[115.0697581,24.30635],[115.0704879,24.305817],[115.0710698,24.3052612]]},"properties":{"key":"way:218127799@detail:460_97","osmType":"way","osmId":218127799,"sourceRegion":"guangdong","featureType":"infrastructure","railClass":"national","mode":"rail","name":"京九线","nameEn":"Jingjiu Line","ref":"0005","usage":"main","bridge":"yes","status":"operational","color":"#E54848","dataOrigin":"datum-2026-08-01","sourceKey":"way:218127799"}},{"type":"Feature","geometry":{"type":"LineString","coordinates":[[115.0802907,24.2927303],[115.0808618,24.292224],[115.081253,24.2918822],[115.0818299,24.2913604]]},"properties":{"key":"way:218127804@detail:460_97","osmType":"way","osmId":218127804,"sourceRegion":"guangdong","featureType":"infrastructure","railClass":"national","mode":"rail","name":"京九线","nameEn":"Jingjiu Line","ref":"0005","usage":"main","status":"operational","color":"#E54848","dataOrigin":"datum-2026-08-01","sourceKey":"way:218127804"}},{"type":"Feature","geometry":{"type":"LineString","coordinates":[[115.0761308,24.2986146],[115.076609,24.298097],[115.0772955,24.2970813],[115.0775944,24.2966157]]},"properties":{"key":"way:218127808@detail:460_97","osmType":"way","osmId":218127808,"sourceRegion":"guangdong","featureType":"infrastructure","railClass":"national","mode":"rail","name":"京九线","nameEn":"Jingjiu Line","ref":"0005","usage":"main","status":"operational","color":"#E54848","dataOrigin":"datum-2026-08-01","sourceKey":"way:218127808"}},{"type":"Feature","geometry":{"type":"LineString","coordinates":[[115.0627121,24.3088347],[115.066323,24.307925],[115.06764,24.307557],[115.0688735,24.3069037]]},"properties":{"key":"way:218127810@detail:460_97","osmType":"way","osmId":218127810,"sourceRegion":"guangdong","featureType":"infrastructure","railClass":"national","mode":"rail","name":"京九线","nameEn":"Jingjiu Line","ref":"0005","usage":"main","status":"operational","color":"#E54848","dataOrigin":"datum-2026-08-01","sourceKey":"way:218127810"}},{"type":"Feature","geometry":{"type":"LineString","coordinates":[[115.0417595,24.3124916],[115.0443089,24.3124393],[115.0468271,24.3123893],[115.048055,24.3123345],[115.048897,24.312246]]},"properties":{"key":"way:218127813@detail:460_97","osmType":"way","osmId":218127813,"sourceRegion":"guangdong","featureType":"infrastructure","railClass":"national","mode":"rail","name":"京九线","nameEn":"Jingjiu Line","ref":"0005","usage":"main","bridge":"yes","status":"operational","color":"#E54848","dataOrigin":"datum-2026-08-01","sourceKey":"way:218127813"}},{"type":"Feature","geometry":{"type":"LineString","coordinates":[[115.0531137,24.3112807],[115.0533047,24.3112336],[115.0543702,24.3109713],[115.0562743,24.3104855],[115.0583433,24.3099694],[115.0599861,24.3095423],[115.0621723,24.3089734],[115.0624994,24.3088883]]},"properties":{"key":"way:218127817@detail:460_97","osmType":"way","osmId":218127817,"sourceRegion":"guangdong","featureType":"infrastructure","railClass":"national","mode":"rail","name":"京九线","nameEn":"Jingjiu Line","ref":"0005","usage":"main","status":"operational","color":"#E54848","dataOrigin":"datum-2026-08-01","sourceKey":"way:218127817"}},{"type":"Feature","geometry":{"type":"LineString","coordinates":[[115.027963,24.3198182],[115.028988,24.3188164],[115.0295604,24.3183003],[115.0302713,24.317755],[115.0310854,24.3172253],[115.0354432,24.3147694]]},"properties":{"key":"way:218127819@detail:460_97","osmType":"way","osmId":218127819,"sourceRegion":"guangdong","featureType":"infrastructure","railClass":"national","mode":"rail","name":"京九线","nameEn":"Jingjiu Line","ref":"0005","usage":"main","status":"operational","color":"#E54848","dataOrigin":"datum-2026-08-01","sourceKey":"way:218127819"}},{"type":"Feature","geometry":{"type":"LineString","coordinates":[[115.0710698,24.3052612],[115.0716333,24.3046275],[115.0723338,24.3036917],[115.0727134,24.3030744],[115.0733308,24.3019334],[115.0738415,24.3011231],[115.074764,24.300094],[115.0752251,24.2995949]]},"properties":{"key":"way:218127821@detail:460_97","osmType":"way","osmId":218127821,"sourceRegion":"guangdong","featureType":"infrastructure","railClass":"national","mode":"rail","name":"京九线","nameEn":"Jingjiu Line","ref":"0005","usage":"main","status":"operational","color":"#E54848","dataOrigin":"datum-2026-08-01","sourceKey":"way:218127821"}},{"type":"Feature","geometry":{"type":"LineString","coordinates":[[115.1458427,24.2738463],[115.146304,24.2731761]]},"properties":{"key":"way:218128320@detail:460_97","osmType":"way","osmId":218128320,"sourceRegion":"guangdong","featureType":"infrastructure","railClass":"national","mode":"rail","name":"京九线","nameEn":"Jingjiu Line","ref":"0005","usage":"main","status":"operational","color":"#E54848","dataOrigin":"datum-2026-08-01","sourceKey":"way:218128320"}},{"type":"Feature","geometry":{"type":"LineString","coordinates":[[115.101605,24.2800484],[115.102697,24.27942],[115.1035567,24.2789404]]},"properties":{"key":"way:218128321@detail:460_97","osmType":"way","osmId":218128321,"sourceRegion":"guangdong","featureType":"infrastructure","railClass":"national","mode":"rail","name":"京九线","nameEn":"Jingjiu Line","ref":"0005","usage":"main","status":"operational","color":"#E54848","dataOrigin":"datum-2026-08-01","sourceKey":"way:218128321"}},{"type":"Feature","geometry":{"type":"LineString","coordinates":[[115.1404707,24.2769477],[115.141135,24.2768332],[115.141964,24.276619]]},"properties":{"key":"way:218128322@detail:460_97","osmType":"way","osmId":218128322,"sourceRegion":"guangdong","featureType":"infrastructure","railClass":"national","mode":"rail","name":"京九线","nameEn":"Jingjiu Line","ref":"0005","usage":"main","bridge":"yes","status":"operational","color":"#E54848","dataOrigin":"datum-2026-08-01","sourceKey":"way:218128322"}},{"type":"Feature","geometry":{"type":"LineString","coordinates":[[115.0898027,24.28675],[115.090723,24.28631],[115.101605,24.2800484]]},"properties":{"key":"way:218128323@detail:460_97","osmType":"way","osmId":218128323,"sourceRegion":"guangdong","featureType":"infrastructure","railClass":"national","mode":"rail","name":"京九线","nameEn":"Jingjiu Line","ref":"0005","usage":"main","tunnel":"yes","status":"operational","color":"#E54848","dataOrigin":"datum-2026-08-01","sourceKey":"way:218128323"}},{"type":"Feature","geometry":{"type":"LineString","coordinates":[[115.0866732,24.288197],[115.087188,24.288],[115.0898027,24.28675]]},"properties":{"key":"way:218128324@detail:460_97","osmType":"way","osmId":218128324,"sourceRegion":"guangdong","featureType":"infrastructure","railClass":"national","mode":"rail","name":"京九线","nameEn":"Jingjiu Line","ref":"0005","usage":"main","status":"operational","color":"#E54848","dataOrigin":"datum-2026-08-01","sourceKey":"way:218128324"}},{"type":"Feature","geometry":{"type":"LineString","coordinates":[[115.1161518,24.2759764],[115.1168216,24.2756166],[115.1174623,24.2753814],[115.1180315,24.2752727]]},"properties":{"key":"way:218128325@detail:460_97","osmType":"way","osmId":218128325,"sourceRegion":"guangdong","featureType":"infrastructure","railClass":"national","mode":"rail","name":"京九线","nameEn":"Jingjiu Line","ref":"0005","usage":"main","bridge":"yes","status":"operational","color":"#E54848","dataOrigin":"datum-2026-08-01","sourceKey":"way:218128325"}},{"type":"Feature","geometry":{"type":"LineString","coordinates":[[115.1438749,24.2756861],[115.1444299,24.2752655],[115.1449633,24.2747925],[115.145439,24.2743325],[115.1458427,24.2738463]]},"properties":{"key":"way:218128326@detail:460_97","osmType":"way","osmId":218128326,"sourceRegion":"guangdong","featureType":"infrastructure","railClass":"national","mode":"rail","name":"京九线","nameEn":"Jingjiu Line","ref":"0005","usage":"main","bridge":"yes","status":"operational","color":"#E54848","dataOrigin":"datum-2026-08-01","sourceKey":"way:218128326"}},{"type":"Feature","geometry":{"type":"LineString","coordinates":[[115.141964,24.276619],[115.1426018,24.2764055],[115.1432079,24.2761018],[115.1435843,24.2758865],[115.1438749,24.2756861]]},"properties":{"key":"way:218128327@detail:460_97","osmType":"way","osmId":218128327,"sourceRegion":"guangdong","featureType":"infrastructure","railClass":"national","mode":"rail","name":"京九线","nameEn":"Jingjiu Line","ref":"0005","usage":"main","status":"operational","color":"#E54848","dataOrigin":"datum-2026-08-01","sourceKey":"way:218128327"}},{"type":"Feature","geometry":{"type":"LineString","coordinates":[[115.1086,24.2780448],[115.11043,24.278101],[115.111769,24.278051],[115.113082,24.277743],[115.1141132,24.2771732],[115.1161518,24.2759764]]},"properties":{"key":"way:218128328@detail:460_97","osmType":"way","osmId":218128328,"sourceRegion":"guangdong","featureType":"infrastructure","railClass":"national","mode":"rail","name":"京九线","nameEn":"Jingjiu Line","ref":"0005","usage":"main","status":"operational","color":"#E54848","dataOrigin":"datum-2026-08-01","sourceKey":"way:218128328"}},{"type":"Feature","geometry":{"type":"LineString","coordinates":[[115.1035567,24.2789404],[115.104382,24.2785133],[115.1052532,24.2782151],[115.1061362,24.2780464],[115.1067492,24.2779855],[115.1076052,24.2779994],[115.1086,24.2780448]]},"properties":{"key":"way:218128329@detail:460_97","osmType":"way","osmId":218128329,"sourceRegion":"guangdong","featureType":"infrastructure","railClass":"national","mode":"rail","name":"京九线","nameEn":"Jingjiu Line","ref":"0005","usage":"main","bridge":"yes","status":"operational","color":"#E54848","dataOrigin":"datum-2026-08-01","sourceKey":"way:218128329"}},{"type":"Feature","geometry":{"type":"LineString","coordinates":[[115.1180315,24.2752727],[115.119183,24.275162],[115.1245813,24.2747537],[115.125879,24.2747353],[115.127165,24.2748192],[115.1286917,24.2751548],[115.1324241,24.2761759],[115.1338525,24.276432],[115.138091,24.2769183]]},"properties":{"key":"way:218128330@detail:460_97","osmType":"way","osmId":218128330,"sourceRegion":"guangdong","featureType":"infrastructure","railClass":"national","mode":"rail","name":"京九线","nameEn":"Jingjiu Line","ref":"0005","usage":"main","status":"operational","color":"#E54848","dataOrigin":"datum-2026-08-01","sourceKey":"way:218128330"}},{"type":"Feature","geometry":{"type":"LineString","coordinates":[[115.0667131,24.2660094],[115.0693525,24.2645169]]},"properties":{"key":"way:819121064@detail:460_97","osmType":"way","osmId":819121064,"sourceRegion":"guangdong","featureType":"infrastructure","railClass":"highspeed","mode":"rail","name":"京港高速线","nameEn":"Jinggang High-Speed Line","ref":"3003","usage":"main","highspeed":"yes","bridge":"yes","status":"operational","color":"#E54848","dataOrigin":"datum-2026-08-01","sourceKey":"way:819121064"}},{"type":"Feature","geometry":{"type":"LineString","coordinates":[[115.0637523,24.267917],[115.0667131,24.2660094]]},"properties":{"key":"way:819121065@detail:460_97","osmType":"way","osmId":819121065,"sourceRegion":"guangdong","featureType":"infrastructure","railClass":"highspeed","mode":"rail","name":"京港高速线","nameEn":"Jinggang High-Speed Line","ref":"3003","usage":"main","highspeed":"yes","tunnel":"yes","status":"operational","color":"#E54848","dataOrigin":"datum-2026-08-01","sourceKey":"way:819121065"}},{"type":"Feature","geometry":{"type":"LineString","coordinates":[[115.0693525,24.2645169],[115.0739336,24.2626937],[115.0817851,24.2596888],[115.0879783,24.2569801]]},"properties":{"key":"way:819121066@detail:460_97","osmType":"way","osmId":819121066,"sourceRegion":"guangdong","featureType":"infrastructure","railClass":"highspeed","mode":"rail","name":"京港高速线","nameEn":"Jinggang High-Speed Line","ref":"3003","usage":"main","highspeed":"yes","tunnel":"yes","status":"operational","color":"#E54848","dataOrigin":"datum-2026-08-01","sourceKey":"way:819121066"}},{"type":"Feature","geometry":{"type":"LineString","coordinates":[[115.0562765,24.272939],[115.0575827,24.272055]]},"properties":{"key":"way:819121068@detail:460_97","osmType":"way","osmId":819121068,"sourceRegion":"guangdong","featureType":"infrastructure","railClass":"highspeed","mode":"rail","name":"京港高速线","nameEn":"Jinggang High-Speed Line","ref":"3003","usage":"main","highspeed":"yes","tunnel":"yes","status":"operational","color":"#E54848","dataOrigin":"datum-2026-08-01","sourceKey":"way:819121068"}},{"type":"Feature","geometry":{"type":"LineString","coordinates":[[115.0575827,24.272055],[115.058305,24.2715508],[115.0606005,24.2699602],[115.0637523,24.267917]]},"properties":{"key":"way:819121069@detail:460_97","osmType":"way","osmId":819121069,"sourceRegion":"guangdong","featureType":"infrastructure","railClass":"highspeed","mode":"rail","name":"京港高速线","nameEn":"Jinggang High-Speed Line","ref":"3003","usage":"main","highspeed":"yes","bridge":"yes","status":"operational","color":"#E54848","dataOrigin":"datum-2026-08-01","sourceKey":"way:819121069"}},{"type":"Feature","geometry":{"type":"LineString","coordinates":[[115.0410555,24.283879],[115.0425788,24.2825247]]},"properties":{"key":"way:819121070@detail:460_97","osmType":"way","osmId":819121070,"sourceRegion":"guangdong","featureType":"infrastructure","railClass":"highspeed","mode":"rail","name":"京港高速线","nameEn":"Jinggang High-Speed Line","ref":"3003","usage":"main","highspeed":"yes","tunnel":"yes","status":"operational","color":"#E54848","dataOrigin":"datum-2026-08-01","sourceKey":"way:819121070"}},{"type":"Feature","geometry":{"type":"LineString","coordinates":[[115.0425788,24.2825247],[115.0438132,24.281502],[115.0449026,24.2806214],[115.0479187,24.2785315],[115.0497135,24.2773011],[115.053705,24.274673],[115.0562765,24.272939]]},"properties":{"key":"way:819121071@detail:460_97","osmType":"way","osmId":819121071,"sourceRegion":"guangdong","featureType":"infrastructure","railClass":"highspeed","mode":"rail","name":"京港高速线","nameEn":"Jinggang High-Speed Line","ref":"3003","usage":"main","highspeed":"yes","bridge":"yes","status":"operational","color":"#E54848","dataOrigin":"datum-2026-08-01","sourceKey":"way:819121071"}},{"type":"Feature","geometry":{"type":"LineString","coordinates":[[115.0890227,24.2563589],[115.0951337,24.2527948],[115.09914562844124,24.25]]},"properties":{"key":"way:819121072@detail:460_97","osmType":"way","osmId":819121072,"sourceRegion":"guangdong","featureType":"infrastructure","railClass":"highspeed","mode":"rail","name":"京港高速线","nameEn":"Jinggang High-Speed Line","ref":"3003","usage":"main","highspeed":"yes","tunnel":"yes","status":"operational","color":"#E54848","dataOrigin":"datum-2026-08-01","sourceKey":"way:819121072"}},{"type":"Feature","geometry":{"type":"LineString","coordinates":[[115.0879783,24.2569801],[115.0890227,24.2563589]]},"properties":{"key":"way:819121073@detail:460_97","osmType":"way","osmId":819121073,"sourceRegion":"guangdong","featureType":"infrastructure","railClass":"highspeed","mode":"rail","name":"京港高速线","nameEn":"Jinggang High-Speed Line","ref":"3003","usage":"main","highspeed":"yes","bridge":"yes","status":"operational","color":"#E54848","dataOrigin":"datum-2026-08-01","sourceKey":"way:819121073"}},{"type":"Feature","geometry":{"type":"LineString","coordinates":[[115.0627252,24.3088716],[115.0663382,24.3079724],[115.0676618,24.3076026],[115.0689025,24.3069455]]},"properties":{"key":"way:906003189@detail:460_97","osmType":"way","osmId":906003189,"sourceRegion":"guangdong","featureType":"infrastructure","railClass":"national","mode":"rail","name":"京九线","nameEn":"Jingjiu Line","ref":"0005","usage":"main","status":"operational","color":"#E54848","dataOrigin":"datum-2026-08-01","sourceKey":"way:906003189"}},{"type":"Feature","geometry":{"type":"LineString","coordinates":[[115.0689025,24.3069455],[115.0697904,24.3063897],[115.0705246,24.3058535],[115.0711105,24.3052939]]},"properties":{"key":"way:906003190@detail:460_97","osmType":"way","osmId":906003190,"sourceRegion":"guangdong","featureType":"infrastructure","railClass":"national","mode":"rail","name":"京九线","nameEn":"Jingjiu Line","ref":"0005","usage":"main","bridge":"yes","status":"operational","color":"#E54848","dataOrigin":"datum-2026-08-01","sourceKey":"way:906003190"}},{"type":"Feature","geometry":{"type":"LineString","coordinates":[[115.0711105,24.3052939],[115.0716768,24.304657],[115.0723799,24.3037177],[115.0727614,24.3030974],[115.0733787,24.3019566],[115.0738863,24.3011512],[115.0748057,24.3001255],[115.0752666,24.2996267]]},"properties":{"key":"way:906003191@detail:460_97","osmType":"way","osmId":906003191,"sourceRegion":"guangdong","featureType":"infrastructure","railClass":"national","mode":"rail","name":"京九线","nameEn":"Jingjiu Line","ref":"0005","usage":"main","status":"operational","color":"#E54848","dataOrigin":"datum-2026-08-01","sourceKey":"way:906003191"}},{"type":"Feature","geometry":{"type":"LineString","coordinates":[[115.0752666,24.2996267],[115.0761723,24.2986464]]},"properties":{"key":"way:906003192@detail:460_97","osmType":"way","osmId":906003192,"sourceRegion":"guangdong","featureType":"infrastructure","railClass":"national","mode":"rail","name":"京九线","nameEn":"Jingjiu Line","ref":"0005","usage":"main","bridge":"yes","status":"operational","color":"#E54848","dataOrigin":"datum-2026-08-01","sourceKey":"way:906003192"}},{"type":"Feature","geometry":{"type":"LineString","coordinates":[[115.0761723,24.2986464],[115.076653,24.298126],[115.077342,24.2971067],[115.0776417,24.2966398]]},"properties":{"key":"way:906003193@detail:460_97","osmType":"way","osmId":906003193,"sourceRegion":"guangdong","featureType":"infrastructure","railClass":"national","mode":"rail","name":"京九线","nameEn":"Jingjiu Line","ref":"0005","usage":"main","status":"operational","color":"#E54848","dataOrigin":"datum-2026-08-01","sourceKey":"way:906003193"}},{"type":"Feature","geometry":{"type":"LineString","coordinates":[[115.0776417,24.2966398],[115.078194,24.2956989]]},"properties":{"key":"way:906003194@detail:460_97","osmType":"way","osmId":906003194,"sourceRegion":"guangdong","featureType":"infrastructure","railClass":"national","mode":"rail","name":"京九线","nameEn":"Jingjiu Line","ref":"0005","usage":"main","tunnel":"yes","status":"operational","color":"#E54848","dataOrigin":"datum-2026-08-01","sourceKey":"way:906003194"}},{"type":"Feature","geometry":{"type":"LineString","coordinates":[[115.078194,24.2956989],[115.0788252,24.2947438],[115.0795309,24.2937136]]},"properties":{"key":"way:906003195@detail:460_97","osmType":"way","osmId":906003195,"sourceRegion":"guangdong","featureType":"infrastructure","railClass":"national","mode":"rail","name":"京九线","nameEn":"Jingjiu Line","ref":"0005","usage":"main","status":"operational","color":"#E54848","dataOrigin":"datum-2026-08-01","sourceKey":"way:906003195"}},{"type":"Feature","geometry":{"type":"LineString","coordinates":[[115.0795309,24.2937136],[115.0798626,24.2932469],[115.08033,24.2927644]]},"properties":{"key":"way:906003196@detail:460_97","osmType":"way","osmId":906003196,"sourceRegion":"guangdong","featureType":"infrastructure","railClass":"national","mode":"rail","name":"京九线","nameEn":"Jingjiu Line","ref":"0005","usage":"main","tunnel":"yes","status":"operational","color":"#E54848","dataOrigin":"datum-2026-08-01","sourceKey":"way:906003196"}},{"type":"Feature","geometry":{"type":"LineString","coordinates":[[115.08033,24.2927644],[115.0808994,24.2922595],[115.0812908,24.2919176],[115.0818652,24.291398]]},"properties":{"key":"way:906003197@detail:460_97","osmType":"way","osmId":906003197,"sourceRegion":"guangdong","featureType":"infrastructure","railClass":"national","mode":"rail","name":"京九线","nameEn":"Jingjiu Line","ref":"0005","usage":"main","status":"operational","color":"#E54848","dataOrigin":"datum-2026-08-01","sourceKey":"way:906003197"}},{"type":"Feature","geometry":{"type":"LineString","coordinates":[[115.0818652,24.291398],[115.0859238,24.2886779],[115.0866981,24.2882411]]},"properties":{"key":"way:906003198@detail:460_97","osmType":"way","osmId":906003198,"sourceRegion":"guangdong","featureType":"infrastructure","railClass":"national","mode":"rail","name":"京九线","nameEn":"Jingjiu Line","ref":"0005","usage":"main","bridge":"yes","status":"operational","color":"#E54848","dataOrigin":"datum-2026-08-01","sourceKey":"way:906003198"}},{"type":"Feature","geometry":{"type":"LineString","coordinates":[[115.0866981,24.2882411],[115.0872111,24.2880447],[115.0898279,24.2867938]]},"properties":{"key":"way:906003199@detail:460_97","osmType":"way","osmId":906003199,"sourceRegion":"guangdong","featureType":"infrastructure","railClass":"national","mode":"rail","name":"京九线","nameEn":"Jingjiu Line","ref":"0005","usage":"main","status":"operational","color":"#E54848","dataOrigin":"datum-2026-08-01","sourceKey":"way:906003199"}},{"type":"Feature","geometry":{"type":"LineString","coordinates":[[115.0898279,24.2867938],[115.0907501,24.2863528],[115.1016339,24.2800902]]},"properties":{"key":"way:906003200@detail:460_97","osmType":"way","osmId":906003200,"sourceRegion":"guangdong","featureType":"infrastructure","railClass":"national","mode":"rail","name":"京九线","nameEn":"Jingjiu Line","ref":"0005","usage":"main","tunnel":"yes","status":"operational","color":"#E54848","dataOrigin":"datum-2026-08-01","sourceKey":"way:906003200"}},{"type":"Feature","geometry":{"type":"LineString","coordinates":[[115.1016339,24.2800902],[115.1027256,24.279462],[115.1035842,24.278983]]},"properties":{"key":"way:906003201@detail:460_97","osmType":"way","osmId":906003201,"sourceRegion":"guangdong","featureType":"infrastructure","railClass":"national","mode":"rail","name":"京九线","nameEn":"Jingjiu Line","ref":"0005","usage":"main","status":"operational","color":"#E54848","dataOrigin":"datum-2026-08-01","sourceKey":"way:906003201"}},{"type":"Feature","geometry":{"type":"LineString","coordinates":[[115.1035842,24.278983],[115.104405,24.2785582],[115.1052684,24.2782627],[115.1061447,24.2780953],[115.1067517,24.278035],[115.1076034,24.2780488],[115.1085973,24.2780941]]},"properties":{"key":"way:906003202@detail:460_97","osmType":"way","osmId":906003202,"sourceRegion":"guangdong","featureType":"infrastructure","railClass":"national","mode":"rail","name":"京九线","nameEn":"Jingjiu Line","ref":"0005","usage":"main","bridge":"yes","status":"operational","color":"#E54848","dataOrigin":"datum-2026-08-01","sourceKey":"way:906003202"}},{"type":"Feature","geometry":{"type":"LineString","coordinates":[[115.1085973,24.2780941],[115.1104302,24.2781504],[115.1117769,24.2781001],[115.1131032,24.277789],[115.1141419,24.2772151],[115.1161802,24.2760185]]},"properties":{"key":"way:906003203@detail:460_97","osmType":"way","osmId":906003203,"sourceRegion":"guangdong","featureType":"infrastructure","railClass":"national","mode":"rail","name":"京九线","nameEn":"Jingjiu Line","ref":"0005","usage":"main","status":"operational","color":"#E54848","dataOrigin":"datum-2026-08-01","sourceKey":"way:906003203"}},{"type":"Feature","geometry":{"type":"LineString","coordinates":[[115.1161802,24.2760185],[115.1168456,24.275661],[115.1174781,24.2754288],[115.1180399,24.2753216]]},"properties":{"key":"way:906003204@detail:460_97","osmType":"way","osmId":906003204,"sourceRegion":"guangdong","featureType":"infrastructure","railClass":"national","mode":"rail","name":"京九线","nameEn":"Jingjiu Line","ref":"0005","usage":"main","bridge":"yes","status":"operational","color":"#E54848","dataOrigin":"datum-2026-08-01","sourceKey":"way:906003204"}},{"type":"Feature","geometry":{"type":"LineString","coordinates":[[115.1180399,24.2753216],[115.1191881,24.2752112],[115.124584,24.2748031],[115.1258775,24.2747847],[115.1271567,24.2748682],[115.1286776,24.2752025],[115.1324111,24.2762239],[115.1338439,24.2764808],[115.1380852,24.2769674]]},"properties":{"key":"way:906003205@detail:460_97","osmType":"way","osmId":906003205,"sourceRegion":"guangdong","featureType":"infrastructure","railClass":"national","mode":"rail","name":"京九线","nameEn":"Jingjiu Line","ref":"0005","usage":"main","status":"operational","color":"#E54848","dataOrigin":"datum-2026-08-01","sourceKey":"way:906003205"}},{"type":"Feature","geometry":{"type":"LineString","coordinates":[[115.1380852,24.2769674],[115.1390214,24.2770433]]},"properties":{"key":"way:906003206@detail:460_97","osmType":"way","osmId":906003206,"sourceRegion":"guangdong","featureType":"infrastructure","railClass":"national","mode":"rail","name":"京九线","nameEn":"Jingjiu Line","ref":"0005","usage":"main","tunnel":"yes","status":"operational","color":"#E54848","dataOrigin":"datum-2026-08-01","sourceKey":"way:906003206"}},{"type":"Feature","geometry":{"type":"LineString","coordinates":[[115.1390214,24.2770433],[115.1399937,24.2770514],[115.1404791,24.2769965]]},"properties":{"key":"way:906003207@detail:460_97","osmType":"way","osmId":906003207,"sourceRegion":"guangdong","featureType":"infrastructure","railClass":"national","mode":"rail","name":"京九线","nameEn":"Jingjiu Line","ref":"0005","usage":"main","status":"operational","color":"#E54848","dataOrigin":"datum-2026-08-01","sourceKey":"way:906003207"}},{"type":"Feature","geometry":{"type":"LineString","coordinates":[[115.1404791,24.2769965],[115.1411474,24.2768813],[115.1419807,24.276666]]},"properties":{"key":"way:906003208@detail:460_97","osmType":"way","osmId":906003208,"sourceRegion":"guangdong","featureType":"infrastructure","railClass":"national","mode":"rail","name":"京九线","nameEn":"Jingjiu Line","ref":"0005","usage":"main","bridge":"yes","status":"operational","color":"#E54848","dataOrigin":"datum-2026-08-01","sourceKey":"way:906003208"}},{"type":"Feature","geometry":{"type":"LineString","coordinates":[[115.1419807,24.276666],[115.1426243,24.2764506],[115.1432354,24.2761444],[115.1436151,24.2759272],[115.1439086,24.2757248]]},"properties":{"key":"way:906003209@detail:460_97","osmType":"way","osmId":906003209,"sourceRegion":"guangdong","featureType":"infrastructure","railClass":"national","mode":"rail","name":"京九线","nameEn":"Jingjiu Line","ref":"0005","usage":"main","status":"operational","color":"#E54848","dataOrigin":"datum-2026-08-01","sourceKey":"way:906003209"}},{"type":"Feature","geometry":{"type":"LineString","coordinates":[[115.1439086,24.2757248],[115.1444662,24.2753022],[115.1450019,24.2748272],[115.1454804,24.2743644],[115.1458873,24.2738744]]},"properties":{"key":"way:906003210@detail:460_97","osmType":"way","osmId":906003210,"sourceRegion":"guangdong","featureType":"infrastructure","railClass":"national","mode":"rail","name":"京九线","nameEn":"Jingjiu Line","ref":"0005","usage":"main","bridge":"yes","status":"operational","color":"#E54848","dataOrigin":"datum-2026-08-01","sourceKey":"way:906003210"}},{"type":"Feature","geometry":{"type":"LineString","coordinates":[[115.1458873,24.2738744],[115.1463517,24.2731997]]},"properties":{"key":"way:906003211@detail:460_97","osmType":"way","osmId":906003211,"sourceRegion":"guangdong","featureType":"infrastructure","railClass":"national","mode":"rail","name":"京九线","nameEn":"Jingjiu Line","ref":"0005","usage":"main","status":"operational","color":"#E54848","dataOrigin":"datum-2026-08-01","sourceKey":"way:906003211"}},{"type":"Feature","geometry":{"type":"LineString","coordinates":[[115.1463517,24.2731997],[115.1468946,24.2721308]]},"properties":{"key":"way:906003212@detail:460_97","osmType":"way","osmId":906003212,"sourceRegion":"guangdong","featureType":"infrastructure","railClass":"national","mode":"rail","name":"京九线","nameEn":"Jingjiu Line","ref":"0005","usage":"main","tunnel":"yes","status":"operational","color":"#E54848","dataOrigin":"datum-2026-08-01","sourceKey":"way:906003212"}},{"type":"Feature","geometry":{"type":"LineString","coordinates":[[115.1468946,24.2721308],[115.147508,24.2706569],[115.1479001,24.2696567],[115.1483159,24.2688269],[115.1487453,24.2681679],[115.1491951,24.2676081],[115.1496083,24.267238],[115.150117,24.2668525],[115.1506976,24.2664539],[115.1527442,24.2653037],[115.1532871,24.2650217]]},"properties":{"key":"way:906003213@detail:460_97","osmType":"way","osmId":906003213,"sourceRegion":"guangdong","featureType":"infrastructure","railClass":"national","mode":"rail","name":"京九线","nameEn":"Jingjiu Line","ref":"0005","usage":"main","status":"operational","color":"#E54848","dataOrigin":"datum-2026-08-01","sourceKey":"way:906003213"}},{"type":"Feature","geometry":{"type":"LineString","coordinates":[[115.1532871,24.2650217],[115.1542939,24.2644763],[115.1550277,24.2639067],[115.1555612,24.2633741],[115.1560593,24.2627818],[115.1575299,24.261119],[115.158351,24.2600289],[115.158984,24.2593272]]},"properties":{"key":"way:906003214@detail:460_97","osmType":"way","osmId":906003214,"sourceRegion":"guangdong","featureType":"infrastructure","railClass":"national","mode":"rail","name":"京九线","nameEn":"Jingjiu Line","ref":"0005","usage":"main","status":"operational","color":"#E54848","dataOrigin":"datum-2026-08-01","sourceKey":"way:906003214"}},{"type":"Feature","geometry":{"type":"LineString","coordinates":[[115.158984,24.2593272],[115.1598137,24.2583603]]},"properties":{"key":"way:906003215@detail:460_97","osmType":"way","osmId":906003215,"sourceRegion":"guangdong","featureType":"infrastructure","railClass":"national","mode":"rail","name":"京九线","nameEn":"Jingjiu Line","ref":"0005","usage":"main","bridge":"yes","status":"operational","color":"#E54848","dataOrigin":"datum-2026-08-01","sourceKey":"way:906003215"}},{"type":"Feature","geometry":{"type":"LineString","coordinates":[[115.1598137,24.2583603],[115.1604827,24.2575012],[115.1609274,24.25705],[115.1612095,24.2567606],[115.161752,24.2564873]]},"properties":{"key":"way:906003216@detail:460_97","osmType":"way","osmId":906003216,"sourceRegion":"guangdong","featureType":"infrastructure","railClass":"national","mode":"rail","name":"京九线","nameEn":"Jingjiu Line","ref":"0005","usage":"main","status":"operational","color":"#E54848","dataOrigin":"datum-2026-08-01","sourceKey":"way:906003216"}},{"type":"Feature","geometry":{"type":"LineString","coordinates":[[115.161752,24.2564873],[115.1628293,24.2557622],[115.1640187,24.2548881]]},"properties":{"key":"way:906003217@detail:460_97","osmType":"way","osmId":906003217,"sourceRegion":"guangdong","featureType":"infrastructure","railClass":"national","mode":"rail","name":"京九线","nameEn":"Jingjiu Line","ref":"0005","usage":"main","bridge":"yes","status":"operational","color":"#E54848","dataOrigin":"datum-2026-08-01","sourceKey":"way:906003217"}},{"type":"Feature","geometry":{"type":"LineString","coordinates":[[115.1640187,24.2548881],[115.1651357,24.2540799],[115.1657234,24.2536367],[115.1660894,24.253243],[115.1665537,24.2525551]]},"properties":{"key":"way:906003218@detail:460_97","osmType":"way","osmId":906003218,"sourceRegion":"guangdong","featureType":"infrastructure","railClass":"national","mode":"rail","name":"京九线","nameEn":"Jingjiu Line","ref":"0005","usage":"main","status":"operational","color":"#E54848","dataOrigin":"datum-2026-08-01","sourceKey":"way:906003218"}},{"type":"Feature","geometry":{"type":"LineString","coordinates":[[115.1665537,24.2525551],[115.1673327,24.2511872]]},"properties":{"key":"way:906003219@detail:460_97","osmType":"way","osmId":906003219,"sourceRegion":"guangdong","featureType":"infrastructure","railClass":"national","mode":"rail","name":"京九线","nameEn":"Jingjiu Line","ref":"0005","usage":"main","tunnel":"yes","status":"operational","color":"#E54848","dataOrigin":"datum-2026-08-01","sourceKey":"way:906003219"}},{"type":"Feature","geometry":{"type":"LineString","coordinates":[[115.1673327,24.2511872],[115.16800769640882,24.25]]},"properties":{"key":"way:906003220@detail:460_97","osmType":"way","osmId":906003220,"sourceRegion":"guangdong","featureType":"infrastructure","railClass":"national","mode":"rail","name":"京九线","nameEn":"Jingjiu Line","ref":"0005","usage":"main","status":"operational","color":"#E54848","dataOrigin":"datum-2026-08-01","sourceKey":"way:906003220"}},{"type":"Feature","geometry":{"type":"LineString","coordinates":[[115.0625107,24.3089303],[115.0627252,24.3088716]]},"properties":{"key":"way:906447994@detail:460_97","osmType":"way","osmId":906447994,"sourceRegion":"guangdong","featureType":"infrastructure","railClass":"national","mode":"rail","name":"京九线","nameEn":"Jingjiu Line","ref":"0005","usage":"main","bridge":"yes","status":"operational","color":"#E54848","dataOrigin":"datum-2026-08-01","sourceKey":"way:906447994"}},{"type":"Feature","geometry":{"type":"LineString","coordinates":[[115.0531229,24.3113228],[115.0543196,24.311036],[115.0581033,24.3100859],[115.0605579,24.3094452],[115.0616212,24.3091649],[115.0622164,24.3090079],[115.0625107,24.3089303]]},"properties":{"key":"way:906447995@detail:460_97","osmType":"way","osmId":906447995,"sourceRegion":"guangdong","featureType":"infrastructure","railClass":"national","mode":"rail","name":"京九线","nameEn":"Jingjiu Line","ref":"0005","usage":"main","status":"operational","color":"#E54848","dataOrigin":"datum-2026-08-01","sourceKey":"way:906447995"}},{"type":"Feature","geometry":{"type":"LineString","coordinates":[[115.0417608,24.312523],[115.0443097,24.3124707],[115.0468283,24.3124207],[115.0480578,24.3123659],[115.0489018,24.3122772]]},"properties":{"key":"way:906447996@detail:460_97","osmType":"way","osmId":906447996,"sourceRegion":"guangdong","featureType":"infrastructure","railClass":"national","mode":"rail","name":"京九线","nameEn":"Jingjiu Line","ref":"0005","usage":"main","bridge":"yes","status":"operational","color":"#E54848","dataOrigin":"datum-2026-08-01","sourceKey":"way:906447996"}},{"type":"Feature","geometry":{"type":"LineString","coordinates":[[115.0404998,24.3126278],[115.0410334,24.3125579],[115.0417608,24.312523]]},"properties":{"key":"way:906447997@detail:460_97","osmType":"way","osmId":906447997,"sourceRegion":"guangdong","featureType":"infrastructure","railClass":"national","mode":"rail","name":"京九线","nameEn":"Jingjiu Line","ref":"0005","usage":"main","status":"operational","color":"#E54848","dataOrigin":"datum-2026-08-01","sourceKey":"way:906447997"}},{"type":"Feature","geometry":{"type":"LineString","coordinates":[[115.039334,24.3129227],[115.0399325,24.3127403],[115.0404998,24.3126278]]},"properties":{"key":"way:906447998@detail:460_97","osmType":"way","osmId":906447998,"sourceRegion":"guangdong","featureType":"infrastructure","railClass":"national","mode":"rail","name":"京九线","nameEn":"Jingjiu Line","ref":"0005","usage":"main","bridge":"yes","status":"operational","color":"#E54848","dataOrigin":"datum-2026-08-01","sourceKey":"way:906447998"}},{"type":"Feature","geometry":{"type":"LineString","coordinates":[[115.0369026,24.3140784],[115.038477,24.3132944],[115.039334,24.3129227]]},"properties":{"key":"way:906447999@detail:460_97","osmType":"way","osmId":906447999,"sourceRegion":"guangdong","featureType":"infrastructure","railClass":"national","mode":"rail","name":"京九线","nameEn":"Jingjiu Line","ref":"0005","usage":"main","status":"operational","color":"#E54848","dataOrigin":"datum-2026-08-01","sourceKey":"way:906447999"}},{"type":"Feature","geometry":{"type":"LineString","coordinates":[[115.0354606,24.3147966],[115.0369026,24.3140784]]},"properties":{"key":"way:906448000@detail:460_97","osmType":"way","osmId":906448000,"sourceRegion":"guangdong","featureType":"infrastructure","railClass":"national","mode":"rail","name":"京九线","nameEn":"Jingjiu Line","ref":"0005","usage":"main","bridge":"yes","status":"operational","color":"#E54848","dataOrigin":"datum-2026-08-01","sourceKey":"way:906448000"}},{"type":"Feature","geometry":{"type":"LineString","coordinates":[[115.0279881,24.3198398],[115.0290128,24.3188383],[115.0295837,24.3183235],[115.0302925,24.3177799],[115.0311045,24.3172515],[115.0354606,24.3147966]]},"properties":{"key":"way:906448001@detail:460_97","osmType":"way","osmId":906448001,"sourceRegion":"guangdong","featureType":"infrastructure","railClass":"national","mode":"rail","name":"京九线","nameEn":"Jingjiu Line","ref":"0005","usage":"main","status":"operational","color":"#E54848","dataOrigin":"datum-2026-08-01","sourceKey":"way:906448001"}},{"type":"Feature","geometry":{"type":"LineString","coordinates":[[115.0274095,24.3203924],[115.0279881,24.3198398]]},"properties":{"key":"way:906448002@detail:460_97","osmType":"way","osmId":906448002,"sourceRegion":"guangdong","featureType":"infrastructure","railClass":"national","mode":"rail","name":"京九线","nameEn":"Jingjiu Line","ref":"0005","usage":"main","tunnel":"yes","status":"operational","color":"#E54848","dataOrigin":"datum-2026-08-01","sourceKey":"way:906448002"}},{"type":"Feature","geometry":{"type":"LineString","coordinates":[[115.0260078,24.3218069],[115.0274095,24.3203924]]},"properties":{"key":"way:906448003@detail:460_97","osmType":"way","osmId":906448003,"sourceRegion":"guangdong","featureType":"infrastructure","railClass":"national","mode":"rail","name":"京九线","nameEn":"Jingjiu Line","ref":"0005","usage":"main","status":"operational","color":"#E54848","dataOrigin":"datum-2026-08-01","sourceKey":"way:906448003"}},{"type":"Feature","geometry":{"type":"LineString","coordinates":[[115.0245405,24.3233409],[115.0260078,24.3218069]]},"properties":{"key":"way:906448004@detail:460_97","osmType":"way","osmId":906448004,"sourceRegion":"guangdong","featureType":"infrastructure","railClass":"national","mode":"rail","name":"京九线","nameEn":"Jingjiu Line","ref":"0005","usage":"main","bridge":"yes","status":"operational","color":"#E54848","dataOrigin":"datum-2026-08-01","sourceKey":"way:906448004"}},{"type":"Feature","geometry":{"type":"LineString","coordinates":[[115.021427,24.325888],[115.0226295,24.3249474],[115.023861,24.3239335],[115.0245405,24.3233409]]},"properties":{"key":"way:906448005@detail:460_97","osmType":"way","osmId":906448005,"sourceRegion":"guangdong","featureType":"infrastructure","railClass":"national","mode":"rail","name":"京九线","nameEn":"Jingjiu Line","ref":"0005","usage":"main","status":"operational","color":"#E54848","dataOrigin":"datum-2026-08-01","sourceKey":"way:906448005"}},{"type":"Feature","geometry":{"type":"LineString","coordinates":[[115.0207943,24.3262986],[115.021427,24.325888]]},"properties":{"key":"way:906448006@detail:460_97","osmType":"way","osmId":906448006,"sourceRegion":"guangdong","featureType":"infrastructure","railClass":"national","mode":"rail","name":"京九线","nameEn":"Jingjiu Line","ref":"0005","usage":"main","tunnel":"yes","status":"operational","color":"#E54848","dataOrigin":"datum-2026-08-01","sourceKey":"way:906448006"}},{"type":"Feature","geometry":{"type":"LineString","coordinates":[[115.0205387,24.3264646],[115.0207943,24.3262986]]},"properties":{"key":"way:906448007@detail:460_97","osmType":"way","osmId":906448007,"sourceRegion":"guangdong","featureType":"infrastructure","railClass":"national","mode":"rail","name":"京九线","nameEn":"Jingjiu Line","ref":"0005","usage":"main","status":"operational","color":"#E54848","dataOrigin":"datum-2026-08-01","sourceKey":"way:906448007"}},{"type":"Feature","geometry":{"type":"LineString","coordinates":[[115.0197036,24.3269634],[115.0205387,24.3264646]]},"properties":{"key":"way:906448008@detail:460_97","osmType":"way","osmId":906448008,"sourceRegion":"guangdong","featureType":"infrastructure","railClass":"national","mode":"rail","name":"京九线","nameEn":"Jingjiu Line","ref":"0005","usage":"main","tunnel":"yes","status":"operational","color":"#E54848","dataOrigin":"datum-2026-08-01","sourceKey":"way:906448008"}},{"type":"Feature","geometry":{"type":"LineString","coordinates":[[115.0159869,24.3335117],[115.0158844,24.332925],[115.0158636,24.3323938],[115.0158687,24.3317085],[115.0159356,24.3311602],[115.0160925,24.3305518],[115.0163749,24.3299266],[115.0166329,24.3294266],[115.0170064,24.3289321],[115.0174425,24.3284505],[115.0179907,24.3280045],[115.0185998,24.327585],[115.0197036,24.3269634]]},"properties":{"key":"way:906448009@detail:460_97","osmType":"way","osmId":906448009,"sourceRegion":"guangdong","featureType":"infrastructure","railClass":"national","mode":"rail","name":"京九线","nameEn":"Jingjiu Line","ref":"0005","usage":"main","status":"operational","color":"#E54848","dataOrigin":"datum-2026-08-01","sourceKey":"way:906448009"}},{"type":"Feature","geometry":{"type":"LineString","coordinates":[[115.0164295,24.335112],[115.0161642,24.3342744],[115.0159869,24.3335117]]},"properties":{"key":"way:906448010@detail:460_97","osmType":"way","osmId":906448010,"sourceRegion":"guangdong","featureType":"infrastructure","railClass":"national","mode":"rail","name":"京九线","nameEn":"Jingjiu Line","ref":"0005","usage":"main","tunnel":"yes","status":"operational","color":"#E54848","dataOrigin":"datum-2026-08-01","sourceKey":"way:906448010"}},{"type":"Feature","geometry":{"type":"LineString","coordinates":[[115.0168136,24.3360644],[115.0164295,24.335112]]},"properties":{"key":"way:906448011@detail:460_97","osmType":"way","osmId":906448011,"sourceRegion":"guangdong","featureType":"infrastructure","railClass":"national","mode":"rail","name":"京九线","nameEn":"Jingjiu Line","ref":"0005","usage":"main","status":"operational","color":"#E54848","dataOrigin":"datum-2026-08-01","sourceKey":"way:906448011"}},{"type":"Feature","geometry":{"type":"LineString","coordinates":[[115.017052,24.3367563],[115.0168136,24.3360644]]},"properties":{"key":"way:906448012@detail:460_97","osmType":"way","osmId":906448012,"sourceRegion":"guangdong","featureType":"infrastructure","railClass":"national","mode":"rail","name":"京九线","nameEn":"Jingjiu Line","ref":"0005","usage":"main","bridge":"yes","status":"operational","color":"#E54848","dataOrigin":"datum-2026-08-01","sourceKey":"way:906448012"}},{"type":"Feature","geometry":{"type":"LineString","coordinates":[[115.0171061,24.337016],[115.017052,24.3367563]]},"properties":{"key":"way:906448013@detail:460_97","osmType":"way","osmId":906448013,"sourceRegion":"guangdong","featureType":"infrastructure","railClass":"national","mode":"rail","name":"京九线","nameEn":"Jingjiu Line","ref":"0005","usage":"main","status":"operational","color":"#E54848","dataOrigin":"datum-2026-08-01","sourceKey":"way:906448013"}},{"type":"Feature","geometry":{"type":"LineString","coordinates":[[115.0172551,24.3387366],[115.0172651,24.3383237],[115.017215,24.3375986],[115.0171061,24.337016]]},"properties":{"key":"way:906448014@detail:460_97","osmType":"way","osmId":906448014,"sourceRegion":"guangdong","featureType":"infrastructure","railClass":"national","mode":"rail","name":"京九线","nameEn":"Jingjiu Line","ref":"0005","usage":"main","tunnel":"yes","status":"operational","color":"#E54848","dataOrigin":"datum-2026-08-01","sourceKey":"way:906448014"}},{"type":"Feature","geometry":{"type":"LineString","coordinates":[[115.0171758,24.3395249],[115.0172551,24.3387366]]},"properties":{"key":"way:906448015@detail:460_97","osmType":"way","osmId":906448015,"sourceRegion":"guangdong","featureType":"infrastructure","railClass":"national","mode":"rail","name":"京九线","nameEn":"Jingjiu Line","ref":"0005","usage":"main","status":"operational","color":"#E54848","dataOrigin":"datum-2026-08-01","sourceKey":"way:906448015"}},{"type":"Feature","geometry":{"type":"LineString","coordinates":[[115.0169366,24.340344],[115.0171758,24.3395249]]},"properties":{"key":"way:906448016@detail:460_97","osmType":"way","osmId":906448016,"sourceRegion":"guangdong","featureType":"infrastructure","railClass":"national","mode":"rail","name":"京九线","nameEn":"Jingjiu Line","ref":"0005","usage":"main","tunnel":"yes","status":"operational","color":"#E54848","dataOrigin":"datum-2026-08-01","sourceKey":"way:906448016"}},{"type":"Feature","geometry":{"type":"LineString","coordinates":[[115.0168918,24.3404615],[115.0169366,24.340344]]},"properties":{"key":"way:906448017@detail:460_97","osmType":"way","osmId":906448017,"sourceRegion":"guangdong","featureType":"infrastructure","railClass":"national","mode":"rail","name":"京九线","nameEn":"Jingjiu Line","ref":"0005","usage":"main","status":"operational","color":"#E54848","dataOrigin":"datum-2026-08-01","sourceKey":"way:906448017"}},{"type":"Feature","geometry":{"type":"LineString","coordinates":[[115.0165768,24.3410762],[115.0167716,24.3407551],[115.0168918,24.3404615]]},"properties":{"key":"way:906448018@detail:460_97","osmType":"way","osmId":906448018,"sourceRegion":"guangdong","featureType":"infrastructure","railClass":"national","mode":"rail","name":"京九线","nameEn":"Jingjiu Line","ref":"0005","usage":"main","bridge":"yes","status":"operational","color":"#E54848","dataOrigin":"datum-2026-08-01","sourceKey":"way:906448018"}},{"type":"Feature","geometry":{"type":"LineString","coordinates":[[115.0107721,24.3492137],[115.0113667,24.3479886],[115.0134002,24.3449378],[115.0141167,24.3439379],[115.0158367,24.3421039],[115.0165768,24.3410762]]},"properties":{"key":"way:906448019@detail:460_97","osmType":"way","osmId":906448019,"sourceRegion":"guangdong","featureType":"infrastructure","railClass":"national","mode":"rail","name":"京九线","nameEn":"Jingjiu Line","ref":"0005","usage":"main","status":"operational","color":"#E54848","dataOrigin":"datum-2026-08-01","sourceKey":"way:906448019"}},{"type":"Feature","geometry":{"type":"LineString","coordinates":[[115.0102607,24.3509864],[115.010397,24.3503281],[115.0107721,24.3492137]]},"properties":{"key":"way:906448020@detail:460_97","osmType":"way","osmId":906448020,"sourceRegion":"guangdong","featureType":"infrastructure","railClass":"national","mode":"rail","name":"京九线","nameEn":"Jingjiu Line","ref":"0005","usage":"main","bridge":"yes","status":"operational","color":"#E54848","dataOrigin":"datum-2026-08-01","sourceKey":"way:906448020"}},{"type":"Feature","geometry":{"type":"LineString","coordinates":[[115.0102422,24.3530602],[115.0101567,24.352421],[115.0102144,24.3515618],[115.0102607,24.3509864]]},"properties":{"key":"way:906448021@detail:460_97","osmType":"way","osmId":906448021,"sourceRegion":"guangdong","featureType":"infrastructure","railClass":"national","mode":"rail","name":"京九线","nameEn":"Jingjiu Line","ref":"0005","usage":"main","status":"operational","color":"#E54848","dataOrigin":"datum-2026-08-01","sourceKey":"way:906448021"}},{"type":"Feature","geometry":{"type":"LineString","coordinates":[[115.0102821,24.356231],[115.0103354,24.3550694],[115.0102422,24.3530602]]},"properties":{"key":"way:906448022@detail:460_97","osmType":"way","osmId":906448022,"sourceRegion":"guangdong","featureType":"infrastructure","railClass":"national","mode":"rail","name":"京九线","nameEn":"Jingjiu Line","ref":"0005","usage":"main","bridge":"yes","status":"operational","color":"#E54848","dataOrigin":"datum-2026-08-01","sourceKey":"way:906448022"}},{"type":"Feature","geometry":{"type":"LineString","coordinates":[[115.0096038,24.3585672],[115.0100592,24.3571336],[115.0101988,24.356676],[115.0102821,24.356231]]},"properties":{"key":"way:906448023@detail:460_97","osmType":"way","osmId":906448023,"sourceRegion":"guangdong","featureType":"infrastructure","railClass":"national","mode":"rail","name":"京九线","nameEn":"Jingjiu Line","ref":"0005","usage":"main","status":"operational","color":"#E54848","dataOrigin":"datum-2026-08-01","sourceKey":"way:906448023"}},{"type":"Feature","geometry":{"type":"LineString","coordinates":[[115.0088632,24.3608021],[115.0096038,24.3585672]]},"properties":{"key":"way:906448024@detail:460_97","osmType":"way","osmId":906448024,"sourceRegion":"guangdong","featureType":"infrastructure","railClass":"national","mode":"rail","name":"京九线","nameEn":"Jingjiu Line","ref":"0005","usage":"main","bridge":"yes","status":"operational","color":"#E54848","dataOrigin":"datum-2026-08-01","sourceKey":"way:906448024"}},{"type":"Feature","geometry":{"type":"LineString","coordinates":[[115.0021586,24.3722369],[115.0025397,24.3718775],[115.0029018,24.371493],[115.0031664,24.3711163],[115.0035316,24.3705348],[115.0039602,24.3696589],[115.0046717,24.3681665],[115.0056308,24.3661383],[115.0062391,24.365197],[115.0069258,24.3643047],[115.0076578,24.3634515],[115.0082504,24.3624993],[115.008672,24.3614705],[115.0088632,24.3608021]]},"properties":{"key":"way:906448025@detail:460_97","osmType":"way","osmId":906448025,"sourceRegion":"guangdong","featureType":"infrastructure","railClass":"national","mode":"rail","name":"京九线","nameEn":"Jingjiu Line","ref":"0005","usage":"main","status":"operational","color":"#E54848","dataOrigin":"datum-2026-08-01","sourceKey":"way:906448025"}},{"type":"Feature","geometry":{"type":"LineString","coordinates":[[115.0006316,24.3731983],[115.0011828,24.3729158],[115.0017128,24.3725851],[115.0021586,24.3722369]]},"properties":{"key":"way:906448026@detail:460_97","osmType":"way","osmId":906448026,"sourceRegion":"guangdong","featureType":"infrastructure","railClass":"national","mode":"rail","name":"京九线","nameEn":"Jingjiu Line","ref":"0005","usage":"main","bridge":"yes","status":"operational","color":"#E54848","dataOrigin":"datum-2026-08-01","sourceKey":"way:906448026"}},{"type":"Feature","geometry":{"type":"LineString","coordinates":[[115.0,24.373520117233863],[115.0006316,24.3731983]]},"properties":{"key":"way:906448027@detail:460_97","osmType":"way","osmId":906448027,"sourceRegion":"guangdong","featureType":"infrastructure","railClass":"national","mode":"rail","name":"京九线","nameEn":"Jingjiu Line","ref":"0005","usage":"main","status":"operational","color":"#E54848","dataOrigin":"datum-2026-08-01","sourceKey":"way:906448027"}},{"type":"Feature","geometry":{"type":"LineString","coordinates":[[115.0,24.34048758277309],[115.0077152,24.3310652],[115.0229501,24.3075227],[115.02348,24.3067088]]},"properties":{"key":"way:907910457@detail:460_97","osmType":"way","osmId":907910457,"sourceRegion":"guangdong","featureType":"infrastructure","railClass":"highspeed","mode":"rail","name":"京港高速线","nameEn":"Jinggang High-Speed Line","ref":"3003","usage":"main","highspeed":"yes","status":"operational","color":"#E54848","dataOrigin":"datum-2026-08-01","sourceKey":"way:907910457"}},{"type":"Feature","geometry":{"type":"LineString","coordinates":[[115.0254926,24.3036175],[115.0292791,24.2978014],[115.0312165,24.2947006],[115.0332713,24.292024],[115.0350952,24.2898139],[115.0366616,24.2881613],[115.0380456,24.2867139],[115.039206,24.2855076],[115.0410555,24.283879]]},"properties":{"key":"way:1445401816@detail:460_97","osmType":"way","osmId":1445401816,"sourceRegion":"guangdong","featureType":"infrastructure","railClass":"highspeed","mode":"rail","name":"京港高速线","nameEn":"Jinggang High-Speed Line","ref":"3003","usage":"main","highspeed":"yes","status":"operational","color":"#E54848","dataOrigin":"datum-2026-08-01","sourceKey":"way:1445401816"}},{"type":"Feature","geometry":{"type":"LineString","coordinates":[[115.02348,24.3067088],[115.0237321,24.3063216]]},"properties":{"key":"way:1445401817@detail:460_97","osmType":"way","osmId":1445401817,"sourceRegion":"guangdong","featureType":"infrastructure","railClass":"highspeed","mode":"rail","name":"京港高速线","nameEn":"Jinggang High-Speed Line","ref":"3003","usage":"main","highspeed":"yes","bridge":"yes","status":"operational","color":"#E54848","dataOrigin":"datum-2026-08-01","sourceKey":"way:1445401817"}},{"type":"Feature","geometry":{"type":"LineString","coordinates":[[115.0237321,24.3063216],[115.0251519,24.3041408]]},"properties":{"key":"way:1445401818@detail:460_97","osmType":"way","osmId":1445401818,"sourceRegion":"guangdong","featureType":"infrastructure","railClass":"highspeed","mode":"rail","name":"京港高速线","nameEn":"Jinggang High-Speed Line","ref":"3003","usage":"main","highspeed":"yes","status":"operational","color":"#E54848","dataOrigin":"datum-2026-08-01","sourceKey":"way:1445401818"}},{"type":"Feature","geometry":{"type":"LineString","coordinates":[[115.0253191,24.3038839],[115.0254926,24.3036175]]},"properties":{"key":"way:1445401819@detail:460_97","osmType":"way","osmId":1445401819,"sourceRegion":"guangdong","featureType":"infrastructure","railClass":"highspeed","mode":"rail","name":"京港高速线","nameEn":"Jinggang High-Speed Line","ref":"3003","usage":"main","highspeed":"yes","status":"operational","color":"#E54848","dataOrigin":"datum-2026-08-01","sourceKey":"way:1445401819"}},{"type":"Feature","geometry":{"type":"LineString","coordinates":[[115.0251519,24.3041408],[115.0252531,24.3039853]]},"properties":{"key":"way:1445401820@detail:460_97","osmType":"way","osmId":1445401820,"sourceRegion":"guangdong","featureType":"infrastructure","railClass":"highspeed","mode":"rail","name":"京港高速线","nameEn":"Jinggang High-Speed Line","ref":"3003","usage":"main","highspeed":"yes","status":"operational","color":"#E54848","dataOrigin":"datum-2026-08-01","sourceKey":"way:1445401820"}},{"type":"Feature","geometry":{"type":"LineString","coordinates":[[115.0252531,24.3039853],[115.0253191,24.3038839]]},"properties":{"key":"way:1445401821@detail:460_97","osmType":"way","osmId":1445401821,"sourceRegion":"guangdong","featureType":"infrastructure","railClass":"highspeed","mode":"rail","name":"京港高速线","nameEn":"Jinggang High-Speed Line","ref":"3003","usage":"main","highspeed":"yes","bridge":"yes","status":"operational","color":"#E54848","dataOrigin":"datum-2026-08-01","sourceKey":"way:1445401821"}},{"type":"Feature","geometry":{"type":"LineString","coordinates":[[115.0621723,24.3089734],[115.0618025,24.3090227],[115.060179,24.3094299],[115.05445,24.3108862],[115.0536959,24.3110863],[115.0533821,24.3111817],[115.0531137,24.3112807]]},"properties":{"key":"way:1467801420@detail:460_97","osmType":"way","osmId":1467801420,"sourceRegion":"guangdong","featureType":"infrastructure","railClass":"minor","mode":"rail","name":"未命名","service":"siding","status":"operational","color":"#52636F","dataOrigin":"datum-2026-08-01","sourceKey":"way:1467801420"}},{"type":"Feature","geometry":{"type":"LineString","coordinates":[[115.0619904,24.3091012],[115.0617128,24.3092159],[115.0610978,24.3094944],[115.0575382,24.3104106],[115.0566569,24.3104988]]},"properties":{"key":"way:1467801421@detail:460_97","osmType":"way","osmId":1467801421,"sourceRegion":"guangdong","featureType":"infrastructure","railClass":"minor","mode":"rail","name":"未命名","service":"siding","status":"operational","color":"#52636F","dataOrigin":"datum-2026-08-01","sourceKey":"way:1467801421"}},{"type":"Feature","geometry":{"type":"LineString","coordinates":[[115.0566569,24.3104988],[115.0573699,24.3103228],[115.0619904,24.3091012]]},"properties":{"key":"way:1467801422@detail:460_97","osmType":"way","osmId":1467801422,"sourceRegion":"guangdong","featureType":"infrastructure","railClass":"minor","mode":"rail","name":"未命名","service":"siding","status":"operational","color":"#52636F","dataOrigin":"datum-2026-08-01","sourceKey":"way:1467801422"}},{"type":"Feature","geometry":{"type":"LineString","coordinates":[[115.0489018,24.3122772],[115.0494973,24.3121878],[115.0503098,24.3119969],[115.0531229,24.3113228]]},"properties":{"key":"way:1467801423@detail:460_97","osmType":"way","osmId":1467801423,"sourceRegion":"guangdong","featureType":"infrastructure","railClass":"national","mode":"rail","name":"京九线","nameEn":"Jingjiu Line","ref":"0005","usage":"main","status":"operational","color":"#E54848","dataOrigin":"datum-2026-08-01","sourceKey":"way:1467801423"}},{"type":"Feature","geometry":{"type":"LineString","coordinates":[[115.048897,24.312246],[115.0494902,24.312157],[115.0503005,24.3119666],[115.0531137,24.3112807]]},"properties":{"key":"way:1467801424@detail:460_97","osmType":"way","osmId":1467801424,"sourceRegion":"guangdong","featureType":"infrastructure","railClass":"national","mode":"rail","name":"京九线","nameEn":"Jingjiu Line","ref":"0005","usage":"main","status":"operational","color":"#E54848","dataOrigin":"datum-2026-08-01","sourceKey":"way:1467801424"}},{"type":"Feature","geometry":{"type":"LineString","coordinates":[[115.0566569,24.3104988],[115.054174,24.3111243],[115.0534315,24.311277],[115.0531229,24.3113228]]},"properties":{"key":"way:1467801425@detail:460_97","osmType":"way","osmId":1467801425,"sourceRegion":"guangdong","featureType":"infrastructure","railClass":"minor","mode":"rail","name":"未命名","service":"siding","status":"operational","color":"#52636F","dataOrigin":"datum-2026-08-01","sourceKey":"way:1467801425"}},{"type":"Feature","geometry":{"type":"LineString","coordinates":[[115.0622164,24.3090079],[115.0619904,24.3091012]]},"properties":{"key":"way:1467801426@detail:460_97","osmType":"way","osmId":1467801426,"sourceRegion":"guangdong","featureType":"infrastructure","railClass":"minor","mode":"rail","name":"未命名","service":"siding","status":"operational","color":"#52636F","dataOrigin":"datum-2026-08-01","sourceKey":"way:1467801426"}}]}