{"type":"FeatureCollection","features":[{"type":"Feature","geometry":{"type":"LineString","coordinates":[[115.0007044,24.6947013],[115.0005332,24.6945042]]},"properties":{"key":"way:218185574@detail:460_98","osmType":"way","osmId":218185574,"sourceRegion":"guangdong","featureType":"infrastructure","railClass":"national","mode":"rail","name":"京九线","nameEn":"Jingjiu Line","ref":"0005","usage":"main","status":"operational","color":"#E54848","dataOrigin":"datum-2026-08-01","sourceKey":"way:218185574"}},{"type":"Feature","geometry":{"type":"LineString","coordinates":[[115.0034788,24.6977524],[115.0018778,24.6959729]]},"properties":{"key":"way:218185577@detail:460_98","osmType":"way","osmId":218185577,"sourceRegion":"guangdong","featureType":"infrastructure","railClass":"national","mode":"rail","name":"京九线","nameEn":"Jingjiu Line","ref":"0005","usage":"main","status":"operational","color":"#E54848","dataOrigin":"datum-2026-08-01","sourceKey":"way:218185577"}},{"type":"Feature","geometry":{"type":"LineString","coordinates":[[115.0018778,24.6959729],[115.0007044,24.6947013]]},"properties":{"key":"way:218185592@detail:460_98","osmType":"way","osmId":218185592,"sourceRegion":"guangdong","featureType":"infrastructure","railClass":"national","mode":"rail","name":"京九线","nameEn":"Jingjiu Line","ref":"0005","usage":"main","tunnel":"yes","status":"operational","color":"#E54848","dataOrigin":"datum-2026-08-01","sourceKey":"way:218185592"}},{"type":"Feature","geometry":{"type":"LineString","coordinates":[[115.0005332,24.6945042],[115.0,24.693890410130717]]},"properties":{"key":"way:218185640@detail:460_98","osmType":"way","osmId":218185640,"sourceRegion":"guangdong","featureType":"infrastructure","railClass":"national","mode":"rail","name":"京九线","nameEn":"Jingjiu Line","ref":"0005","usage":"main","tunnel":"yes","status":"operational","color":"#E54848","dataOrigin":"datum-2026-08-01","sourceKey":"way:218185640"}},{"type":"Feature","geometry":{"type":"LineString","coordinates":[[115.0417149,24.7204039],[115.0451481,24.710385],[115.0465751,24.7044786],[115.0472617,24.7005992],[115.0475728,24.6983086],[115.0482702,24.6913878],[115.0487745,24.6850417],[115.048517,24.6801285],[115.0480771,24.6759754],[115.0474119,24.67152],[115.0462103,24.6673861],[115.0443864,24.6614776],[115.04282,24.6569242],[115.0407278,24.6506836],[115.0393438,24.6462468],[115.0348377,24.6303607],[115.0296878,24.6142483],[115.0256002,24.6050695],[115.0237924,24.6014699],[115.0234008,24.6006944],[115.0170064,24.5897635],[115.0018787,24.5672645],[115.0,24.564526703479363]]},"properties":{"key":"way:769907493@detail:460_98","osmType":"way","osmId":769907493,"sourceRegion":"guangdong","featureType":"infrastructure","railClass":"highspeed","mode":"rail","name":"京港高速线","nameEn":"Jinggang High-Speed Line","ref":"3003","usage":"main","highspeed":"yes","status":"operational","color":"#E54848","dataOrigin":"datum-2026-08-01","sourceKey":"way:769907493"}},{"type":"Feature","geometry":{"type":"LineString","coordinates":[[115.0005604,24.6944847],[115.0,24.693839599019615]]},"properties":{"key":"way:906448172@detail:460_98","osmType":"way","osmId":906448172,"sourceRegion":"guangdong","featureType":"infrastructure","railClass":"national","mode":"rail","name":"京九线","nameEn":"Jingjiu Line","ref":"0005","usage":"main","tunnel":"yes","status":"operational","color":"#E54848","dataOrigin":"datum-2026-08-01","sourceKey":"way:906448172"}},{"type":"Feature","geometry":{"type":"LineString","coordinates":[[115.0007313,24.6946815],[115.0005604,24.6944847]]},"properties":{"key":"way:906448173@detail:460_98","osmType":"way","osmId":906448173,"sourceRegion":"guangdong","featureType":"infrastructure","railClass":"national","mode":"rail","name":"京九线","nameEn":"Jingjiu Line","ref":"0005","usage":"main","status":"operational","color":"#E54848","dataOrigin":"datum-2026-08-01","sourceKey":"way:906448173"}},{"type":"Feature","geometry":{"type":"LineString","coordinates":[[115.0019045,24.6959528],[115.0007313,24.6946815]]},"properties":{"key":"way:906448174@detail:460_98","osmType":"way","osmId":906448174,"sourceRegion":"guangdong","featureType":"infrastructure","railClass":"national","mode":"rail","name":"京九线","nameEn":"Jingjiu Line","ref":"0005","usage":"main","tunnel":"yes","status":"operational","color":"#E54848","dataOrigin":"datum-2026-08-01","sourceKey":"way:906448174"}},{"type":"Feature","geometry":{"type":"LineString","coordinates":[[115.0035067,24.6977337],[115.0019045,24.6959528]]},"properties":{"key":"way:906448175@detail:460_98","osmType":"way","osmId":906448175,"sourceRegion":"guangdong","featureType":"infrastructure","railClass":"national","mode":"rail","name":"京九线","nameEn":"Jingjiu Line","ref":"0005","usage":"main","status":"operational","color":"#E54848","dataOrigin":"datum-2026-08-01","sourceKey":"way:906448175"}},{"type":"Feature","geometry":{"type":"LineString","coordinates":[[115.0345745,24.7331178],[115.0383568,24.7271672],[115.0401378,24.7236541]]},"properties":{"key":"way:1186310028@detail:460_98","osmType":"way","osmId":1186310028,"sourceRegion":"guangdong","featureType":"infrastructure","railClass":"highspeed","mode":"rail","name":"京港高速线","nameEn":"Jinggang High-Speed Line","ref":"3003","usage":"main","highspeed":"yes","bridge":"yes","status":"operational","color":"#E54848","dataOrigin":"datum-2026-08-01","sourceKey":"way:1186310028"}},{"type":"Feature","geometry":{"type":"LineString","coordinates":[[115.0407734,24.7223116],[115.0417149,24.7204039]]},"properties":{"key":"way:1296695219@detail:460_98","osmType":"way","osmId":1296695219,"sourceRegion":"guangdong","featureType":"infrastructure","railClass":"highspeed","mode":"rail","name":"京港高速线","nameEn":"Jinggang High-Speed Line","ref":"3003","usage":"main","highspeed":"yes","bridge":"yes","status":"operational","color":"#E54848","dataOrigin":"datum-2026-08-01","sourceKey":"way:1296695219"}},{"type":"Feature","geometry":{"type":"LineString","coordinates":[[115.0401378,24.7236541],[115.0407734,24.7223116]]},"properties":{"key":"way:1296695220@detail:460_98","osmType":"way","osmId":1296695220,"sourceRegion":"guangdong","featureType":"infrastructure","railClass":"highspeed","mode":"rail","name":"京港高速线","nameEn":"Jinggang High-Speed Line","ref":"3003","usage":"main","highspeed":"yes","status":"operational","color":"#E54848","dataOrigin":"datum-2026-08-01","sourceKey":"way:1296695220"}}]}