{"type":"FeatureCollection","features":[{"type":"Feature","geometry":{"type":"Point","coordinates":[115.4237222,22.8132068]},"properties":{"key":"node:2719758936","osmType":"node","osmId":2719758936,"sourceRegion":"guangdong","featureType":"station","railClass":"minor","mode":"station","name":"汕尾","nameEn":"Shanwei","status":"operational","color":"#52636F","dataOrigin":"datum-2026-08-01","sourceKey":"node:2719758936","stationGroup":"汕尾","hasOperationalRail":true,"hasConstructionRail":false}},{"type":"Feature","geometry":{"type":"LineString","coordinates":[[115.4595634,22.8165951],[115.4601824,22.8168079]]},"properties":{"key":"way:180311692@detail:461_91","osmType":"way","osmId":180311692,"sourceRegion":"guangdong","featureType":"infrastructure","railClass":"highspeed","mode":"rail","name":"杭深线","nameEn":"Hangzhou-Shenzhen Line","ref":"3009","usage":"main","highspeed":"yes","status":"operational","color":"#E54848","dataOrigin":"datum-2026-08-01","sourceKey":"way:180311692"}},{"type":"Feature","geometry":{"type":"LineString","coordinates":[[115.4932542,22.8309412],[115.5,22.836621483664835]]},"properties":{"key":"way:180311700@detail:461_91","osmType":"way","osmId":180311700,"sourceRegion":"guangdong","featureType":"infrastructure","railClass":"highspeed","mode":"rail","name":"杭深线","nameEn":"Hangzhou-Shenzhen Line","ref":"3009","usage":"main","highspeed":"yes","tunnel":"yes","status":"operational","color":"#E54848","dataOrigin":"datum-2026-08-01","sourceKey":"way:180311700"}},{"type":"Feature","geometry":{"type":"LineString","coordinates":[[115.3837348,22.815467],[115.3840823,22.8154821]]},"properties":{"key":"way:180311706@detail:461_91","osmType":"way","osmId":180311706,"sourceRegion":"guangdong","featureType":"infrastructure","railClass":"highspeed","mode":"rail","name":"杭深线","nameEn":"Hangzhou-Shenzhen Line","ref":"3009","usage":"main","highspeed":"yes","status":"operational","color":"#E54848","dataOrigin":"datum-2026-08-01","sourceKey":"way:180311706"}},{"type":"Feature","geometry":{"type":"LineString","coordinates":[[115.4647767,22.8183255],[115.4722692,22.8208054]]},"properties":{"key":"way:180311708@detail:461_91","osmType":"way","osmId":180311708,"sourceRegion":"guangdong","featureType":"infrastructure","railClass":"highspeed","mode":"rail","name":"杭深线","nameEn":"Hangzhou-Shenzhen Line","ref":"3009","usage":"main","highspeed":"yes","tunnel":"yes","status":"operational","color":"#E54848","dataOrigin":"datum-2026-08-01","sourceKey":"way:180311708"}},{"type":"Feature","geometry":{"type":"LineString","coordinates":[[115.3755547,22.8151761],[115.3763862,22.8152021]]},"properties":{"key":"way:180311712@detail:461_91","osmType":"way","osmId":180311712,"sourceRegion":"guangdong","featureType":"infrastructure","railClass":"highspeed","mode":"rail","name":"杭深线","nameEn":"Hangzhou-Shenzhen Line","ref":"3009","usage":"main","highspeed":"yes","bridge":"yes","status":"operational","color":"#E54848","dataOrigin":"datum-2026-08-01","sourceKey":"way:180311712"}},{"type":"Feature","geometry":{"type":"LineString","coordinates":[[115.3341214,22.8098553],[115.3715514,22.8148318],[115.3736663,22.8150634],[115.37471,22.8151282]]},"properties":{"key":"way:180311713@detail:461_91","osmType":"way","osmId":180311713,"sourceRegion":"guangdong","featureType":"infrastructure","railClass":"highspeed","mode":"rail","name":"杭深线","nameEn":"Hangzhou-Shenzhen Line","ref":"3009","usage":"main","highspeed":"yes","tunnel":"yes","status":"operational","color":"#E54848","dataOrigin":"datum-2026-08-01","sourceKey":"way:180311713"}},{"type":"Feature","geometry":{"type":"LineString","coordinates":[[115.4722692,22.8208054],[115.4774721,22.8225714]]},"properties":{"key":"way:180311715@detail:461_91","osmType":"way","osmId":180311715,"sourceRegion":"guangdong","featureType":"infrastructure","railClass":"highspeed","mode":"rail","name":"杭深线","nameEn":"Hangzhou-Shenzhen Line","ref":"3009","usage":"main","highspeed":"yes","status":"operational","color":"#E54848","dataOrigin":"datum-2026-08-01","sourceKey":"way:180311715"}},{"type":"Feature","geometry":{"type":"LineString","coordinates":[[115.4774721,22.8225714],[115.4883821,22.8274769]]},"properties":{"key":"way:180311722@detail:461_91","osmType":"way","osmId":180311722,"sourceRegion":"guangdong","featureType":"infrastructure","railClass":"highspeed","mode":"rail","name":"杭深线","nameEn":"Hangzhou-Shenzhen Line","ref":"3009","usage":"main","highspeed":"yes","tunnel":"yes","status":"operational","color":"#E54848","dataOrigin":"datum-2026-08-01","sourceKey":"way:180311722"}},{"type":"Feature","geometry":{"type":"LineString","coordinates":[[115.3776629,22.8152173],[115.3837348,22.815467]]},"properties":{"key":"way:180311723@detail:461_91","osmType":"way","osmId":180311723,"sourceRegion":"guangdong","featureType":"infrastructure","railClass":"highspeed","mode":"rail","name":"杭深线","nameEn":"Hangzhou-Shenzhen Line","ref":"3009","usage":"main","highspeed":"yes","tunnel":"yes","status":"operational","color":"#E54848","dataOrigin":"datum-2026-08-01","sourceKey":"way:180311723"}},{"type":"Feature","geometry":{"type":"LineString","coordinates":[[115.3320521,22.809756],[115.3326384,22.8097762],[115.3341214,22.8098553]]},"properties":{"key":"way:180311732@detail:461_91","osmType":"way","osmId":180311732,"sourceRegion":"guangdong","featureType":"infrastructure","railClass":"highspeed","mode":"rail","name":"杭深线","nameEn":"Hangzhou-Shenzhen Line","ref":"3009","usage":"main","highspeed":"yes","status":"operational","color":"#E54848","dataOrigin":"datum-2026-08-01","sourceKey":"way:180311732"}},{"type":"Feature","geometry":{"type":"LineString","coordinates":[[115.4883821,22.8274769],[115.4914629,22.8295322],[115.4932542,22.8309412]]},"properties":{"key":"way:180311735@detail:461_91","osmType":"way","osmId":180311735,"sourceRegion":"guangdong","featureType":"infrastructure","railClass":"highspeed","mode":"rail","name":"杭深线","nameEn":"Hangzhou-Shenzhen Line","ref":"3009","usage":"main","highspeed":"yes","status":"operational","color":"#E54848","dataOrigin":"datum-2026-08-01","sourceKey":"way:180311735"}},{"type":"Feature","geometry":{"type":"LineString","coordinates":[[115.4215139,22.8140819],[115.4251307,22.8137894],[115.4261054,22.8137511],[115.4277741,22.8136151],[115.428547,22.8135837],[115.4296782,22.8135143],[115.4302546,22.8135046],[115.430949,22.813454],[115.4315844,22.8134056],[115.432615,22.8133437],[115.4332511,22.8132901],[115.4344279,22.8131893],[115.4359268,22.813061],[115.4364704,22.8130394]]},"properties":{"key":"way:180311736@detail:461_91","osmType":"way","osmId":180311736,"sourceRegion":"guangdong","featureType":"infrastructure","railClass":"highspeed","mode":"rail","name":"杭深线","nameEn":"Hangzhou-Shenzhen Line","ref":"3009","usage":"main","highspeed":"yes","status":"operational","color":"#E54848","dataOrigin":"datum-2026-08-01","sourceKey":"way:180311736"}},{"type":"Feature","geometry":{"type":"LineString","coordinates":[[115.440226,22.8129299],[115.4426835,22.8130689],[115.4463047,22.8134257],[115.4498864,22.8139031],[115.4521733,22.8144196],[115.4544049,22.815008],[115.4595634,22.8165951]]},"properties":{"key":"way:180311737@detail:461_91","osmType":"way","osmId":180311737,"sourceRegion":"guangdong","featureType":"infrastructure","railClass":"highspeed","mode":"rail","name":"杭深线","nameEn":"Hangzhou-Shenzhen Line","ref":"3009","usage":"main","highspeed":"yes","tunnel":"yes","status":"operational","color":"#E54848","dataOrigin":"datum-2026-08-01","sourceKey":"way:180311737"}},{"type":"Feature","geometry":{"type":"LineString","coordinates":[[115.3033774,22.8162022],[115.3048319,22.8154896],[115.3158045,22.8119225],[115.3226456,22.810547],[115.3271792,22.8098774],[115.3287228,22.8097281]]},"properties":{"key":"way:180311746@detail:461_91","osmType":"way","osmId":180311746,"sourceRegion":"guangdong","featureType":"infrastructure","railClass":"highspeed","mode":"rail","name":"杭深线","nameEn":"Hangzhou-Shenzhen Line","ref":"3009","usage":"main","highspeed":"yes","tunnel":"yes","status":"operational","color":"#E54848","dataOrigin":"datum-2026-08-01","sourceKey":"way:180311746"}},{"type":"Feature","geometry":{"type":"LineString","coordinates":[[115.3840823,22.8154821],[115.3856074,22.8155482],[115.3922004,22.8156981],[115.3967937,22.8156619],[115.3981267,22.8156135],[115.399491,22.8155257],[115.407488,22.8150553]]},"properties":{"key":"way:180311752@detail:461_91","osmType":"way","osmId":180311752,"sourceRegion":"guangdong","featureType":"infrastructure","railClass":"highspeed","mode":"rail","name":"杭深线","nameEn":"Hangzhou-Shenzhen Line","ref":"3009","usage":"main","highspeed":"yes","bridge":"viaduct","status":"operational","color":"#E54848","dataOrigin":"datum-2026-08-01","sourceKey":"way:180311752"}},{"type":"Feature","geometry":{"type":"LineString","coordinates":[[115.25,22.842780170384078],[115.2533454,22.8423761],[115.2583009,22.8413087],[115.2624907,22.8400722],[115.2664716,22.8385032],[115.2703892,22.8366308],[115.2742245,22.8344143],[115.2921354,22.8230805]]},"properties":{"key":"way:180311760@detail:461_91","osmType":"way","osmId":180311760,"sourceRegion":"guangdong","featureType":"infrastructure","railClass":"highspeed","mode":"rail","name":"杭深线","nameEn":"Hangzhou-Shenzhen Line","ref":"3009","usage":"main","highspeed":"yes","bridge":"viaduct","status":"operational","color":"#E54848","dataOrigin":"datum-2026-08-01","sourceKey":"way:180311760"}},{"type":"Feature","geometry":{"type":"LineString","coordinates":[[115.3021453,22.8168878],[115.3033774,22.8162022]]},"properties":{"key":"way:264337513@detail:461_91","osmType":"way","osmId":264337513,"sourceRegion":"guangdong","featureType":"infrastructure","railClass":"highspeed","mode":"rail","name":"杭深线","nameEn":"Hangzhou-Shenzhen Line","ref":"3009","usage":"main","highspeed":"yes","status":"operational","color":"#E54848","dataOrigin":"datum-2026-08-01","sourceKey":"way:264337513"}},{"type":"Feature","geometry":{"type":"LineString","coordinates":[[115.2921354,22.8230805],[115.2929339,22.822533]]},"properties":{"key":"way:264337514@detail:461_91","osmType":"way","osmId":264337514,"sourceRegion":"guangdong","featureType":"infrastructure","railClass":"highspeed","mode":"rail","name":"杭深线","nameEn":"Hangzhou-Shenzhen Line","ref":"3009","usage":"main","highspeed":"yes","status":"operational","color":"#E54848","dataOrigin":"datum-2026-08-01","sourceKey":"way:264337514"}},{"type":"Feature","geometry":{"type":"LineString","coordinates":[[115.407488,22.8150553],[115.4131519,22.8146797],[115.4136468,22.8146282],[115.4167492,22.8144112],[115.4197356,22.8142234]]},"properties":{"key":"way:573997861@detail:461_91","osmType":"way","osmId":573997861,"sourceRegion":"guangdong","featureType":"infrastructure","railClass":"highspeed","mode":"rail","name":"杭深线","nameEn":"Hangzhou-Shenzhen Line","ref":"3009","usage":"main","highspeed":"yes","status":"operational","color":"#E54848","dataOrigin":"datum-2026-08-01","sourceKey":"way:573997861"}},{"type":"Feature","geometry":{"type":"LineString","coordinates":[[115.4197356,22.8142234],[115.4215139,22.8140819]]},"properties":{"key":"way:573997868@detail:461_91","osmType":"way","osmId":573997868,"sourceRegion":"guangdong","featureType":"infrastructure","railClass":"highspeed","mode":"rail","name":"杭深线","nameEn":"Hangzhou-Shenzhen Line","ref":"3009","usage":"main","highspeed":"yes","bridge":"yes","status":"operational","color":"#E54848","dataOrigin":"datum-2026-08-01","sourceKey":"way:573997868"}},{"type":"Feature","geometry":{"type":"LineString","coordinates":[[115.2920776,22.8230052],[115.2741696,22.8343372],[115.2703395,22.8365507],[115.2664288,22.8384198],[115.2624557,22.8399857],[115.2582742,22.8412198],[115.2533275,22.8422853],[115.25,22.842687202235496]]},"properties":{"key":"way:631441051@detail:461_91","osmType":"way","osmId":631441051,"sourceRegion":"guangdong","featureType":"infrastructure","railClass":"highspeed","mode":"rail","name":"杭深线","nameEn":"Hangzhou-Shenzhen Line","ref":"3009","usage":"main","highspeed":"yes","bridge":"viaduct","status":"operational","color":"#E54848","dataOrigin":"datum-2026-08-01","sourceKey":"way:631441051"}},{"type":"Feature","geometry":{"type":"LineString","coordinates":[[115.3020917,22.8168099],[115.2929023,22.8224691]]},"properties":{"key":"way:631441052@detail:461_91","osmType":"way","osmId":631441052,"sourceRegion":"guangdong","featureType":"infrastructure","railClass":"highspeed","mode":"rail","name":"杭深线","nameEn":"Hangzhou-Shenzhen Line","ref":"3009","usage":"main","highspeed":"yes","tunnel":"yes","status":"operational","color":"#E54848","dataOrigin":"datum-2026-08-01","sourceKey":"way:631441052"}},{"type":"Feature","geometry":{"type":"LineString","coordinates":[[115.3033374,22.8161168],[115.3020917,22.8168099]]},"properties":{"key":"way:631441053@detail:461_91","osmType":"way","osmId":631441053,"sourceRegion":"guangdong","featureType":"infrastructure","railClass":"highspeed","mode":"rail","name":"杭深线","nameEn":"Hangzhou-Shenzhen Line","ref":"3009","usage":"main","highspeed":"yes","status":"operational","color":"#E54848","dataOrigin":"datum-2026-08-01","sourceKey":"way:631441053"}},{"type":"Feature","geometry":{"type":"LineString","coordinates":[[115.32871,22.8096476],[115.3271862,22.8097583],[115.3225974,22.8104428],[115.3157616,22.8117642],[115.3047938,22.8153928],[115.3033374,22.8161168]]},"properties":{"key":"way:631441054@detail:461_91","osmType":"way","osmId":631441054,"sourceRegion":"guangdong","featureType":"infrastructure","railClass":"highspeed","mode":"rail","name":"杭深线","nameEn":"Hangzhou-Shenzhen Line","ref":"3009","usage":"main","highspeed":"yes","tunnel":"yes","status":"operational","color":"#E54848","dataOrigin":"datum-2026-08-01","sourceKey":"way:631441054"}},{"type":"Feature","geometry":{"type":"LineString","coordinates":[[115.3341325,22.8097636],[115.3326335,22.8097112],[115.3320565,22.8096993]]},"properties":{"key":"way:631441055@detail:461_91","osmType":"way","osmId":631441055,"sourceRegion":"guangdong","featureType":"infrastructure","railClass":"highspeed","mode":"rail","name":"杭深线","nameEn":"Hangzhou-Shenzhen Line","ref":"3009","usage":"main","highspeed":"yes","status":"operational","color":"#E54848","dataOrigin":"datum-2026-08-01","sourceKey":"way:631441055"}},{"type":"Feature","geometry":{"type":"LineString","coordinates":[[115.3747186,22.8150362],[115.3736429,22.8149809],[115.3715602,22.8147511],[115.3341325,22.8097636]]},"properties":{"key":"way:631441056@detail:461_91","osmType":"way","osmId":631441056,"sourceRegion":"guangdong","featureType":"infrastructure","railClass":"highspeed","mode":"rail","name":"杭深线","nameEn":"Hangzhou-Shenzhen Line","ref":"3009","usage":"main","highspeed":"yes","tunnel":"yes","status":"operational","color":"#E54848","dataOrigin":"datum-2026-08-01","sourceKey":"way:631441056"}},{"type":"Feature","geometry":{"type":"LineString","coordinates":[[115.3776668,22.8151251],[115.3763929,22.8151081]]},"properties":{"key":"way:631441057@detail:461_91","osmType":"way","osmId":631441057,"sourceRegion":"guangdong","featureType":"infrastructure","railClass":"highspeed","mode":"rail","name":"杭深线","nameEn":"Hangzhou-Shenzhen Line","ref":"3009","usage":"main","highspeed":"yes","status":"operational","color":"#E54848","dataOrigin":"datum-2026-08-01","sourceKey":"way:631441057"}},{"type":"Feature","geometry":{"type":"LineString","coordinates":[[115.3837394,22.8153749],[115.3776668,22.8151251]]},"properties":{"key":"way:631441058@detail:461_91","osmType":"way","osmId":631441058,"sourceRegion":"guangdong","featureType":"infrastructure","railClass":"highspeed","mode":"rail","name":"杭深线","nameEn":"Hangzhou-Shenzhen Line","ref":"3009","usage":"main","highspeed":"yes","tunnel":"yes","status":"operational","color":"#E54848","dataOrigin":"datum-2026-08-01","sourceKey":"way:631441058"}},{"type":"Feature","geometry":{"type":"LineString","coordinates":[[115.384087,22.81539],[115.3837394,22.8153749]]},"properties":{"key":"way:631441059@detail:461_91","osmType":"way","osmId":631441059,"sourceRegion":"guangdong","featureType":"infrastructure","railClass":"highspeed","mode":"rail","name":"杭深线","nameEn":"Hangzhou-Shenzhen Line","ref":"3009","usage":"main","highspeed":"yes","status":"operational","color":"#E54848","dataOrigin":"datum-2026-08-01","sourceKey":"way:631441059"}},{"type":"Feature","geometry":{"type":"LineString","coordinates":[[115.407484,22.8149974],[115.3994875,22.8154819],[115.3981267,22.8155664],[115.3968035,22.8156087],[115.3922145,22.8156513],[115.3856121,22.8154561],[115.384087,22.81539]]},"properties":{"key":"way:631441060@detail:461_91","osmType":"way","osmId":631441060,"sourceRegion":"guangdong","featureType":"infrastructure","railClass":"highspeed","mode":"rail","name":"杭深线","nameEn":"Hangzhou-Shenzhen Line","ref":"3009","usage":"main","highspeed":"yes","bridge":"viaduct","status":"operational","color":"#E54848","dataOrigin":"datum-2026-08-01","sourceKey":"way:631441060"}},{"type":"Feature","geometry":{"type":"LineString","coordinates":[[115.4197257,22.8141686],[115.4189964,22.8142183],[115.4167376,22.8143541],[115.4118315,22.8147154],[115.407484,22.8149974]]},"properties":{"key":"way:631441061@detail:461_91","osmType":"way","osmId":631441061,"sourceRegion":"guangdong","featureType":"infrastructure","railClass":"highspeed","mode":"rail","name":"杭深线","nameEn":"Hangzhou-Shenzhen Line","ref":"3009","usage":"main","highspeed":"yes","status":"operational","color":"#E54848","dataOrigin":"datum-2026-08-01","sourceKey":"way:631441061"}},{"type":"Feature","geometry":{"type":"LineString","coordinates":[[115.4215286,22.8140241],[115.4197257,22.8141686]]},"properties":{"key":"way:631441062@detail:461_91","osmType":"way","osmId":631441062,"sourceRegion":"guangdong","featureType":"infrastructure","railClass":"highspeed","mode":"rail","name":"杭深线","nameEn":"Hangzhou-Shenzhen Line","ref":"3009","usage":"main","highspeed":"yes","bridge":"yes","status":"operational","color":"#E54848","dataOrigin":"datum-2026-08-01","sourceKey":"way:631441062"}},{"type":"Feature","geometry":{"type":"LineString","coordinates":[[115.4364581,22.8129956],[115.4359321,22.8130155],[115.4346031,22.813126],[115.4315871,22.8133614],[115.4302501,22.8134617],[115.4296994,22.8134656],[115.428543,22.8135132],[115.4277625,22.8135702],[115.426089,22.8137022],[115.4251195,22.8137555],[115.4215286,22.8140241]]},"properties":{"key":"way:631441063@detail:461_91","osmType":"way","osmId":631441063,"sourceRegion":"guangdong","featureType":"infrastructure","railClass":"highspeed","mode":"rail","name":"杭深线","nameEn":"Hangzhou-Shenzhen Line","ref":"3009","usage":"main","highspeed":"yes","status":"operational","color":"#E54848","dataOrigin":"datum-2026-08-01","sourceKey":"way:631441063"}},{"type":"Feature","geometry":{"type":"LineString","coordinates":[[115.4595706,22.8165321],[115.4544425,22.8149042],[115.4521894,22.8143207],[115.4499065,22.8138125],[115.4463154,22.8133367],[115.4426621,22.8129735],[115.4402287,22.8128568]]},"properties":{"key":"way:631441064@detail:461_91","osmType":"way","osmId":631441064,"sourceRegion":"guangdong","featureType":"infrastructure","railClass":"highspeed","mode":"rail","name":"杭深线","nameEn":"Hangzhou-Shenzhen Line","ref":"3009","usage":"main","highspeed":"yes","tunnel":"yes","status":"operational","color":"#E54848","dataOrigin":"datum-2026-08-01","sourceKey":"way:631441064"}},{"type":"Feature","geometry":{"type":"LineString","coordinates":[[115.4648032,22.8182809],[115.4627681,22.8176287]]},"properties":{"key":"way:631441065@detail:461_91","osmType":"way","osmId":631441065,"sourceRegion":"guangdong","featureType":"infrastructure","railClass":"highspeed","mode":"rail","name":"杭深线","nameEn":"Hangzhou-Shenzhen Line","ref":"3009","usage":"main","highspeed":"yes","status":"operational","color":"#E54848","dataOrigin":"datum-2026-08-01","sourceKey":"way:631441065"}},{"type":"Feature","geometry":{"type":"LineString","coordinates":[[115.4723035,22.8207188],[115.4648032,22.8182809]]},"properties":{"key":"way:631441066@detail:461_91","osmType":"way","osmId":631441066,"sourceRegion":"guangdong","featureType":"infrastructure","railClass":"highspeed","mode":"rail","name":"杭深线","nameEn":"Hangzhou-Shenzhen Line","ref":"3009","usage":"main","highspeed":"yes","tunnel":"yes","status":"operational","color":"#E54848","dataOrigin":"datum-2026-08-01","sourceKey":"way:631441066"}},{"type":"Feature","geometry":{"type":"LineString","coordinates":[[115.4775114,22.8224865],[115.4723035,22.8207188]]},"properties":{"key":"way:631441067@detail:461_91","osmType":"way","osmId":631441067,"sourceRegion":"guangdong","featureType":"infrastructure","railClass":"highspeed","mode":"rail","name":"杭深线","nameEn":"Hangzhou-Shenzhen Line","ref":"3009","usage":"main","highspeed":"yes","status":"operational","color":"#E54848","dataOrigin":"datum-2026-08-01","sourceKey":"way:631441067"}},{"type":"Feature","geometry":{"type":"LineString","coordinates":[[115.4884338,22.8273975],[115.4775114,22.8224865]]},"properties":{"key":"way:631441068@detail:461_91","osmType":"way","osmId":631441068,"sourceRegion":"guangdong","featureType":"infrastructure","railClass":"highspeed","mode":"rail","name":"杭深线","nameEn":"Hangzhou-Shenzhen Line","ref":"3009","usage":"main","highspeed":"yes","tunnel":"yes","status":"operational","color":"#E54848","dataOrigin":"datum-2026-08-01","sourceKey":"way:631441068"}},{"type":"Feature","geometry":{"type":"LineString","coordinates":[[115.4933204,22.8308721],[115.4915248,22.8294597],[115.4884338,22.8273975]]},"properties":{"key":"way:631441069@detail:461_91","osmType":"way","osmId":631441069,"sourceRegion":"guangdong","featureType":"infrastructure","railClass":"highspeed","mode":"rail","name":"杭深线","nameEn":"Hangzhou-Shenzhen Line","ref":"3009","usage":"main","highspeed":"yes","status":"operational","color":"#E54848","dataOrigin":"datum-2026-08-01","sourceKey":"way:631441069"}},{"type":"Feature","geometry":{"type":"LineString","coordinates":[[115.5,22.836496598833143],[115.4933204,22.8308721]]},"properties":{"key":"way:631441070@detail:461_91","osmType":"way","osmId":631441070,"sourceRegion":"guangdong","featureType":"infrastructure","railClass":"highspeed","mode":"rail","name":"杭深线","nameEn":"Hangzhou-Shenzhen Line","ref":"3009","usage":"main","highspeed":"yes","tunnel":"yes","status":"operational","color":"#E54848","dataOrigin":"datum-2026-08-01","sourceKey":"way:631441070"}},{"type":"Feature","geometry":{"type":"LineString","coordinates":[[115.2929023,22.8224691],[115.2920776,22.8230052]]},"properties":{"key":"way:757741764@detail:461_91","osmType":"way","osmId":757741764,"sourceRegion":"guangdong","featureType":"infrastructure","railClass":"highspeed","mode":"rail","name":"杭深线","nameEn":"Hangzhou-Shenzhen Line","ref":"3009","usage":"main","highspeed":"yes","status":"operational","color":"#E54848","dataOrigin":"datum-2026-08-01","sourceKey":"way:757741764"}},{"type":"Feature","geometry":{"type":"LineString","coordinates":[[115.2929339,22.822533],[115.3021453,22.8168878]]},"properties":{"key":"way:757741765@detail:461_91","osmType":"way","osmId":757741765,"sourceRegion":"guangdong","featureType":"infrastructure","railClass":"highspeed","mode":"rail","name":"杭深线","nameEn":"Hangzhou-Shenzhen Line","ref":"3009","usage":"main","highspeed":"yes","tunnel":"yes","status":"operational","color":"#E54848","dataOrigin":"datum-2026-08-01","sourceKey":"way:757741765"}},{"type":"Feature","geometry":{"type":"LineString","coordinates":[[115.3763929,22.8151081],[115.37554,22.8150896]]},"properties":{"key":"way:757741766@detail:461_91","osmType":"way","osmId":757741766,"sourceRegion":"guangdong","featureType":"infrastructure","railClass":"highspeed","mode":"rail","name":"杭深线","nameEn":"Hangzhou-Shenzhen Line","ref":"3009","usage":"main","highspeed":"yes","bridge":"yes","status":"operational","color":"#E54848","dataOrigin":"datum-2026-08-01","sourceKey":"way:757741766"}},{"type":"Feature","geometry":{"type":"LineString","coordinates":[[115.3763862,22.8152021],[115.3776629,22.8152173]]},"properties":{"key":"way:757741767@detail:461_91","osmType":"way","osmId":757741767,"sourceRegion":"guangdong","featureType":"infrastructure","railClass":"highspeed","mode":"rail","name":"杭深线","nameEn":"Hangzhou-Shenzhen Line","ref":"3009","usage":"main","highspeed":"yes","status":"operational","color":"#E54848","dataOrigin":"datum-2026-08-01","sourceKey":"way:757741767"}},{"type":"Feature","geometry":{"type":"LineString","coordinates":[[115.37554,22.8150896],[115.3747186,22.8150362]]},"properties":{"key":"way:757741768@detail:461_91","osmType":"way","osmId":757741768,"sourceRegion":"guangdong","featureType":"infrastructure","railClass":"highspeed","mode":"rail","name":"杭深线","nameEn":"Hangzhou-Shenzhen Line","ref":"3009","usage":"main","highspeed":"yes","status":"operational","color":"#E54848","dataOrigin":"datum-2026-08-01","sourceKey":"way:757741768"}},{"type":"Feature","geometry":{"type":"LineString","coordinates":[[115.37471,22.8151282],[115.3755547,22.8151761]]},"properties":{"key":"way:757741769@detail:461_91","osmType":"way","osmId":757741769,"sourceRegion":"guangdong","featureType":"infrastructure","railClass":"highspeed","mode":"rail","name":"杭深线","nameEn":"Hangzhou-Shenzhen Line","ref":"3009","usage":"main","highspeed":"yes","status":"operational","color":"#E54848","dataOrigin":"datum-2026-08-01","sourceKey":"way:757741769"}},{"type":"Feature","geometry":{"type":"LineString","coordinates":[[115.3162992,22.8364099],[115.3151481,22.8367044],[115.3140698,22.8369784],[115.3128326,22.8372525],[115.3121604,22.837401],[115.3114863,22.837542],[115.3108103,22.8376754],[115.3101327,22.8378011],[115.3094534,22.8379192],[115.3087726,22.8380297],[115.3080904,22.8381325],[115.3073598,22.8382338],[115.3066277,22.8383264],[115.3058945,22.8384101],[115.30516,22.838485],[115.3044246,22.838551],[115.3036884,22.8386082],[115.3029513,22.8386565],[115.2710652,22.8407725],[115.270385,22.840845],[115.2697061,22.8409272],[115.2690286,22.841019],[115.2683528,22.8411205],[115.2676787,22.8412315],[115.2670066,22.8413522],[115.2663366,22.8414823],[115.2656688,22.841622],[115.2650034,22.8417711],[115.264391,22.8419173],[115.2637809,22.8420715],[115.2631732,22.8422337],[115.2625681,22.8424039],[115.2619657,22.842582],[115.2613661,22.8427679],[115.2607694,22.8429618],[115.2601758,22.8431634],[115.2595854,22.8433729],[115.2585375,22.8437685],[115.2574931,22.844172],[115.2564523,22.8445834],[115.2554152,22.8450025],[115.2543819,22.8454294],[115.253455,22.8458204],[115.2525312,22.8462175],[115.2516106,22.8466209],[115.2506933,22.8470306],[115.25,22.847345963898917]]},"properties":{"key":"way:818797716@detail:461_91","osmType":"way","osmId":818797716,"sourceRegion":"guangdong","featureType":"infrastructure","railClass":"highspeed","mode":"rail","name":"甬广高速线","nameEn":"Ningbo–Guangzhou Highspeed-Railway","ref":"广汕高速线","usage":"main","highspeed":"yes","bridge":"yes","status":"operational","color":"#E54848","dataOrigin":"datum-2026-08-01","sourceKey":"way:818797716"}},{"type":"Feature","geometry":{"type":"LineString","coordinates":[[115.3302294,22.832036],[115.3263216,22.8332746]]},"properties":{"key":"way:818797720@detail:461_91","osmType":"way","osmId":818797720,"sourceRegion":"guangdong","featureType":"infrastructure","railClass":"highspeed","mode":"rail","name":"甬广高速线","nameEn":"Ningbo–Guangzhou Highspeed-Railway","ref":"广汕高速线","usage":"main","highspeed":"yes","tunnel":"yes","status":"operational","color":"#E54848","dataOrigin":"datum-2026-08-01","sourceKey":"way:818797720"}},{"type":"Feature","geometry":{"type":"LineString","coordinates":[[115.3409228,22.8286205],[115.3403159,22.8288224]]},"properties":{"key":"way:818797721@detail:461_91","osmType":"way","osmId":818797721,"sourceRegion":"guangdong","featureType":"infrastructure","railClass":"highspeed","mode":"rail","name":"甬广高速线","nameEn":"Ningbo–Guangzhou Highspeed-Railway","ref":"广汕高速线","usage":"main","highspeed":"yes","status":"operational","color":"#E54848","dataOrigin":"datum-2026-08-01","sourceKey":"way:818797721"}},{"type":"Feature","geometry":{"type":"LineString","coordinates":[[115.3460345,22.8269955],[115.3409228,22.8286205]]},"properties":{"key":"way:818797723@detail:461_91","osmType":"way","osmId":818797723,"sourceRegion":"guangdong","featureType":"infrastructure","railClass":"highspeed","mode":"rail","name":"甬广高速线","nameEn":"Ningbo–Guangzhou Highspeed-Railway","ref":"广汕高速线","usage":"main","highspeed":"yes","tunnel":"yes","status":"operational","color":"#E54848","dataOrigin":"datum-2026-08-01","sourceKey":"way:818797723"}},{"type":"Feature","geometry":{"type":"LineString","coordinates":[[115.3793326,22.8172115],[115.3771121,22.8176117]]},"properties":{"key":"way:818797724@detail:461_91","osmType":"way","osmId":818797724,"sourceRegion":"guangdong","featureType":"infrastructure","railClass":"highspeed","mode":"rail","name":"甬广高速线","nameEn":"Ningbo–Guangzhou Highspeed-Railway","ref":"广汕高速线","usage":"main","highspeed":"yes","bridge":"yes","status":"operational","color":"#E54848","dataOrigin":"datum-2026-08-01","sourceKey":"way:818797724"}},{"type":"Feature","geometry":{"type":"LineString","coordinates":[[115.3834,22.816647],[115.3829966,22.8166929]]},"properties":{"key":"way:818797725@detail:461_91","osmType":"way","osmId":818797725,"sourceRegion":"guangdong","featureType":"infrastructure","railClass":"highspeed","mode":"rail","name":"甬广高速线","nameEn":"Ningbo–Guangzhou Highspeed-Railway","ref":"广汕高速线","usage":"main","highspeed":"yes","status":"operational","color":"#E54848","dataOrigin":"datum-2026-08-01","sourceKey":"way:818797725"}},{"type":"Feature","geometry":{"type":"LineString","coordinates":[[115.3771121,22.8176117],[115.3750695,22.818052],[115.3733811,22.8184444],[115.3714902,22.8189481],[115.3697936,22.8194536],[115.3501775,22.8256729]]},"properties":{"key":"way:818797726@detail:461_91","osmType":"way","osmId":818797726,"sourceRegion":"guangdong","featureType":"infrastructure","railClass":"highspeed","mode":"rail","name":"甬广高速线","nameEn":"Ningbo–Guangzhou Highspeed-Railway","ref":"广汕高速线","usage":"main","highspeed":"yes","tunnel":"yes","status":"operational","color":"#E54848","dataOrigin":"datum-2026-08-01","sourceKey":"way:818797726"}},{"type":"Feature","geometry":{"type":"LineString","coordinates":[[115.3829966,22.8166929],[115.3793326,22.8172115]]},"properties":{"key":"way:818797727@detail:461_91","osmType":"way","osmId":818797727,"sourceRegion":"guangdong","featureType":"infrastructure","railClass":"highspeed","mode":"rail","name":"甬广高速线","nameEn":"Ningbo–Guangzhou Highspeed-Railway","ref":"广汕高速线","usage":"main","highspeed":"yes","tunnel":"yes","status":"operational","color":"#E54848","dataOrigin":"datum-2026-08-01","sourceKey":"way:818797727"}},{"type":"Feature","geometry":{"type":"LineString","coordinates":[[115.3501775,22.8256729],[115.3460345,22.8269955]]},"properties":{"key":"way:818797728@detail:461_91","osmType":"way","osmId":818797728,"sourceRegion":"guangdong","featureType":"infrastructure","railClass":"highspeed","mode":"rail","name":"甬广高速线","nameEn":"Ningbo–Guangzhou Highspeed-Railway","ref":"广汕高速线","usage":"main","highspeed":"yes","bridge":"yes","status":"operational","color":"#E54848","dataOrigin":"datum-2026-08-01","sourceKey":"way:818797728"}},{"type":"Feature","geometry":{"type":"LineString","coordinates":[[115.4078439,22.8157441],[115.4047841,22.8159673],[115.4016003,22.8160785],[115.3951083,22.8161818],[115.3904648,22.8161635],[115.3881047,22.8162541],[115.3857986,22.8164172],[115.3834,22.816647]]},"properties":{"key":"way:818797730@detail:461_91","osmType":"way","osmId":818797730,"sourceRegion":"guangdong","featureType":"infrastructure","railClass":"highspeed","mode":"rail","name":"甬广高速线","nameEn":"Ningbo–Guangzhou Highspeed-Railway","ref":"广汕高速线","usage":"main","highspeed":"yes","bridge":"yes","status":"operational","color":"#E54848","dataOrigin":"datum-2026-08-01","sourceKey":"way:818797730"}},{"type":"Feature","geometry":{"type":"LineString","coordinates":[[115.4173718,22.815075],[115.409012,22.8156612]]},"properties":{"key":"way:818797732@detail:461_91","osmType":"way","osmId":818797732,"sourceRegion":"guangdong","featureType":"infrastructure","railClass":"highspeed","mode":"rail","name":"甬广高速线","nameEn":"Ningbo–Guangzhou Highspeed-Railway","ref":"广汕高速线","usage":"main","highspeed":"yes","tunnel":"yes","status":"operational","color":"#E54848","dataOrigin":"datum-2026-08-01","sourceKey":"way:818797732"}},{"type":"Feature","geometry":{"type":"LineString","coordinates":[[115.430848,22.8135211],[115.4313537,22.8134842],[115.4341114,22.8132624],[115.4354387,22.813155],[115.4359429,22.8131309],[115.4364827,22.8131065]]},"properties":{"key":"way:818797733@detail:461_91","osmType":"way","osmId":818797733,"sourceRegion":"guangdong","featureType":"infrastructure","railClass":"minor","mode":"rail","name":"未命名","service":"siding","status":"operational","color":"#52636F","dataOrigin":"datum-2026-08-01","sourceKey":"way:818797733"}},{"type":"Feature","geometry":{"type":"LineString","coordinates":[[115.4215075,22.8144093],[115.42422,22.8141818],[115.4258649,22.8140727],[115.4264685,22.8140322],[115.4268684,22.8139975],[115.4272261,22.8139869],[115.427502,22.8139475],[115.4280836,22.8138379],[115.4286424,22.8137528],[115.4291244,22.8136841],[115.4295712,22.8136238],[115.430085,22.8135767],[115.430848,22.8135211]]},"properties":{"key":"way:818797734@detail:461_91","osmType":"way","osmId":818797734,"sourceRegion":"guangdong","featureType":"infrastructure","railClass":"minor","mode":"rail","name":"未命名","service":"siding","status":"operational","color":"#52636F","dataOrigin":"datum-2026-08-01","sourceKey":"way:818797734"}},{"type":"Feature","geometry":{"type":"LineString","coordinates":[[115.4215028,22.8143466],[115.4250468,22.8140721],[115.4258596,22.8140142],[115.4264584,22.8139729],[115.4268527,22.8139392],[115.4272047,22.8139276],[115.4276024,22.8138754],[115.4279986,22.8138138],[115.4287011,22.8136716]]},"properties":{"key":"way:818797735@detail:461_91","osmType":"way","osmId":818797735,"sourceRegion":"guangdong","featureType":"infrastructure","railClass":"minor","mode":"rail","name":"未命名","service":"siding","status":"operational","color":"#52636F","dataOrigin":"datum-2026-08-01","sourceKey":"way:818797735"}},{"type":"Feature","geometry":{"type":"LineString","coordinates":[[115.4214987,22.8142928],[115.4250455,22.8140282],[115.4258579,22.8139671],[115.4264465,22.8139234],[115.4271899,22.8138732],[115.4287011,22.8136716],[115.4293623,22.8135834],[115.4297761,22.813561],[115.430848,22.8135211]]},"properties":{"key":"way:818797736@detail:461_91","osmType":"way","osmId":818797736,"sourceRegion":"guangdong","featureType":"infrastructure","railClass":"minor","mode":"rail","name":"未命名","service":"siding","status":"operational","color":"#52636F","dataOrigin":"datum-2026-08-01","sourceKey":"way:818797736"}},{"type":"Feature","geometry":{"type":"LineString","coordinates":[[115.4215162,22.8141151],[115.4251241,22.8138305],[115.4261007,22.8137853],[115.4274603,22.8136901],[115.4281326,22.8136408],[115.4285279,22.8136171],[115.4297761,22.813561]]},"properties":{"key":"way:818797737@detail:461_91","osmType":"way","osmId":818797737,"sourceRegion":"guangdong","featureType":"infrastructure","railClass":"minor","mode":"rail","name":"未命名","service":"siding","status":"operational","color":"#52636F","dataOrigin":"datum-2026-08-01","sourceKey":"way:818797737"}},{"type":"Feature","geometry":{"type":"LineString","coordinates":[[115.4168492,22.8144564],[115.4197471,22.8142589]]},"properties":{"key":"way:818797738@detail:461_91","osmType":"way","osmId":818797738,"sourceRegion":"guangdong","featureType":"infrastructure","railClass":"minor","mode":"rail","name":"未命名","service":"siding","status":"operational","color":"#52636F","dataOrigin":"datum-2026-08-01","sourceKey":"way:818797738"}},{"type":"Feature","geometry":{"type":"LineString","coordinates":[[115.4177304,22.8144312],[115.4188702,22.8144216],[115.419315,22.8144213],[115.4197629,22.8144113]]},"properties":{"key":"way:818797739@detail:461_91","osmType":"way","osmId":818797739,"sourceRegion":"guangdong","featureType":"infrastructure","railClass":"minor","mode":"rail","name":"未命名","service":"siding","status":"operational","color":"#52636F","dataOrigin":"datum-2026-08-01","sourceKey":"way:818797739"}},{"type":"Feature","geometry":{"type":"LineString","coordinates":[[115.4158451,22.8145138],[115.4168492,22.8144564],[115.4177304,22.8144312],[115.4188704,22.8144669],[115.419318,22.8144695],[115.419773,22.814457]]},"properties":{"key":"way:818797740@detail:461_91","osmType":"way","osmId":818797740,"sourceRegion":"guangdong","featureType":"infrastructure","railClass":"minor","mode":"rail","name":"未命名","service":"siding","status":"operational","color":"#52636F","dataOrigin":"datum-2026-08-01","sourceKey":"way:818797740"}},{"type":"Feature","geometry":{"type":"LineString","coordinates":[[115.4197786,22.8145196],[115.4193169,22.8145347],[115.4188415,22.8145558],[115.4184012,22.8145764],[115.4180022,22.8145647],[115.4176425,22.8145382],[115.4167855,22.8145151],[115.416447,22.8145199],[115.4158451,22.8145138],[115.4148528,22.8146014]]},"properties":{"key":"way:818797741@detail:461_91","osmType":"way","osmId":818797741,"sourceRegion":"guangdong","featureType":"infrastructure","railClass":"minor","mode":"rail","name":"未命名","service":"siding","status":"operational","color":"#52636F","dataOrigin":"datum-2026-08-01","sourceKey":"way:818797741"}},{"type":"Feature","geometry":{"type":"LineString","coordinates":[[115.4197786,22.8145196],[115.4215075,22.8144093]]},"properties":{"key":"way:818797742@detail:461_91","osmType":"way","osmId":818797742,"sourceRegion":"guangdong","featureType":"infrastructure","railClass":"minor","mode":"rail","name":"未命名","service":"siding","bridge":"yes","status":"operational","color":"#52636F","dataOrigin":"datum-2026-08-01","sourceKey":"way:818797742"}},{"type":"Feature","geometry":{"type":"LineString","coordinates":[[115.419773,22.814457],[115.4215028,22.8143466]]},"properties":{"key":"way:818797743@detail:461_91","osmType":"way","osmId":818797743,"sourceRegion":"guangdong","featureType":"infrastructure","railClass":"minor","mode":"rail","name":"未命名","service":"siding","bridge":"yes","status":"operational","color":"#52636F","dataOrigin":"datum-2026-08-01","sourceKey":"way:818797743"}},{"type":"Feature","geometry":{"type":"LineString","coordinates":[[115.4197629,22.8144113],[115.4214987,22.8142928]]},"properties":{"key":"way:818797744@detail:461_91","osmType":"way","osmId":818797744,"sourceRegion":"guangdong","featureType":"infrastructure","railClass":"minor","mode":"rail","name":"未命名","service":"siding","bridge":"yes","status":"operational","color":"#52636F","dataOrigin":"datum-2026-08-01","sourceKey":"way:818797744"}},{"type":"Feature","geometry":{"type":"LineString","coordinates":[[115.4367628,22.8137355],[115.4292694,22.8142515],[115.4282672,22.8143302],[115.421675,22.8148025]]},"properties":{"key":"way:818797793@detail:461_91","osmType":"way","osmId":818797793,"sourceRegion":"guangdong","featureType":"infrastructure","railClass":"highspeed","mode":"rail","name":"甬广高速线","nameEn":"Ningbo–Guangzhou Highspeed-Railway","ref":"广汕高速线","usage":"main","highspeed":"yes","status":"operational","color":"#E54848","dataOrigin":"datum-2026-08-01","sourceKey":"way:818797793"}},{"type":"Feature","geometry":{"type":"LineString","coordinates":[[115.4596828,22.8170422],[115.4587047,22.8166466],[115.4579606,22.8164142],[115.4572131,22.8161911],[115.4564625,22.8159773],[115.4557087,22.8157729],[115.454952,22.8155779],[115.4541926,22.8153924],[115.4534305,22.8152163],[115.4526659,22.8150497],[115.4518989,22.8148927],[115.4511296,22.8147452],[115.4503583,22.8146074],[115.449585,22.8144792],[115.44881,22.8143606],[115.4480332,22.8142516],[115.4472549,22.8141524],[115.4464753,22.8140629],[115.4456944,22.8139831],[115.4449124,22.813913],[115.4441294,22.8138527],[115.4433457,22.8138021],[115.4428927,22.8137785],[115.4425612,22.8137613],[115.4417763,22.8137303],[115.4409909,22.8137091],[115.4402053,22.8136976],[115.4396796,22.8136955],[115.4388673,22.8136843]]},"properties":{"key":"way:818797794@detail:461_91","osmType":"way","osmId":818797794,"sourceRegion":"guangdong","featureType":"infrastructure","railClass":"highspeed","mode":"rail","name":"甬广高速线","nameEn":"Ningbo–Guangzhou Highspeed-Railway","ref":"汕汕高速线","usage":"main","highspeed":"yes","tunnel":"yes","status":"operational","color":"#E54848","dataOrigin":"datum-2026-08-01","sourceKey":"way:818797794"}},{"type":"Feature","geometry":{"type":"LineString","coordinates":[[115.4656304,22.8193848],[115.4596828,22.8170422]]},"properties":{"key":"way:818797795@detail:461_91","osmType":"way","osmId":818797795,"sourceRegion":"guangdong","featureType":"infrastructure","railClass":"highspeed","mode":"rail","name":"甬广高速线","nameEn":"Ningbo–Guangzhou Highspeed-Railway","ref":"汕汕高速线","usage":"main","highspeed":"yes","bridge":"yes","status":"operational","color":"#E54848","dataOrigin":"datum-2026-08-01","sourceKey":"way:818797795"}},{"type":"Feature","geometry":{"type":"LineString","coordinates":[[115.4716002,22.8216438],[115.4704316,22.8212848],[115.4694238,22.8209401],[115.4683473,22.8205263],[115.4656304,22.8193848]]},"properties":{"key":"way:818797796@detail:461_91","osmType":"way","osmId":818797796,"sourceRegion":"guangdong","featureType":"infrastructure","railClass":"highspeed","mode":"rail","name":"甬广高速线","nameEn":"Ningbo–Guangzhou Highspeed-Railway","ref":"汕汕高速线","usage":"main","highspeed":"yes","tunnel":"yes","status":"operational","color":"#E54848","dataOrigin":"datum-2026-08-01","sourceKey":"way:818797796"}},{"type":"Feature","geometry":{"type":"LineString","coordinates":[[115.4789651,22.8238225],[115.4720858,22.8217926]]},"properties":{"key":"way:818797797@detail:461_91","osmType":"way","osmId":818797797,"sourceRegion":"guangdong","featureType":"infrastructure","railClass":"highspeed","mode":"rail","name":"甬广高速线","nameEn":"Ningbo–Guangzhou Highspeed-Railway","ref":"汕汕高速线","usage":"main","highspeed":"yes","bridge":"yes","status":"operational","color":"#E54848","dataOrigin":"datum-2026-08-01","sourceKey":"way:818797797"}},{"type":"Feature","geometry":{"type":"LineString","coordinates":[[115.4883928,22.8255802],[115.485306,22.8253358],[115.484267,22.825216],[115.4832731,22.8250272],[115.4820869,22.8247415],[115.4810494,22.8244686],[115.4800312,22.8241601],[115.4789651,22.8238225]]},"properties":{"key":"way:818797798@detail:461_91","osmType":"way","osmId":818797798,"sourceRegion":"guangdong","featureType":"infrastructure","railClass":"highspeed","mode":"rail","name":"甬广高速线","nameEn":"Ningbo–Guangzhou Highspeed-Railway","ref":"汕汕高速线","usage":"main","highspeed":"yes","tunnel":"yes","status":"operational","color":"#E54848","dataOrigin":"datum-2026-08-01","sourceKey":"way:818797798"}},{"type":"Feature","geometry":{"type":"LineString","coordinates":[[115.4938874,22.8261808],[115.4918575,22.8259146]]},"properties":{"key":"way:818797799@detail:461_91","osmType":"way","osmId":818797799,"sourceRegion":"guangdong","featureType":"infrastructure","railClass":"highspeed","mode":"rail","name":"甬广高速线","nameEn":"Ningbo–Guangzhou Highspeed-Railway","ref":"汕汕高速线","usage":"main","highspeed":"yes","bridge":"yes","status":"operational","color":"#E54848","dataOrigin":"datum-2026-08-01","sourceKey":"way:818797799"}},{"type":"Feature","geometry":{"type":"LineString","coordinates":[[115.5,22.82713378093332],[115.4938874,22.8261808]]},"properties":{"key":"way:818797800@detail:461_91","osmType":"way","osmId":818797800,"sourceRegion":"guangdong","featureType":"infrastructure","railClass":"highspeed","mode":"rail","name":"甬广高速线","nameEn":"Ningbo–Guangzhou Highspeed-Railway","ref":"汕汕高速线","usage":"main","highspeed":"yes","tunnel":"yes","status":"operational","color":"#E54848","dataOrigin":"datum-2026-08-01","sourceKey":"way:818797800"}},{"type":"Feature","geometry":{"type":"LineString","coordinates":[[115.25,22.84745659109307],[115.2507577,22.8471121],[115.2516491,22.8467145],[115.2525812,22.8463094],[115.2535133,22.845908],[115.2544169,22.8455179],[115.2554548,22.8450865],[115.2564927,22.8446702],[115.2585889,22.8438562],[115.2596309,22.8434623],[115.2602089,22.8432635],[115.2608072,22.8430722],[115.2614015,22.8428884],[115.262012,22.8427084],[115.2626103,22.8425283],[115.2632168,22.8423558],[115.2638029,22.8421982],[115.2644053,22.8420482],[115.2650322,22.8419094],[115.2657038,22.8417443],[115.2663672,22.8416093],[115.267051,22.8414743],[115.2677063,22.8413542],[115.2683698,22.841238],[115.2690536,22.8411254],[115.269717,22.8410279],[115.2703927,22.8409341],[115.2710764,22.840865],[115.3029387,22.8387397],[115.3037039,22.8386909],[115.3044325,22.8386309],[115.3051692,22.8385634],[115.3059141,22.8384921],[115.3066426,22.8384096],[115.3073875,22.8383196],[115.3081079,22.838222],[115.3087877,22.8381132],[115.3094715,22.837997],[115.3101553,22.8378844],[115.3108269,22.8377531],[115.3115107,22.8376181],[115.3121741,22.8374793],[115.3128752,22.8373394],[115.3140847,22.8370697],[115.3151671,22.8367918],[115.3163221,22.8364839]]},"properties":{"key":"way:1124621636@detail:461_91","osmType":"way","osmId":1124621636,"sourceRegion":"guangdong","featureType":"infrastructure","railClass":"highspeed","mode":"rail","name":"甬广高速线","nameEn":"Ningbo–Guangzhou Highspeed-Railway","ref":"广汕高速线","usage":"main","highspeed":"yes","bridge":"yes","status":"operational","color":"#E54848","dataOrigin":"datum-2026-08-01","sourceKey":"way:1124621636"}},{"type":"Feature","geometry":{"type":"LineString","coordinates":[[115.3263323,22.8333542],[115.3302504,22.8320936]]},"properties":{"key":"way:1124621637@detail:461_91","osmType":"way","osmId":1124621637,"sourceRegion":"guangdong","featureType":"infrastructure","railClass":"highspeed","mode":"rail","name":"甬广高速线","nameEn":"Ningbo–Guangzhou Highspeed-Railway","ref":"广汕高速线","usage":"main","highspeed":"yes","tunnel":"yes","status":"operational","color":"#E54848","dataOrigin":"datum-2026-08-01","sourceKey":"way:1124621637"}},{"type":"Feature","geometry":{"type":"LineString","coordinates":[[115.3302504,22.8320936],[115.3311342,22.8318073]]},"properties":{"key":"way:1124621638@detail:461_91","osmType":"way","osmId":1124621638,"sourceRegion":"guangdong","featureType":"infrastructure","railClass":"highspeed","mode":"rail","name":"甬广高速线","nameEn":"Ningbo–Guangzhou Highspeed-Railway","ref":"广汕高速线","usage":"main","highspeed":"yes","status":"operational","color":"#E54848","dataOrigin":"datum-2026-08-01","sourceKey":"way:1124621638"}},{"type":"Feature","geometry":{"type":"LineString","coordinates":[[115.3409417,22.8286687],[115.3460481,22.8270658]]},"properties":{"key":"way:1124621639@detail:461_91","osmType":"way","osmId":1124621639,"sourceRegion":"guangdong","featureType":"infrastructure","railClass":"highspeed","mode":"rail","name":"甬广高速线","nameEn":"Ningbo–Guangzhou Highspeed-Railway","ref":"广汕高速线","usage":"main","highspeed":"yes","tunnel":"yes","status":"operational","color":"#E54848","dataOrigin":"datum-2026-08-01","sourceKey":"way:1124621639"}},{"type":"Feature","geometry":{"type":"LineString","coordinates":[[115.3460481,22.8270658],[115.350192,22.8257371]]},"properties":{"key":"way:1124621640@detail:461_91","osmType":"way","osmId":1124621640,"sourceRegion":"guangdong","featureType":"infrastructure","railClass":"highspeed","mode":"rail","name":"甬广高速线","nameEn":"Ningbo–Guangzhou Highspeed-Railway","ref":"广汕高速线","usage":"main","highspeed":"yes","bridge":"yes","status":"operational","color":"#E54848","dataOrigin":"datum-2026-08-01","sourceKey":"way:1124621640"}},{"type":"Feature","geometry":{"type":"LineString","coordinates":[[115.350192,22.8257371],[115.36984,22.8195193],[115.3715176,22.8190215],[115.3734089,22.8185193],[115.375087,22.8181235],[115.3771314,22.8176891]]},"properties":{"key":"way:1124621641@detail:461_91","osmType":"way","osmId":1124621641,"sourceRegion":"guangdong","featureType":"infrastructure","railClass":"highspeed","mode":"rail","name":"甬广高速线","nameEn":"Ningbo–Guangzhou Highspeed-Railway","ref":"广汕高速线","usage":"main","highspeed":"yes","tunnel":"yes","status":"operational","color":"#E54848","dataOrigin":"datum-2026-08-01","sourceKey":"way:1124621641"}},{"type":"Feature","geometry":{"type":"LineString","coordinates":[[115.3771314,22.8176891],[115.3793452,22.8172801]]},"properties":{"key":"way:1124621642@detail:461_91","osmType":"way","osmId":1124621642,"sourceRegion":"guangdong","featureType":"infrastructure","railClass":"highspeed","mode":"rail","name":"甬广高速线","nameEn":"Ningbo–Guangzhou Highspeed-Railway","ref":"广汕高速线","usage":"main","highspeed":"yes","bridge":"yes","status":"operational","color":"#E54848","dataOrigin":"datum-2026-08-01","sourceKey":"way:1124621642"}},{"type":"Feature","geometry":{"type":"LineString","coordinates":[[115.3793452,22.8172801],[115.3829951,22.8167637]]},"properties":{"key":"way:1124621643@detail:461_91","osmType":"way","osmId":1124621643,"sourceRegion":"guangdong","featureType":"infrastructure","railClass":"highspeed","mode":"rail","name":"甬广高速线","nameEn":"Ningbo–Guangzhou Highspeed-Railway","ref":"广汕高速线","usage":"main","highspeed":"yes","tunnel":"yes","status":"operational","color":"#E54848","dataOrigin":"datum-2026-08-01","sourceKey":"way:1124621643"}},{"type":"Feature","geometry":{"type":"LineString","coordinates":[[115.3829951,22.8167637],[115.3834227,22.8167217]]},"properties":{"key":"way:1124621644@detail:461_91","osmType":"way","osmId":1124621644,"sourceRegion":"guangdong","featureType":"infrastructure","railClass":"highspeed","mode":"rail","name":"甬广高速线","nameEn":"Ningbo–Guangzhou Highspeed-Railway","ref":"广汕高速线","usage":"main","highspeed":"yes","status":"operational","color":"#E54848","dataOrigin":"datum-2026-08-01","sourceKey":"way:1124621644"}},{"type":"Feature","geometry":{"type":"LineString","coordinates":[[115.3834227,22.8167217],[115.385796,22.8164925],[115.3881039,22.8163316],[115.3904722,22.8162436],[115.395135,22.8162388],[115.4015869,22.8161304],[115.404835,22.8160118],[115.4078469,22.8158193]]},"properties":{"key":"way:1124621645@detail:461_91","osmType":"way","osmId":1124621645,"sourceRegion":"guangdong","featureType":"infrastructure","railClass":"highspeed","mode":"rail","name":"甬广高速线","nameEn":"Ningbo–Guangzhou Highspeed-Railway","ref":"广汕高速线","usage":"main","highspeed":"yes","bridge":"yes","status":"operational","color":"#E54848","dataOrigin":"datum-2026-08-01","sourceKey":"way:1124621645"}},{"type":"Feature","geometry":{"type":"LineString","coordinates":[[115.395135,22.8162388],[115.3973832,22.8163045],[115.3993898,22.8163533],[115.4008173,22.8164069],[115.4017578,22.8164279],[115.4025998,22.8163912],[115.4034749,22.8162968],[115.4045395,22.8160326],[115.4058892,22.8157423],[115.4072884,22.8153893]]},"properties":{"key":"way:1124621646@detail:461_91","osmType":"way","osmId":1124621646,"sourceRegion":"guangdong","featureType":"infrastructure","railClass":"highspeed","mode":"rail","name":"汕尾西联络线","ref":"广汕客专线","usage":"main","bridge":"yes","status":"operational","color":"#E54848","dataOrigin":"datum-2026-08-01","sourceKey":"way:1124621646"}},{"type":"Feature","geometry":{"type":"LineString","coordinates":[[115.4087909,22.8146658],[115.4055795,22.814693],[115.4048644,22.814734],[115.4040263,22.814832],[115.4033585,22.8149595],[115.3998065,22.8157095],[115.3990671,22.8158127],[115.3982667,22.8158903],[115.3974587,22.8159446],[115.3951083,22.8161818]]},"properties":{"key":"way:1124621647@detail:461_91","osmType":"way","osmId":1124621647,"sourceRegion":"guangdong","featureType":"infrastructure","railClass":"highspeed","mode":"rail","name":"汕尾西联络线","usage":"main","bridge":"yes","status":"operational","color":"#E54848","dataOrigin":"datum-2026-08-01","sourceKey":"way:1124621647"}},{"type":"Feature","geometry":{"type":"LineString","coordinates":[[115.4090319,22.8157248],[115.4173754,22.8151383]]},"properties":{"key":"way:1124621648@detail:461_91","osmType":"way","osmId":1124621648,"sourceRegion":"guangdong","featureType":"infrastructure","railClass":"highspeed","mode":"rail","name":"甬广高速线","nameEn":"Ningbo–Guangzhou Highspeed-Railway","ref":"广汕高速线","usage":"main","highspeed":"yes","tunnel":"yes","status":"operational","color":"#E54848","dataOrigin":"datum-2026-08-01","sourceKey":"way:1124621648"}},{"type":"Feature","geometry":{"type":"LineString","coordinates":[[115.4216763,22.8148513],[115.4286949,22.8143546],[115.4367714,22.813797]]},"properties":{"key":"way:1124621649@detail:461_91","osmType":"way","osmId":1124621649,"sourceRegion":"guangdong","featureType":"infrastructure","railClass":"highspeed","mode":"rail","name":"甬广高速线","nameEn":"Ningbo–Guangzhou Highspeed-Railway","ref":"广汕高速线","usage":"main","highspeed":"yes","status":"operational","color":"#E54848","dataOrigin":"datum-2026-08-01","sourceKey":"way:1124621649"}},{"type":"Feature","geometry":{"type":"LineString","coordinates":[[115.4388694,22.8137412],[115.4396717,22.8137895],[115.4401802,22.8138035],[115.4409658,22.813815],[115.4417512,22.8138362],[115.4425361,22.8138672],[115.4428676,22.8138844],[115.4433206,22.813908],[115.4441043,22.8139586],[115.4448873,22.8140189],[115.4456693,22.814089],[115.4464502,22.8141688],[115.4472298,22.8142583],[115.4480081,22.8143575],[115.4487849,22.8144665],[115.4495599,22.8145851],[115.4503332,22.8147133],[115.4511045,22.8148511],[115.4518738,22.8149986],[115.4526408,22.8151556],[115.4534054,22.8153222],[115.4541675,22.8154983],[115.4549269,22.8156838],[115.4556836,22.8158788],[115.4564374,22.8160832],[115.457188,22.816297],[115.4579355,22.8165201],[115.4586796,22.8167525],[115.459654,22.8171173]]},"properties":{"key":"way:1124621650@detail:461_91","osmType":"way","osmId":1124621650,"sourceRegion":"guangdong","featureType":"infrastructure","railClass":"highspeed","mode":"rail","name":"甬广高速线","nameEn":"Ningbo–Guangzhou Highspeed-Railway","ref":"汕汕高速线","usage":"main","highspeed":"yes","tunnel":"yes","status":"operational","color":"#E54848","dataOrigin":"datum-2026-08-01","sourceKey":"way:1124621650"}},{"type":"Feature","geometry":{"type":"LineString","coordinates":[[115.459654,22.8171173],[115.465611,22.8194437]]},"properties":{"key":"way:1124621651@detail:461_91","osmType":"way","osmId":1124621651,"sourceRegion":"guangdong","featureType":"infrastructure","railClass":"highspeed","mode":"rail","name":"甬广高速线","nameEn":"Ningbo–Guangzhou Highspeed-Railway","ref":"汕汕高速线","usage":"main","highspeed":"yes","bridge":"yes","status":"operational","color":"#E54848","dataOrigin":"datum-2026-08-01","sourceKey":"way:1124621651"}},{"type":"Feature","geometry":{"type":"LineString","coordinates":[[115.465611,22.8194437],[115.4683234,22.8205916],[115.4694045,22.8210093],[115.4704021,22.8213464],[115.4715745,22.8217062]]},"properties":{"key":"way:1124621652@detail:461_91","osmType":"way","osmId":1124621652,"sourceRegion":"guangdong","featureType":"infrastructure","railClass":"highspeed","mode":"rail","name":"甬广高速线","nameEn":"Ningbo–Guangzhou Highspeed-Railway","ref":"汕汕高速线","usage":"main","highspeed":"yes","tunnel":"yes","status":"operational","color":"#E54848","dataOrigin":"datum-2026-08-01","sourceKey":"way:1124621652"}},{"type":"Feature","geometry":{"type":"LineString","coordinates":[[115.4720722,22.8218559],[115.4789319,22.8238769]]},"properties":{"key":"way:1124621653@detail:461_91","osmType":"way","osmId":1124621653,"sourceRegion":"guangdong","featureType":"infrastructure","railClass":"highspeed","mode":"rail","name":"甬广高速线","nameEn":"Ningbo–Guangzhou Highspeed-Railway","ref":"汕汕高速线","usage":"main","highspeed":"yes","bridge":"yes","status":"operational","color":"#E54848","dataOrigin":"datum-2026-08-01","sourceKey":"way:1124621653"}},{"type":"Feature","geometry":{"type":"LineString","coordinates":[[115.4789319,22.8238769],[115.4799881,22.8242128],[115.4810413,22.8245433],[115.4820744,22.8248126],[115.4831667,22.825076],[115.4842579,22.8252931],[115.4853061,22.8254152],[115.48838,22.8256309]]},"properties":{"key":"way:1124621654@detail:461_91","osmType":"way","osmId":1124621654,"sourceRegion":"guangdong","featureType":"infrastructure","railClass":"highspeed","mode":"rail","name":"甬广高速线","nameEn":"Ningbo–Guangzhou Highspeed-Railway","ref":"汕汕高速线","usage":"main","highspeed":"yes","tunnel":"yes","status":"operational","color":"#E54848","dataOrigin":"datum-2026-08-01","sourceKey":"way:1124621654"}},{"type":"Feature","geometry":{"type":"LineString","coordinates":[[115.4918585,22.8259702],[115.4938752,22.8262413]]},"properties":{"key":"way:1124621655@detail:461_91","osmType":"way","osmId":1124621655,"sourceRegion":"guangdong","featureType":"infrastructure","railClass":"highspeed","mode":"rail","name":"甬广高速线","nameEn":"Ningbo–Guangzhou Highspeed-Railway","ref":"汕汕高速线","usage":"main","highspeed":"yes","bridge":"yes","status":"operational","color":"#E54848","dataOrigin":"datum-2026-08-01","sourceKey":"way:1124621655"}},{"type":"Feature","geometry":{"type":"LineString","coordinates":[[115.4938752,22.8262413],[115.5,22.827201825996852]]},"properties":{"key":"way:1124621656@detail:461_91","osmType":"way","osmId":1124621656,"sourceRegion":"guangdong","featureType":"infrastructure","railClass":"highspeed","mode":"rail","name":"甬广高速线","nameEn":"Ningbo–Guangzhou Highspeed-Railway","ref":"汕汕高速线","usage":"main","highspeed":"yes","tunnel":"yes","status":"operational","color":"#E54848","dataOrigin":"datum-2026-08-01","sourceKey":"way:1124621656"}},{"type":"Feature","geometry":{"type":"LineString","coordinates":[[115.4173754,22.8151383],[115.4181788,22.815079],[115.4216763,22.8148513]]},"properties":{"key":"way:1127647953@detail:461_91","osmType":"way","osmId":1127647953,"sourceRegion":"guangdong","featureType":"infrastructure","railClass":"highspeed","mode":"rail","name":"甬广高速线","nameEn":"Ningbo–Guangzhou Highspeed-Railway","ref":"广汕高速线","usage":"main","highspeed":"yes","bridge":"yes","status":"operational","color":"#E54848","dataOrigin":"datum-2026-08-01","sourceKey":"way:1127647953"}},{"type":"Feature","geometry":{"type":"LineString","coordinates":[[115.421675,22.8148025],[115.417696,22.8150545],[115.4173718,22.815075]]},"properties":{"key":"way:1127647954@detail:461_91","osmType":"way","osmId":1127647954,"sourceRegion":"guangdong","featureType":"infrastructure","railClass":"highspeed","mode":"rail","name":"甬广高速线","nameEn":"Ningbo–Guangzhou Highspeed-Railway","ref":"广汕高速线","usage":"main","highspeed":"yes","bridge":"yes","status":"operational","color":"#E54848","dataOrigin":"datum-2026-08-01","sourceKey":"way:1127647954"}},{"type":"Feature","geometry":{"type":"LineString","coordinates":[[115.4344279,22.8131893],[115.4354387,22.813155]]},"properties":{"key":"way:1127649174@detail:461_91","osmType":"way","osmId":1127649174,"sourceRegion":"guangdong","featureType":"infrastructure","railClass":"minor","mode":"rail","name":"未命名","service":"siding","status":"operational","color":"#52636F","dataOrigin":"datum-2026-08-01","sourceKey":"way:1127649174"}},{"type":"Feature","geometry":{"type":"LineString","coordinates":[[115.4197471,22.8142589],[115.4215162,22.8141151]]},"properties":{"key":"way:1127649176@detail:461_91","osmType":"way","osmId":1127649176,"sourceRegion":"guangdong","featureType":"infrastructure","railClass":"minor","mode":"rail","name":"未命名","service":"siding","bridge":"yes","status":"operational","color":"#52636F","dataOrigin":"datum-2026-08-01","sourceKey":"way:1127649176"}},{"type":"Feature","geometry":{"type":"LineString","coordinates":[[115.438183,22.8128774],[115.4372546,22.8129445],[115.4364581,22.8129956]]},"properties":{"key":"way:1127649177@detail:461_91","osmType":"way","osmId":1127649177,"sourceRegion":"guangdong","featureType":"infrastructure","railClass":"highspeed","mode":"rail","name":"杭深线","nameEn":"Hangzhou-Shenzhen Line","ref":"3009","usage":"main","highspeed":"yes","bridge":"yes","status":"operational","color":"#E54848","dataOrigin":"datum-2026-08-01","sourceKey":"way:1127649177"}},{"type":"Feature","geometry":{"type":"LineString","coordinates":[[115.4381971,22.8129261],[115.4389304,22.812918],[115.440226,22.8129299]]},"properties":{"key":"way:1127649178@detail:461_91","osmType":"way","osmId":1127649178,"sourceRegion":"guangdong","featureType":"infrastructure","railClass":"highspeed","mode":"rail","name":"杭深线","nameEn":"Hangzhou-Shenzhen Line","ref":"3009","usage":"main","highspeed":"yes","status":"operational","color":"#E54848","dataOrigin":"datum-2026-08-01","sourceKey":"way:1127649178"}},{"type":"Feature","geometry":{"type":"LineString","coordinates":[[115.4402287,22.8128568],[115.4389357,22.812866],[115.438183,22.8128774]]},"properties":{"key":"way:1127649179@detail:461_91","osmType":"way","osmId":1127649179,"sourceRegion":"guangdong","featureType":"infrastructure","railClass":"highspeed","mode":"rail","name":"杭深线","nameEn":"Hangzhou-Shenzhen Line","ref":"3009","usage":"main","highspeed":"yes","status":"operational","color":"#E54848","dataOrigin":"datum-2026-08-01","sourceKey":"way:1127649179"}},{"type":"Feature","geometry":{"type":"LineString","coordinates":[[115.4364704,22.8130394],[115.4372593,22.8129978],[115.4381971,22.8129261]]},"properties":{"key":"way:1127649180@detail:461_91","osmType":"way","osmId":1127649180,"sourceRegion":"guangdong","featureType":"infrastructure","railClass":"highspeed","mode":"rail","name":"杭深线","nameEn":"Hangzhou-Shenzhen Line","ref":"3009","usage":"main","highspeed":"yes","bridge":"yes","status":"operational","color":"#E54848","dataOrigin":"datum-2026-08-01","sourceKey":"way:1127649180"}},{"type":"Feature","geometry":{"type":"LineString","coordinates":[[115.4382465,22.813076],[115.4397145,22.8130944]]},"properties":{"key":"way:1127649181@detail:461_91","osmType":"way","osmId":1127649181,"sourceRegion":"guangdong","featureType":"infrastructure","railClass":"minor","mode":"rail","name":"未命名","service":"siding","status":"operational","color":"#52636F","dataOrigin":"datum-2026-08-01","sourceKey":"way:1127649181"}},{"type":"Feature","geometry":{"type":"LineString","coordinates":[[115.4364827,22.8131065],[115.4372651,22.8130956],[115.4382465,22.813076]]},"properties":{"key":"way:1127649182@detail:461_91","osmType":"way","osmId":1127649182,"sourceRegion":"guangdong","featureType":"infrastructure","railClass":"minor","mode":"rail","name":"未命名","service":"siding","bridge":"yes","status":"operational","color":"#52636F","dataOrigin":"datum-2026-08-01","sourceKey":"way:1127649182"}},{"type":"Feature","geometry":{"type":"LineString","coordinates":[[115.4332511,22.8132901],[115.4346031,22.813126]]},"properties":{"key":"way:1127649183@detail:461_91","osmType":"way","osmId":1127649183,"sourceRegion":"guangdong","featureType":"infrastructure","railClass":"minor","mode":"rail","name":"未命名","service":"crossover","status":"operational","color":"#52636F","dataOrigin":"datum-2026-08-01","sourceKey":"way:1127649183"}},{"type":"Feature","geometry":{"type":"LineString","coordinates":[[115.4313537,22.8134842],[115.432615,22.8133437]]},"properties":{"key":"way:1127649184@detail:461_91","osmType":"way","osmId":1127649184,"sourceRegion":"guangdong","featureType":"infrastructure","railClass":"minor","mode":"rail","name":"未命名","service":"siding","status":"operational","color":"#52636F","dataOrigin":"datum-2026-08-01","sourceKey":"way:1127649184"}},{"type":"Feature","geometry":{"type":"LineString","coordinates":[[115.4302501,22.8134617],[115.4315844,22.8134056]]},"properties":{"key":"way:1127649185@detail:461_91","osmType":"way","osmId":1127649185,"sourceRegion":"guangdong","featureType":"infrastructure","railClass":"minor","mode":"rail","name":"未命名","service":"crossover","status":"operational","color":"#52636F","dataOrigin":"datum-2026-08-01","sourceKey":"way:1127649185"}},{"type":"Feature","geometry":{"type":"LineString","coordinates":[[115.4148528,22.8146014],[115.4136468,22.8146282]]},"properties":{"key":"way:1127649186@detail:461_91","osmType":"way","osmId":1127649186,"sourceRegion":"guangdong","featureType":"infrastructure","railClass":"minor","mode":"rail","name":"未命名","service":"siding","status":"operational","color":"#52636F","dataOrigin":"datum-2026-08-01","sourceKey":"way:1127649186"}},{"type":"Feature","geometry":{"type":"LineString","coordinates":[[115.4131519,22.8146797],[115.4118315,22.8147154]]},"properties":{"key":"way:1127649187@detail:461_91","osmType":"way","osmId":1127649187,"sourceRegion":"guangdong","featureType":"infrastructure","railClass":"minor","mode":"rail","name":"未命名","service":"crossover","status":"operational","color":"#52636F","dataOrigin":"datum-2026-08-01","sourceKey":"way:1127649187"}},{"type":"Feature","geometry":{"type":"LineString","coordinates":[[115.4155294,22.8142081],[115.4160141,22.8141788],[115.4162715,22.814161],[115.4165923,22.8141268],[115.4167826,22.8141138],[115.4171052,22.8141041]]},"properties":{"key":"way:1127649406@detail:461_91","osmType":"way","osmId":1127649406,"sourceRegion":"guangdong","featureType":"infrastructure","railClass":"minor","mode":"rail","name":"未命名","service":"yard","status":"operational","color":"#52636F","dataOrigin":"datum-2026-08-01","sourceKey":"way:1127649406"}},{"type":"Feature","geometry":{"type":"LineString","coordinates":[[115.4147256,22.8142243],[115.4159824,22.8141366],[115.4162168,22.8141187],[115.4166399,22.8140895]]},"properties":{"key":"way:1127649407@detail:461_91","osmType":"way","osmId":1127649407,"sourceRegion":"guangdong","featureType":"infrastructure","railClass":"minor","mode":"rail","name":"未命名","service":"yard","status":"operational","color":"#52636F","dataOrigin":"datum-2026-08-01","sourceKey":"way:1127649407"}},{"type":"Feature","geometry":{"type":"LineString","coordinates":[[115.4174892,22.8141182],[115.4171052,22.8141041],[115.4166399,22.8140895],[115.4162115,22.8140813],[115.4159736,22.8140862],[115.4147239,22.8141723]]},"properties":{"key":"way:1127649408@detail:461_91","osmType":"way","osmId":1127649408,"sourceRegion":"guangdong","featureType":"infrastructure","railClass":"minor","mode":"rail","name":"未命名","service":"yard","status":"operational","color":"#52636F","dataOrigin":"datum-2026-08-01","sourceKey":"way:1127649408"}},{"type":"Feature","geometry":{"type":"LineString","coordinates":[[115.4132009,22.8142243],[115.4153355,22.8140505],[115.4157779,22.8140245],[115.4160423,22.8140164],[115.4164689,22.8140326],[115.4166663,22.8140326],[115.4170559,22.8140635]]},"properties":{"key":"way:1127649409@detail:461_91","osmType":"way","osmId":1127649409,"sourceRegion":"guangdong","featureType":"infrastructure","railClass":"minor","mode":"rail","name":"未命名","service":"yard","status":"operational","color":"#52636F","dataOrigin":"datum-2026-08-01","sourceKey":"way:1127649409"}},{"type":"Feature","geometry":{"type":"LineString","coordinates":[[115.4197374,22.8139721],[115.4181027,22.8141202],[115.4177995,22.8141352],[115.4174892,22.8141182],[115.4170559,22.8140635],[115.4164724,22.8139887],[115.4162909,22.8139709],[115.4160459,22.8139611],[115.4157956,22.8139595],[115.415339,22.813992],[115.4131956,22.8141593]]},"properties":{"key":"way:1127649410@detail:461_91","osmType":"way","osmId":1127649410,"sourceRegion":"guangdong","featureType":"infrastructure","railClass":"minor","mode":"rail","name":"未命名","service":"yard","status":"operational","color":"#52636F","dataOrigin":"datum-2026-08-01","sourceKey":"way:1127649410"}},{"type":"Feature","geometry":{"type":"LineString","coordinates":[[115.4277304,22.8135073],[115.426172,22.8135221],[115.4254317,22.8135345],[115.4225779,22.8137594],[115.4215157,22.813846],[115.4197481,22.8140215]]},"properties":{"key":"way:1127649411@detail:461_91","osmType":"way","osmId":1127649411,"sourceRegion":"guangdong","featureType":"infrastructure","railClass":"minor","mode":"rail","name":"未命名","service":"yard","status":"operational","color":"#52636F","dataOrigin":"datum-2026-08-01","sourceKey":"way:1127649411"}},{"type":"Feature","geometry":{"type":"LineString","coordinates":[[115.3403159,22.8288224],[115.3366297,22.830002]]},"properties":{"key":"way:1186319541@detail:461_91","osmType":"way","osmId":1186319541,"sourceRegion":"guangdong","featureType":"infrastructure","railClass":"highspeed","mode":"rail","name":"甬广高速线","nameEn":"Ningbo–Guangzhou Highspeed-Railway","ref":"广汕高速线","usage":"main","highspeed":"yes","bridge":"yes","status":"operational","color":"#E54848","dataOrigin":"datum-2026-08-01","sourceKey":"way:1186319541"}},{"type":"Feature","geometry":{"type":"LineString","coordinates":[[115.3403369,22.8288748],[115.3409417,22.8286687]]},"properties":{"key":"way:1186319542@detail:461_91","osmType":"way","osmId":1186319542,"sourceRegion":"guangdong","featureType":"infrastructure","railClass":"highspeed","mode":"rail","name":"甬广高速线","nameEn":"Ningbo–Guangzhou Highspeed-Railway","ref":"广汕高速线","usage":"main","highspeed":"yes","status":"operational","color":"#E54848","dataOrigin":"datum-2026-08-01","sourceKey":"way:1186319542"}},{"type":"Feature","geometry":{"type":"LineString","coordinates":[[115.3366479,22.8300537],[115.3403369,22.8288748]]},"properties":{"key":"way:1186319543@detail:461_91","osmType":"way","osmId":1186319543,"sourceRegion":"guangdong","featureType":"infrastructure","railClass":"highspeed","mode":"rail","name":"甬广高速线","nameEn":"Ningbo–Guangzhou Highspeed-Railway","ref":"广汕高速线","usage":"main","highspeed":"yes","bridge":"yes","status":"operational","color":"#E54848","dataOrigin":"datum-2026-08-01","sourceKey":"way:1186319543"}},{"type":"Feature","geometry":{"type":"LineString","coordinates":[[115.3366297,22.830002],[115.3343559,22.8307114]]},"properties":{"key":"way:1186319544@detail:461_91","osmType":"way","osmId":1186319544,"sourceRegion":"guangdong","featureType":"infrastructure","railClass":"highspeed","mode":"rail","name":"甬广高速线","nameEn":"Ningbo–Guangzhou Highspeed-Railway","ref":"广汕高速线","usage":"main","highspeed":"yes","status":"operational","color":"#E54848","dataOrigin":"datum-2026-08-01","sourceKey":"way:1186319544"}},{"type":"Feature","geometry":{"type":"LineString","coordinates":[[115.3311342,22.8318073],[115.334381,22.8307681]]},"properties":{"key":"way:1186319545@detail:461_91","osmType":"way","osmId":1186319545,"sourceRegion":"guangdong","featureType":"infrastructure","railClass":"highspeed","mode":"rail","name":"甬广高速线","nameEn":"Ningbo–Guangzhou Highspeed-Railway","ref":"广汕高速线","usage":"main","highspeed":"yes","bridge":"yes","status":"operational","color":"#E54848","dataOrigin":"datum-2026-08-01","sourceKey":"way:1186319545"}},{"type":"Feature","geometry":{"type":"LineString","coordinates":[[115.334381,22.8307681],[115.3366479,22.8300537]]},"properties":{"key":"way:1186319546@detail:461_91","osmType":"way","osmId":1186319546,"sourceRegion":"guangdong","featureType":"infrastructure","railClass":"highspeed","mode":"rail","name":"甬广高速线","nameEn":"Ningbo–Guangzhou Highspeed-Railway","ref":"广汕高速线","usage":"main","highspeed":"yes","status":"operational","color":"#E54848","dataOrigin":"datum-2026-08-01","sourceKey":"way:1186319546"}},{"type":"Feature","geometry":{"type":"LineString","coordinates":[[115.3343559,22.8307114],[115.3311119,22.8317528]]},"properties":{"key":"way:1186319547@detail:461_91","osmType":"way","osmId":1186319547,"sourceRegion":"guangdong","featureType":"infrastructure","railClass":"highspeed","mode":"rail","name":"甬广高速线","nameEn":"Ningbo–Guangzhou Highspeed-Railway","ref":"广汕高速线","usage":"main","highspeed":"yes","bridge":"yes","status":"operational","color":"#E54848","dataOrigin":"datum-2026-08-01","sourceKey":"way:1186319547"}},{"type":"Feature","geometry":{"type":"LineString","coordinates":[[115.3311119,22.8317528],[115.3302294,22.832036]]},"properties":{"key":"way:1186319548@detail:461_91","osmType":"way","osmId":1186319548,"sourceRegion":"guangdong","featureType":"infrastructure","railClass":"highspeed","mode":"rail","name":"甬广高速线","nameEn":"Ningbo–Guangzhou Highspeed-Railway","ref":"广汕高速线","usage":"main","highspeed":"yes","status":"operational","color":"#E54848","dataOrigin":"datum-2026-08-01","sourceKey":"way:1186319548"}},{"type":"Feature","geometry":{"type":"LineString","coordinates":[[115.4078469,22.8158193],[115.4090319,22.8157248]]},"properties":{"key":"way:1193718033@detail:461_91","osmType":"way","osmId":1193718033,"sourceRegion":"guangdong","featureType":"infrastructure","railClass":"highspeed","mode":"rail","name":"甬广高速线","nameEn":"Ningbo–Guangzhou Highspeed-Railway","ref":"广汕高速线","usage":"main","highspeed":"yes","status":"operational","color":"#E54848","dataOrigin":"datum-2026-08-01","sourceKey":"way:1193718033"}},{"type":"Feature","geometry":{"type":"LineString","coordinates":[[115.409012,22.8156612],[115.4078439,22.8157441]]},"properties":{"key":"way:1193718034@detail:461_91","osmType":"way","osmId":1193718034,"sourceRegion":"guangdong","featureType":"infrastructure","railClass":"highspeed","mode":"rail","name":"甬广高速线","nameEn":"Ningbo–Guangzhou Highspeed-Railway","ref":"广汕高速线","usage":"main","highspeed":"yes","status":"operational","color":"#E54848","dataOrigin":"datum-2026-08-01","sourceKey":"way:1193718034"}},{"type":"Feature","geometry":{"type":"LineString","coordinates":[[115.4072884,22.8153893],[115.408046,22.8152483],[115.4092209,22.8150918],[115.4103381,22.8149169],[115.4148528,22.8146014]]},"properties":{"key":"way:1193718035@detail:461_91","osmType":"way","osmId":1193718035,"sourceRegion":"guangdong","featureType":"infrastructure","railClass":"highspeed","mode":"rail","name":"汕尾西联络线","ref":"广汕客专线","usage":"main","highspeed":"yes","status":"operational","color":"#E54848","dataOrigin":"datum-2026-08-01","sourceKey":"way:1193718035"}},{"type":"Feature","geometry":{"type":"LineString","coordinates":[[115.4177948,22.8142109],[115.4167242,22.8143096],[115.4153005,22.8144141],[115.4112364,22.8146611],[115.4087909,22.8146658]]},"properties":{"key":"way:1193718036@detail:461_91","osmType":"way","osmId":1193718036,"sourceRegion":"guangdong","featureType":"infrastructure","railClass":"highspeed","mode":"rail","name":"汕尾西联络线","usage":"main","highspeed":"yes","status":"operational","color":"#E54848","dataOrigin":"datum-2026-08-01","sourceKey":"way:1193718036"}},{"type":"Feature","geometry":{"type":"LineString","coordinates":[[115.4388673,22.8136843],[115.4367628,22.8137355]]},"properties":{"key":"way:1193718039@detail:461_91","osmType":"way","osmId":1193718039,"sourceRegion":"guangdong","featureType":"infrastructure","railClass":"highspeed","mode":"rail","name":"甬广高速线","nameEn":"Ningbo–Guangzhou Highspeed-Railway","ref":"汕汕高速线","usage":"main","highspeed":"yes","bridge":"yes","status":"operational","color":"#E54848","dataOrigin":"datum-2026-08-01","sourceKey":"way:1193718039"}},{"type":"Feature","geometry":{"type":"LineString","coordinates":[[115.4367714,22.813797],[115.4388694,22.8137412]]},"properties":{"key":"way:1193718040@detail:461_91","osmType":"way","osmId":1193718040,"sourceRegion":"guangdong","featureType":"infrastructure","railClass":"highspeed","mode":"rail","name":"甬广高速线","nameEn":"Ningbo–Guangzhou Highspeed-Railway","ref":"汕汕高速线","usage":"main","highspeed":"yes","bridge":"yes","status":"operational","color":"#E54848","dataOrigin":"datum-2026-08-01","sourceKey":"way:1193718040"}},{"type":"Feature","geometry":{"type":"LineString","coordinates":[[115.4715745,22.8217062],[115.4720722,22.8218559]]},"properties":{"key":"way:1193718041@detail:461_91","osmType":"way","osmId":1193718041,"sourceRegion":"guangdong","featureType":"infrastructure","railClass":"highspeed","mode":"rail","name":"甬广高速线","nameEn":"Ningbo–Guangzhou Highspeed-Railway","ref":"汕汕高速线","usage":"main","highspeed":"yes","status":"operational","color":"#E54848","dataOrigin":"datum-2026-08-01","sourceKey":"way:1193718041"}},{"type":"Feature","geometry":{"type":"LineString","coordinates":[[115.4720858,22.8217926],[115.4716002,22.8216438]]},"properties":{"key":"way:1193718042@detail:461_91","osmType":"way","osmId":1193718042,"sourceRegion":"guangdong","featureType":"infrastructure","railClass":"highspeed","mode":"rail","name":"甬广高速线","nameEn":"Ningbo–Guangzhou Highspeed-Railway","ref":"汕汕高速线","usage":"main","highspeed":"yes","status":"operational","color":"#E54848","dataOrigin":"datum-2026-08-01","sourceKey":"way:1193718042"}},{"type":"Feature","geometry":{"type":"LineString","coordinates":[[115.48838,22.8256309],[115.490359,22.8258013]]},"properties":{"key":"way:1193718043@detail:461_91","osmType":"way","osmId":1193718043,"sourceRegion":"guangdong","featureType":"infrastructure","railClass":"highspeed","mode":"rail","name":"甬广高速线","nameEn":"Ningbo–Guangzhou Highspeed-Railway","ref":"汕汕高速线","usage":"main","highspeed":"yes","bridge":"yes","status":"operational","color":"#E54848","dataOrigin":"datum-2026-08-01","sourceKey":"way:1193718043"}},{"type":"Feature","geometry":{"type":"LineString","coordinates":[[115.4903711,22.8257375],[115.4883928,22.8255802]]},"properties":{"key":"way:1193718044@detail:461_91","osmType":"way","osmId":1193718044,"sourceRegion":"guangdong","featureType":"infrastructure","railClass":"highspeed","mode":"rail","name":"甬广高速线","nameEn":"Ningbo–Guangzhou Highspeed-Railway","ref":"汕汕高速线","usage":"main","highspeed":"yes","bridge":"yes","status":"operational","color":"#E54848","dataOrigin":"datum-2026-08-01","sourceKey":"way:1193718044"}},{"type":"Feature","geometry":{"type":"LineString","coordinates":[[115.4918575,22.8259146],[115.4903711,22.8257375]]},"properties":{"key":"way:1193718045@detail:461_91","osmType":"way","osmId":1193718045,"sourceRegion":"guangdong","featureType":"infrastructure","railClass":"highspeed","mode":"rail","name":"甬广高速线","nameEn":"Ningbo–Guangzhou Highspeed-Railway","ref":"汕汕高速线","usage":"main","highspeed":"yes","tunnel":"yes","status":"operational","color":"#E54848","dataOrigin":"datum-2026-08-01","sourceKey":"way:1193718045"}},{"type":"Feature","geometry":{"type":"LineString","coordinates":[[115.490359,22.8258013],[115.4918585,22.8259702]]},"properties":{"key":"way:1193718046@detail:461_91","osmType":"way","osmId":1193718046,"sourceRegion":"guangdong","featureType":"infrastructure","railClass":"highspeed","mode":"rail","name":"甬广高速线","nameEn":"Ningbo–Guangzhou Highspeed-Railway","ref":"汕汕高速线","usage":"main","highspeed":"yes","tunnel":"yes","status":"operational","color":"#E54848","dataOrigin":"datum-2026-08-01","sourceKey":"way:1193718046"}},{"type":"Feature","geometry":{"type":"LineString","coordinates":[[115.3210905,22.8350325],[115.3244252,22.8339648]]},"properties":{"key":"way:1207365900@detail:461_91","osmType":"way","osmId":1207365900,"sourceRegion":"guangdong","featureType":"infrastructure","railClass":"highspeed","mode":"rail","name":"甬广高速线","nameEn":"Ningbo–Guangzhou Highspeed-Railway","ref":"广汕高速线","usage":"main","highspeed":"yes","bridge":"yes","status":"operational","color":"#E54848","dataOrigin":"datum-2026-08-01","sourceKey":"way:1207365900"}},{"type":"Feature","geometry":{"type":"LineString","coordinates":[[115.3244077,22.8338895],[115.3210705,22.8349616]]},"properties":{"key":"way:1207365901@detail:461_91","osmType":"way","osmId":1207365901,"sourceRegion":"guangdong","featureType":"infrastructure","railClass":"highspeed","mode":"rail","name":"甬广高速线","nameEn":"Ningbo–Guangzhou Highspeed-Railway","ref":"广汕高速线","usage":"main","highspeed":"yes","bridge":"yes","status":"operational","color":"#E54848","dataOrigin":"datum-2026-08-01","sourceKey":"way:1207365901"}},{"type":"Feature","geometry":{"type":"LineString","coordinates":[[115.3210705,22.8349616],[115.3162992,22.8364099]]},"properties":{"key":"way:1207365902@detail:461_91","osmType":"way","osmId":1207365902,"sourceRegion":"guangdong","featureType":"infrastructure","railClass":"highspeed","mode":"rail","name":"甬广高速线","nameEn":"Ningbo–Guangzhou Highspeed-Railway","ref":"广汕高速线","usage":"main","highspeed":"yes","status":"operational","color":"#E54848","dataOrigin":"datum-2026-08-01","sourceKey":"way:1207365902"}},{"type":"Feature","geometry":{"type":"LineString","coordinates":[[115.3163221,22.8364839],[115.3210905,22.8350325]]},"properties":{"key":"way:1207365903@detail:461_91","osmType":"way","osmId":1207365903,"sourceRegion":"guangdong","featureType":"infrastructure","railClass":"highspeed","mode":"rail","name":"甬广高速线","nameEn":"Ningbo–Guangzhou Highspeed-Railway","ref":"广汕高速线","usage":"main","highspeed":"yes","status":"operational","color":"#E54848","dataOrigin":"datum-2026-08-01","sourceKey":"way:1207365903"}},{"type":"Feature","geometry":{"type":"LineString","coordinates":[[115.3263216,22.8332746],[115.3244077,22.8338895]]},"properties":{"key":"way:1207365904@detail:461_91","osmType":"way","osmId":1207365904,"sourceRegion":"guangdong","featureType":"infrastructure","railClass":"highspeed","mode":"rail","name":"甬广高速线","nameEn":"Ningbo–Guangzhou Highspeed-Railway","ref":"广汕高速线","usage":"main","highspeed":"yes","status":"operational","color":"#E54848","dataOrigin":"datum-2026-08-01","sourceKey":"way:1207365904"}},{"type":"Feature","geometry":{"type":"LineString","coordinates":[[115.3244252,22.8339648],[115.3263323,22.8333542]]},"properties":{"key":"way:1207365905@detail:461_91","osmType":"way","osmId":1207365905,"sourceRegion":"guangdong","featureType":"infrastructure","railClass":"highspeed","mode":"rail","name":"甬广高速线","nameEn":"Ningbo–Guangzhou Highspeed-Railway","ref":"广汕高速线","usage":"main","highspeed":"yes","status":"operational","color":"#E54848","dataOrigin":"datum-2026-08-01","sourceKey":"way:1207365905"}},{"type":"Feature","geometry":{"type":"LineString","coordinates":[[115.3974587,22.8159446],[115.3960314,22.8159456]]},"properties":{"key":"way:1207365906@detail:461_91","osmType":"way","osmId":1207365906,"sourceRegion":"guangdong","featureType":"infrastructure","railClass":"minor","mode":"rail","name":"未命名","service":"siding","bridge":"yes","status":"operational","color":"#52636F","dataOrigin":"datum-2026-08-01","sourceKey":"way:1207365906"}},{"type":"Feature","geometry":{"type":"LineString","coordinates":[[115.4602307,22.8167609],[115.4595706,22.8165321]]},"properties":{"key":"way:1478717186@detail:461_91","osmType":"way","osmId":1478717186,"sourceRegion":"guangdong","featureType":"infrastructure","railClass":"highspeed","mode":"rail","name":"杭深线","nameEn":"Hangzhou-Shenzhen Line","ref":"3009","usage":"main","highspeed":"yes","status":"operational","color":"#E54848","dataOrigin":"datum-2026-08-01","sourceKey":"way:1478717186"}},{"type":"Feature","geometry":{"type":"LineString","coordinates":[[115.4627681,22.8176287],[115.4602307,22.8167609]]},"properties":{"key":"way:1478717187@detail:461_91","osmType":"way","osmId":1478717187,"sourceRegion":"guangdong","featureType":"infrastructure","railClass":"highspeed","mode":"rail","name":"杭深线","nameEn":"Hangzhou-Shenzhen Line","ref":"3009","usage":"main","highspeed":"yes","bridge":"yes","status":"operational","color":"#E54848","dataOrigin":"datum-2026-08-01","sourceKey":"way:1478717187"}},{"type":"Feature","geometry":{"type":"LineString","coordinates":[[115.4627493,22.8176707],[115.4647767,22.8183255]]},"properties":{"key":"way:1478717188@detail:461_91","osmType":"way","osmId":1478717188,"sourceRegion":"guangdong","featureType":"infrastructure","railClass":"highspeed","mode":"rail","name":"杭深线","nameEn":"Hangzhou-Shenzhen Line","ref":"3009","usage":"main","highspeed":"yes","status":"operational","color":"#E54848","dataOrigin":"datum-2026-08-01","sourceKey":"way:1478717188"}},{"type":"Feature","geometry":{"type":"LineString","coordinates":[[115.4601824,22.8168079],[115.4627493,22.8176707]]},"properties":{"key":"way:1478717189@detail:461_91","osmType":"way","osmId":1478717189,"sourceRegion":"guangdong","featureType":"infrastructure","railClass":"highspeed","mode":"rail","name":"杭深线","nameEn":"Hangzhou-Shenzhen Line","ref":"3009","usage":"main","highspeed":"yes","bridge":"yes","status":"operational","color":"#E54848","dataOrigin":"datum-2026-08-01","sourceKey":"way:1478717189"}},{"type":"Feature","geometry":{"type":"LineString","coordinates":[[115.4282185,22.8142688],[115.4267889,22.8142317],[115.4260996,22.8142045],[115.4256383,22.8141797],[115.4250562,22.8141699],[115.42422,22.8141818]]},"properties":{"key":"way:1478717190@detail:461_91","osmType":"way","osmId":1478717190,"sourceRegion":"guangdong","featureType":"infrastructure","railClass":"minor","mode":"rail","name":"未命名","service":"crossover","status":"operational","color":"#52636F","dataOrigin":"datum-2026-08-01","sourceKey":"way:1478717190"}},{"type":"Feature","geometry":{"type":"LineString","coordinates":[[115.4215157,22.813799],[115.4197374,22.8139721]]},"properties":{"key":"way:1478717192@detail:461_91","osmType":"way","osmId":1478717192,"sourceRegion":"guangdong","featureType":"infrastructure","railClass":"minor","mode":"rail","name":"未命名","service":"yard","status":"operational","color":"#52636F","dataOrigin":"datum-2026-08-01","sourceKey":"way:1478717192"}},{"type":"Feature","geometry":{"type":"LineString","coordinates":[[115.4216847,22.8150302],[115.4199332,22.8150673],[115.419504,22.81505]]},"properties":{"key":"way:1478717194@detail:461_91","osmType":"way","osmId":1478717194,"sourceRegion":"guangdong","featureType":"infrastructure","railClass":"minor","mode":"rail","name":"未命名","service":"yard","bridge":"yes","status":"operational","color":"#52636F","dataOrigin":"datum-2026-08-01","sourceKey":"way:1478717194"}},{"type":"Feature","geometry":{"type":"LineString","coordinates":[[115.4181788,22.815079],[115.419504,22.81505],[115.4216766,22.8148943]]},"properties":{"key":"way:1478717195@detail:461_91","osmType":"way","osmId":1478717195,"sourceRegion":"guangdong","featureType":"infrastructure","railClass":"minor","mode":"rail","name":"未命名","service":"yard","bridge":"yes","status":"operational","color":"#52636F","dataOrigin":"datum-2026-08-01","sourceKey":"way:1478717195"}},{"type":"Feature","geometry":{"type":"LineString","coordinates":[[115.421674,22.8147434],[115.4265448,22.81438],[115.4274675,22.8143553],[115.4282672,22.8143302]]},"properties":{"key":"way:1478717196@detail:461_91","osmType":"way","osmId":1478717196,"sourceRegion":"guangdong","featureType":"infrastructure","railClass":"minor","mode":"rail","name":"未命名","service":"yard","status":"operational","color":"#52636F","dataOrigin":"datum-2026-08-01","sourceKey":"way:1478717196"}},{"type":"Feature","geometry":{"type":"LineString","coordinates":[[115.4193512,22.8149066],[115.4205742,22.814736],[115.4216713,22.8145926]]},"properties":{"key":"way:1478717197@detail:461_91","osmType":"way","osmId":1478717197,"sourceRegion":"guangdong","featureType":"infrastructure","railClass":"minor","mode":"rail","name":"未命名","service":"yard","bridge":"yes","status":"operational","color":"#52636F","dataOrigin":"datum-2026-08-01","sourceKey":"way:1478717197"}},{"type":"Feature","geometry":{"type":"LineString","coordinates":[[115.428543,22.8135132],[115.4277304,22.8135073],[115.4270223,22.813485],[115.4261881,22.8134776],[115.4255068,22.8134949],[115.4250294,22.8135147],[115.4225832,22.8137149],[115.4215157,22.813799]]},"properties":{"key":"way:1478717198@detail:461_91","osmType":"way","osmId":1478717198,"sourceRegion":"guangdong","featureType":"infrastructure","railClass":"minor","mode":"rail","name":"未命名","service":"yard","status":"operational","color":"#52636F","dataOrigin":"datum-2026-08-01","sourceKey":"way:1478717198"}},{"type":"Feature","geometry":{"type":"LineString","coordinates":[[115.4197481,22.8140215],[115.4189666,22.814096],[115.4183373,22.8141626],[115.4177948,22.8142109]]},"properties":{"key":"way:1478717199@detail:461_91","osmType":"way","osmId":1478717199,"sourceRegion":"guangdong","featureType":"infrastructure","railClass":"minor","mode":"rail","name":"未命名","service":"yard","status":"operational","color":"#52636F","dataOrigin":"datum-2026-08-01","sourceKey":"way:1478717199"}},{"type":"Feature","geometry":{"type":"LineString","coordinates":[[115.4215345,22.8140017],[115.4197213,22.8141241],[115.4190903,22.8141466],[115.4184686,22.814178],[115.4177948,22.8142109]]},"properties":{"key":"way:1478717200@detail:461_91","osmType":"way","osmId":1478717200,"sourceRegion":"guangdong","featureType":"infrastructure","railClass":"minor","mode":"rail","name":"未命名","service":"yard","status":"operational","color":"#52636F","dataOrigin":"datum-2026-08-01","sourceKey":"way:1478717200"}},{"type":"Feature","geometry":{"type":"LineString","coordinates":[[115.4216713,22.8145926],[115.4225832,22.8145185],[115.4231465,22.8144764],[115.4253191,22.8142885],[115.4259333,22.8142688],[115.4282185,22.8142688],[115.4292694,22.8142515]]},"properties":{"key":"way:1478717201@detail:461_91","osmType":"way","osmId":1478717201,"sourceRegion":"guangdong","featureType":"infrastructure","railClass":"minor","mode":"rail","name":"未命名","service":"yard","status":"operational","color":"#52636F","dataOrigin":"datum-2026-08-01","sourceKey":"way:1478717201"}},{"type":"Feature","geometry":{"type":"LineString","coordinates":[[115.417696,22.8150545],[115.4193512,22.8149066],[115.4205662,22.8148102],[115.421674,22.8147434]]},"properties":{"key":"way:1478717202@detail:461_91","osmType":"way","osmId":1478717202,"sourceRegion":"guangdong","featureType":"infrastructure","railClass":"minor","mode":"rail","name":"未命名","service":"yard","bridge":"yes","status":"operational","color":"#52636F","dataOrigin":"datum-2026-08-01","sourceKey":"way:1478717202"}},{"type":"Feature","geometry":{"type":"LineString","coordinates":[[115.4274568,22.8144839],[115.4267836,22.8145827],[115.4261157,22.8146816],[115.4257241,22.8147286],[115.4230553,22.8149462],[115.4223311,22.8150006],[115.4216847,22.8150302]]},"properties":{"key":"way:1478717203@detail:461_91","osmType":"way","osmId":1478717203,"sourceRegion":"guangdong","featureType":"infrastructure","railClass":"minor","mode":"rail","name":"未命名","service":"yard","status":"operational","color":"#52636F","dataOrigin":"datum-2026-08-01","sourceKey":"way:1478717203"}},{"type":"Feature","geometry":{"type":"LineString","coordinates":[[115.4216766,22.8148943],[115.4260486,22.8145704],[115.4274568,22.8144839],[115.4275373,22.8144789],[115.4286949,22.8143546]]},"properties":{"key":"way:1478717204@detail:461_91","osmType":"way","osmId":1478717204,"sourceRegion":"guangdong","featureType":"infrastructure","railClass":"minor","mode":"rail","name":"未命名","service":"yard","status":"operational","color":"#52636F","dataOrigin":"datum-2026-08-01","sourceKey":"way:1478717204"}},{"type":"Feature","geometry":{"type":"LineString","coordinates":[[115.3311923,22.8096931],[115.32871,22.8096476]]},"properties":{"key":"way:1498069522@detail:461_91","osmType":"way","osmId":1498069522,"sourceRegion":"guangdong","featureType":"infrastructure","railClass":"highspeed","mode":"rail","name":"杭深线","nameEn":"Hangzhou-Shenzhen Line","ref":"3009","usage":"main","highspeed":"yes","status":"operational","color":"#E54848","dataOrigin":"datum-2026-08-01","sourceKey":"way:1498069522"}},{"type":"Feature","geometry":{"type":"LineString","coordinates":[[115.3287228,22.8097281],[115.3311921,22.8097493]]},"properties":{"key":"way:1498069523@detail:461_91","osmType":"way","osmId":1498069523,"sourceRegion":"guangdong","featureType":"infrastructure","railClass":"highspeed","mode":"rail","name":"杭深线","nameEn":"Hangzhou-Shenzhen Line","ref":"3009","usage":"main","highspeed":"yes","status":"operational","color":"#E54848","dataOrigin":"datum-2026-08-01","sourceKey":"way:1498069523"}},{"type":"Feature","geometry":{"type":"LineString","coordinates":[[115.3311921,22.8097493],[115.3320521,22.809756]]},"properties":{"key":"way:1498069524@detail:461_91","osmType":"way","osmId":1498069524,"sourceRegion":"guangdong","featureType":"infrastructure","railClass":"highspeed","mode":"rail","name":"杭深线","nameEn":"Hangzhou-Shenzhen Line","ref":"3009","usage":"main","highspeed":"yes","bridge":"yes","status":"operational","color":"#E54848","dataOrigin":"datum-2026-08-01","sourceKey":"way:1498069524"}},{"type":"Feature","geometry":{"type":"LineString","coordinates":[[115.3320565,22.8096993],[115.3311923,22.8096931]]},"properties":{"key":"way:1498069525@detail:461_91","osmType":"way","osmId":1498069525,"sourceRegion":"guangdong","featureType":"infrastructure","railClass":"highspeed","mode":"rail","name":"杭深线","nameEn":"Hangzhou-Shenzhen Line","ref":"3009","usage":"main","highspeed":"yes","bridge":"yes","status":"operational","color":"#E54848","dataOrigin":"datum-2026-08-01","sourceKey":"way:1498069525"}}]}