{"type":"FeatureCollection","features":[{"type":"Feature","geometry":{"type":"Point","coordinates":[115.3425354,24.1848166]},"properties":{"key":"node:9980091029","osmType":"node","osmId":9980091029,"sourceRegion":"guangdong","featureType":"station","railClass":"minor","mode":"station","name":"十二排","status":"operational","color":"#52636F","dataOrigin":"datum-2026-08-01","sourceKey":"node:9980091029","stationGroup":"十二排","hasOperationalRail":true,"hasConstructionRail":false}},{"type":"Feature","geometry":{"type":"Point","coordinates":[115.4819566,24.1617168]},"properties":{"key":"node:9980091030","osmType":"node","osmId":9980091030,"sourceRegion":"guangdong","featureType":"station","railClass":"minor","mode":"station","name":"铁场","status":"operational","color":"#52636F","dataOrigin":"datum-2026-08-01","sourceKey":"node:9980091030","stationGroup":"铁场","hasOperationalRail":true,"hasConstructionRail":false}},{"type":"Feature","geometry":{"type":"LineString","coordinates":[[115.25,24.12332560155421],[115.2537169,24.1226779]]},"properties":{"key":"way:50250467@detail:461_96","osmType":"way","osmId":50250467,"sourceRegion":"guangdong","featureType":"infrastructure","railClass":"national","mode":"rail","name":"漳龙线","ref":"0067","usage":"main","bridge":"yes","status":"operational","color":"#E54848","dataOrigin":"datum-2026-08-01","sourceKey":"way:50250467"}},{"type":"Feature","geometry":{"type":"LineString","coordinates":[[115.333484,24.1639337],[115.333308,24.1642614],[115.333071,24.164825],[115.33279,24.165629],[115.332615,24.166491],[115.332604,24.167523],[115.332714,24.168353],[115.333055,24.169354],[115.334918,24.173581],[115.335561,24.17467],[115.336155,24.175553],[115.340023,24.180813],[115.342743,24.184429],[115.347001,24.190318],[115.347831,24.191318],[115.348486,24.191875],[115.348853,24.192108],[115.349631,24.192498],[115.350694,24.19283],[115.35227,24.193088],[115.355633,24.19351],[115.356731,24.193558],[115.358026,24.193563],[115.358358,24.1935422]]},"properties":{"key":"way:50250468@detail:461_96","osmType":"way","osmId":50250468,"sourceRegion":"guangdong","featureType":"infrastructure","railClass":"national","mode":"rail","name":"漳龙线","ref":"0067","usage":"main","status":"operational","color":"#E54848","dataOrigin":"datum-2026-08-01","sourceKey":"way:50250468"}},{"type":"Feature","geometry":{"type":"LineString","coordinates":[[115.25,24.128368081957152],[115.2500104,24.1282956]]},"properties":{"key":"way:210159067@detail:461_96","osmType":"way","osmId":210159067,"sourceRegion":"guangdong","featureType":"infrastructure","railClass":"national","mode":"rail","name":"京九线","nameEn":"Jingjiu Line","ref":"0005","usage":"main","status":"operational","color":"#E54848","dataOrigin":"datum-2026-08-01","sourceKey":"way:210159067"}},{"type":"Feature","geometry":{"type":"LineString","coordinates":[[115.2500681,24.1250882],[115.2500073,24.124731],[115.25,24.12470676814554]]},"properties":{"key":"way:210159095@detail:461_96","osmType":"way","osmId":210159095,"sourceRegion":"guangdong","featureType":"infrastructure","railClass":"national","mode":"rail","name":"京九线","nameEn":"Jingjiu Line","ref":"0005","usage":"main","bridge":"viaduct","status":"operational","color":"#E54848","dataOrigin":"datum-2026-08-01","sourceKey":"way:210159095"}},{"type":"Feature","geometry":{"type":"LineString","coordinates":[[115.4910331,24.1703136],[115.4904683,24.1704448],[115.4899856,24.1704916],[115.4896261,24.1704729],[115.4852716,24.1705057],[115.4847581,24.1705806],[115.4843422,24.1707212],[115.4838852,24.1709414],[115.4831971,24.1712834],[115.4829198,24.1714801],[115.4827246,24.1716816]]},"properties":{"key":"way:339406735@detail:461_96","osmType":"way","osmId":339406735,"sourceRegion":"guangdong","featureType":"infrastructure","railClass":"minor","mode":"abandoned","name":"未命名","status":"operational","color":"#52636F","dataOrigin":"datum-2026-08-01","sourceKey":"way:339406735"}},{"type":"Feature","geometry":{"type":"LineString","coordinates":[[115.5,24.166867577862718],[115.4994341,24.1666265],[115.4988641,24.1664204],[115.4986073,24.1663782],[115.4969384,24.1664532],[115.496389,24.1665422],[115.4959782,24.1666593],[115.4956496,24.1668561],[115.4952593,24.167245],[115.4950796,24.1674886],[115.4949615,24.1677088],[115.4945969,24.1685333],[115.4943504,24.1688238],[115.4940115,24.1691283],[115.4935596,24.1694844],[115.4932669,24.169653],[115.492661,24.1698545]]},"properties":{"key":"way:339406736@detail:461_96","osmType":"way","osmId":339406736,"sourceRegion":"guangdong","featureType":"infrastructure","railClass":"minor","mode":"abandoned","name":"未命名","status":"operational","color":"#52636F","dataOrigin":"datum-2026-08-01","sourceKey":"way:339406736"}},{"type":"Feature","geometry":{"type":"LineString","coordinates":[[115.492661,24.1698545],[115.4910331,24.1703136]]},"properties":{"key":"way:339406738@detail:461_96","osmType":"way","osmId":339406738,"sourceRegion":"guangdong","featureType":"infrastructure","railClass":"minor","mode":"abandoned","name":"未命名","bridge":"yes","status":"operational","color":"#52636F","dataOrigin":"datum-2026-08-01","sourceKey":"way:339406738"}},{"type":"Feature","geometry":{"type":"LineString","coordinates":[[115.4729019,24.1790148],[115.47369,24.1786212],[115.474543,24.1779801],[115.475412,24.1772656]]},"properties":{"key":"way:550124786@detail:461_96","osmType":"way","osmId":550124786,"sourceRegion":"guangdong","featureType":"infrastructure","railClass":"national","mode":"rail","name":"漳龙线","ref":"0067","usage":"main","tunnel":"yes","status":"operational","color":"#E54848","dataOrigin":"datum-2026-08-01","sourceKey":"way:550124786"}},{"type":"Feature","geometry":{"type":"LineString","coordinates":[[115.475412,24.1772656],[115.476568,24.17556],[115.477203,24.174846],[115.479448,24.172866],[115.479921,24.172301],[115.480181,24.171885],[115.480538,24.170964],[115.48065,24.170513],[115.480788,24.169584],[115.482381,24.154788],[115.482598,24.153591],[115.482843,24.15289],[115.483208,24.152233],[115.483506,24.151823],[115.484018,24.151253],[115.485686,24.149701],[115.486309,24.148933],[115.486676,24.148278],[115.487066,24.147366],[115.487113,24.147134],[115.487201,24.14596],[115.487161,24.145491],[115.487026,24.144808],[115.486816,24.144145],[115.485864,24.14194],[115.4852632,24.1403018],[115.4851133,24.1396399],[115.485028,24.138639]]},"properties":{"key":"way:550124787@detail:461_96","osmType":"way","osmId":550124787,"sourceRegion":"guangdong","featureType":"infrastructure","railClass":"national","mode":"rail","name":"漳龙线","ref":"0067","usage":"main","status":"operational","color":"#E54848","dataOrigin":"datum-2026-08-01","sourceKey":"way:550124787"}},{"type":"Feature","geometry":{"type":"LineString","coordinates":[[115.3736352,24.1938676],[115.377061,24.194905],[115.3798351,24.1952648]]},"properties":{"key":"way:550131731@detail:461_96","osmType":"way","osmId":550131731,"sourceRegion":"guangdong","featureType":"infrastructure","railClass":"national","mode":"rail","name":"漳龙线","ref":"0067","usage":"main","tunnel":"yes","status":"operational","color":"#E54848","dataOrigin":"datum-2026-08-01","sourceKey":"way:550131731"}},{"type":"Feature","geometry":{"type":"LineString","coordinates":[[115.3798351,24.1952648],[115.3815469,24.1955597]]},"properties":{"key":"way:550131732@detail:461_96","osmType":"way","osmId":550131732,"sourceRegion":"guangdong","featureType":"infrastructure","railClass":"national","mode":"rail","name":"漳龙线","ref":"0067","usage":"main","status":"operational","color":"#E54848","dataOrigin":"datum-2026-08-01","sourceKey":"way:550131732"}},{"type":"Feature","geometry":{"type":"LineString","coordinates":[[115.3815469,24.1955597],[115.3835296,24.195724]]},"properties":{"key":"way:550131733@detail:461_96","osmType":"way","osmId":550131733,"sourceRegion":"guangdong","featureType":"infrastructure","railClass":"national","mode":"rail","name":"漳龙线","ref":"0067","usage":"main","bridge":"yes","status":"operational","color":"#E54848","dataOrigin":"datum-2026-08-01","sourceKey":"way:550131733"}},{"type":"Feature","geometry":{"type":"LineString","coordinates":[[115.3835296,24.195724],[115.3842721,24.195763],[115.385054,24.195718],[115.385671,24.195636],[115.386266,24.195498],[115.38702,24.195223],[115.387545,24.194969],[115.3879237,24.1947771]]},"properties":{"key":"way:550131734@detail:461_96","osmType":"way","osmId":550131734,"sourceRegion":"guangdong","featureType":"infrastructure","railClass":"national","mode":"rail","name":"漳龙线","ref":"0067","usage":"main","status":"operational","color":"#E54848","dataOrigin":"datum-2026-08-01","sourceKey":"way:550131734"}},{"type":"Feature","geometry":{"type":"LineString","coordinates":[[115.3879237,24.1947771],[115.3884682,24.194437]]},"properties":{"key":"way:550131735@detail:461_96","osmType":"way","osmId":550131735,"sourceRegion":"guangdong","featureType":"infrastructure","railClass":"national","mode":"rail","name":"漳龙线","ref":"0067","usage":"main","bridge":"yes","status":"operational","color":"#E54848","dataOrigin":"datum-2026-08-01","sourceKey":"way:550131735"}},{"type":"Feature","geometry":{"type":"LineString","coordinates":[[115.4230179,24.1820079],[115.427458,24.179791],[115.429026,24.179129],[115.43041,24.178686],[115.431618,24.178378],[115.433061,24.178089],[115.437609,24.177376],[115.440543,24.176633],[115.441033,24.176571],[115.441775,24.176546],[115.442768,24.176643],[115.447794,24.177783],[115.449921,24.178206],[115.451701,24.178638],[115.453016,24.178806],[115.454068,24.17886],[115.455426,24.178853],[115.461291,24.178356],[115.462854,24.178321],[115.464381,24.1785],[115.469566,24.179418],[115.470751,24.179513],[115.471473,24.179469],[115.472185,24.179358],[115.4729019,24.1790148]]},"properties":{"key":"way:550131736@detail:461_96","osmType":"way","osmId":550131736,"sourceRegion":"guangdong","featureType":"infrastructure","railClass":"national","mode":"rail","name":"漳龙线","ref":"0067","usage":"main","status":"operational","color":"#E54848","dataOrigin":"datum-2026-08-01","sourceKey":"way:550131736"}},{"type":"Feature","geometry":{"type":"LineString","coordinates":[[115.4213827,24.1828244],[115.4230179,24.1820079]]},"properties":{"key":"way:685468183@detail:461_96","osmType":"way","osmId":685468183,"sourceRegion":"guangdong","featureType":"infrastructure","railClass":"national","mode":"rail","name":"漳龙线","ref":"0067","usage":"main","bridge":"viaduct","status":"operational","color":"#E54848","dataOrigin":"datum-2026-08-01","sourceKey":"way:685468183"}},{"type":"Feature","geometry":{"type":"LineString","coordinates":[[115.4127189,24.1869692],[115.41487,24.186018],[115.415431,24.185711],[115.418083,24.184684],[115.419245,24.184071],[115.4213827,24.1828244]]},"properties":{"key":"way:685468184@detail:461_96","osmType":"way","osmId":685468184,"sourceRegion":"guangdong","featureType":"infrastructure","railClass":"national","mode":"rail","name":"漳龙线","ref":"0067","usage":"main","status":"operational","color":"#E54848","dataOrigin":"datum-2026-08-01","sourceKey":"way:685468184"}},{"type":"Feature","geometry":{"type":"LineString","coordinates":[[115.402701,24.1898025],[115.4037702,24.1899792],[115.405283,24.1899695],[115.4073214,24.1895878],[115.4103523,24.1881834],[115.4127189,24.1869692]]},"properties":{"key":"way:685468185@detail:461_96","osmType":"way","osmId":685468185,"sourceRegion":"guangdong","featureType":"infrastructure","railClass":"national","mode":"rail","name":"漳龙线","ref":"0067","usage":"main","tunnel":"yes","status":"operational","color":"#E54848","dataOrigin":"datum-2026-08-01","sourceKey":"way:685468185"}},{"type":"Feature","geometry":{"type":"LineString","coordinates":[[115.3943781,24.1908722],[115.395708,24.190514],[115.400758,24.189721],[115.401558,24.189696],[115.402701,24.1898025]]},"properties":{"key":"way:685468186@detail:461_96","osmType":"way","osmId":685468186,"sourceRegion":"guangdong","featureType":"infrastructure","railClass":"national","mode":"rail","name":"漳龙线","ref":"0067","usage":"main","status":"operational","color":"#E54848","dataOrigin":"datum-2026-08-01","sourceKey":"way:685468186"}},{"type":"Feature","geometry":{"type":"LineString","coordinates":[[115.3934042,24.1912367],[115.3943781,24.1908722]]},"properties":{"key":"way:685468187@detail:461_96","osmType":"way","osmId":685468187,"sourceRegion":"guangdong","featureType":"infrastructure","railClass":"national","mode":"rail","name":"漳龙线","ref":"0067","usage":"main","bridge":"yes","status":"operational","color":"#E54848","dataOrigin":"datum-2026-08-01","sourceKey":"way:685468187"}},{"type":"Feature","geometry":{"type":"LineString","coordinates":[[115.3884682,24.194437],[115.392153,24.191873],[115.393018,24.191403],[115.3934042,24.1912367]]},"properties":{"key":"way:685468188@detail:461_96","osmType":"way","osmId":685468188,"sourceRegion":"guangdong","featureType":"infrastructure","railClass":"national","mode":"rail","name":"漳龙线","ref":"0067","usage":"main","status":"operational","color":"#E54848","dataOrigin":"datum-2026-08-01","sourceKey":"way:685468188"}},{"type":"Feature","geometry":{"type":"LineString","coordinates":[[115.3724956,24.1907622],[115.3725171,24.1917604],[115.3725706,24.1922326],[115.3727814,24.1926665],[115.373129,24.1930198],[115.3735793,24.1932578],[115.375607,24.1936003],[115.3775382,24.193982],[115.377875,24.1941818],[115.3781289,24.1944659],[115.3782756,24.194807],[115.3783013,24.1951728],[115.3782034,24.1955282],[115.3776669,24.1964579],[115.3774602,24.1967775],[115.3773679,24.1971389],[115.3773986,24.1975089],[115.3775493,24.1978535],[115.3778064,24.1981411]]},"properties":{"key":"way:685468189@detail:461_96","osmType":"way","osmId":685468189,"sourceRegion":"guangdong","featureType":"infrastructure","railClass":"minor","mode":"abandoned","name":"未命名","status":"operational","color":"#52636F","dataOrigin":"datum-2026-08-01","sourceKey":"way:685468189"}},{"type":"Feature","geometry":{"type":"LineString","coordinates":[[115.3780854,24.1983369],[115.378418,24.1984445],[115.3791582,24.1984934],[115.3816259,24.1985717],[115.3828168,24.1988457],[115.3835034,24.1991393],[115.3850806,24.2008127],[115.3856814,24.2013509],[115.3861943,24.2015457],[115.3867493,24.2015694],[115.38728,24.2014194],[115.3880846,24.2010476],[115.388528,24.2009315],[115.388989,24.2009416],[115.3894257,24.2010769],[115.3902411,24.2014782],[115.3907501,24.2016045],[115.3912773,24.2015877],[115.3917754,24.2014292],[115.3941679,24.2003528],[115.3949618,24.2001473],[115.3964209,24.2000201],[115.3985023,24.1999809],[115.399181,24.1997738],[115.3997469,24.1993742],[115.4011416,24.1974561],[115.4014588,24.1971235],[115.4018735,24.196897],[115.4023448,24.1967992],[115.4028261,24.1968396],[115.40524,24.1969766],[115.4056527,24.1969376],[115.4060379,24.1967973],[115.4063665,24.1965663],[115.4066133,24.1962622],[115.4074716,24.1941973],[115.40833,24.1921421],[115.4089951,24.1905567],[115.4092349,24.1901571],[115.4096004,24.1898467],[115.4100544,24.189657],[115.4105508,24.1896073],[115.4115271,24.1896171],[115.4119101,24.1895619],[115.4122578,24.1894055],[115.4125391,24.1891622],[115.4127288,24.1888538],[115.4132223,24.1872291],[115.4134369,24.1868572],[115.4137158,24.1866517],[115.4141664,24.1863874],[115.4159689,24.1855849]]},"properties":{"key":"way:685468190@detail:461_96","osmType":"way","osmId":685468190,"sourceRegion":"guangdong","featureType":"infrastructure","railClass":"minor","mode":"abandoned","name":"未命名","status":"operational","color":"#52636F","dataOrigin":"datum-2026-08-01","sourceKey":"way:685468190"}},{"type":"Feature","geometry":{"type":"LineString","coordinates":[[115.3778064,24.1981411],[115.3780854,24.1983369]]},"properties":{"key":"way:685468191@detail:461_96","osmType":"way","osmId":685468191,"sourceRegion":"guangdong","featureType":"infrastructure","railClass":"minor","mode":"abandoned","name":"未命名","bridge":"yes","status":"operational","color":"#52636F","dataOrigin":"datum-2026-08-01","sourceKey":"way:685468191"}},{"type":"Feature","geometry":{"type":"LineString","coordinates":[[115.3003147,24.1363561],[115.3011015,24.1363161]]},"properties":{"key":"way:721540088@detail:461_96","osmType":"way","osmId":721540088,"sourceRegion":"guangdong","featureType":"infrastructure","railClass":"national","mode":"rail","name":"漳龙线","ref":"0067","usage":"main","bridge":"yes","status":"operational","color":"#E54848","dataOrigin":"datum-2026-08-01","sourceKey":"way:721540088"}},{"type":"Feature","geometry":{"type":"LineString","coordinates":[[115.3011015,24.1363161],[115.3020332,24.1362937],[115.3025582,24.1363275]]},"properties":{"key":"way:721540089@detail:461_96","osmType":"way","osmId":721540089,"sourceRegion":"guangdong","featureType":"infrastructure","railClass":"national","mode":"rail","name":"漳龙线","ref":"0067","usage":"main","status":"operational","color":"#E54848","dataOrigin":"datum-2026-08-01","sourceKey":"way:721540089"}},{"type":"Feature","geometry":{"type":"LineString","coordinates":[[115.3025582,24.1363275],[115.3030398,24.1364002],[115.3034797,24.1365102]]},"properties":{"key":"way:721540090@detail:461_96","osmType":"way","osmId":721540090,"sourceRegion":"guangdong","featureType":"infrastructure","railClass":"national","mode":"rail","name":"漳龙线","ref":"0067","usage":"main","bridge":"yes","status":"operational","color":"#E54848","dataOrigin":"datum-2026-08-01","sourceKey":"way:721540090"}},{"type":"Feature","geometry":{"type":"LineString","coordinates":[[115.26844,24.128643],[115.2688855,24.1288268],[115.2700387,24.1290818],[115.27376,24.129225],[115.277716,24.129871],[115.281433,24.130565],[115.282645,24.131088],[115.283396,24.131575],[115.283928,24.132013],[115.285361,24.133345],[115.28601,24.133876],[115.286353,24.134099],[115.288283,24.134891],[115.289025,24.135348],[115.289613,24.135581],[115.290923,24.135891],[115.295748,24.136491],[115.2962423,24.1364839],[115.29696,24.136459],[115.3003147,24.1363561]]},"properties":{"key":"way:721540091@detail:461_96","osmType":"way","osmId":721540091,"sourceRegion":"guangdong","featureType":"infrastructure","railClass":"national","mode":"rail","name":"漳龙线","ref":"0067","usage":"main","status":"operational","color":"#E54848","dataOrigin":"datum-2026-08-01","sourceKey":"way:721540091"}},{"type":"Feature","geometry":{"type":"LineString","coordinates":[[115.2675729,24.1281507],[115.26844,24.128643]]},"properties":{"key":"way:721540092@detail:461_96","osmType":"way","osmId":721540092,"sourceRegion":"guangdong","featureType":"infrastructure","railClass":"national","mode":"rail","name":"漳龙线","ref":"0067","usage":"main","tunnel":"yes","status":"operational","color":"#E54848","dataOrigin":"datum-2026-08-01","sourceKey":"way:721540092"}},{"type":"Feature","geometry":{"type":"LineString","coordinates":[[115.2583516,24.1219138],[115.2599126,24.1220753],[115.260394,24.122246],[115.2611938,24.1225938],[115.2617483,24.1229299],[115.2626934,24.123653],[115.26516,24.126113],[115.2660697,24.1271193]]},"properties":{"key":"way:721540093@detail:461_96","osmType":"way","osmId":721540093,"sourceRegion":"guangdong","featureType":"infrastructure","railClass":"national","mode":"rail","name":"漳龙线","ref":"0067","usage":"main","status":"operational","color":"#E54848","dataOrigin":"datum-2026-08-01","sourceKey":"way:721540093"}},{"type":"Feature","geometry":{"type":"LineString","coordinates":[[115.2546278,24.1225367],[115.2583516,24.1219138]]},"properties":{"key":"way:721540094@detail:461_96","osmType":"way","osmId":721540094,"sourceRegion":"guangdong","featureType":"infrastructure","railClass":"national","mode":"rail","name":"漳龙线","ref":"0067","usage":"main","tunnel":"yes","status":"operational","color":"#E54848","dataOrigin":"datum-2026-08-01","sourceKey":"way:721540094"}},{"type":"Feature","geometry":{"type":"LineString","coordinates":[[115.2537169,24.1226779],[115.2546278,24.1225367]]},"properties":{"key":"way:721540095@detail:461_96","osmType":"way","osmId":721540095,"sourceRegion":"guangdong","featureType":"infrastructure","railClass":"national","mode":"rail","name":"漳龙线","ref":"0067","usage":"main","status":"operational","color":"#E54848","dataOrigin":"datum-2026-08-01","sourceKey":"way:721540095"}},{"type":"Feature","geometry":{"type":"LineString","coordinates":[[115.3370081,24.1583029],[115.3369331,24.1586121],[115.3367686,24.1591154],[115.336659,24.1594003],[115.3365632,24.1596403],[115.3364126,24.1599061],[115.3362504,24.1601677]]},"properties":{"key":"way:1122965994@detail:461_96","osmType":"way","osmId":1122965994,"sourceRegion":"guangdong","featureType":"infrastructure","railClass":"national","mode":"rail","name":"漳龙线","ref":"0067","usage":"main","bridge":"yes","status":"operational","color":"#E54848","dataOrigin":"datum-2026-08-01","sourceKey":"way:1122965994"}},{"type":"Feature","geometry":{"type":"LineString","coordinates":[[115.3034797,24.1365102],[115.304761,24.136905],[115.305175,24.13708],[115.308695,24.138928],[115.309293,24.139153],[115.310176,24.139368],[115.311056,24.13949],[115.313251,24.139636],[115.318811,24.139818],[115.320513,24.139988],[115.321401,24.140221],[115.322248,24.140556],[115.3245721,24.1416827],[115.3266227,24.1427824],[115.328575,24.143846],[115.329546,24.144421],[115.330243,24.144991],[115.331828,24.146486],[115.332485,24.147341],[115.332988,24.14828],[115.333591,24.149158],[115.33391,24.149711],[115.334536,24.151086],[115.334763,24.151448],[115.335956,24.153774],[115.336613,24.155193],[115.336909,24.156034],[115.337051,24.156685],[115.337123,24.157335],[115.3370544,24.1579621],[115.3370081,24.1583029]]},"properties":{"key":"way:1122965995@detail:461_96","osmType":"way","osmId":1122965995,"sourceRegion":"guangdong","featureType":"infrastructure","railClass":"national","mode":"rail","name":"漳龙线","ref":"0067","usage":"main","status":"operational","color":"#E54848","dataOrigin":"datum-2026-08-01","sourceKey":"way:1122965995"}},{"type":"Feature","geometry":{"type":"LineString","coordinates":[[115.4985992,24.0959443],[115.4987545,24.0952886],[115.4989472,24.0947166],[115.49925,24.0936121],[115.4995117,24.0929144],[115.499706,24.092558],[115.4999675,24.0920021],[115.5,24.0919511220848]]},"properties":{"key":"way:1163005294@detail:461_96","osmType":"way","osmId":1163005294,"sourceRegion":"guangdong","featureType":"infrastructure","railClass":"national","mode":"rail","name":"漳龙线","ref":"0067","usage":"main","status":"operational","color":"#E54848","dataOrigin":"datum-2026-08-01","sourceKey":"way:1163005294"}},{"type":"Feature","geometry":{"type":"LineString","coordinates":[[115.4978793,24.0976577],[115.498123,24.097259],[115.4985992,24.0959443]]},"properties":{"key":"way:1163005295@detail:461_96","osmType":"way","osmId":1163005295,"sourceRegion":"guangdong","featureType":"infrastructure","railClass":"national","mode":"rail","name":"漳龙线","ref":"0067","usage":"main","tunnel":"yes","status":"operational","color":"#E54848","dataOrigin":"datum-2026-08-01","sourceKey":"way:1163005295"}},{"type":"Feature","geometry":{"type":"LineString","coordinates":[[115.4936573,24.115154],[115.4938987,24.1146774],[115.4959,24.110313],[115.496251,24.109144],[115.496394,24.107938],[115.496091,24.103246],[115.496129,24.101768],[115.49615,24.101514],[115.496396,24.100559],[115.496741,24.099615],[115.497205,24.09873],[115.4978793,24.0976577]]},"properties":{"key":"way:1163005296@detail:461_96","osmType":"way","osmId":1163005296,"sourceRegion":"guangdong","featureType":"infrastructure","railClass":"national","mode":"rail","name":"漳龙线","ref":"0067","usage":"main","status":"operational","color":"#E54848","dataOrigin":"datum-2026-08-01","sourceKey":"way:1163005296"}},{"type":"Feature","geometry":{"type":"LineString","coordinates":[[115.4927571,24.1162996],[115.493324,24.115681],[115.4936573,24.115154]]},"properties":{"key":"way:1163005297@detail:461_96","osmType":"way","osmId":1163005297,"sourceRegion":"guangdong","featureType":"infrastructure","railClass":"national","mode":"rail","name":"漳龙线","ref":"0067","usage":"main","tunnel":"yes","status":"operational","color":"#E54848","dataOrigin":"datum-2026-08-01","sourceKey":"way:1163005297"}},{"type":"Feature","geometry":{"type":"LineString","coordinates":[[115.4856112,24.1305626],[115.4857712,24.1300999],[115.486949,24.128286],[115.4879352,24.1268614],[115.4881611,24.1263873],[115.4884614,24.1252968],[115.489266,24.120816],[115.489393,24.120353],[115.489675,24.119681],[115.490173,24.118853],[115.49064,24.118284],[115.4927571,24.1162996]]},"properties":{"key":"way:1163005298@detail:461_96","osmType":"way","osmId":1163005298,"sourceRegion":"guangdong","featureType":"infrastructure","railClass":"national","mode":"rail","name":"漳龙线","ref":"0067","usage":"main","status":"operational","color":"#E54848","dataOrigin":"datum-2026-08-01","sourceKey":"way:1163005298"}},{"type":"Feature","geometry":{"type":"LineString","coordinates":[[115.485028,24.138639],[115.4850317,24.1382858],[115.4851225,24.1377791],[115.4851495,24.137688]]},"properties":{"key":"way:1163005299@detail:461_96","osmType":"way","osmId":1163005299,"sourceRegion":"guangdong","featureType":"infrastructure","railClass":"national","mode":"rail","name":"漳龙线","ref":"0067","usage":"main","bridge":"yes","status":"operational","color":"#E54848","dataOrigin":"datum-2026-08-01","sourceKey":"way:1163005299"}},{"type":"Feature","geometry":{"type":"LineString","coordinates":[[115.4851495,24.137688],[115.4851765,24.1375969]]},"properties":{"key":"way:1163005300@detail:461_96","osmType":"way","osmId":1163005300,"sourceRegion":"guangdong","featureType":"infrastructure","railClass":"national","mode":"rail","name":"漳龙线","ref":"0067","usage":"main","status":"operational","color":"#E54848","dataOrigin":"datum-2026-08-01","sourceKey":"way:1163005300"}},{"type":"Feature","geometry":{"type":"LineString","coordinates":[[115.4851765,24.1375969],[115.4852244,24.135327]]},"properties":{"key":"way:1163005301@detail:461_96","osmType":"way","osmId":1163005301,"sourceRegion":"guangdong","featureType":"infrastructure","railClass":"national","mode":"rail","name":"漳龙线","ref":"0067","usage":"main","tunnel":"yes","status":"operational","color":"#E54848","dataOrigin":"datum-2026-08-01","sourceKey":"way:1163005301"}},{"type":"Feature","geometry":{"type":"LineString","coordinates":[[115.4852244,24.135327],[115.4852324,24.1348656],[115.4852668,24.1345807]]},"properties":{"key":"way:1163005302@detail:461_96","osmType":"way","osmId":1163005302,"sourceRegion":"guangdong","featureType":"infrastructure","railClass":"national","mode":"rail","name":"漳龙线","ref":"0067","usage":"main","status":"operational","color":"#E54848","dataOrigin":"datum-2026-08-01","sourceKey":"way:1163005302"}},{"type":"Feature","geometry":{"type":"LineString","coordinates":[[115.4852668,24.1345807],[115.4856112,24.1305626]]},"properties":{"key":"way:1163005303@detail:461_96","osmType":"way","osmId":1163005303,"sourceRegion":"guangdong","featureType":"infrastructure","railClass":"national","mode":"rail","name":"漳龙线","ref":"0067","usage":"main","tunnel":"yes","status":"operational","color":"#E54848","dataOrigin":"datum-2026-08-01","sourceKey":"way:1163005303"}},{"type":"Feature","geometry":{"type":"LineString","coordinates":[[115.2501518,24.125817],[115.2501079,24.1253344],[115.2500681,24.1250882]]},"properties":{"key":"way:1187915329@detail:461_96","osmType":"way","osmId":1187915329,"sourceRegion":"guangdong","featureType":"infrastructure","railClass":"national","mode":"rail","name":"京九线","nameEn":"Jingjiu Line","ref":"0005","usage":"main","status":"operational","color":"#E54848","dataOrigin":"datum-2026-08-01","sourceKey":"way:1187915329"}},{"type":"Feature","geometry":{"type":"LineString","coordinates":[[115.2500104,24.1282956],[115.2501679,24.126259],[115.2501518,24.125817]]},"properties":{"key":"way:1187915330@detail:461_96","osmType":"way","osmId":1187915330,"sourceRegion":"guangdong","featureType":"infrastructure","railClass":"national","mode":"rail","name":"京九线","nameEn":"Jingjiu Line","ref":"0005","usage":"main","bridge":"viaduct","status":"operational","color":"#E54848","dataOrigin":"datum-2026-08-01","sourceKey":"way:1187915330"}},{"type":"Feature","geometry":{"type":"LineString","coordinates":[[115.25,24.124733986596304],[115.2511276,24.1246724],[115.2530134,24.1245429],[115.2549249,24.1243338]]},"properties":{"key":"way:1265138317@detail:461_96","osmType":"way","osmId":1265138317,"sourceRegion":"guangdong","featureType":"infrastructure","railClass":"highspeed","mode":"rail","name":"龙龙高速线","usage":"main","highspeed":"yes","bridge":"yes","status":"operational","color":"#E54848","dataOrigin":"datum-2026-08-01","sourceKey":"way:1265138317"}},{"type":"Feature","geometry":{"type":"LineString","coordinates":[[115.2549249,24.1243338],[115.256152,24.1241362],[115.2577591,24.1237892],[115.2593803,24.1233716]]},"properties":{"key":"way:1265138318@detail:461_96","osmType":"way","osmId":1265138318,"sourceRegion":"guangdong","featureType":"infrastructure","railClass":"highspeed","mode":"rail","name":"龙龙高速线","usage":"main","highspeed":"yes","tunnel":"yes","status":"operational","color":"#E54848","dataOrigin":"datum-2026-08-01","sourceKey":"way:1265138318"}},{"type":"Feature","geometry":{"type":"LineString","coordinates":[[115.2593803,24.1233716],[115.2603212,24.1230884]]},"properties":{"key":"way:1265138319@detail:461_96","osmType":"way","osmId":1265138319,"sourceRegion":"guangdong","featureType":"infrastructure","railClass":"highspeed","mode":"rail","name":"龙龙高速线","usage":"main","highspeed":"yes","status":"operational","color":"#E54848","dataOrigin":"datum-2026-08-01","sourceKey":"way:1265138319"}},{"type":"Feature","geometry":{"type":"LineString","coordinates":[[115.2603212,24.1230884],[115.2618733,24.1225724]]},"properties":{"key":"way:1265138320@detail:461_96","osmType":"way","osmId":1265138320,"sourceRegion":"guangdong","featureType":"infrastructure","railClass":"highspeed","mode":"rail","name":"龙龙高速线","usage":"main","highspeed":"yes","bridge":"yes","status":"operational","color":"#E54848","dataOrigin":"datum-2026-08-01","sourceKey":"way:1265138320"}},{"type":"Feature","geometry":{"type":"LineString","coordinates":[[115.2618733,24.1225724],[115.2634995,24.1220557]]},"properties":{"key":"way:1265138321@detail:461_96","osmType":"way","osmId":1265138321,"sourceRegion":"guangdong","featureType":"infrastructure","railClass":"highspeed","mode":"rail","name":"龙龙高速线","usage":"main","highspeed":"yes","status":"operational","color":"#E54848","dataOrigin":"datum-2026-08-01","sourceKey":"way:1265138321"}},{"type":"Feature","geometry":{"type":"LineString","coordinates":[[115.2634995,24.1220557],[115.2648446,24.12167],[115.2663522,24.1212618],[115.2680727,24.1208703],[115.2695886,24.1205903]]},"properties":{"key":"way:1265138322@detail:461_96","osmType":"way","osmId":1265138322,"sourceRegion":"guangdong","featureType":"infrastructure","railClass":"highspeed","mode":"rail","name":"龙龙高速线","usage":"main","highspeed":"yes","bridge":"yes","status":"operational","color":"#E54848","dataOrigin":"datum-2026-08-01","sourceKey":"way:1265138322"}},{"type":"Feature","geometry":{"type":"LineString","coordinates":[[115.2695886,24.1205903],[115.2709691,24.1203843]]},"properties":{"key":"way:1265138323@detail:461_96","osmType":"way","osmId":1265138323,"sourceRegion":"guangdong","featureType":"infrastructure","railClass":"highspeed","mode":"rail","name":"龙龙高速线","usage":"main","highspeed":"yes","tunnel":"yes","status":"operational","color":"#E54848","dataOrigin":"datum-2026-08-01","sourceKey":"way:1265138323"}},{"type":"Feature","geometry":{"type":"LineString","coordinates":[[115.2709691,24.1203843],[115.2717958,24.1202935]]},"properties":{"key":"way:1265138324@detail:461_96","osmType":"way","osmId":1265138324,"sourceRegion":"guangdong","featureType":"infrastructure","railClass":"highspeed","mode":"rail","name":"龙龙高速线","usage":"main","highspeed":"yes","status":"operational","color":"#E54848","dataOrigin":"datum-2026-08-01","sourceKey":"way:1265138324"}},{"type":"Feature","geometry":{"type":"LineString","coordinates":[[115.2717958,24.1202935],[115.2732145,24.120166]]},"properties":{"key":"way:1265138325@detail:461_96","osmType":"way","osmId":1265138325,"sourceRegion":"guangdong","featureType":"infrastructure","railClass":"highspeed","mode":"rail","name":"龙龙高速线","usage":"main","highspeed":"yes","tunnel":"yes","status":"operational","color":"#E54848","dataOrigin":"datum-2026-08-01","sourceKey":"way:1265138325"}},{"type":"Feature","geometry":{"type":"LineString","coordinates":[[115.2732145,24.120166],[115.2767616,24.1199378]]},"properties":{"key":"way:1265138326@detail:461_96","osmType":"way","osmId":1265138326,"sourceRegion":"guangdong","featureType":"infrastructure","railClass":"highspeed","mode":"rail","name":"龙龙高速线","usage":"main","highspeed":"yes","bridge":"yes","status":"operational","color":"#E54848","dataOrigin":"datum-2026-08-01","sourceKey":"way:1265138326"}},{"type":"Feature","geometry":{"type":"LineString","coordinates":[[115.2767616,24.1199378],[115.2786828,24.1198159]]},"properties":{"key":"way:1265138327@detail:461_96","osmType":"way","osmId":1265138327,"sourceRegion":"guangdong","featureType":"infrastructure","railClass":"highspeed","mode":"rail","name":"龙龙高速线","usage":"main","highspeed":"yes","tunnel":"yes","status":"operational","color":"#E54848","dataOrigin":"datum-2026-08-01","sourceKey":"way:1265138327"}},{"type":"Feature","geometry":{"type":"LineString","coordinates":[[115.2794193,24.1197644],[115.2835887,24.1194727]]},"properties":{"key":"way:1265138328@detail:461_96","osmType":"way","osmId":1265138328,"sourceRegion":"guangdong","featureType":"infrastructure","railClass":"highspeed","mode":"rail","name":"龙龙高速线","usage":"main","highspeed":"yes","bridge":"yes","status":"operational","color":"#E54848","dataOrigin":"datum-2026-08-01","sourceKey":"way:1265138328"}},{"type":"Feature","geometry":{"type":"LineString","coordinates":[[115.2835887,24.1194727],[115.2859506,24.1192369]]},"properties":{"key":"way:1265138329@detail:461_96","osmType":"way","osmId":1265138329,"sourceRegion":"guangdong","featureType":"infrastructure","railClass":"highspeed","mode":"rail","name":"龙龙高速线","usage":"main","highspeed":"yes","status":"operational","color":"#E54848","dataOrigin":"datum-2026-08-01","sourceKey":"way:1265138329"}},{"type":"Feature","geometry":{"type":"LineString","coordinates":[[115.2859506,24.1192369],[115.2883354,24.1189407]]},"properties":{"key":"way:1265138330@detail:461_96","osmType":"way","osmId":1265138330,"sourceRegion":"guangdong","featureType":"infrastructure","railClass":"highspeed","mode":"rail","name":"龙龙高速线","usage":"main","highspeed":"yes","bridge":"yes","status":"operational","color":"#E54848","dataOrigin":"datum-2026-08-01","sourceKey":"way:1265138330"}},{"type":"Feature","geometry":{"type":"LineString","coordinates":[[115.2896421,24.1187735],[115.2909973,24.1186053]]},"properties":{"key":"way:1265138331@detail:461_96","osmType":"way","osmId":1265138331,"sourceRegion":"guangdong","featureType":"infrastructure","railClass":"highspeed","mode":"rail","name":"龙龙高速线","usage":"main","highspeed":"yes","bridge":"yes","status":"operational","color":"#E54848","dataOrigin":"datum-2026-08-01","sourceKey":"way:1265138331"}},{"type":"Feature","geometry":{"type":"LineString","coordinates":[[115.3311278,24.1128699],[115.343026,24.1106215]]},"properties":{"key":"way:1265138332@detail:461_96","osmType":"way","osmId":1265138332,"sourceRegion":"guangdong","featureType":"infrastructure","railClass":"highspeed","mode":"rail","name":"龙龙高速线","usage":"main","highspeed":"yes","tunnel":"yes","status":"operational","color":"#E54848","dataOrigin":"datum-2026-08-01","sourceKey":"way:1265138332"}},{"type":"Feature","geometry":{"type":"LineString","coordinates":[[115.3301595,24.113052],[115.3311278,24.1128699]]},"properties":{"key":"way:1265138333@detail:461_96","osmType":"way","osmId":1265138333,"sourceRegion":"guangdong","featureType":"infrastructure","railClass":"highspeed","mode":"rail","name":"龙龙高速线","usage":"main","highspeed":"yes","bridge":"yes","status":"operational","color":"#E54848","dataOrigin":"datum-2026-08-01","sourceKey":"way:1265138333"}},{"type":"Feature","geometry":{"type":"LineString","coordinates":[[115.3276547,24.1135448],[115.3301595,24.113052]]},"properties":{"key":"way:1265138334@detail:461_96","osmType":"way","osmId":1265138334,"sourceRegion":"guangdong","featureType":"infrastructure","railClass":"highspeed","mode":"rail","name":"龙龙高速线","usage":"main","highspeed":"yes","tunnel":"yes","status":"operational","color":"#E54848","dataOrigin":"datum-2026-08-01","sourceKey":"way:1265138334"}},{"type":"Feature","geometry":{"type":"LineString","coordinates":[[115.3264932,24.1137525],[115.3276547,24.1135448]]},"properties":{"key":"way:1265138335@detail:461_96","osmType":"way","osmId":1265138335,"sourceRegion":"guangdong","featureType":"infrastructure","railClass":"highspeed","mode":"rail","name":"龙龙高速线","usage":"main","highspeed":"yes","status":"operational","color":"#E54848","dataOrigin":"datum-2026-08-01","sourceKey":"way:1265138335"}},{"type":"Feature","geometry":{"type":"LineString","coordinates":[[115.3231371,24.1143932],[115.3264932,24.1137525]]},"properties":{"key":"way:1265138336@detail:461_96","osmType":"way","osmId":1265138336,"sourceRegion":"guangdong","featureType":"infrastructure","railClass":"highspeed","mode":"rail","name":"龙龙高速线","usage":"main","highspeed":"yes","bridge":"yes","status":"operational","color":"#E54848","dataOrigin":"datum-2026-08-01","sourceKey":"way:1265138336"}},{"type":"Feature","geometry":{"type":"LineString","coordinates":[[115.3222476,24.1145526],[115.3231371,24.1143932]]},"properties":{"key":"way:1265138337@detail:461_96","osmType":"way","osmId":1265138337,"sourceRegion":"guangdong","featureType":"infrastructure","railClass":"highspeed","mode":"rail","name":"龙龙高速线","usage":"main","highspeed":"yes","status":"operational","color":"#E54848","dataOrigin":"datum-2026-08-01","sourceKey":"way:1265138337"}},{"type":"Feature","geometry":{"type":"LineString","coordinates":[[115.3209662,24.1147648],[115.3222476,24.1145526]]},"properties":{"key":"way:1265138338@detail:461_96","osmType":"way","osmId":1265138338,"sourceRegion":"guangdong","featureType":"infrastructure","railClass":"highspeed","mode":"rail","name":"龙龙高速线","usage":"main","highspeed":"yes","bridge":"yes","status":"operational","color":"#E54848","dataOrigin":"datum-2026-08-01","sourceKey":"way:1265138338"}},{"type":"Feature","geometry":{"type":"LineString","coordinates":[[115.3200659,24.1149219],[115.3209662,24.1147648]]},"properties":{"key":"way:1265138339@detail:461_96","osmType":"way","osmId":1265138339,"sourceRegion":"guangdong","featureType":"infrastructure","railClass":"highspeed","mode":"rail","name":"龙龙高速线","usage":"main","highspeed":"yes","tunnel":"yes","status":"operational","color":"#E54848","dataOrigin":"datum-2026-08-01","sourceKey":"way:1265138339"}},{"type":"Feature","geometry":{"type":"LineString","coordinates":[[115.3189819,24.1151014],[115.3200659,24.1149219]]},"properties":{"key":"way:1265138340@detail:461_96","osmType":"way","osmId":1265138340,"sourceRegion":"guangdong","featureType":"infrastructure","railClass":"highspeed","mode":"rail","name":"龙龙高速线","usage":"main","highspeed":"yes","status":"operational","color":"#E54848","dataOrigin":"datum-2026-08-01","sourceKey":"way:1265138340"}},{"type":"Feature","geometry":{"type":"LineString","coordinates":[[115.3147521,24.1156577],[115.3189819,24.1151014]]},"properties":{"key":"way:1265138341@detail:461_96","osmType":"way","osmId":1265138341,"sourceRegion":"guangdong","featureType":"infrastructure","railClass":"highspeed","mode":"rail","name":"龙龙高速线","usage":"main","highspeed":"yes","tunnel":"yes","status":"operational","color":"#E54848","dataOrigin":"datum-2026-08-01","sourceKey":"way:1265138341"}},{"type":"Feature","geometry":{"type":"LineString","coordinates":[[115.3139179,24.1157548],[115.3147521,24.1156577]]},"properties":{"key":"way:1265138342@detail:461_96","osmType":"way","osmId":1265138342,"sourceRegion":"guangdong","featureType":"infrastructure","railClass":"highspeed","mode":"rail","name":"龙龙高速线","usage":"main","highspeed":"yes","bridge":"yes","status":"operational","color":"#E54848","dataOrigin":"datum-2026-08-01","sourceKey":"way:1265138342"}},{"type":"Feature","geometry":{"type":"LineString","coordinates":[[115.3120514,24.1159913],[115.3139179,24.1157548]]},"properties":{"key":"way:1265138343@detail:461_96","osmType":"way","osmId":1265138343,"sourceRegion":"guangdong","featureType":"infrastructure","railClass":"highspeed","mode":"rail","name":"龙龙高速线","usage":"main","highspeed":"yes","status":"operational","color":"#E54848","dataOrigin":"datum-2026-08-01","sourceKey":"way:1265138343"}},{"type":"Feature","geometry":{"type":"LineString","coordinates":[[115.3100997,24.1162157],[115.3120514,24.1159913]]},"properties":{"key":"way:1265138344@detail:461_96","osmType":"way","osmId":1265138344,"sourceRegion":"guangdong","featureType":"infrastructure","railClass":"highspeed","mode":"rail","name":"龙龙高速线","usage":"main","highspeed":"yes","tunnel":"yes","status":"operational","color":"#E54848","dataOrigin":"datum-2026-08-01","sourceKey":"way:1265138344"}},{"type":"Feature","geometry":{"type":"LineString","coordinates":[[115.3051422,24.1168535],[115.3100997,24.1162157]]},"properties":{"key":"way:1265138345@detail:461_96","osmType":"way","osmId":1265138345,"sourceRegion":"guangdong","featureType":"infrastructure","railClass":"highspeed","mode":"rail","name":"龙龙高速线","usage":"main","highspeed":"yes","bridge":"yes","status":"operational","color":"#E54848","dataOrigin":"datum-2026-08-01","sourceKey":"way:1265138345"}},{"type":"Feature","geometry":{"type":"LineString","coordinates":[[115.3042439,24.1169662],[115.3051422,24.1168535]]},"properties":{"key":"way:1265138346@detail:461_96","osmType":"way","osmId":1265138346,"sourceRegion":"guangdong","featureType":"infrastructure","railClass":"highspeed","mode":"rail","name":"龙龙高速线","usage":"main","highspeed":"yes","status":"operational","color":"#E54848","dataOrigin":"datum-2026-08-01","sourceKey":"way:1265138346"}},{"type":"Feature","geometry":{"type":"LineString","coordinates":[[115.298566,24.1176447],[115.3042439,24.1169662]]},"properties":{"key":"way:1265138347@detail:461_96","osmType":"way","osmId":1265138347,"sourceRegion":"guangdong","featureType":"infrastructure","railClass":"highspeed","mode":"rail","name":"龙龙高速线","usage":"main","highspeed":"yes","bridge":"yes","status":"operational","color":"#E54848","dataOrigin":"datum-2026-08-01","sourceKey":"way:1265138347"}},{"type":"Feature","geometry":{"type":"LineString","coordinates":[[115.2979779,24.1177152],[115.298566,24.1176447]]},"properties":{"key":"way:1265138348@detail:461_96","osmType":"way","osmId":1265138348,"sourceRegion":"guangdong","featureType":"infrastructure","railClass":"highspeed","mode":"rail","name":"龙龙高速线","usage":"main","highspeed":"yes","status":"operational","color":"#E54848","dataOrigin":"datum-2026-08-01","sourceKey":"way:1265138348"}},{"type":"Feature","geometry":{"type":"LineString","coordinates":[[115.2958922,24.117979],[115.2979779,24.1177152]]},"properties":{"key":"way:1265138349@detail:461_96","osmType":"way","osmId":1265138349,"sourceRegion":"guangdong","featureType":"infrastructure","railClass":"highspeed","mode":"rail","name":"龙龙高速线","usage":"main","highspeed":"yes","bridge":"yes","status":"operational","color":"#E54848","dataOrigin":"datum-2026-08-01","sourceKey":"way:1265138349"}},{"type":"Feature","geometry":{"type":"LineString","coordinates":[[115.2937691,24.1182438],[115.2958922,24.117979]]},"properties":{"key":"way:1265138350@detail:461_96","osmType":"way","osmId":1265138350,"sourceRegion":"guangdong","featureType":"infrastructure","railClass":"highspeed","mode":"rail","name":"龙龙高速线","usage":"main","highspeed":"yes","tunnel":"yes","status":"operational","color":"#E54848","dataOrigin":"datum-2026-08-01","sourceKey":"way:1265138350"}},{"type":"Feature","geometry":{"type":"LineString","coordinates":[[115.2930107,24.1183494],[115.2937691,24.1182438]]},"properties":{"key":"way:1265138351@detail:461_96","osmType":"way","osmId":1265138351,"sourceRegion":"guangdong","featureType":"infrastructure","railClass":"highspeed","mode":"rail","name":"龙龙高速线","usage":"main","highspeed":"yes","status":"operational","color":"#E54848","dataOrigin":"datum-2026-08-01","sourceKey":"way:1265138351"}},{"type":"Feature","geometry":{"type":"LineString","coordinates":[[115.291603,24.1185337],[115.2930107,24.1183494]]},"properties":{"key":"way:1265138352@detail:461_96","osmType":"way","osmId":1265138352,"sourceRegion":"guangdong","featureType":"infrastructure","railClass":"highspeed","mode":"rail","name":"龙龙高速线","usage":"main","highspeed":"yes","bridge":"yes","status":"operational","color":"#E54848","dataOrigin":"datum-2026-08-01","sourceKey":"way:1265138352"}},{"type":"Feature","geometry":{"type":"LineString","coordinates":[[115.2909973,24.1186053],[115.291603,24.1185337]]},"properties":{"key":"way:1265138353@detail:461_96","osmType":"way","osmId":1265138353,"sourceRegion":"guangdong","featureType":"infrastructure","railClass":"highspeed","mode":"rail","name":"龙龙高速线","usage":"main","highspeed":"yes","status":"operational","color":"#E54848","dataOrigin":"datum-2026-08-01","sourceKey":"way:1265138353"}},{"type":"Feature","geometry":{"type":"LineString","coordinates":[[115.2883354,24.1189407],[115.2896421,24.1187735]]},"properties":{"key":"way:1265138354@detail:461_96","osmType":"way","osmId":1265138354,"sourceRegion":"guangdong","featureType":"infrastructure","railClass":"highspeed","mode":"rail","name":"龙龙高速线","usage":"main","highspeed":"yes","status":"operational","color":"#E54848","dataOrigin":"datum-2026-08-01","sourceKey":"way:1265138354"}},{"type":"Feature","geometry":{"type":"LineString","coordinates":[[115.3456257,24.1100777],[115.34939,24.1094126]]},"properties":{"key":"way:1265138355@detail:461_96","osmType":"way","osmId":1265138355,"sourceRegion":"guangdong","featureType":"infrastructure","railClass":"highspeed","mode":"rail","name":"龙龙高速线","usage":"main","highspeed":"yes","bridge":"yes","status":"operational","color":"#E54848","dataOrigin":"datum-2026-08-01","sourceKey":"way:1265138355"}},{"type":"Feature","geometry":{"type":"LineString","coordinates":[[115.34939,24.1094126],[115.3544078,24.1085261]]},"properties":{"key":"way:1265138356@detail:461_96","osmType":"way","osmId":1265138356,"sourceRegion":"guangdong","featureType":"infrastructure","railClass":"highspeed","mode":"rail","name":"龙龙高速线","usage":"main","highspeed":"yes","status":"operational","color":"#E54848","dataOrigin":"datum-2026-08-01","sourceKey":"way:1265138356"}},{"type":"Feature","geometry":{"type":"LineString","coordinates":[[115.343026,24.1106215],[115.3449679,24.1101939]]},"properties":{"key":"way:1265138357@detail:461_96","osmType":"way","osmId":1265138357,"sourceRegion":"guangdong","featureType":"infrastructure","railClass":"highspeed","mode":"rail","name":"龙龙高速线","usage":"main","highspeed":"yes","bridge":"yes","status":"operational","color":"#E54848","dataOrigin":"datum-2026-08-01","sourceKey":"way:1265138357"}},{"type":"Feature","geometry":{"type":"LineString","coordinates":[[115.3449679,24.1101939],[115.3456257,24.1100777]]},"properties":{"key":"way:1265138358@detail:461_96","osmType":"way","osmId":1265138358,"sourceRegion":"guangdong","featureType":"infrastructure","railClass":"highspeed","mode":"rail","name":"龙龙高速线","usage":"main","highspeed":"yes","status":"operational","color":"#E54848","dataOrigin":"datum-2026-08-01","sourceKey":"way:1265138358"}},{"type":"Feature","geometry":{"type":"LineString","coordinates":[[115.3544078,24.1085261],[115.3606656,24.1073995]]},"properties":{"key":"way:1265138359@detail:461_96","osmType":"way","osmId":1265138359,"sourceRegion":"guangdong","featureType":"infrastructure","railClass":"highspeed","mode":"rail","name":"龙龙高速线","usage":"main","highspeed":"yes","tunnel":"yes","status":"operational","color":"#E54848","dataOrigin":"datum-2026-08-01","sourceKey":"way:1265138359"}},{"type":"Feature","geometry":{"type":"LineString","coordinates":[[115.3606656,24.1073995],[115.3672417,24.1062653]]},"properties":{"key":"way:1265138360@detail:461_96","osmType":"way","osmId":1265138360,"sourceRegion":"guangdong","featureType":"infrastructure","railClass":"highspeed","mode":"rail","name":"龙龙高速线","usage":"main","highspeed":"yes","bridge":"yes","status":"operational","color":"#E54848","dataOrigin":"datum-2026-08-01","sourceKey":"way:1265138360"}},{"type":"Feature","geometry":{"type":"LineString","coordinates":[[115.3672417,24.1062653],[115.4390623,24.095644]]},"properties":{"key":"way:1265138361@detail:461_96","osmType":"way","osmId":1265138361,"sourceRegion":"guangdong","featureType":"infrastructure","railClass":"highspeed","mode":"rail","name":"龙龙高速线","usage":"main","highspeed":"yes","tunnel":"yes","status":"operational","color":"#E54848","dataOrigin":"datum-2026-08-01","sourceKey":"way:1265138361"}},{"type":"Feature","geometry":{"type":"LineString","coordinates":[[115.4390623,24.095644],[115.439823,24.0955349]]},"properties":{"key":"way:1265138362@detail:461_96","osmType":"way","osmId":1265138362,"sourceRegion":"guangdong","featureType":"infrastructure","railClass":"highspeed","mode":"rail","name":"龙龙高速线","usage":"main","highspeed":"yes","status":"operational","color":"#E54848","dataOrigin":"datum-2026-08-01","sourceKey":"way:1265138362"}},{"type":"Feature","geometry":{"type":"LineString","coordinates":[[115.439823,24.0955349],[115.4410582,24.0953579]]},"properties":{"key":"way:1265138363@detail:461_96","osmType":"way","osmId":1265138363,"sourceRegion":"guangdong","featureType":"infrastructure","railClass":"highspeed","mode":"rail","name":"龙龙高速线","usage":"main","highspeed":"yes","bridge":"yes","status":"operational","color":"#E54848","dataOrigin":"datum-2026-08-01","sourceKey":"way:1265138363"}},{"type":"Feature","geometry":{"type":"LineString","coordinates":[[115.4410582,24.0953579],[115.4430554,24.0950715]]},"properties":{"key":"way:1265138364@detail:461_96","osmType":"way","osmId":1265138364,"sourceRegion":"guangdong","featureType":"infrastructure","railClass":"highspeed","mode":"rail","name":"龙龙高速线","usage":"main","highspeed":"yes","status":"operational","color":"#E54848","dataOrigin":"datum-2026-08-01","sourceKey":"way:1265138364"}},{"type":"Feature","geometry":{"type":"LineString","coordinates":[[115.4430554,24.0950715],[115.4549663,24.0933639]]},"properties":{"key":"way:1265138365@detail:461_96","osmType":"way","osmId":1265138365,"sourceRegion":"guangdong","featureType":"infrastructure","railClass":"highspeed","mode":"rail","name":"龙龙高速线","usage":"main","highspeed":"yes","bridge":"yes","status":"operational","color":"#E54848","dataOrigin":"datum-2026-08-01","sourceKey":"way:1265138365"}},{"type":"Feature","geometry":{"type":"LineString","coordinates":[[115.4549663,24.0933639],[115.4615966,24.0922265]]},"properties":{"key":"way:1265138366@detail:461_96","osmType":"way","osmId":1265138366,"sourceRegion":"guangdong","featureType":"infrastructure","railClass":"highspeed","mode":"rail","name":"龙龙高速线","usage":"main","highspeed":"yes","tunnel":"yes","status":"operational","color":"#E54848","dataOrigin":"datum-2026-08-01","sourceKey":"way:1265138366"}},{"type":"Feature","geometry":{"type":"LineString","coordinates":[[115.4615966,24.0922265],[115.4632441,24.0918952]]},"properties":{"key":"way:1265138367@detail:461_96","osmType":"way","osmId":1265138367,"sourceRegion":"guangdong","featureType":"infrastructure","railClass":"highspeed","mode":"rail","name":"龙龙高速线","usage":"main","highspeed":"yes","bridge":"yes","status":"operational","color":"#E54848","dataOrigin":"datum-2026-08-01","sourceKey":"way:1265138367"}},{"type":"Feature","geometry":{"type":"LineString","coordinates":[[115.4632441,24.0918952],[115.4648725,24.0915357]]},"properties":{"key":"way:1265138368@detail:461_96","osmType":"way","osmId":1265138368,"sourceRegion":"guangdong","featureType":"infrastructure","railClass":"highspeed","mode":"rail","name":"龙龙高速线","usage":"main","highspeed":"yes","status":"operational","color":"#E54848","dataOrigin":"datum-2026-08-01","sourceKey":"way:1265138368"}},{"type":"Feature","geometry":{"type":"LineString","coordinates":[[115.4648725,24.0915357],[115.4660085,24.0912683],[115.4673968,24.0909098],[115.4687851,24.0905258]]},"properties":{"key":"way:1265138369@detail:461_96","osmType":"way","osmId":1265138369,"sourceRegion":"guangdong","featureType":"infrastructure","railClass":"highspeed","mode":"rail","name":"龙龙高速线","usage":"main","highspeed":"yes","bridge":"yes","status":"operational","color":"#E54848","dataOrigin":"datum-2026-08-01","sourceKey":"way:1265138369"}},{"type":"Feature","geometry":{"type":"LineString","coordinates":[[115.4687851,24.0905258],[115.4705757,24.0900048],[115.4723908,24.0894564],[115.4741974,24.0888692],[115.4758595,24.0882868],[115.4774095,24.0877022],[115.4788249,24.0871168],[115.4803081,24.0864851]]},"properties":{"key":"way:1265138370@detail:461_96","osmType":"way","osmId":1265138370,"sourceRegion":"guangdong","featureType":"infrastructure","railClass":"highspeed","mode":"rail","name":"龙龙高速线","usage":"main","highspeed":"yes","tunnel":"yes","status":"operational","color":"#E54848","dataOrigin":"datum-2026-08-01","sourceKey":"way:1265138370"}},{"type":"Feature","geometry":{"type":"LineString","coordinates":[[115.4803081,24.0864851],[115.4810142,24.0861704]]},"properties":{"key":"way:1265138371@detail:461_96","osmType":"way","osmId":1265138371,"sourceRegion":"guangdong","featureType":"infrastructure","railClass":"highspeed","mode":"rail","name":"龙龙高速线","usage":"main","highspeed":"yes","status":"operational","color":"#E54848","dataOrigin":"datum-2026-08-01","sourceKey":"way:1265138371"}},{"type":"Feature","geometry":{"type":"LineString","coordinates":[[115.4835994,24.0850246],[115.4891189,24.0825782]]},"properties":{"key":"way:1265138372@detail:461_96","osmType":"way","osmId":1265138372,"sourceRegion":"guangdong","featureType":"infrastructure","railClass":"highspeed","mode":"rail","name":"龙龙高速线","usage":"main","highspeed":"yes","bridge":"yes","status":"operational","color":"#E54848","dataOrigin":"datum-2026-08-01","sourceKey":"way:1265138372"}},{"type":"Feature","geometry":{"type":"LineString","coordinates":[[115.4810142,24.0861704],[115.4835994,24.0850246]]},"properties":{"key":"way:1265138373@detail:461_96","osmType":"way","osmId":1265138373,"sourceRegion":"guangdong","featureType":"infrastructure","railClass":"highspeed","mode":"rail","name":"龙龙高速线","usage":"main","highspeed":"yes","tunnel":"yes","status":"operational","color":"#E54848","dataOrigin":"datum-2026-08-01","sourceKey":"way:1265138373"}},{"type":"Feature","geometry":{"type":"LineString","coordinates":[[115.4891189,24.0825782],[115.4931727,24.0809643]]},"properties":{"key":"way:1265138374@detail:461_96","osmType":"way","osmId":1265138374,"sourceRegion":"guangdong","featureType":"infrastructure","railClass":"highspeed","mode":"rail","name":"龙龙高速线","usage":"main","highspeed":"yes","tunnel":"yes","status":"operational","color":"#E54848","dataOrigin":"datum-2026-08-01","sourceKey":"way:1265138374"}},{"type":"Feature","geometry":{"type":"LineString","coordinates":[[115.4931727,24.0809643],[115.4948737,24.0803505]]},"properties":{"key":"way:1265138375@detail:461_96","osmType":"way","osmId":1265138375,"sourceRegion":"guangdong","featureType":"infrastructure","railClass":"highspeed","mode":"rail","name":"龙龙高速线","usage":"main","highspeed":"yes","status":"operational","color":"#E54848","dataOrigin":"datum-2026-08-01","sourceKey":"way:1265138375"}},{"type":"Feature","geometry":{"type":"LineString","coordinates":[[115.4948737,24.0803505],[115.4962613,24.0798862],[115.4976443,24.0794738],[115.5,24.078821362203048]]},"properties":{"key":"way:1265138376@detail:461_96","osmType":"way","osmId":1265138376,"sourceRegion":"guangdong","featureType":"infrastructure","railClass":"highspeed","mode":"rail","name":"龙龙高速线","usage":"main","highspeed":"yes","bridge":"yes","status":"operational","color":"#E54848","dataOrigin":"datum-2026-08-01","sourceKey":"way:1265138376"}},{"type":"Feature","geometry":{"type":"LineString","coordinates":[[115.2786828,24.1198159],[115.2794193,24.1197644]]},"properties":{"key":"way:1302519201@detail:461_96","osmType":"way","osmId":1302519201,"sourceRegion":"guangdong","featureType":"infrastructure","railClass":"highspeed","mode":"rail","name":"龙龙高速线","usage":"main","highspeed":"yes","status":"operational","color":"#E54848","dataOrigin":"datum-2026-08-01","sourceKey":"way:1302519201"}},{"type":"Feature","geometry":{"type":"LineString","coordinates":[[115.4948544,24.0803043],[115.4962436,24.0798395],[115.497628,24.0794267],[115.5,24.078769735056675]]},"properties":{"key":"way:1311729222@detail:461_96","osmType":"way","osmId":1311729222,"sourceRegion":"guangdong","featureType":"infrastructure","railClass":"highspeed","mode":"rail","name":"龙龙高速线","usage":"main","highspeed":"yes","bridge":"yes","status":"operational","color":"#E54848","dataOrigin":"datum-2026-08-01","sourceKey":"way:1311729222"}},{"type":"Feature","geometry":{"type":"LineString","coordinates":[[115.3543974,24.1084776],[115.3606553,24.107351]]},"properties":{"key":"way:1311729223@detail:461_96","osmType":"way","osmId":1311729223,"sourceRegion":"guangdong","featureType":"infrastructure","railClass":"highspeed","mode":"rail","name":"龙龙高速线","usage":"main","highspeed":"yes","tunnel":"yes","status":"operational","color":"#E54848","dataOrigin":"datum-2026-08-01","sourceKey":"way:1311729223"}},{"type":"Feature","geometry":{"type":"LineString","coordinates":[[115.3301483,24.1130037],[115.3311168,24.1128215]]},"properties":{"key":"way:1311729226@detail:461_96","osmType":"way","osmId":1311729226,"sourceRegion":"guangdong","featureType":"infrastructure","railClass":"highspeed","mode":"rail","name":"龙龙高速线","usage":"main","highspeed":"yes","bridge":"yes","status":"operational","color":"#E54848","dataOrigin":"datum-2026-08-01","sourceKey":"way:1311729226"}},{"type":"Feature","geometry":{"type":"LineString","coordinates":[[115.4809905,24.086126],[115.4835758,24.0849801]]},"properties":{"key":"way:1311729234@detail:461_96","osmType":"way","osmId":1311729234,"sourceRegion":"guangdong","featureType":"infrastructure","railClass":"highspeed","mode":"rail","name":"龙龙高速线","usage":"main","highspeed":"yes","tunnel":"yes","status":"operational","color":"#E54848","dataOrigin":"datum-2026-08-01","sourceKey":"way:1311729234"}},{"type":"Feature","geometry":{"type":"LineString","coordinates":[[115.3493797,24.1093641],[115.3543974,24.1084776]]},"properties":{"key":"way:1311729235@detail:461_96","osmType":"way","osmId":1311729235,"sourceRegion":"guangdong","featureType":"infrastructure","railClass":"highspeed","mode":"rail","name":"龙龙高速线","usage":"main","highspeed":"yes","status":"operational","color":"#E54848","dataOrigin":"datum-2026-08-01","sourceKey":"way:1311729235"}},{"type":"Feature","geometry":{"type":"LineString","coordinates":[[115.4549571,24.0933152],[115.4615858,24.0921781]]},"properties":{"key":"way:1311729243@detail:461_96","osmType":"way","osmId":1311729243,"sourceRegion":"guangdong","featureType":"infrastructure","railClass":"highspeed","mode":"rail","name":"龙龙高速线","usage":"main","highspeed":"yes","tunnel":"yes","status":"operational","color":"#E54848","dataOrigin":"datum-2026-08-01","sourceKey":"way:1311729243"}},{"type":"Feature","geometry":{"type":"LineString","coordinates":[[115.468769,24.0904786],[115.470559,24.0899578],[115.4723732,24.0894097],[115.4741786,24.0888228],[115.4758395,24.0882409],[115.477388,24.0876568],[115.4788023,24.0870719],[115.4802848,24.0864405]]},"properties":{"key":"way:1311729245@detail:461_96","osmType":"way","osmId":1311729245,"sourceRegion":"guangdong","featureType":"infrastructure","railClass":"highspeed","mode":"rail","name":"龙龙高速线","usage":"main","highspeed":"yes","tunnel":"yes","status":"operational","color":"#E54848","dataOrigin":"datum-2026-08-01","sourceKey":"way:1311729245"}},{"type":"Feature","geometry":{"type":"LineString","coordinates":[[115.3189732,24.1150526],[115.320056,24.1148733]]},"properties":{"key":"way:1311729247@detail:461_96","osmType":"way","osmId":1311729247,"sourceRegion":"guangdong","featureType":"infrastructure","railClass":"highspeed","mode":"rail","name":"龙龙高速线","usage":"main","highspeed":"yes","status":"operational","color":"#E54848","dataOrigin":"datum-2026-08-01","sourceKey":"way:1311729247"}},{"type":"Feature","geometry":{"type":"LineString","coordinates":[[115.4398146,24.0954861],[115.4410498,24.0953091]]},"properties":{"key":"way:1311729255@detail:461_96","osmType":"way","osmId":1311729255,"sourceRegion":"guangdong","featureType":"infrastructure","railClass":"highspeed","mode":"rail","name":"龙龙高速线","usage":"main","highspeed":"yes","bridge":"yes","status":"operational","color":"#E54848","dataOrigin":"datum-2026-08-01","sourceKey":"way:1311729255"}},{"type":"Feature","geometry":{"type":"LineString","coordinates":[[115.3222376,24.1145041],[115.3231263,24.1143448]]},"properties":{"key":"way:1311729260@detail:461_96","osmType":"way","osmId":1311729260,"sourceRegion":"guangdong","featureType":"infrastructure","railClass":"highspeed","mode":"rail","name":"龙龙高速线","usage":"main","highspeed":"yes","status":"operational","color":"#E54848","dataOrigin":"datum-2026-08-01","sourceKey":"way:1311729260"}},{"type":"Feature","geometry":{"type":"LineString","coordinates":[[115.3606553,24.107351],[115.3672323,24.1062166]]},"properties":{"key":"way:1311729269@detail:461_96","osmType":"way","osmId":1311729269,"sourceRegion":"guangdong","featureType":"infrastructure","railClass":"highspeed","mode":"rail","name":"龙龙高速线","usage":"main","highspeed":"yes","bridge":"yes","status":"operational","color":"#E54848","dataOrigin":"datum-2026-08-01","sourceKey":"way:1311729269"}},{"type":"Feature","geometry":{"type":"LineString","coordinates":[[115.3276438,24.1134964],[115.3301483,24.1130037]]},"properties":{"key":"way:1311729275@detail:461_96","osmType":"way","osmId":1311729275,"sourceRegion":"guangdong","featureType":"infrastructure","railClass":"highspeed","mode":"rail","name":"龙龙高速线","usage":"main","highspeed":"yes","tunnel":"yes","status":"operational","color":"#E54848","dataOrigin":"datum-2026-08-01","sourceKey":"way:1311729275"}},{"type":"Feature","geometry":{"type":"LineString","coordinates":[[115.4890963,24.0825333],[115.4931519,24.0809187]]},"properties":{"key":"way:1311729282@detail:461_96","osmType":"way","osmId":1311729282,"sourceRegion":"guangdong","featureType":"infrastructure","railClass":"highspeed","mode":"rail","name":"龙龙高速线","usage":"main","highspeed":"yes","tunnel":"yes","status":"operational","color":"#E54848","dataOrigin":"datum-2026-08-01","sourceKey":"way:1311729282"}},{"type":"Feature","geometry":{"type":"LineString","coordinates":[[115.3430142,24.1105733],[115.3449564,24.1101456]]},"properties":{"key":"way:1311729283@detail:461_96","osmType":"way","osmId":1311729283,"sourceRegion":"guangdong","featureType":"infrastructure","railClass":"highspeed","mode":"rail","name":"龙龙高速线","usage":"main","highspeed":"yes","bridge":"yes","status":"operational","color":"#E54848","dataOrigin":"datum-2026-08-01","sourceKey":"way:1311729283"}},{"type":"Feature","geometry":{"type":"LineString","coordinates":[[115.4615858,24.0921781],[115.4632319,24.0918471]]},"properties":{"key":"way:1311729291@detail:461_96","osmType":"way","osmId":1311729291,"sourceRegion":"guangdong","featureType":"infrastructure","railClass":"highspeed","mode":"rail","name":"龙龙高速线","usage":"main","highspeed":"yes","bridge":"yes","status":"operational","color":"#E54848","dataOrigin":"datum-2026-08-01","sourceKey":"way:1311729291"}},{"type":"Feature","geometry":{"type":"LineString","coordinates":[[115.4802848,24.0864405],[115.4809905,24.086126]]},"properties":{"key":"way:1311729294@detail:461_96","osmType":"way","osmId":1311729294,"sourceRegion":"guangdong","featureType":"infrastructure","railClass":"highspeed","mode":"rail","name":"龙龙高速线","usage":"main","highspeed":"yes","status":"operational","color":"#E54848","dataOrigin":"datum-2026-08-01","sourceKey":"way:1311729294"}},{"type":"Feature","geometry":{"type":"LineString","coordinates":[[115.3147448,24.1156087],[115.3189732,24.1150526]]},"properties":{"key":"way:1311729296@detail:461_96","osmType":"way","osmId":1311729296,"sourceRegion":"guangdong","featureType":"infrastructure","railClass":"highspeed","mode":"rail","name":"龙龙高速线","usage":"main","highspeed":"yes","tunnel":"yes","status":"operational","color":"#E54848","dataOrigin":"datum-2026-08-01","sourceKey":"way:1311729296"}},{"type":"Feature","geometry":{"type":"LineString","coordinates":[[115.4410498,24.0953091],[115.443047,24.0950227]]},"properties":{"key":"way:1311729303@detail:461_96","osmType":"way","osmId":1311729303,"sourceRegion":"guangdong","featureType":"infrastructure","railClass":"highspeed","mode":"rail","name":"龙龙高速线","usage":"main","highspeed":"yes","status":"operational","color":"#E54848","dataOrigin":"datum-2026-08-01","sourceKey":"way:1311729303"}},{"type":"Feature","geometry":{"type":"LineString","coordinates":[[115.4632319,24.0918471],[115.4648594,24.0914878]]},"properties":{"key":"way:1311729306@detail:461_96","osmType":"way","osmId":1311729306,"sourceRegion":"guangdong","featureType":"infrastructure","railClass":"highspeed","mode":"rail","name":"龙龙高速线","usage":"main","highspeed":"yes","status":"operational","color":"#E54848","dataOrigin":"datum-2026-08-01","sourceKey":"way:1311729306"}},{"type":"Feature","geometry":{"type":"LineString","coordinates":[[115.3209563,24.1147162],[115.3222376,24.1145041]]},"properties":{"key":"way:1311729307@detail:461_96","osmType":"way","osmId":1311729307,"sourceRegion":"guangdong","featureType":"infrastructure","railClass":"highspeed","mode":"rail","name":"龙龙高速线","usage":"main","highspeed":"yes","bridge":"yes","status":"operational","color":"#E54848","dataOrigin":"datum-2026-08-01","sourceKey":"way:1311729307"}},{"type":"Feature","geometry":{"type":"LineString","coordinates":[[115.3672323,24.1062166],[115.4390538,24.0955952]]},"properties":{"key":"way:1311729316@detail:461_96","osmType":"way","osmId":1311729316,"sourceRegion":"guangdong","featureType":"infrastructure","railClass":"highspeed","mode":"rail","name":"龙龙高速线","usage":"main","highspeed":"yes","tunnel":"yes","status":"operational","color":"#E54848","dataOrigin":"datum-2026-08-01","sourceKey":"way:1311729316"}},{"type":"Feature","geometry":{"type":"LineString","coordinates":[[115.3264825,24.1137041],[115.3276438,24.1134964]]},"properties":{"key":"way:1311729320@detail:461_96","osmType":"way","osmId":1311729320,"sourceRegion":"guangdong","featureType":"infrastructure","railClass":"highspeed","mode":"rail","name":"龙龙高速线","usage":"main","highspeed":"yes","status":"operational","color":"#E54848","dataOrigin":"datum-2026-08-01","sourceKey":"way:1311729320"}},{"type":"Feature","geometry":{"type":"LineString","coordinates":[[115.4931519,24.0809187],[115.4948544,24.0803043]]},"properties":{"key":"way:1311729329@detail:461_96","osmType":"way","osmId":1311729329,"sourceRegion":"guangdong","featureType":"infrastructure","railClass":"highspeed","mode":"rail","name":"龙龙高速线","usage":"main","highspeed":"yes","status":"operational","color":"#E54848","dataOrigin":"datum-2026-08-01","sourceKey":"way:1311729329"}},{"type":"Feature","geometry":{"type":"LineString","coordinates":[[115.3449564,24.1101456],[115.3456154,24.1100292]]},"properties":{"key":"way:1311729330@detail:461_96","osmType":"way","osmId":1311729330,"sourceRegion":"guangdong","featureType":"infrastructure","railClass":"highspeed","mode":"rail","name":"龙龙高速线","usage":"main","highspeed":"yes","status":"operational","color":"#E54848","dataOrigin":"datum-2026-08-01","sourceKey":"way:1311729330"}},{"type":"Feature","geometry":{"type":"LineString","coordinates":[[115.3311168,24.1128215],[115.3430142,24.1105733]]},"properties":{"key":"way:1311729333@detail:461_96","osmType":"way","osmId":1311729333,"sourceRegion":"guangdong","featureType":"infrastructure","railClass":"highspeed","mode":"rail","name":"龙龙高速线","usage":"main","highspeed":"yes","tunnel":"yes","status":"operational","color":"#E54848","dataOrigin":"datum-2026-08-01","sourceKey":"way:1311729333"}},{"type":"Feature","geometry":{"type":"LineString","coordinates":[[115.4835758,24.0849801],[115.4890963,24.0825333]]},"properties":{"key":"way:1311729340@detail:461_96","osmType":"way","osmId":1311729340,"sourceRegion":"guangdong","featureType":"infrastructure","railClass":"highspeed","mode":"rail","name":"龙龙高速线","usage":"main","highspeed":"yes","bridge":"yes","status":"operational","color":"#E54848","dataOrigin":"datum-2026-08-01","sourceKey":"way:1311729340"}},{"type":"Feature","geometry":{"type":"LineString","coordinates":[[115.3456154,24.1100292],[115.3493797,24.1093641]]},"properties":{"key":"way:1311729341@detail:461_96","osmType":"way","osmId":1311729341,"sourceRegion":"guangdong","featureType":"infrastructure","railClass":"highspeed","mode":"rail","name":"龙龙高速线","usage":"main","highspeed":"yes","bridge":"yes","status":"operational","color":"#E54848","dataOrigin":"datum-2026-08-01","sourceKey":"way:1311729341"}},{"type":"Feature","geometry":{"type":"LineString","coordinates":[[115.443047,24.0950227],[115.4549571,24.0933152]]},"properties":{"key":"way:1311729350@detail:461_96","osmType":"way","osmId":1311729350,"sourceRegion":"guangdong","featureType":"infrastructure","railClass":"highspeed","mode":"rail","name":"龙龙高速线","usage":"main","highspeed":"yes","bridge":"yes","status":"operational","color":"#E54848","dataOrigin":"datum-2026-08-01","sourceKey":"way:1311729350"}},{"type":"Feature","geometry":{"type":"LineString","coordinates":[[115.4648594,24.0914878],[115.4659944,24.0912206],[115.4673816,24.0908624],[115.468769,24.0904786]]},"properties":{"key":"way:1311729352@detail:461_96","osmType":"way","osmId":1311729352,"sourceRegion":"guangdong","featureType":"infrastructure","railClass":"highspeed","mode":"rail","name":"龙龙高速线","usage":"main","highspeed":"yes","bridge":"yes","status":"operational","color":"#E54848","dataOrigin":"datum-2026-08-01","sourceKey":"way:1311729352"}},{"type":"Feature","geometry":{"type":"LineString","coordinates":[[115.320056,24.1148733],[115.3209563,24.1147162]]},"properties":{"key":"way:1311729354@detail:461_96","osmType":"way","osmId":1311729354,"sourceRegion":"guangdong","featureType":"infrastructure","railClass":"highspeed","mode":"rail","name":"龙龙高速线","usage":"main","highspeed":"yes","tunnel":"yes","status":"operational","color":"#E54848","dataOrigin":"datum-2026-08-01","sourceKey":"way:1311729354"}},{"type":"Feature","geometry":{"type":"LineString","coordinates":[[115.4390538,24.0955952],[115.4398146,24.0954861]]},"properties":{"key":"way:1311729363@detail:461_96","osmType":"way","osmId":1311729363,"sourceRegion":"guangdong","featureType":"infrastructure","railClass":"highspeed","mode":"rail","name":"龙龙高速线","usage":"main","highspeed":"yes","status":"operational","color":"#E54848","dataOrigin":"datum-2026-08-01","sourceKey":"way:1311729363"}},{"type":"Feature","geometry":{"type":"LineString","coordinates":[[115.3231263,24.1143448],[115.3264825,24.1137041]]},"properties":{"key":"way:1311729365@detail:461_96","osmType":"way","osmId":1311729365,"sourceRegion":"guangdong","featureType":"infrastructure","railClass":"highspeed","mode":"rail","name":"龙龙高速线","usage":"main","highspeed":"yes","bridge":"yes","status":"operational","color":"#E54848","dataOrigin":"datum-2026-08-01","sourceKey":"way:1311729365"}},{"type":"Feature","geometry":{"type":"LineString","coordinates":[[115.2695789,24.1205417],[115.2709615,24.1203354]]},"properties":{"key":"way:1311729369@detail:461_96","osmType":"way","osmId":1311729369,"sourceRegion":"guangdong","featureType":"infrastructure","railClass":"highspeed","mode":"rail","name":"龙龙高速线","usage":"main","highspeed":"yes","tunnel":"yes","status":"operational","color":"#E54848","dataOrigin":"datum-2026-08-01","sourceKey":"way:1311729369"}},{"type":"Feature","geometry":{"type":"LineString","coordinates":[[115.3042367,24.1169172],[115.3051347,24.1168046]]},"properties":{"key":"way:1311729370@detail:461_96","osmType":"way","osmId":1311729370,"sourceRegion":"guangdong","featureType":"infrastructure","railClass":"highspeed","mode":"rail","name":"龙龙高速线","usage":"main","highspeed":"yes","status":"operational","color":"#E54848","dataOrigin":"datum-2026-08-01","sourceKey":"way:1311729370"}},{"type":"Feature","geometry":{"type":"LineString","coordinates":[[115.2603035,24.1230417],[115.2618551,24.1225259]]},"properties":{"key":"way:1311729371@detail:461_96","osmType":"way","osmId":1311729371,"sourceRegion":"guangdong","featureType":"infrastructure","railClass":"highspeed","mode":"rail","name":"龙龙高速线","usage":"main","highspeed":"yes","bridge":"yes","status":"operational","color":"#E54848","dataOrigin":"datum-2026-08-01","sourceKey":"way:1311729371"}},{"type":"Feature","geometry":{"type":"LineString","coordinates":[[115.3120443,24.1159423],[115.3139108,24.1157058]]},"properties":{"key":"way:1311729372@detail:461_96","osmType":"way","osmId":1311729372,"sourceRegion":"guangdong","featureType":"infrastructure","railClass":"highspeed","mode":"rail","name":"龙龙高速线","usage":"main","highspeed":"yes","status":"operational","color":"#E54848","dataOrigin":"datum-2026-08-01","sourceKey":"way:1311729372"}},{"type":"Feature","geometry":{"type":"LineString","coordinates":[[115.285944,24.1191879],[115.288328,24.1188918]]},"properties":{"key":"way:1311729373@detail:461_96","osmType":"way","osmId":1311729373,"sourceRegion":"guangdong","featureType":"infrastructure","railClass":"highspeed","mode":"rail","name":"龙龙高速线","usage":"main","highspeed":"yes","bridge":"yes","status":"operational","color":"#E54848","dataOrigin":"datum-2026-08-01","sourceKey":"way:1311729373"}},{"type":"Feature","geometry":{"type":"LineString","coordinates":[[115.25,24.124684480612785],[115.251124,24.1246231],[115.2530081,24.1244937],[115.254917,24.1242849]]},"properties":{"key":"way:1311729374@detail:461_96","osmType":"way","osmId":1311729374,"sourceRegion":"guangdong","featureType":"infrastructure","railClass":"highspeed","mode":"rail","name":"龙龙高速线","usage":"main","highspeed":"yes","bridge":"yes","status":"operational","color":"#E54848","dataOrigin":"datum-2026-08-01","sourceKey":"way:1311729374"}},{"type":"Feature","geometry":{"type":"LineString","coordinates":[[115.2909902,24.1185563],[115.2915957,24.1184847]]},"properties":{"key":"way:1311729375@detail:461_96","osmType":"way","osmId":1311729375,"sourceRegion":"guangdong","featureType":"infrastructure","railClass":"highspeed","mode":"rail","name":"龙龙高速线","usage":"main","highspeed":"yes","status":"operational","color":"#E54848","dataOrigin":"datum-2026-08-01","sourceKey":"way:1311729375"}},{"type":"Feature","geometry":{"type":"LineString","coordinates":[[115.2767578,24.1198885],[115.2786789,24.1197666]]},"properties":{"key":"way:1311729376@detail:461_96","osmType":"way","osmId":1311729376,"sourceRegion":"guangdong","featureType":"infrastructure","railClass":"highspeed","mode":"rail","name":"龙龙高速线","usage":"main","highspeed":"yes","tunnel":"yes","status":"operational","color":"#E54848","dataOrigin":"datum-2026-08-01","sourceKey":"way:1311729376"}},{"type":"Feature","geometry":{"type":"LineString","coordinates":[[115.2937614,24.1181949],[115.2958848,24.1179301]]},"properties":{"key":"way:1311729377@detail:461_96","osmType":"way","osmId":1311729377,"sourceRegion":"guangdong","featureType":"infrastructure","railClass":"highspeed","mode":"rail","name":"龙龙高速线","usage":"main","highspeed":"yes","tunnel":"yes","status":"operational","color":"#E54848","dataOrigin":"datum-2026-08-01","sourceKey":"way:1311729377"}},{"type":"Feature","geometry":{"type":"LineString","coordinates":[[115.2786789,24.1197666],[115.2794152,24.1197151]]},"properties":{"key":"way:1311729378@detail:461_96","osmType":"way","osmId":1311729378,"sourceRegion":"guangdong","featureType":"infrastructure","railClass":"highspeed","mode":"rail","name":"龙龙高速线","usage":"main","highspeed":"yes","status":"operational","color":"#E54848","dataOrigin":"datum-2026-08-01","sourceKey":"way:1311729378"}},{"type":"Feature","geometry":{"type":"LineString","coordinates":[[115.2709615,24.1203354],[115.2717899,24.1202444]]},"properties":{"key":"way:1311729379@detail:461_96","osmType":"way","osmId":1311729379,"sourceRegion":"guangdong","featureType":"infrastructure","railClass":"highspeed","mode":"rail","name":"龙龙高速线","usage":"main","highspeed":"yes","status":"operational","color":"#E54848","dataOrigin":"datum-2026-08-01","sourceKey":"way:1311729379"}},{"type":"Feature","geometry":{"type":"LineString","coordinates":[[115.298559,24.1175957],[115.3042367,24.1169172]]},"properties":{"key":"way:1311729380@detail:461_96","osmType":"way","osmId":1311729380,"sourceRegion":"guangdong","featureType":"infrastructure","railClass":"highspeed","mode":"rail","name":"龙龙高速线","usage":"main","highspeed":"yes","bridge":"yes","status":"operational","color":"#E54848","dataOrigin":"datum-2026-08-01","sourceKey":"way:1311729380"}},{"type":"Feature","geometry":{"type":"LineString","coordinates":[[115.2618551,24.1225259],[115.2634825,24.1220088]]},"properties":{"key":"way:1311729381@detail:461_96","osmType":"way","osmId":1311729381,"sourceRegion":"guangdong","featureType":"infrastructure","railClass":"highspeed","mode":"rail","name":"龙龙高速线","usage":"main","highspeed":"yes","status":"operational","color":"#E54848","dataOrigin":"datum-2026-08-01","sourceKey":"way:1311729381"}},{"type":"Feature","geometry":{"type":"LineString","coordinates":[[115.3100925,24.1161667],[115.3120443,24.1159423]]},"properties":{"key":"way:1311729382@detail:461_96","osmType":"way","osmId":1311729382,"sourceRegion":"guangdong","featureType":"infrastructure","railClass":"highspeed","mode":"rail","name":"龙龙高速线","usage":"main","highspeed":"yes","tunnel":"yes","status":"operational","color":"#E54848","dataOrigin":"datum-2026-08-01","sourceKey":"way:1311729382"}},{"type":"Feature","geometry":{"type":"LineString","coordinates":[[115.2896347,24.1187246],[115.2909902,24.1185563]]},"properties":{"key":"way:1311729383@detail:461_96","osmType":"way","osmId":1311729383,"sourceRegion":"guangdong","featureType":"infrastructure","railClass":"highspeed","mode":"rail","name":"龙龙高速线","usage":"main","highspeed":"yes","bridge":"yes","status":"operational","color":"#E54848","dataOrigin":"datum-2026-08-01","sourceKey":"way:1311729383"}},{"type":"Feature","geometry":{"type":"LineString","coordinates":[[115.254917,24.1242849],[115.2561411,24.1240878],[115.2577455,24.1237414],[115.2593645,24.1233243]]},"properties":{"key":"way:1311729384@detail:461_96","osmType":"way","osmId":1311729384,"sourceRegion":"guangdong","featureType":"infrastructure","railClass":"highspeed","mode":"rail","name":"龙龙高速线","usage":"main","highspeed":"yes","tunnel":"yes","status":"operational","color":"#E54848","dataOrigin":"datum-2026-08-01","sourceKey":"way:1311729384"}},{"type":"Feature","geometry":{"type":"LineString","coordinates":[[115.288328,24.1188918],[115.2896347,24.1187246]]},"properties":{"key":"way:1311729385@detail:461_96","osmType":"way","osmId":1311729385,"sourceRegion":"guangdong","featureType":"infrastructure","railClass":"highspeed","mode":"rail","name":"龙龙高速线","usage":"main","highspeed":"yes","status":"operational","color":"#E54848","dataOrigin":"datum-2026-08-01","sourceKey":"way:1311729385"}},{"type":"Feature","geometry":{"type":"LineString","coordinates":[[115.2794152,24.1197151],[115.2835837,24.1194235]]},"properties":{"key":"way:1311729386@detail:461_96","osmType":"way","osmId":1311729386,"sourceRegion":"guangdong","featureType":"infrastructure","railClass":"highspeed","mode":"rail","name":"龙龙高速线","usage":"main","highspeed":"yes","bridge":"yes","status":"operational","color":"#E54848","dataOrigin":"datum-2026-08-01","sourceKey":"way:1311729386"}},{"type":"Feature","geometry":{"type":"LineString","coordinates":[[115.2930028,24.1183005],[115.2937614,24.1181949]]},"properties":{"key":"way:1311729388@detail:461_96","osmType":"way","osmId":1311729388,"sourceRegion":"guangdong","featureType":"infrastructure","railClass":"highspeed","mode":"rail","name":"龙龙高速线","usage":"main","highspeed":"yes","status":"operational","color":"#E54848","dataOrigin":"datum-2026-08-01","sourceKey":"way:1311729388"}},{"type":"Feature","geometry":{"type":"LineString","coordinates":[[115.2717899,24.1202444],[115.2732099,24.1201168]]},"properties":{"key":"way:1311729389@detail:461_96","osmType":"way","osmId":1311729389,"sourceRegion":"guangdong","featureType":"infrastructure","railClass":"highspeed","mode":"rail","name":"龙龙高速线","usage":"main","highspeed":"yes","tunnel":"yes","status":"operational","color":"#E54848","dataOrigin":"datum-2026-08-01","sourceKey":"way:1311729389"}},{"type":"Feature","geometry":{"type":"LineString","coordinates":[[115.2979707,24.1176662],[115.298559,24.1175957]]},"properties":{"key":"way:1311729390@detail:461_96","osmType":"way","osmId":1311729390,"sourceRegion":"guangdong","featureType":"infrastructure","railClass":"highspeed","mode":"rail","name":"龙龙高速线","usage":"main","highspeed":"yes","status":"operational","color":"#E54848","dataOrigin":"datum-2026-08-01","sourceKey":"way:1311729390"}},{"type":"Feature","geometry":{"type":"LineString","coordinates":[[115.2634825,24.1220088],[115.2648288,24.1216227],[115.2663379,24.1212141],[115.2680608,24.1208221],[115.2695789,24.1205417]]},"properties":{"key":"way:1311729392@detail:461_96","osmType":"way","osmId":1311729392,"sourceRegion":"guangdong","featureType":"infrastructure","railClass":"highspeed","mode":"rail","name":"龙龙高速线","usage":"main","highspeed":"yes","bridge":"yes","status":"operational","color":"#E54848","dataOrigin":"datum-2026-08-01","sourceKey":"way:1311729392"}},{"type":"Feature","geometry":{"type":"LineString","coordinates":[[115.3051347,24.1168046],[115.3100925,24.1161667]]},"properties":{"key":"way:1311729393@detail:461_96","osmType":"way","osmId":1311729393,"sourceRegion":"guangdong","featureType":"infrastructure","railClass":"highspeed","mode":"rail","name":"龙龙高速线","usage":"main","highspeed":"yes","bridge":"yes","status":"operational","color":"#E54848","dataOrigin":"datum-2026-08-01","sourceKey":"way:1311729393"}},{"type":"Feature","geometry":{"type":"LineString","coordinates":[[115.2593645,24.1233243],[115.2603035,24.1230417]]},"properties":{"key":"way:1311729394@detail:461_96","osmType":"way","osmId":1311729394,"sourceRegion":"guangdong","featureType":"infrastructure","railClass":"highspeed","mode":"rail","name":"龙龙高速线","usage":"main","highspeed":"yes","status":"operational","color":"#E54848","dataOrigin":"datum-2026-08-01","sourceKey":"way:1311729394"}},{"type":"Feature","geometry":{"type":"LineString","coordinates":[[115.3139108,24.1157058],[115.3147448,24.1156087]]},"properties":{"key":"way:1311729395@detail:461_96","osmType":"way","osmId":1311729395,"sourceRegion":"guangdong","featureType":"infrastructure","railClass":"highspeed","mode":"rail","name":"龙龙高速线","usage":"main","highspeed":"yes","bridge":"yes","status":"operational","color":"#E54848","dataOrigin":"datum-2026-08-01","sourceKey":"way:1311729395"}},{"type":"Feature","geometry":{"type":"LineString","coordinates":[[115.2835837,24.1194235],[115.285944,24.1191879]]},"properties":{"key":"way:1311729396@detail:461_96","osmType":"way","osmId":1311729396,"sourceRegion":"guangdong","featureType":"infrastructure","railClass":"highspeed","mode":"rail","name":"龙龙高速线","usage":"main","highspeed":"yes","status":"operational","color":"#E54848","dataOrigin":"datum-2026-08-01","sourceKey":"way:1311729396"}},{"type":"Feature","geometry":{"type":"LineString","coordinates":[[115.2915957,24.1184847],[115.2930028,24.1183005]]},"properties":{"key":"way:1311729398@detail:461_96","osmType":"way","osmId":1311729398,"sourceRegion":"guangdong","featureType":"infrastructure","railClass":"highspeed","mode":"rail","name":"龙龙高速线","usage":"main","highspeed":"yes","bridge":"yes","status":"operational","color":"#E54848","dataOrigin":"datum-2026-08-01","sourceKey":"way:1311729398"}},{"type":"Feature","geometry":{"type":"LineString","coordinates":[[115.2732099,24.1201168],[115.2767578,24.1198885]]},"properties":{"key":"way:1311729399@detail:461_96","osmType":"way","osmId":1311729399,"sourceRegion":"guangdong","featureType":"infrastructure","railClass":"highspeed","mode":"rail","name":"龙龙高速线","usage":"main","highspeed":"yes","bridge":"yes","status":"operational","color":"#E54848","dataOrigin":"datum-2026-08-01","sourceKey":"way:1311729399"}},{"type":"Feature","geometry":{"type":"LineString","coordinates":[[115.2958848,24.1179301],[115.2979707,24.1176662]]},"properties":{"key":"way:1311729400@detail:461_96","osmType":"way","osmId":1311729400,"sourceRegion":"guangdong","featureType":"infrastructure","railClass":"highspeed","mode":"rail","name":"龙龙高速线","usage":"main","highspeed":"yes","bridge":"yes","status":"operational","color":"#E54848","dataOrigin":"datum-2026-08-01","sourceKey":"way:1311729400"}},{"type":"Feature","geometry":{"type":"LineString","coordinates":[[115.2660697,24.1271193],[115.2663774,24.1274278],[115.2667653,24.1277403],[115.2670902,24.1279228]]},"properties":{"key":"way:1379647266@detail:461_96","osmType":"way","osmId":1379647266,"sourceRegion":"guangdong","featureType":"infrastructure","railClass":"national","mode":"rail","name":"漳龙线","ref":"0067","usage":"main","bridge":"yes","status":"operational","color":"#E54848","dataOrigin":"datum-2026-08-01","sourceKey":"way:1379647266"}},{"type":"Feature","geometry":{"type":"LineString","coordinates":[[115.2670902,24.1279228],[115.2675729,24.1281507]]},"properties":{"key":"way:1379647267@detail:461_96","osmType":"way","osmId":1379647267,"sourceRegion":"guangdong","featureType":"infrastructure","railClass":"national","mode":"rail","name":"漳龙线","ref":"0067","usage":"main","status":"operational","color":"#E54848","dataOrigin":"datum-2026-08-01","sourceKey":"way:1379647267"}},{"type":"Feature","geometry":{"type":"LineString","coordinates":[[115.3362504,24.1601677],[115.3360066,24.1605638],[115.3338149,24.1634389]]},"properties":{"key":"way:1455370127@detail:461_96","osmType":"way","osmId":1455370127,"sourceRegion":"guangdong","featureType":"infrastructure","railClass":"national","mode":"rail","name":"漳龙线","ref":"0067","usage":"main","status":"operational","color":"#E54848","dataOrigin":"datum-2026-08-01","sourceKey":"way:1455370127"}},{"type":"Feature","geometry":{"type":"LineString","coordinates":[[115.3338149,24.1634389],[115.333484,24.1639337]]},"properties":{"key":"way:1455370128@detail:461_96","osmType":"way","osmId":1455370128,"sourceRegion":"guangdong","featureType":"infrastructure","railClass":"national","mode":"rail","name":"漳龙线","ref":"0067","usage":"main","bridge":"yes","status":"operational","color":"#E54848","dataOrigin":"datum-2026-08-01","sourceKey":"way:1455370128"}},{"type":"Feature","geometry":{"type":"LineString","coordinates":[[115.35931,24.193428],[115.366143,24.192378],[115.3671678,24.1922992],[115.3680595,24.1923326],[115.3688288,24.1924483],[115.3696481,24.1926768],[115.3706011,24.1929824]]},"properties":{"key":"way:1455370138@detail:461_96","osmType":"way","osmId":1455370138,"sourceRegion":"guangdong","featureType":"infrastructure","railClass":"national","mode":"rail","name":"漳龙线","ref":"0067","usage":"main","status":"operational","color":"#E54848","dataOrigin":"datum-2026-08-01","sourceKey":"way:1455370138"}},{"type":"Feature","geometry":{"type":"LineString","coordinates":[[115.358358,24.1935422],[115.35931,24.193428]]},"properties":{"key":"way:1455370139@detail:461_96","osmType":"way","osmId":1455370139,"sourceRegion":"guangdong","featureType":"infrastructure","railClass":"national","mode":"rail","name":"漳龙线","ref":"0067","usage":"main","bridge":"yes","status":"operational","color":"#E54848","dataOrigin":"datum-2026-08-01","sourceKey":"way:1455370139"}},{"type":"Feature","geometry":{"type":"LineString","coordinates":[[115.371143,24.1931463],[115.3736352,24.1938676]]},"properties":{"key":"way:1455370144@detail:461_96","osmType":"way","osmId":1455370144,"sourceRegion":"guangdong","featureType":"infrastructure","railClass":"national","mode":"rail","name":"漳龙线","ref":"0067","usage":"main","status":"operational","color":"#E54848","dataOrigin":"datum-2026-08-01","sourceKey":"way:1455370144"}},{"type":"Feature","geometry":{"type":"LineString","coordinates":[[115.3706011,24.1929824],[115.371143,24.1931463]]},"properties":{"key":"way:1455370145@detail:461_96","osmType":"way","osmId":1455370145,"sourceRegion":"guangdong","featureType":"infrastructure","railClass":"national","mode":"rail","name":"漳龙线","ref":"0067","usage":"main","bridge":"yes","status":"operational","color":"#E54848","dataOrigin":"datum-2026-08-01","sourceKey":"way:1455370145"}}]}