{"type":"FeatureCollection","features":[{"type":"Feature","geometry":{"type":"Point","coordinates":[115.6204491,24.0738452]},"properties":{"key":"node:1619080437","osmType":"node","osmId":1619080437,"sourceRegion":"guangdong","featureType":"station","railClass":"minor","mode":"station","name":"华城","nameEn":"Huacheng","status":"operational","color":"#52636F","dataOrigin":"datum-2026-08-01","sourceKey":"node:1619080437","stationGroup":"华城","hasOperationalRail":true,"hasConstructionRail":false}},{"type":"Feature","geometry":{"type":"Point","coordinates":[115.723968,24.104849]},"properties":{"key":"node:1619080445","osmType":"node","osmId":1619080445,"sourceRegion":"guangdong","featureType":"station","railClass":"minor","mode":"station","name":"兴宁","nameEn":"Xingning","status":"operational","color":"#52636F","dataOrigin":"datum-2026-08-01","sourceKey":"node:1619080445","stationGroup":"兴宁","hasOperationalRail":true,"hasConstructionRail":false}},{"type":"Feature","geometry":{"type":"Point","coordinates":[115.6814432,24.1167729]},"properties":{"key":"node:9980091031","osmType":"node","osmId":9980091031,"sourceRegion":"guangdong","featureType":"station","railClass":"minor","mode":"station","name":"兴宁西","status":"operational","color":"#52636F","dataOrigin":"datum-2026-08-01","sourceKey":"node:9980091031","stationGroup":"兴宁西","hasOperationalRail":true,"hasConstructionRail":false}},{"type":"Feature","geometry":{"type":"Point","coordinates":[115.6276444,24.0595027]},"properties":{"key":"node:9992012168","osmType":"node","osmId":9992012168,"sourceRegion":"guangdong","featureType":"station","railClass":"highspeed","mode":"station","name":"五华","usage":"main","highspeed":"yes","status":"operational","color":"#E54848","dataOrigin":"datum-2026-08-01","sourceKey":"node:9992012168","stationGroup":"五华","hasOperationalRail":true,"hasConstructionRail":false}},{"type":"Feature","geometry":{"type":"LineString","coordinates":[[115.6707802,24.1245376],[115.671876,24.1245452],[115.6729259,24.124373],[115.673786,24.12406],[115.674781,24.123513],[115.675669,24.122798],[115.676723,24.121628],[115.6836489,24.1136209],[115.6842994,24.1129299],[115.686354,24.110495],[115.68684,24.110033],[115.687378,24.109616],[115.6880351,24.109257],[115.688806,24.108896],[115.689474,24.108703],[115.690168,24.108584],[115.690878,24.108528],[115.691581,24.10855],[115.71226,24.111031],[115.713129,24.111043],[115.714243,24.110896],[115.714966,24.11068],[115.715585,24.110414],[115.7159969,24.1102004],[115.7164227,24.1099127],[115.719546,24.107381],[115.723071,24.104633],[115.723918,24.104041],[115.72619,24.102058],[115.728451,24.100311],[115.731066,24.098165],[115.738939,24.091938],[115.7473555,24.0852565],[115.7498621,24.0829072],[115.75,24.082795548890093]]},"properties":{"key":"way:148846653@detail:462_96","osmType":"way","osmId":148846653,"sourceRegion":"guangdong","featureType":"infrastructure","railClass":"national","mode":"rail","name":"漳龙线","ref":"0067","usage":"main","status":"operational","color":"#E54848","dataOrigin":"datum-2026-08-01","sourceKey":"way:148846653"}},{"type":"Feature","geometry":{"type":"LineString","coordinates":[[115.605835,24.072469],[115.606448,24.071799],[115.606828,24.071518],[115.607866,24.070955],[115.608785,24.070698],[115.609251,24.070626],[115.609966,24.070595],[115.610673,24.070658],[115.611131,24.070758],[115.612008,24.071054],[115.6127659,24.0714811]]},"properties":{"key":"way:239329874@detail:462_96","osmType":"way","osmId":239329874,"sourceRegion":"guangdong","featureType":"infrastructure","railClass":"national","mode":"rail","name":"漳龙线","ref":"0067","usage":"main","bridge":"yes","status":"operational","color":"#E54848","dataOrigin":"datum-2026-08-01","sourceKey":"way:239329874"}},{"type":"Feature","geometry":{"type":"LineString","coordinates":[[115.588573,24.085476],[115.589321,24.085241],[115.590231,24.084818],[115.591213,24.084126],[115.59291,24.082451],[115.594178,24.081105],[115.59468,24.080631],[115.59524,24.080208],[115.596276,24.079624],[115.60036,24.077761],[115.601616,24.077146],[115.602621,24.076571],[115.603154,24.076124],[115.603796,24.075463],[115.604214,24.074923],[115.605835,24.072469]]},"properties":{"key":"way:239329877@detail:462_96","osmType":"way","osmId":239329877,"sourceRegion":"guangdong","featureType":"infrastructure","railClass":"national","mode":"rail","name":"漳龙线","ref":"0067","usage":"main","status":"operational","color":"#E54848","dataOrigin":"datum-2026-08-01","sourceKey":"way:239329877"}},{"type":"Feature","geometry":{"type":"LineString","coordinates":[[115.6274257,24.0757516],[115.6287868,24.0760445]]},"properties":{"key":"way:239329883@detail:462_96","osmType":"way","osmId":239329883,"sourceRegion":"guangdong","featureType":"infrastructure","railClass":"national","mode":"rail","name":"漳龙线","ref":"0067","usage":"main","bridge":"yes","status":"operational","color":"#E54848","dataOrigin":"datum-2026-08-01","sourceKey":"way:239329883"}},{"type":"Feature","geometry":{"type":"LineString","coordinates":[[115.5797725,24.0870635],[115.5804579,24.086688]]},"properties":{"key":"way:239329890@detail:462_96","osmType":"way","osmId":239329890,"sourceRegion":"guangdong","featureType":"infrastructure","railClass":"national","mode":"rail","name":"漳龙线","ref":"0067","usage":"main","bridge":"yes","status":"operational","color":"#E54848","dataOrigin":"datum-2026-08-01","sourceKey":"way:239329890"}},{"type":"Feature","geometry":{"type":"LineString","coordinates":[[115.5873254,24.0856653],[115.588573,24.085476]]},"properties":{"key":"way:239329892@detail:462_96","osmType":"way","osmId":239329892,"sourceRegion":"guangdong","featureType":"infrastructure","railClass":"national","mode":"rail","name":"漳龙线","ref":"0067","usage":"main","bridge":"yes","status":"operational","color":"#E54848","dataOrigin":"datum-2026-08-01","sourceKey":"way:239329892"}},{"type":"Feature","geometry":{"type":"LineString","coordinates":[[115.641552,24.0946299],[115.641554,24.094806],[115.641503,24.095373],[115.640858,24.099434],[115.640796,24.100715],[115.640896,24.101416],[115.641173,24.102276],[115.641411,24.102764],[115.641945,24.103513],[115.642583,24.104193],[115.643304,24.104756],[115.64413,24.105216],[115.645985,24.106118],[115.646678,24.106341],[115.647213,24.106451],[115.6499198,24.1066984]]},"properties":{"key":"way:239329904@detail:462_96","osmType":"way","osmId":239329904,"sourceRegion":"guangdong","featureType":"infrastructure","railClass":"national","mode":"rail","name":"漳龙线","ref":"0067","usage":"main","status":"operational","color":"#E54848","dataOrigin":"datum-2026-08-01","sourceKey":"way:239329904"}},{"type":"Feature","geometry":{"type":"LineString","coordinates":[[115.6127659,24.0714811],[115.616088,24.073071],[115.617135,24.073483],[115.618893,24.073915],[115.6274257,24.0757516]]},"properties":{"key":"way:239329906@detail:462_96","osmType":"way","osmId":239329906,"sourceRegion":"guangdong","featureType":"infrastructure","railClass":"national","mode":"rail","name":"漳龙线","ref":"0067","usage":"main","status":"operational","color":"#E54848","dataOrigin":"datum-2026-08-01","sourceKey":"way:239329906"}},{"type":"Feature","geometry":{"type":"LineString","coordinates":[[115.5804579,24.086688],[115.5813106,24.0862045],[115.582124,24.0858858],[115.5828346,24.085699],[115.583815,24.0855774],[115.586736,24.085625],[115.5873254,24.0856653]]},"properties":{"key":"way:239329912@detail:462_96","osmType":"way","osmId":239329912,"sourceRegion":"guangdong","featureType":"infrastructure","railClass":"national","mode":"rail","name":"漳龙线","ref":"0067","usage":"main","status":"operational","color":"#E54848","dataOrigin":"datum-2026-08-01","sourceKey":"way:239329912"}},{"type":"Feature","geometry":{"type":"LineString","coordinates":[[115.6758428,24.1228503],[115.6755646,24.1234151],[115.6752385,24.1239054],[115.6750993,24.1244176],[115.6751041,24.1248685],[115.6752145,24.1252581],[115.6754063,24.1256127],[115.6757757,24.1259848],[115.6760587,24.1261905],[115.6782652,24.1274163]]},"properties":{"key":"way:305078923@detail:462_96","osmType":"way","osmId":305078923,"sourceRegion":"guangdong","featureType":"infrastructure","railClass":"minor","mode":"rail","name":"未命名","service":"spur","status":"operational","color":"#52636F","dataOrigin":"datum-2026-08-01","sourceKey":"way:305078923"}},{"type":"Feature","geometry":{"type":"LineString","coordinates":[[115.6749507,24.1240892],[115.6747348,24.1246189],[115.6746293,24.1253631],[115.6745094,24.1257659],[115.6737611,24.1268253]]},"properties":{"key":"way:305078924@detail:462_96","osmType":"way","osmId":305078924,"sourceRegion":"guangdong","featureType":"infrastructure","railClass":"minor","mode":"rail","name":"未命名","service":"spur","status":"operational","color":"#52636F","dataOrigin":"datum-2026-08-01","sourceKey":"way:305078924"}},{"type":"Feature","geometry":{"type":"LineString","coordinates":[[115.6842994,24.1129299],[115.6839348,24.1134465],[115.680721,24.1171284],[115.6782891,24.1199172],[115.6758428,24.1228503],[115.6749507,24.1240892],[115.6741208,24.1250261],[115.6727442,24.1270048]]},"properties":{"key":"way:305078925@detail:462_96","osmType":"way","osmId":305078925,"sourceRegion":"guangdong","featureType":"infrastructure","railClass":"minor","mode":"rail","name":"未命名","service":"spur","status":"operational","color":"#52636F","dataOrigin":"datum-2026-08-01","sourceKey":"way:305078925"}},{"type":"Feature","geometry":{"type":"LineString","coordinates":[[115.5006768,24.1671559],[115.5,24.166867577862718]]},"properties":{"key":"way:339406736@detail:462_96","osmType":"way","osmId":339406736,"sourceRegion":"guangdong","featureType":"infrastructure","railClass":"minor","mode":"abandoned","name":"未命名","status":"operational","color":"#52636F","dataOrigin":"datum-2026-08-01","sourceKey":"way:339406736"}},{"type":"Feature","geometry":{"type":"LineString","coordinates":[[115.5060965,24.1703846],[115.5057478,24.1703259],[115.5052489,24.1701448],[115.5048358,24.1699246],[115.5045515,24.1697288],[115.5037951,24.1690779],[115.5032346,24.1685863]]},"properties":{"key":"way:339406737@detail:462_96","osmType":"way","osmId":339406737,"sourceRegion":"guangdong","featureType":"infrastructure","railClass":"minor","mode":"razed","name":"未命名","status":"operational","color":"#52636F","dataOrigin":"datum-2026-08-01","sourceKey":"way:339406737"}},{"type":"Feature","geometry":{"type":"LineString","coordinates":[[115.501334,24.1673152],[115.5009181,24.1672215],[115.5006768,24.1671559]]},"properties":{"key":"way:339406739@detail:462_96","osmType":"way","osmId":339406739,"sourceRegion":"guangdong","featureType":"infrastructure","railClass":"minor","mode":"abandoned","name":"未命名","bridge":"yes","status":"operational","color":"#52636F","dataOrigin":"datum-2026-08-01","sourceKey":"way:339406739"}},{"type":"Feature","geometry":{"type":"LineString","coordinates":[[115.5614972,24.0902391],[115.562088,24.090289],[115.5627466,24.0902892],[115.56335,24.090239],[115.564196,24.090106],[115.564835,24.089956],[115.568921,24.088606],[115.569983,24.088364],[115.571298,24.088303],[115.5746839,24.0884984]]},"properties":{"key":"way:339410547@detail:462_96","osmType":"way","osmId":339410547,"sourceRegion":"guangdong","featureType":"infrastructure","railClass":"national","mode":"rail","name":"漳龙线","ref":"0067","usage":"main","status":"operational","color":"#E54848","dataOrigin":"datum-2026-08-01","sourceKey":"way:339410547"}},{"type":"Feature","geometry":{"type":"LineString","coordinates":[[115.54107,24.0907249],[115.5419828,24.090983]]},"properties":{"key":"way:339410548@detail:462_96","osmType":"way","osmId":339410548,"sourceRegion":"guangdong","featureType":"infrastructure","railClass":"national","mode":"rail","name":"漳龙线","ref":"0067","usage":"main","status":"operational","color":"#E54848","dataOrigin":"datum-2026-08-01","sourceKey":"way:339410548"}},{"type":"Feature","geometry":{"type":"LineString","coordinates":[[115.5440893,24.0913326],[115.545184,24.0914674]]},"properties":{"key":"way:339410551@detail:462_96","osmType":"way","osmId":339410551,"sourceRegion":"guangdong","featureType":"infrastructure","railClass":"national","mode":"rail","name":"漳龙线","ref":"0067","usage":"main","tunnel":"yes","status":"operational","color":"#E54848","dataOrigin":"datum-2026-08-01","sourceKey":"way:339410551"}},{"type":"Feature","geometry":{"type":"LineString","coordinates":[[115.5419828,24.090983],[115.5434319,24.0912199]]},"properties":{"key":"way:339410552@detail:462_96","osmType":"way","osmId":339410552,"sourceRegion":"guangdong","featureType":"infrastructure","railClass":"national","mode":"rail","name":"漳龙线","ref":"0067","usage":"main","tunnel":"yes","status":"operational","color":"#E54848","dataOrigin":"datum-2026-08-01","sourceKey":"way:339410552"}},{"type":"Feature","geometry":{"type":"LineString","coordinates":[[115.5434319,24.0912199],[115.5440893,24.0913326]]},"properties":{"key":"way:339410553@detail:462_96","osmType":"way","osmId":339410553,"sourceRegion":"guangdong","featureType":"infrastructure","railClass":"national","mode":"rail","name":"漳龙线","ref":"0067","usage":"main","status":"operational","color":"#E54848","dataOrigin":"datum-2026-08-01","sourceKey":"way:339410553"}},{"type":"Feature","geometry":{"type":"LineString","coordinates":[[115.545184,24.0914674],[115.547567,24.0917391]]},"properties":{"key":"way:339410554@detail:462_96","osmType":"way","osmId":339410554,"sourceRegion":"guangdong","featureType":"infrastructure","railClass":"national","mode":"rail","name":"漳龙线","ref":"0067","usage":"main","status":"operational","color":"#E54848","dataOrigin":"datum-2026-08-01","sourceKey":"way:339410554"}},{"type":"Feature","geometry":{"type":"LineString","coordinates":[[115.5746839,24.0884984],[115.5764338,24.0884645]]},"properties":{"key":"way:339410555@detail:462_96","osmType":"way","osmId":339410555,"sourceRegion":"guangdong","featureType":"infrastructure","railClass":"national","mode":"rail","name":"漳龙线","ref":"0067","usage":"main","tunnel":"yes","status":"operational","color":"#E54848","dataOrigin":"datum-2026-08-01","sourceKey":"way:339410555"}},{"type":"Feature","geometry":{"type":"LineString","coordinates":[[115.535734,24.0868845],[115.5369825,24.0878764]]},"properties":{"key":"way:339410556@detail:462_96","osmType":"way","osmId":339410556,"sourceRegion":"guangdong","featureType":"infrastructure","railClass":"national","mode":"rail","name":"漳龙线","ref":"0067","usage":"main","bridge":"yes","status":"operational","color":"#E54848","dataOrigin":"datum-2026-08-01","sourceKey":"way:339410556"}},{"type":"Feature","geometry":{"type":"LineString","coordinates":[[115.547567,24.0917391],[115.548782,24.0917467],[115.5500044,24.0915923]]},"properties":{"key":"way:339410557@detail:462_96","osmType":"way","osmId":339410557,"sourceRegion":"guangdong","featureType":"infrastructure","railClass":"national","mode":"rail","name":"漳龙线","ref":"0067","usage":"main","tunnel":"yes","status":"operational","color":"#E54848","dataOrigin":"datum-2026-08-01","sourceKey":"way:339410557"}},{"type":"Feature","geometry":{"type":"LineString","coordinates":[[115.5400065,24.0902726],[115.54107,24.0907249]]},"properties":{"key":"way:339410558@detail:462_96","osmType":"way","osmId":339410558,"sourceRegion":"guangdong","featureType":"infrastructure","railClass":"national","mode":"rail","name":"漳龙线","ref":"0067","usage":"main","bridge":"yes","status":"operational","color":"#E54848","dataOrigin":"datum-2026-08-01","sourceKey":"way:339410558"}},{"type":"Feature","geometry":{"type":"LineString","coordinates":[[115.5369825,24.0878764],[115.5389789,24.0896399],[115.5393999,24.0899289],[115.5400065,24.0902726]]},"properties":{"key":"way:339410559@detail:462_96","osmType":"way","osmId":339410559,"sourceRegion":"guangdong","featureType":"infrastructure","railClass":"national","mode":"rail","name":"漳龙线","ref":"0067","usage":"main","status":"operational","color":"#E54848","dataOrigin":"datum-2026-08-01","sourceKey":"way:339410559"}},{"type":"Feature","geometry":{"type":"LineString","coordinates":[[115.5764338,24.0884645],[115.5775227,24.0881994],[115.578253,24.087845],[115.5797725,24.0870635]]},"properties":{"key":"way:339410560@detail:462_96","osmType":"way","osmId":339410560,"sourceRegion":"guangdong","featureType":"infrastructure","railClass":"national","mode":"rail","name":"漳龙线","ref":"0067","usage":"main","status":"operational","color":"#E54848","dataOrigin":"datum-2026-08-01","sourceKey":"way:339410560"}},{"type":"Feature","geometry":{"type":"LineString","coordinates":[[115.5032346,24.1685863],[115.5022716,24.1677418],[115.5017754,24.167467],[115.501334,24.1673152]]},"properties":{"key":"way:893648471@detail:462_96","osmType":"way","osmId":893648471,"sourceRegion":"guangdong","featureType":"infrastructure","railClass":"minor","mode":"abandoned","name":"未命名","status":"operational","color":"#52636F","dataOrigin":"datum-2026-08-01","sourceKey":"way:893648471"}},{"type":"Feature","geometry":{"type":"LineString","coordinates":[[115.75,24.081402073459447],[115.7498075,24.0812826]]},"properties":{"key":"way:1026092733@detail:462_96","osmType":"way","osmId":1026092733,"sourceRegion":"guangdong","featureType":"infrastructure","railClass":"highspeed","mode":"rail","name":"龙龙高速线","usage":"main","highspeed":"yes","bridge":"yes","status":"operational","color":"#E54848","dataOrigin":"datum-2026-08-01","sourceKey":"way:1026092733"}},{"type":"Feature","geometry":{"type":"LineString","coordinates":[[115.5932045,24.0615839],[115.6014767,24.0601779]]},"properties":{"key":"way:1090900736@detail:462_96","osmType":"way","osmId":1090900736,"sourceRegion":"guangdong","featureType":"infrastructure","railClass":"highspeed","mode":"rail","name":"龙龙高速线","usage":"main","highspeed":"yes","status":"operational","color":"#E54848","dataOrigin":"datum-2026-08-01","sourceKey":"way:1090900736"}},{"type":"Feature","geometry":{"type":"LineString","coordinates":[[115.5247939,24.0828931],[115.5252833,24.0829778],[115.525998,24.083201],[115.528054,24.083778],[115.532014,24.085018],[115.5327618,24.0852687]]},"properties":{"key":"way:1104238169@detail:462_96","osmType":"way","osmId":1104238169,"sourceRegion":"guangdong","featureType":"infrastructure","railClass":"national","mode":"rail","name":"漳龙线","ref":"0067","usage":"main","status":"operational","color":"#E54848","dataOrigin":"datum-2026-08-01","sourceKey":"way:1104238169"}},{"type":"Feature","geometry":{"type":"LineString","coordinates":[[115.522196,24.082918],[115.5247939,24.0828931]]},"properties":{"key":"way:1104238170@detail:462_96","osmType":"way","osmId":1104238170,"sourceRegion":"guangdong","featureType":"infrastructure","railClass":"national","mode":"rail","name":"漳龙线","ref":"0067","usage":"main","tunnel":"yes","status":"operational","color":"#E54848","dataOrigin":"datum-2026-08-01","sourceKey":"way:1104238170"}},{"type":"Feature","geometry":{"type":"LineString","coordinates":[[115.6762373,24.0667604],[115.6789343,24.0674844],[115.680763,24.0679485],[115.6828225,24.0684123],[115.6846509,24.0688008]]},"properties":{"key":"way:1115807135@detail:462_96","osmType":"way","osmId":1115807135,"sourceRegion":"guangdong","featureType":"infrastructure","railClass":"highspeed","mode":"rail","name":"龙龙高速线","usage":"main","highspeed":"yes","bridge":"yes","status":"operational","color":"#E54848","dataOrigin":"datum-2026-08-01","sourceKey":"way:1115807135"}},{"type":"Feature","geometry":{"type":"LineString","coordinates":[[115.6329611,24.0599223],[115.6416477,24.0602093],[115.6469037,24.0604818],[115.6496921,24.0607162],[115.6525272,24.0610183],[115.6545321,24.0613061],[115.656902,24.0617398]]},"properties":{"key":"way:1115807136@detail:462_96","osmType":"way","osmId":1115807136,"sourceRegion":"guangdong","featureType":"infrastructure","railClass":"highspeed","mode":"rail","name":"龙龙高速线","usage":"main","highspeed":"yes","tunnel":"yes","status":"operational","color":"#E54848","dataOrigin":"datum-2026-08-01","sourceKey":"way:1115807136"}},{"type":"Feature","geometry":{"type":"LineString","coordinates":[[115.6049804,24.059733],[115.6069059,24.0595286],[115.6086712,24.0594069],[115.6102883,24.0593551],[115.6124088,24.0593467],[115.6247856,24.0596766]]},"properties":{"key":"way:1120653855@detail:462_96","osmType":"way","osmId":1120653855,"sourceRegion":"guangdong","featureType":"infrastructure","railClass":"highspeed","mode":"rail","name":"龙龙高速线","usage":"main","highspeed":"yes","bridge":"yes","status":"operational","color":"#E54848","dataOrigin":"datum-2026-08-01","sourceKey":"way:1120653855"}},{"type":"Feature","geometry":{"type":"LineString","coordinates":[[115.6287868,24.0760445],[115.630443,24.076401],[115.6314812,24.0767264],[115.6320601,24.0770552],[115.6326176,24.0774033],[115.6331869,24.0779897]]},"properties":{"key":"way:1123956554@detail:462_96","osmType":"way","osmId":1123956554,"sourceRegion":"guangdong","featureType":"infrastructure","railClass":"national","mode":"rail","name":"漳龙线","ref":"0067","usage":"main","status":"operational","color":"#E54848","dataOrigin":"datum-2026-08-01","sourceKey":"way:1123956554"}},{"type":"Feature","geometry":{"type":"LineString","coordinates":[[115.6331869,24.0779897],[115.6345163,24.0801898]]},"properties":{"key":"way:1123956555@detail:462_96","osmType":"way","osmId":1123956555,"sourceRegion":"guangdong","featureType":"infrastructure","railClass":"national","mode":"rail","name":"漳龙线","ref":"0067","usage":"main","tunnel":"yes","status":"operational","color":"#E54848","dataOrigin":"datum-2026-08-01","sourceKey":"way:1123956555"}},{"type":"Feature","geometry":{"type":"LineString","coordinates":[[115.658525,24.1165903],[115.6590151,24.1169779],[115.664828,24.120651],[115.665681,24.121364],[115.6673813,24.1232189],[115.6680613,24.1236603],[115.6689795,24.1241172],[115.6697688,24.1243639],[115.6707802,24.1245376]]},"properties":{"key":"way:1123956558@detail:462_96","osmType":"way","osmId":1123956558,"sourceRegion":"guangdong","featureType":"infrastructure","railClass":"national","mode":"rail","name":"漳龙线","ref":"0067","usage":"main","status":"operational","color":"#E54848","dataOrigin":"datum-2026-08-01","sourceKey":"way:1123956558"}},{"type":"Feature","geometry":{"type":"LineString","coordinates":[[115.6499198,24.1066984],[115.6507813,24.1070924],[115.6531023,24.1095263],[115.6545321,24.1113154],[115.6566822,24.1138383]]},"properties":{"key":"way:1123956559@detail:462_96","osmType":"way","osmId":1123956559,"sourceRegion":"guangdong","featureType":"infrastructure","railClass":"national","mode":"rail","name":"漳龙线","ref":"0067","usage":"main","tunnel":"yes","status":"operational","color":"#E54848","dataOrigin":"datum-2026-08-01","sourceKey":"way:1123956559"}},{"type":"Feature","geometry":{"type":"LineString","coordinates":[[115.6566822,24.1138383],[115.6570512,24.1143964]]},"properties":{"key":"way:1123956560@detail:462_96","osmType":"way","osmId":1123956560,"sourceRegion":"guangdong","featureType":"infrastructure","railClass":"national","mode":"rail","name":"漳龙线","ref":"0067","usage":"main","status":"operational","color":"#E54848","dataOrigin":"datum-2026-08-01","sourceKey":"way:1123956560"}},{"type":"Feature","geometry":{"type":"LineString","coordinates":[[115.6570512,24.1143964],[115.6575138,24.1153863],[115.658525,24.1165903]]},"properties":{"key":"way:1123956561@detail:462_96","osmType":"way","osmId":1123956561,"sourceRegion":"guangdong","featureType":"infrastructure","railClass":"national","mode":"rail","name":"漳龙线","ref":"0067","usage":"main","tunnel":"yes","status":"operational","color":"#E54848","dataOrigin":"datum-2026-08-01","sourceKey":"way:1123956561"}},{"type":"Feature","geometry":{"type":"LineString","coordinates":[[115.5500044,24.0915923],[115.5508247,24.0913272],[115.551676,24.0909813],[115.5531182,24.0902813],[115.5536731,24.0900884],[115.5540643,24.0899777],[115.554431,24.089909],[115.5548237,24.0898487],[115.5553789,24.0897884],[115.5562879,24.0898012],[115.5573134,24.0899078],[115.5589687,24.0900316]]},"properties":{"key":"way:1163005253@detail:462_96","osmType":"way","osmId":1163005253,"sourceRegion":"guangdong","featureType":"infrastructure","railClass":"national","mode":"rail","name":"漳龙线","ref":"0067","usage":"main","status":"operational","color":"#E54848","dataOrigin":"datum-2026-08-01","sourceKey":"way:1163005253"}},{"type":"Feature","geometry":{"type":"LineString","coordinates":[[115.5589687,24.0900316],[115.5614972,24.0902391]]},"properties":{"key":"way:1163005254@detail:462_96","osmType":"way","osmId":1163005254,"sourceRegion":"guangdong","featureType":"infrastructure","railClass":"national","mode":"rail","name":"漳龙线","ref":"0067","usage":"main","bridge":"yes","status":"operational","color":"#E54848","dataOrigin":"datum-2026-08-01","sourceKey":"way:1163005254"}},{"type":"Feature","geometry":{"type":"LineString","coordinates":[[115.5344101,24.0860609],[115.535569,24.086778],[115.535734,24.0868845]]},"properties":{"key":"way:1163005260@detail:462_96","osmType":"way","osmId":1163005260,"sourceRegion":"guangdong","featureType":"infrastructure","railClass":"national","mode":"rail","name":"漳龙线","ref":"0067","usage":"main","status":"operational","color":"#E54848","dataOrigin":"datum-2026-08-01","sourceKey":"way:1163005260"}},{"type":"Feature","geometry":{"type":"LineString","coordinates":[[115.5327618,24.0852687],[115.5334806,24.0855693],[115.5344101,24.0860609]]},"properties":{"key":"way:1163005261@detail:462_96","osmType":"way","osmId":1163005261,"sourceRegion":"guangdong","featureType":"infrastructure","railClass":"national","mode":"rail","name":"漳龙线","ref":"0067","usage":"main","tunnel":"yes","status":"operational","color":"#E54848","dataOrigin":"datum-2026-08-01","sourceKey":"way:1163005261"}},{"type":"Feature","geometry":{"type":"LineString","coordinates":[[115.5211573,24.0829554],[115.522196,24.082918]]},"properties":{"key":"way:1163005292@detail:462_96","osmType":"way","osmId":1163005292,"sourceRegion":"guangdong","featureType":"infrastructure","railClass":"national","mode":"rail","name":"漳龙线","ref":"0067","usage":"main","status":"operational","color":"#E54848","dataOrigin":"datum-2026-08-01","sourceKey":"way:1163005292"}},{"type":"Feature","geometry":{"type":"LineString","coordinates":[[115.520834,24.0829455],[115.5211573,24.0829554]]},"properties":{"key":"way:1163005293@detail:462_96","osmType":"way","osmId":1163005293,"sourceRegion":"guangdong","featureType":"infrastructure","railClass":"national","mode":"rail","name":"漳龙线","ref":"0067","usage":"main","bridge":"yes","status":"operational","color":"#E54848","dataOrigin":"datum-2026-08-01","sourceKey":"way:1163005293"}},{"type":"Feature","geometry":{"type":"LineString","coordinates":[[115.5,24.0919511220848],[115.5002505,24.0915582],[115.5012685,24.0902382],[115.5020995,24.0891924],[115.5032497,24.0876518],[115.5036329,24.0872629],[115.5039335,24.0869839],[115.5043797,24.0866322],[115.505677,24.0858808],[115.5068024,24.0852589],[115.5077882,24.0847489],[115.5091579,24.0840234],[115.5100024,24.0835562],[115.51081,24.083161],[115.511413,24.08282],[115.512068,24.082564],[115.513139,24.082256],[115.513915,24.08214],[115.5148309,24.0820516],[115.515798,24.082063],[115.5175159,24.0823596],[115.5186146,24.0825936],[115.520138,24.0829059],[115.520834,24.0829455]]},"properties":{"key":"way:1163005294@detail:462_96","osmType":"way","osmId":1163005294,"sourceRegion":"guangdong","featureType":"infrastructure","railClass":"national","mode":"rail","name":"漳龙线","ref":"0067","usage":"main","status":"operational","color":"#E54848","dataOrigin":"datum-2026-08-01","sourceKey":"way:1163005294"}},{"type":"Feature","geometry":{"type":"LineString","coordinates":[[115.656902,24.0617398],[115.6594614,24.0622845]]},"properties":{"key":"way:1168194495@detail:462_96","osmType":"way","osmId":1168194495,"sourceRegion":"guangdong","featureType":"infrastructure","railClass":"highspeed","mode":"rail","name":"龙龙高速线","usage":"main","highspeed":"yes","status":"operational","color":"#E54848","dataOrigin":"datum-2026-08-01","sourceKey":"way:1168194495"}},{"type":"Feature","geometry":{"type":"LineString","coordinates":[[115.6594614,24.0622845],[115.6635329,24.063263]]},"properties":{"key":"way:1168194496@detail:462_96","osmType":"way","osmId":1168194496,"sourceRegion":"guangdong","featureType":"infrastructure","railClass":"highspeed","mode":"rail","name":"龙龙高速线","usage":"main","highspeed":"yes","tunnel":"yes","status":"operational","color":"#E54848","dataOrigin":"datum-2026-08-01","sourceKey":"way:1168194496"}},{"type":"Feature","geometry":{"type":"LineString","coordinates":[[115.6635329,24.063263],[115.6640236,24.0633783]]},"properties":{"key":"way:1168194497@detail:462_96","osmType":"way","osmId":1168194497,"sourceRegion":"guangdong","featureType":"infrastructure","railClass":"highspeed","mode":"rail","name":"龙龙高速线","usage":"main","highspeed":"yes","status":"operational","color":"#E54848","dataOrigin":"datum-2026-08-01","sourceKey":"way:1168194497"}},{"type":"Feature","geometry":{"type":"LineString","coordinates":[[115.6640236,24.0633783],[115.6665354,24.06408]]},"properties":{"key":"way:1168194498@detail:462_96","osmType":"way","osmId":1168194498,"sourceRegion":"guangdong","featureType":"infrastructure","railClass":"highspeed","mode":"rail","name":"龙龙高速线","usage":"main","highspeed":"yes","tunnel":"yes","status":"operational","color":"#E54848","dataOrigin":"datum-2026-08-01","sourceKey":"way:1168194498"}},{"type":"Feature","geometry":{"type":"LineString","coordinates":[[115.6665354,24.06408],[115.670531,24.0652306]]},"properties":{"key":"way:1168194499@detail:462_96","osmType":"way","osmId":1168194499,"sourceRegion":"guangdong","featureType":"infrastructure","railClass":"highspeed","mode":"rail","name":"龙龙高速线","usage":"main","highspeed":"yes","bridge":"yes","status":"operational","color":"#E54848","dataOrigin":"datum-2026-08-01","sourceKey":"way:1168194499"}},{"type":"Feature","geometry":{"type":"LineString","coordinates":[[115.6741808,24.066223],[115.6762373,24.0667604]]},"properties":{"key":"way:1168194500@detail:462_96","osmType":"way","osmId":1168194500,"sourceRegion":"guangdong","featureType":"infrastructure","railClass":"highspeed","mode":"rail","name":"龙龙高速线","usage":"main","highspeed":"yes","status":"operational","color":"#E54848","dataOrigin":"datum-2026-08-01","sourceKey":"way:1168194500"}},{"type":"Feature","geometry":{"type":"LineString","coordinates":[[115.6846509,24.0688008],[115.6861999,24.0691062]]},"properties":{"key":"way:1168194502@detail:462_96","osmType":"way","osmId":1168194502,"sourceRegion":"guangdong","featureType":"infrastructure","railClass":"highspeed","mode":"rail","name":"龙龙高速线","usage":"main","highspeed":"yes","status":"operational","color":"#E54848","dataOrigin":"datum-2026-08-01","sourceKey":"way:1168194502"}},{"type":"Feature","geometry":{"type":"LineString","coordinates":[[115.6924,24.0700814],[115.689115,24.0696211],[115.6876772,24.0693833],[115.6861999,24.0691062]]},"properties":{"key":"way:1168194503@detail:462_96","osmType":"way","osmId":1168194503,"sourceRegion":"guangdong","featureType":"infrastructure","railClass":"highspeed","mode":"rail","name":"龙龙高速线","usage":"main","highspeed":"yes","bridge":"yes","status":"operational","color":"#E54848","dataOrigin":"datum-2026-08-01","sourceKey":"way:1168194503"}},{"type":"Feature","geometry":{"type":"LineString","coordinates":[[115.6931614,24.07018],[115.6924,24.0700814]]},"properties":{"key":"way:1168194504@detail:462_96","osmType":"way","osmId":1168194504,"sourceRegion":"guangdong","featureType":"infrastructure","railClass":"highspeed","mode":"rail","name":"龙龙高速线","usage":"main","highspeed":"yes","status":"operational","color":"#E54848","dataOrigin":"datum-2026-08-01","sourceKey":"way:1168194504"}},{"type":"Feature","geometry":{"type":"LineString","coordinates":[[115.6961028,24.0705007],[115.6931614,24.07018]]},"properties":{"key":"way:1168194505@detail:462_96","osmType":"way","osmId":1168194505,"sourceRegion":"guangdong","featureType":"infrastructure","railClass":"highspeed","mode":"rail","name":"龙龙高速线","usage":"main","highspeed":"yes","bridge":"yes","status":"operational","color":"#E54848","dataOrigin":"datum-2026-08-01","sourceKey":"way:1168194505"}},{"type":"Feature","geometry":{"type":"LineString","coordinates":[[115.6966878,24.0705629],[115.6961028,24.0705007]]},"properties":{"key":"way:1168194506@detail:462_96","osmType":"way","osmId":1168194506,"sourceRegion":"guangdong","featureType":"infrastructure","railClass":"highspeed","mode":"rail","name":"龙龙高速线","usage":"main","highspeed":"yes","status":"operational","color":"#E54848","dataOrigin":"datum-2026-08-01","sourceKey":"way:1168194506"}},{"type":"Feature","geometry":{"type":"LineString","coordinates":[[115.7079197,24.0712689],[115.7051461,24.071116]]},"properties":{"key":"way:1168194507@detail:462_96","osmType":"way","osmId":1168194507,"sourceRegion":"guangdong","featureType":"infrastructure","railClass":"highspeed","mode":"rail","name":"龙龙高速线","usage":"main","highspeed":"yes","bridge":"yes","status":"operational","color":"#E54848","dataOrigin":"datum-2026-08-01","sourceKey":"way:1168194507"}},{"type":"Feature","geometry":{"type":"LineString","coordinates":[[115.712675,24.0715449],[115.7079197,24.0712689]]},"properties":{"key":"way:1168194508@detail:462_96","osmType":"way","osmId":1168194508,"sourceRegion":"guangdong","featureType":"infrastructure","railClass":"highspeed","mode":"rail","name":"龙龙高速线","usage":"main","highspeed":"yes","tunnel":"yes","status":"operational","color":"#E54848","dataOrigin":"datum-2026-08-01","sourceKey":"way:1168194508"}},{"type":"Feature","geometry":{"type":"LineString","coordinates":[[115.7181501,24.0718403],[115.712675,24.0715449]]},"properties":{"key":"way:1168194510@detail:462_96","osmType":"way","osmId":1168194510,"sourceRegion":"guangdong","featureType":"infrastructure","railClass":"highspeed","mode":"rail","name":"龙龙高速线","usage":"main","highspeed":"yes","status":"operational","color":"#E54848","dataOrigin":"datum-2026-08-01","sourceKey":"way:1168194510"}},{"type":"Feature","geometry":{"type":"LineString","coordinates":[[115.7216152,24.0721719],[115.7181501,24.0718403]]},"properties":{"key":"way:1168194511@detail:462_96","osmType":"way","osmId":1168194511,"sourceRegion":"guangdong","featureType":"infrastructure","railClass":"highspeed","mode":"rail","name":"龙龙高速线","usage":"main","highspeed":"yes","tunnel":"yes","status":"operational","color":"#E54848","dataOrigin":"datum-2026-08-01","sourceKey":"way:1168194511"}},{"type":"Feature","geometry":{"type":"LineString","coordinates":[[115.7230459,24.0723492],[115.7216152,24.0721719]]},"properties":{"key":"way:1168194513@detail:462_96","osmType":"way","osmId":1168194513,"sourceRegion":"guangdong","featureType":"infrastructure","railClass":"highspeed","mode":"rail","name":"龙龙高速线","usage":"main","highspeed":"yes","bridge":"yes","status":"operational","color":"#E54848","dataOrigin":"datum-2026-08-01","sourceKey":"way:1168194513"}},{"type":"Feature","geometry":{"type":"LineString","coordinates":[[115.7251864,24.0726641],[115.7230459,24.0723492]]},"properties":{"key":"way:1168194514@detail:462_96","osmType":"way","osmId":1168194514,"sourceRegion":"guangdong","featureType":"infrastructure","railClass":"highspeed","mode":"rail","name":"龙龙高速线","usage":"main","highspeed":"yes","tunnel":"yes","status":"operational","color":"#E54848","dataOrigin":"datum-2026-08-01","sourceKey":"way:1168194514"}},{"type":"Feature","geometry":{"type":"LineString","coordinates":[[115.73006,24.0736133],[115.7275621,24.0730884]]},"properties":{"key":"way:1168194515@detail:462_96","osmType":"way","osmId":1168194515,"sourceRegion":"guangdong","featureType":"infrastructure","railClass":"highspeed","mode":"rail","name":"龙龙高速线","usage":"main","highspeed":"yes","bridge":"yes","status":"operational","color":"#E54848","dataOrigin":"datum-2026-08-01","sourceKey":"way:1168194515"}},{"type":"Feature","geometry":{"type":"LineString","coordinates":[[115.7326047,24.0742337],[115.73006,24.0736133]]},"properties":{"key":"way:1168194516@detail:462_96","osmType":"way","osmId":1168194516,"sourceRegion":"guangdong","featureType":"infrastructure","railClass":"highspeed","mode":"rail","name":"龙龙高速线","usage":"main","highspeed":"yes","status":"operational","color":"#E54848","dataOrigin":"datum-2026-08-01","sourceKey":"way:1168194516"}},{"type":"Feature","geometry":{"type":"LineString","coordinates":[[115.7369899,24.0755469],[115.7326047,24.0742337]]},"properties":{"key":"way:1168194517@detail:462_96","osmType":"way","osmId":1168194517,"sourceRegion":"guangdong","featureType":"infrastructure","railClass":"highspeed","mode":"rail","name":"龙龙高速线","usage":"main","highspeed":"yes","bridge":"yes","status":"operational","color":"#E54848","dataOrigin":"datum-2026-08-01","sourceKey":"way:1168194517"}},{"type":"Feature","geometry":{"type":"LineString","coordinates":[[115.7386202,24.0761046],[115.7369899,24.0755469]]},"properties":{"key":"way:1168194518@detail:462_96","osmType":"way","osmId":1168194518,"sourceRegion":"guangdong","featureType":"infrastructure","railClass":"highspeed","mode":"rail","name":"龙龙高速线","usage":"main","highspeed":"yes","status":"operational","color":"#E54848","dataOrigin":"datum-2026-08-01","sourceKey":"way:1168194518"}},{"type":"Feature","geometry":{"type":"LineString","coordinates":[[115.7498075,24.0812826],[115.7480493,24.0803606],[115.7461075,24.0794156],[115.7440102,24.0784164],[115.7419791,24.0775024],[115.7394408,24.0764192]]},"properties":{"key":"way:1168194519@detail:462_96","osmType":"way","osmId":1168194519,"sourceRegion":"guangdong","featureType":"infrastructure","railClass":"highspeed","mode":"rail","name":"龙龙高速线","usage":"main","highspeed":"yes","tunnel":"yes","status":"operational","color":"#E54848","dataOrigin":"datum-2026-08-01","sourceKey":"way:1168194519"}},{"type":"Feature","geometry":{"type":"LineString","coordinates":[[115.7394408,24.0764192],[115.7386202,24.0761046]]},"properties":{"key":"way:1168194520@detail:462_96","osmType":"way","osmId":1168194520,"sourceRegion":"guangdong","featureType":"infrastructure","railClass":"highspeed","mode":"rail","name":"龙龙高速线","usage":"main","highspeed":"yes","bridge":"yes","status":"operational","color":"#E54848","dataOrigin":"datum-2026-08-01","sourceKey":"way:1168194520"}},{"type":"Feature","geometry":{"type":"LineString","coordinates":[[115.6345163,24.0801898],[115.63575,24.082329],[115.6366511,24.0839755],[115.6373116,24.0854142],[115.6382574,24.0880908],[115.6385974,24.0889366],[115.6390541,24.0895935],[115.6407144,24.0918216],[115.6410791,24.0925513],[115.6414225,24.0933867],[115.6414969,24.0939492]]},"properties":{"key":"way:1169520647@detail:462_96","osmType":"way","osmId":1169520647,"sourceRegion":"guangdong","featureType":"infrastructure","railClass":"national","mode":"rail","name":"漳龙线","ref":"0067","usage":"main","status":"operational","color":"#E54848","dataOrigin":"datum-2026-08-01","sourceKey":"way:1169520647"}},{"type":"Feature","geometry":{"type":"LineString","coordinates":[[115.6414969,24.0939492],[115.6415578,24.0943171],[115.641552,24.0946299]]},"properties":{"key":"way:1169520648@detail:462_96","osmType":"way","osmId":1169520648,"sourceRegion":"guangdong","featureType":"infrastructure","railClass":"national","mode":"rail","name":"漳龙线","ref":"0067","usage":"main","bridge":"yes","status":"operational","color":"#E54848","dataOrigin":"datum-2026-08-01","sourceKey":"way:1169520648"}},{"type":"Feature","geometry":{"type":"LineString","coordinates":[[115.6014767,24.0601779],[115.6049804,24.059733]]},"properties":{"key":"way:1259373447@detail:462_96","osmType":"way","osmId":1259373447,"sourceRegion":"guangdong","featureType":"infrastructure","railClass":"highspeed","mode":"rail","name":"龙龙高速线","usage":"main","highspeed":"yes","tunnel":"yes","status":"operational","color":"#E54848","dataOrigin":"datum-2026-08-01","sourceKey":"way:1259373447"}},{"type":"Feature","geometry":{"type":"LineString","coordinates":[[115.5,24.078821362203048],[115.5071366,24.0768448]]},"properties":{"key":"way:1265138376@detail:462_96","osmType":"way","osmId":1265138376,"sourceRegion":"guangdong","featureType":"infrastructure","railClass":"highspeed","mode":"rail","name":"龙龙高速线","usage":"main","highspeed":"yes","bridge":"yes","status":"operational","color":"#E54848","dataOrigin":"datum-2026-08-01","sourceKey":"way:1265138376"}},{"type":"Feature","geometry":{"type":"LineString","coordinates":[[115.5071366,24.0768448],[115.5086914,24.0764328]]},"properties":{"key":"way:1265138377@detail:462_96","osmType":"way","osmId":1265138377,"sourceRegion":"guangdong","featureType":"infrastructure","railClass":"highspeed","mode":"rail","name":"龙龙高速线","usage":"main","highspeed":"yes","tunnel":"yes","status":"operational","color":"#E54848","dataOrigin":"datum-2026-08-01","sourceKey":"way:1265138377"}},{"type":"Feature","geometry":{"type":"LineString","coordinates":[[115.5086914,24.0764328],[115.5101037,24.0760809]]},"properties":{"key":"way:1265138378@detail:462_96","osmType":"way","osmId":1265138378,"sourceRegion":"guangdong","featureType":"infrastructure","railClass":"highspeed","mode":"rail","name":"龙龙高速线","usage":"main","highspeed":"yes","bridge":"yes","status":"operational","color":"#E54848","dataOrigin":"datum-2026-08-01","sourceKey":"way:1265138378"}},{"type":"Feature","geometry":{"type":"LineString","coordinates":[[115.5101037,24.0760809],[115.5124418,24.0755295]]},"properties":{"key":"way:1265138379@detail:462_96","osmType":"way","osmId":1265138379,"sourceRegion":"guangdong","featureType":"infrastructure","railClass":"highspeed","mode":"rail","name":"龙龙高速线","usage":"main","highspeed":"yes","status":"operational","color":"#E54848","dataOrigin":"datum-2026-08-01","sourceKey":"way:1265138379"}},{"type":"Feature","geometry":{"type":"LineString","coordinates":[[115.5124418,24.0755295],[115.514495,24.0751118],[115.5152177,24.0749883]]},"properties":{"key":"way:1265138380@detail:462_96","osmType":"way","osmId":1265138380,"sourceRegion":"guangdong","featureType":"infrastructure","railClass":"highspeed","mode":"rail","name":"龙龙高速线","usage":"main","highspeed":"yes","tunnel":"yes","status":"operational","color":"#E54848","dataOrigin":"datum-2026-08-01","sourceKey":"way:1265138380"}},{"type":"Feature","geometry":{"type":"LineString","coordinates":[[115.5202836,24.0741679],[115.5224669,24.073847]]},"properties":{"key":"way:1265138381@detail:462_96","osmType":"way","osmId":1265138381,"sourceRegion":"guangdong","featureType":"infrastructure","railClass":"highspeed","mode":"rail","name":"龙龙高速线","usage":"main","highspeed":"yes","bridge":"yes","status":"operational","color":"#E54848","dataOrigin":"datum-2026-08-01","sourceKey":"way:1265138381"}},{"type":"Feature","geometry":{"type":"LineString","coordinates":[[115.5224669,24.073847],[115.5239309,24.0736318]]},"properties":{"key":"way:1265138382@detail:462_96","osmType":"way","osmId":1265138382,"sourceRegion":"guangdong","featureType":"infrastructure","railClass":"highspeed","mode":"rail","name":"龙龙高速线","usage":"main","highspeed":"yes","status":"operational","color":"#E54848","dataOrigin":"datum-2026-08-01","sourceKey":"way:1265138382"}},{"type":"Feature","geometry":{"type":"LineString","coordinates":[[115.5239309,24.0736318],[115.5257476,24.0733648]]},"properties":{"key":"way:1265138383@detail:462_96","osmType":"way","osmId":1265138383,"sourceRegion":"guangdong","featureType":"infrastructure","railClass":"highspeed","mode":"rail","name":"龙龙高速线","usage":"main","highspeed":"yes","bridge":"yes","status":"operational","color":"#E54848","dataOrigin":"datum-2026-08-01","sourceKey":"way:1265138383"}},{"type":"Feature","geometry":{"type":"LineString","coordinates":[[115.5257476,24.0733648],[115.5280566,24.0730254]]},"properties":{"key":"way:1265138384@detail:462_96","osmType":"way","osmId":1265138384,"sourceRegion":"guangdong","featureType":"infrastructure","railClass":"highspeed","mode":"rail","name":"龙龙高速线","usage":"main","highspeed":"yes","status":"operational","color":"#E54848","dataOrigin":"datum-2026-08-01","sourceKey":"way:1265138384"}},{"type":"Feature","geometry":{"type":"LineString","coordinates":[[115.5280566,24.0730254],[115.5290848,24.0728742]]},"properties":{"key":"way:1265138385@detail:462_96","osmType":"way","osmId":1265138385,"sourceRegion":"guangdong","featureType":"infrastructure","railClass":"highspeed","mode":"rail","name":"龙龙高速线","usage":"main","highspeed":"yes","bridge":"yes","status":"operational","color":"#E54848","dataOrigin":"datum-2026-08-01","sourceKey":"way:1265138385"}},{"type":"Feature","geometry":{"type":"LineString","coordinates":[[115.5290848,24.0728742],[115.5309814,24.0725955]]},"properties":{"key":"way:1265138386@detail:462_96","osmType":"way","osmId":1265138386,"sourceRegion":"guangdong","featureType":"infrastructure","railClass":"highspeed","mode":"rail","name":"龙龙高速线","usage":"main","highspeed":"yes","tunnel":"yes","status":"operational","color":"#E54848","dataOrigin":"datum-2026-08-01","sourceKey":"way:1265138386"}},{"type":"Feature","geometry":{"type":"LineString","coordinates":[[115.5309814,24.0725955],[115.5342837,24.0721101]]},"properties":{"key":"way:1265138387@detail:462_96","osmType":"way","osmId":1265138387,"sourceRegion":"guangdong","featureType":"infrastructure","railClass":"highspeed","mode":"rail","name":"龙龙高速线","usage":"main","highspeed":"yes","bridge":"yes","status":"operational","color":"#E54848","dataOrigin":"datum-2026-08-01","sourceKey":"way:1265138387"}},{"type":"Feature","geometry":{"type":"LineString","coordinates":[[115.5342837,24.0721101],[115.5380319,24.0715591]]},"properties":{"key":"way:1265138388@detail:462_96","osmType":"way","osmId":1265138388,"sourceRegion":"guangdong","featureType":"infrastructure","railClass":"highspeed","mode":"rail","name":"龙龙高速线","usage":"main","highspeed":"yes","tunnel":"yes","status":"operational","color":"#E54848","dataOrigin":"datum-2026-08-01","sourceKey":"way:1265138388"}},{"type":"Feature","geometry":{"type":"LineString","coordinates":[[115.5380319,24.0715591],[115.5405958,24.0711822]]},"properties":{"key":"way:1265138389@detail:462_96","osmType":"way","osmId":1265138389,"sourceRegion":"guangdong","featureType":"infrastructure","railClass":"highspeed","mode":"rail","name":"龙龙高速线","usage":"main","highspeed":"yes","bridge":"yes","status":"operational","color":"#E54848","dataOrigin":"datum-2026-08-01","sourceKey":"way:1265138389"}},{"type":"Feature","geometry":{"type":"LineString","coordinates":[[115.5405958,24.0711822],[115.5422993,24.0709019]]},"properties":{"key":"way:1265138390@detail:462_96","osmType":"way","osmId":1265138390,"sourceRegion":"guangdong","featureType":"infrastructure","railClass":"highspeed","mode":"rail","name":"龙龙高速线","usage":"main","highspeed":"yes","tunnel":"yes","status":"operational","color":"#E54848","dataOrigin":"datum-2026-08-01","sourceKey":"way:1265138390"}},{"type":"Feature","geometry":{"type":"LineString","coordinates":[[115.5422993,24.0709019],[115.5431671,24.0707521]]},"properties":{"key":"way:1265138391@detail:462_96","osmType":"way","osmId":1265138391,"sourceRegion":"guangdong","featureType":"infrastructure","railClass":"highspeed","mode":"rail","name":"龙龙高速线","usage":"main","highspeed":"yes","status":"operational","color":"#E54848","dataOrigin":"datum-2026-08-01","sourceKey":"way:1265138391"}},{"type":"Feature","geometry":{"type":"LineString","coordinates":[[115.5431671,24.0707521],[115.5556369,24.0685999]]},"properties":{"key":"way:1265138392@detail:462_96","osmType":"way","osmId":1265138392,"sourceRegion":"guangdong","featureType":"infrastructure","railClass":"highspeed","mode":"rail","name":"龙龙高速线","usage":"main","highspeed":"yes","tunnel":"yes","status":"operational","color":"#E54848","dataOrigin":"datum-2026-08-01","sourceKey":"way:1265138392"}},{"type":"Feature","geometry":{"type":"LineString","coordinates":[[115.5556369,24.0685999],[115.5573581,24.0682783]]},"properties":{"key":"way:1265138393@detail:462_96","osmType":"way","osmId":1265138393,"sourceRegion":"guangdong","featureType":"infrastructure","railClass":"highspeed","mode":"rail","name":"龙龙高速线","usage":"main","highspeed":"yes","bridge":"yes","status":"operational","color":"#E54848","dataOrigin":"datum-2026-08-01","sourceKey":"way:1265138393"}},{"type":"Feature","geometry":{"type":"LineString","coordinates":[[115.5573581,24.0682783],[115.5595334,24.0678448]]},"properties":{"key":"way:1265138394@detail:462_96","osmType":"way","osmId":1265138394,"sourceRegion":"guangdong","featureType":"infrastructure","railClass":"highspeed","mode":"rail","name":"龙龙高速线","usage":"main","highspeed":"yes","tunnel":"yes","status":"operational","color":"#E54848","dataOrigin":"datum-2026-08-01","sourceKey":"way:1265138394"}},{"type":"Feature","geometry":{"type":"LineString","coordinates":[[115.5595334,24.0678448],[115.5625852,24.0671674]]},"properties":{"key":"way:1265138395@detail:462_96","osmType":"way","osmId":1265138395,"sourceRegion":"guangdong","featureType":"infrastructure","railClass":"highspeed","mode":"rail","name":"龙龙高速线","usage":"main","highspeed":"yes","bridge":"yes","status":"operational","color":"#E54848","dataOrigin":"datum-2026-08-01","sourceKey":"way:1265138395"}},{"type":"Feature","geometry":{"type":"LineString","coordinates":[[115.5625852,24.0671674],[115.5641628,24.0668157]]},"properties":{"key":"way:1265138396@detail:462_96","osmType":"way","osmId":1265138396,"sourceRegion":"guangdong","featureType":"infrastructure","railClass":"highspeed","mode":"rail","name":"龙龙高速线","usage":"main","highspeed":"yes","tunnel":"yes","status":"operational","color":"#E54848","dataOrigin":"datum-2026-08-01","sourceKey":"way:1265138396"}},{"type":"Feature","geometry":{"type":"LineString","coordinates":[[115.5641628,24.0668157],[115.5689676,24.0657935]]},"properties":{"key":"way:1265138397@detail:462_96","osmType":"way","osmId":1265138397,"sourceRegion":"guangdong","featureType":"infrastructure","railClass":"highspeed","mode":"rail","name":"龙龙高速线","usage":"main","highspeed":"yes","status":"operational","color":"#E54848","dataOrigin":"datum-2026-08-01","sourceKey":"way:1265138397"}},{"type":"Feature","geometry":{"type":"LineString","coordinates":[[115.5689676,24.0657935],[115.5721223,24.0651672]]},"properties":{"key":"way:1265138398@detail:462_96","osmType":"way","osmId":1265138398,"sourceRegion":"guangdong","featureType":"infrastructure","railClass":"highspeed","mode":"rail","name":"龙龙高速线","usage":"main","highspeed":"yes","tunnel":"yes","status":"operational","color":"#E54848","dataOrigin":"datum-2026-08-01","sourceKey":"way:1265138398"}},{"type":"Feature","geometry":{"type":"LineString","coordinates":[[115.5721223,24.0651672],[115.5751085,24.0646597]]},"properties":{"key":"way:1265138399@detail:462_96","osmType":"way","osmId":1265138399,"sourceRegion":"guangdong","featureType":"infrastructure","railClass":"highspeed","mode":"rail","name":"龙龙高速线","usage":"main","highspeed":"yes","bridge":"yes","status":"operational","color":"#E54848","dataOrigin":"datum-2026-08-01","sourceKey":"way:1265138399"}},{"type":"Feature","geometry":{"type":"LineString","coordinates":[[115.5751085,24.0646597],[115.5763709,24.0644451]]},"properties":{"key":"way:1265138400@detail:462_96","osmType":"way","osmId":1265138400,"sourceRegion":"guangdong","featureType":"infrastructure","railClass":"highspeed","mode":"rail","name":"龙龙高速线","usage":"main","highspeed":"yes","tunnel":"yes","status":"operational","color":"#E54848","dataOrigin":"datum-2026-08-01","sourceKey":"way:1265138400"}},{"type":"Feature","geometry":{"type":"LineString","coordinates":[[115.5763709,24.0644451],[115.5783426,24.06411]]},"properties":{"key":"way:1265138401@detail:462_96","osmType":"way","osmId":1265138401,"sourceRegion":"guangdong","featureType":"infrastructure","railClass":"highspeed","mode":"rail","name":"龙龙高速线","usage":"main","highspeed":"yes","bridge":"yes","status":"operational","color":"#E54848","dataOrigin":"datum-2026-08-01","sourceKey":"way:1265138401"}},{"type":"Feature","geometry":{"type":"LineString","coordinates":[[115.5783426,24.06411],[115.5825761,24.0633904]]},"properties":{"key":"way:1265138402@detail:462_96","osmType":"way","osmId":1265138402,"sourceRegion":"guangdong","featureType":"infrastructure","railClass":"highspeed","mode":"rail","name":"龙龙高速线","usage":"main","highspeed":"yes","status":"operational","color":"#E54848","dataOrigin":"datum-2026-08-01","sourceKey":"way:1265138402"}},{"type":"Feature","geometry":{"type":"LineString","coordinates":[[115.5825761,24.0633904],[115.5843792,24.0630839]]},"properties":{"key":"way:1265138403@detail:462_96","osmType":"way","osmId":1265138403,"sourceRegion":"guangdong","featureType":"infrastructure","railClass":"highspeed","mode":"rail","name":"龙龙高速线","usage":"main","highspeed":"yes","bridge":"yes","status":"operational","color":"#E54848","dataOrigin":"datum-2026-08-01","sourceKey":"way:1265138403"}},{"type":"Feature","geometry":{"type":"LineString","coordinates":[[115.5843792,24.0630839],[115.5865055,24.0627225]]},"properties":{"key":"way:1265138404@detail:462_96","osmType":"way","osmId":1265138404,"sourceRegion":"guangdong","featureType":"infrastructure","railClass":"highspeed","mode":"rail","name":"龙龙高速线","usage":"main","highspeed":"yes","status":"operational","color":"#E54848","dataOrigin":"datum-2026-08-01","sourceKey":"way:1265138404"}},{"type":"Feature","geometry":{"type":"LineString","coordinates":[[115.5865055,24.0627225],[115.5932045,24.0615839]]},"properties":{"key":"way:1265138405@detail:462_96","osmType":"way","osmId":1265138405,"sourceRegion":"guangdong","featureType":"infrastructure","railClass":"highspeed","mode":"rail","name":"龙龙高速线","usage":"main","highspeed":"yes","bridge":"yes","status":"operational","color":"#E54848","dataOrigin":"datum-2026-08-01","sourceKey":"way:1265138405"}},{"type":"Feature","geometry":{"type":"LineString","coordinates":[[115.6247856,24.0596766],[115.6329611,24.0599223]]},"properties":{"key":"way:1265138406@detail:462_96","osmType":"way","osmId":1265138406,"sourceRegion":"guangdong","featureType":"infrastructure","railClass":"highspeed","mode":"rail","name":"龙龙高速线","usage":"main","highspeed":"yes","status":"operational","color":"#E54848","dataOrigin":"datum-2026-08-01","sourceKey":"way:1265138406"}},{"type":"Feature","geometry":{"type":"LineString","coordinates":[[115.6713,24.0654424],[115.6741808,24.066223]]},"properties":{"key":"way:1265163285@detail:462_96","osmType":"way","osmId":1265163285,"sourceRegion":"guangdong","featureType":"infrastructure","railClass":"highspeed","mode":"rail","name":"龙龙高速线","usage":"main","highspeed":"yes","bridge":"yes","status":"operational","color":"#E54848","dataOrigin":"datum-2026-08-01","sourceKey":"way:1265163285"}},{"type":"Feature","geometry":{"type":"LineString","coordinates":[[115.670531,24.0652306],[115.6713,24.0654424]]},"properties":{"key":"way:1265163286@detail:462_96","osmType":"way","osmId":1265163286,"sourceRegion":"guangdong","featureType":"infrastructure","railClass":"highspeed","mode":"rail","name":"龙龙高速线","usage":"main","highspeed":"yes","status":"operational","color":"#E54848","dataOrigin":"datum-2026-08-01","sourceKey":"way:1265163286"}},{"type":"Feature","geometry":{"type":"LineString","coordinates":[[115.7000748,24.0708288],[115.6966878,24.0705629]]},"properties":{"key":"way:1265163289@detail:462_96","osmType":"way","osmId":1265163289,"sourceRegion":"guangdong","featureType":"infrastructure","railClass":"highspeed","mode":"rail","name":"龙龙高速线","usage":"main","highspeed":"yes","bridge":"yes","status":"operational","color":"#E54848","dataOrigin":"datum-2026-08-01","sourceKey":"way:1265163289"}},{"type":"Feature","geometry":{"type":"LineString","coordinates":[[115.7041232,24.07105],[115.7000748,24.0708288]]},"properties":{"key":"way:1265163290@detail:462_96","osmType":"way","osmId":1265163290,"sourceRegion":"guangdong","featureType":"infrastructure","railClass":"highspeed","mode":"rail","name":"龙龙高速线","usage":"main","highspeed":"yes","tunnel":"yes","status":"operational","color":"#E54848","dataOrigin":"datum-2026-08-01","sourceKey":"way:1265163290"}},{"type":"Feature","geometry":{"type":"LineString","coordinates":[[115.7051461,24.071116],[115.7041232,24.07105]]},"properties":{"key":"way:1265163291@detail:462_96","osmType":"way","osmId":1265163291,"sourceRegion":"guangdong","featureType":"infrastructure","railClass":"highspeed","mode":"rail","name":"龙龙高速线","usage":"main","highspeed":"yes","status":"operational","color":"#E54848","dataOrigin":"datum-2026-08-01","sourceKey":"way:1265163291"}},{"type":"Feature","geometry":{"type":"LineString","coordinates":[[115.7275621,24.0730884],[115.7251864,24.0726641]]},"properties":{"key":"way:1265163292@detail:462_96","osmType":"way","osmId":1265163292,"sourceRegion":"guangdong","featureType":"infrastructure","railClass":"highspeed","mode":"rail","name":"龙龙高速线","usage":"main","highspeed":"yes","status":"operational","color":"#E54848","dataOrigin":"datum-2026-08-01","sourceKey":"way:1265163292"}},{"type":"Feature","geometry":{"type":"LineString","coordinates":[[115.5380233,24.0715103],[115.5405867,24.0711335]]},"properties":{"key":"way:1311729216@detail:462_96","osmType":"way","osmId":1311729216,"sourceRegion":"guangdong","featureType":"infrastructure","railClass":"highspeed","mode":"rail","name":"龙龙高速线","usage":"main","highspeed":"yes","bridge":"yes","status":"operational","color":"#E54848","dataOrigin":"datum-2026-08-01","sourceKey":"way:1311729216"}},{"type":"Feature","geometry":{"type":"LineString","coordinates":[[115.6640383,24.0633307],[115.6665515,24.0640328]]},"properties":{"key":"way:1311729217@detail:462_96","osmType":"way","osmId":1311729217,"sourceRegion":"guangdong","featureType":"infrastructure","railClass":"highspeed","mode":"rail","name":"龙龙高速线","usage":"main","highspeed":"yes","tunnel":"yes","status":"operational","color":"#E54848","dataOrigin":"datum-2026-08-01","sourceKey":"way:1311729217"}},{"type":"Feature","geometry":{"type":"LineString","coordinates":[[115.5,24.078769735056675],[115.5071212,24.0767974]]},"properties":{"key":"way:1311729222@detail:462_96","osmType":"way","osmId":1311729222,"sourceRegion":"guangdong","featureType":"infrastructure","railClass":"highspeed","mode":"rail","name":"龙龙高速线","usage":"main","highspeed":"yes","bridge":"yes","status":"operational","color":"#E54848","dataOrigin":"datum-2026-08-01","sourceKey":"way:1311729222"}},{"type":"Feature","geometry":{"type":"LineString","coordinates":[[115.5721116,24.0651187],[115.5750986,24.0646111]]},"properties":{"key":"way:1311729227@detail:462_96","osmType":"way","osmId":1311729227,"sourceRegion":"guangdong","featureType":"infrastructure","railClass":"highspeed","mode":"rail","name":"龙龙高速线","usage":"main","highspeed":"yes","bridge":"yes","status":"operational","color":"#E54848","dataOrigin":"datum-2026-08-01","sourceKey":"way:1311729227"}},{"type":"Feature","geometry":{"type":"LineString","coordinates":[[115.7126783,24.0714956],[115.707923,24.0712196]]},"properties":{"key":"way:1311729228@detail:462_96","osmType":"way","osmId":1311729228,"sourceRegion":"guangdong","featureType":"infrastructure","railClass":"highspeed","mode":"rail","name":"龙龙高速线","usage":"main","highspeed":"yes","tunnel":"yes","status":"operational","color":"#E54848","dataOrigin":"datum-2026-08-01","sourceKey":"way:1311729228"}},{"type":"Feature","geometry":{"type":"LineString","coordinates":[[115.5290762,24.0728254],[115.5309728,24.0725467]]},"properties":{"key":"way:1311729229@detail:462_96","osmType":"way","osmId":1311729229,"sourceRegion":"guangdong","featureType":"infrastructure","railClass":"highspeed","mode":"rail","name":"龙龙高速线","usage":"main","highspeed":"yes","tunnel":"yes","status":"operational","color":"#E54848","dataOrigin":"datum-2026-08-01","sourceKey":"way:1311729229"}},{"type":"Feature","geometry":{"type":"LineString","coordinates":[[115.7051496,24.0710667],[115.7041267,24.0710007]]},"properties":{"key":"way:1311729230@detail:462_96","osmType":"way","osmId":1311729230,"sourceRegion":"guangdong","featureType":"infrastructure","railClass":"highspeed","mode":"rail","name":"龙龙高速线","usage":"main","highspeed":"yes","status":"operational","color":"#E54848","dataOrigin":"datum-2026-08-01","sourceKey":"way:1311729230"}},{"type":"Feature","geometry":{"type":"LineString","coordinates":[[115.7386402,24.0760587],[115.7370078,24.0755003]]},"properties":{"key":"way:1311729237@detail:462_96","osmType":"way","osmId":1311729237,"sourceRegion":"guangdong","featureType":"infrastructure","railClass":"highspeed","mode":"rail","name":"龙龙高速线","usage":"main","highspeed":"yes","status":"operational","color":"#E54848","dataOrigin":"datum-2026-08-01","sourceKey":"way:1311729237"}},{"type":"Feature","geometry":{"type":"LineString","coordinates":[[115.5625724,24.0671194],[115.5641502,24.0667676]]},"properties":{"key":"way:1311729238@detail:462_96","osmType":"way","osmId":1311729238,"sourceRegion":"guangdong","featureType":"infrastructure","railClass":"highspeed","mode":"rail","name":"龙龙高速线","usage":"main","highspeed":"yes","tunnel":"yes","status":"operational","color":"#E54848","dataOrigin":"datum-2026-08-01","sourceKey":"way:1311729238"}},{"type":"Feature","geometry":{"type":"LineString","coordinates":[[115.6961091,24.0704516],[115.6931684,24.070131]]},"properties":{"key":"way:1311729239@detail:462_96","osmType":"way","osmId":1311729239,"sourceRegion":"guangdong","featureType":"infrastructure","railClass":"highspeed","mode":"rail","name":"龙龙高速线","usage":"main","highspeed":"yes","bridge":"yes","status":"operational","color":"#E54848","dataOrigin":"datum-2026-08-01","sourceKey":"way:1311729239"}},{"type":"Feature","geometry":{"type":"LineString","coordinates":[[115.5239223,24.073583],[115.525739,24.073316]]},"properties":{"key":"way:1311729242@detail:462_96","osmType":"way","osmId":1311729242,"sourceRegion":"guangdong","featureType":"infrastructure","railClass":"highspeed","mode":"rail","name":"龙龙高速线","usage":"main","highspeed":"yes","bridge":"yes","status":"operational","color":"#E54848","dataOrigin":"datum-2026-08-01","sourceKey":"way:1311729242"}},{"type":"Feature","geometry":{"type":"LineString","coordinates":[[115.6247873,24.0596272],[115.632963,24.0598729]]},"properties":{"key":"way:1311729248@detail:462_96","osmType":"way","osmId":1311729248,"sourceRegion":"guangdong","featureType":"infrastructure","railClass":"highspeed","mode":"rail","name":"龙龙高速线","usage":"main","highspeed":"yes","status":"operational","color":"#E54848","dataOrigin":"datum-2026-08-01","sourceKey":"way:1311729248"}},{"type":"Feature","geometry":{"type":"LineString","coordinates":[[115.7300731,24.0735653],[115.7275734,24.0730401]]},"properties":{"key":"way:1311729249@detail:462_96","osmType":"way","osmId":1311729249,"sourceRegion":"guangdong","featureType":"infrastructure","railClass":"highspeed","mode":"rail","name":"龙龙高速线","usage":"main","highspeed":"yes","bridge":"yes","status":"operational","color":"#E54848","dataOrigin":"datum-2026-08-01","sourceKey":"way:1311729249"}},{"type":"Feature","geometry":{"type":"LineString","coordinates":[[115.5556264,24.0685514],[115.5573469,24.0682299]]},"properties":{"key":"way:1311729250@detail:462_96","osmType":"way","osmId":1311729250,"sourceRegion":"guangdong","featureType":"infrastructure","railClass":"highspeed","mode":"rail","name":"龙龙高速线","usage":"main","highspeed":"yes","bridge":"yes","status":"operational","color":"#E54848","dataOrigin":"datum-2026-08-01","sourceKey":"way:1311729250"}},{"type":"Feature","geometry":{"type":"LineString","coordinates":[[115.6846627,24.0687526],[115.6862111,24.0690578]]},"properties":{"key":"way:1311729251@detail:462_96","osmType":"way","osmId":1311729251,"sourceRegion":"guangdong","featureType":"infrastructure","railClass":"highspeed","mode":"rail","name":"龙龙高速线","usage":"main","highspeed":"yes","status":"operational","color":"#E54848","dataOrigin":"datum-2026-08-01","sourceKey":"way:1311729251"}},{"type":"Feature","geometry":{"type":"LineString","coordinates":[[115.5124291,24.0754814],[115.5144841,24.0750634],[115.5152626,24.0749303]]},"properties":{"key":"way:1311729254@detail:462_96","osmType":"way","osmId":1311729254,"sourceRegion":"guangdong","featureType":"infrastructure","railClass":"highspeed","mode":"rail","name":"龙龙高速线","usage":"main","highspeed":"yes","tunnel":"yes","status":"operational","color":"#E54848","dataOrigin":"datum-2026-08-01","sourceKey":"way:1311729254"}},{"type":"Feature","geometry":{"type":"LineString","coordinates":[[115.6713155,24.065395],[115.6741959,24.0661755]]},"properties":{"key":"way:1311729256@detail:462_96","osmType":"way","osmId":1311729256,"sourceRegion":"guangdong","featureType":"infrastructure","railClass":"highspeed","mode":"rail","name":"龙龙高速线","usage":"main","highspeed":"yes","bridge":"yes","status":"operational","color":"#E54848","dataOrigin":"datum-2026-08-01","sourceKey":"way:1311729256"}},{"type":"Feature","geometry":{"type":"LineString","coordinates":[[115.75,24.081342360780912],[115.7498362,24.0812407]]},"properties":{"key":"way:1311729257@detail:462_96","osmType":"way","osmId":1311729257,"sourceRegion":"guangdong","featureType":"infrastructure","railClass":"highspeed","mode":"rail","name":"龙龙高速线","usage":"main","highspeed":"yes","bridge":"yes","status":"operational","color":"#E54848","dataOrigin":"datum-2026-08-01","sourceKey":"way:1311729257"}},{"type":"Feature","geometry":{"type":"LineString","coordinates":[[115.5825662,24.0633418],[115.5843693,24.0630353]]},"properties":{"key":"way:1311729261@detail:462_96","osmType":"way","osmId":1311729261,"sourceRegion":"guangdong","featureType":"infrastructure","railClass":"highspeed","mode":"rail","name":"龙龙高速线","usage":"main","highspeed":"yes","bridge":"yes","status":"operational","color":"#E54848","dataOrigin":"datum-2026-08-01","sourceKey":"way:1311729261"}},{"type":"Feature","geometry":{"type":"LineString","coordinates":[[115.6569135,24.0616915],[115.6594744,24.0622365]]},"properties":{"key":"way:1311729262@detail:462_96","osmType":"way","osmId":1311729262,"sourceRegion":"guangdong","featureType":"infrastructure","railClass":"highspeed","mode":"rail","name":"龙龙高速线","usage":"main","highspeed":"yes","status":"operational","color":"#E54848","dataOrigin":"datum-2026-08-01","sourceKey":"way:1311729262"}},{"type":"Feature","geometry":{"type":"LineString","coordinates":[[115.5405867,24.0711335],[115.5422895,24.0708533]]},"properties":{"key":"way:1311729263@detail:462_96","osmType":"way","osmId":1311729263,"sourceRegion":"guangdong","featureType":"infrastructure","railClass":"highspeed","mode":"rail","name":"龙龙高速线","usage":"main","highspeed":"yes","tunnel":"yes","status":"operational","color":"#E54848","dataOrigin":"datum-2026-08-01","sourceKey":"way:1311729263"}},{"type":"Feature","geometry":{"type":"LineString","coordinates":[[115.6665515,24.0640328],[115.670547,24.0651834]]},"properties":{"key":"way:1311729264@detail:462_96","osmType":"way","osmId":1311729264,"sourceRegion":"guangdong","featureType":"infrastructure","railClass":"highspeed","mode":"rail","name":"龙龙高速线","usage":"main","highspeed":"yes","bridge":"yes","status":"operational","color":"#E54848","dataOrigin":"datum-2026-08-01","sourceKey":"way:1311729264"}},{"type":"Feature","geometry":{"type":"LineString","coordinates":[[115.5071212,24.0767974],[115.5086767,24.0763852]]},"properties":{"key":"way:1311729268@detail:462_96","osmType":"way","osmId":1311729268,"sourceRegion":"guangdong","featureType":"infrastructure","railClass":"highspeed","mode":"rail","name":"龙龙高速线","usage":"main","highspeed":"yes","tunnel":"yes","status":"operational","color":"#E54848","dataOrigin":"datum-2026-08-01","sourceKey":"way:1311729268"}},{"type":"Feature","geometry":{"type":"LineString","coordinates":[[115.6049735,24.059684],[115.6069007,24.0594794],[115.6086682,24.0593575],[115.6102872,24.0593057],[115.6124095,24.0592973],[115.6247873,24.0596272]]},"properties":{"key":"way:1311729274@detail:462_96","osmType":"way","osmId":1311729274,"sourceRegion":"guangdong","featureType":"infrastructure","railClass":"highspeed","mode":"rail","name":"龙龙高速线","usage":"main","highspeed":"yes","bridge":"yes","status":"operational","color":"#E54848","dataOrigin":"datum-2026-08-01","sourceKey":"way:1311729274"}},{"type":"Feature","geometry":{"type":"LineString","coordinates":[[115.5750986,24.0646111],[115.576361,24.0643965]]},"properties":{"key":"way:1311729276@detail:462_96","osmType":"way","osmId":1311729276,"sourceRegion":"guangdong","featureType":"infrastructure","railClass":"highspeed","mode":"rail","name":"龙龙高速线","usage":"main","highspeed":"yes","tunnel":"yes","status":"operational","color":"#E54848","dataOrigin":"datum-2026-08-01","sourceKey":"way:1311729276"}},{"type":"Feature","geometry":{"type":"LineString","coordinates":[[115.5309728,24.0725467],[115.5342751,24.0720613]]},"properties":{"key":"way:1311729277@detail:462_96","osmType":"way","osmId":1311729277,"sourceRegion":"guangdong","featureType":"infrastructure","railClass":"highspeed","mode":"rail","name":"龙龙高速线","usage":"main","highspeed":"yes","bridge":"yes","status":"operational","color":"#E54848","dataOrigin":"datum-2026-08-01","sourceKey":"way:1311729277"}},{"type":"Feature","geometry":{"type":"LineString","coordinates":[[115.6594744,24.0622365],[115.6635465,24.0632152]]},"properties":{"key":"way:1311729278@detail:462_96","osmType":"way","osmId":1311729278,"sourceRegion":"guangdong","featureType":"infrastructure","railClass":"highspeed","mode":"rail","name":"龙龙高速线","usage":"main","highspeed":"yes","tunnel":"yes","status":"operational","color":"#E54848","dataOrigin":"datum-2026-08-01","sourceKey":"way:1311729278"}},{"type":"Feature","geometry":{"type":"LineString","coordinates":[[115.7275734,24.0730401],[115.7251959,24.0726154]]},"properties":{"key":"way:1311729279@detail:462_96","osmType":"way","osmId":1311729279,"sourceRegion":"guangdong","featureType":"infrastructure","railClass":"highspeed","mode":"rail","name":"龙龙高速线","usage":"main","highspeed":"yes","status":"operational","color":"#E54848","dataOrigin":"datum-2026-08-01","sourceKey":"way:1311729279"}},{"type":"Feature","geometry":{"type":"LineString","coordinates":[[115.5931946,24.0615353],[115.601468,24.0601291]]},"properties":{"key":"way:1311729285@detail:462_96","osmType":"way","osmId":1311729285,"sourceRegion":"guangdong","featureType":"infrastructure","railClass":"highspeed","mode":"rail","name":"龙龙高速线","usage":"main","highspeed":"yes","status":"operational","color":"#E54848","dataOrigin":"datum-2026-08-01","sourceKey":"way:1311729285"}},{"type":"Feature","geometry":{"type":"LineString","coordinates":[[115.7498362,24.0812407],[115.7480755,24.0803174],[115.7461328,24.0793719],[115.7440347,24.0783723],[115.7420025,24.0774578],[115.7394627,24.076374]]},"properties":{"key":"way:1311729286@detail:462_96","osmType":"way","osmId":1311729286,"sourceRegion":"guangdong","featureType":"infrastructure","railClass":"highspeed","mode":"rail","name":"龙龙高速线","usage":"main","highspeed":"yes","tunnel":"yes","status":"operational","color":"#E54848","dataOrigin":"datum-2026-08-01","sourceKey":"way:1311729286"}},{"type":"Feature","geometry":{"type":"LineString","coordinates":[[115.5641502,24.0667676],[115.5689557,24.0657453]]},"properties":{"key":"way:1311729287@detail:462_96","osmType":"way","osmId":1311729287,"sourceRegion":"guangdong","featureType":"infrastructure","railClass":"highspeed","mode":"rail","name":"龙龙高速线","usage":"main","highspeed":"yes","status":"operational","color":"#E54848","dataOrigin":"datum-2026-08-01","sourceKey":"way:1311729287"}},{"type":"Feature","geometry":{"type":"LineString","coordinates":[[115.6966933,24.0705137],[115.6961091,24.0704516]]},"properties":{"key":"way:1311729288@detail:462_96","osmType":"way","osmId":1311729288,"sourceRegion":"guangdong","featureType":"infrastructure","railClass":"highspeed","mode":"rail","name":"龙龙高速线","usage":"main","highspeed":"yes","status":"operational","color":"#E54848","dataOrigin":"datum-2026-08-01","sourceKey":"way:1311729288"}},{"type":"Feature","geometry":{"type":"LineString","coordinates":[[115.525739,24.073316],[115.528048,24.0729766]]},"properties":{"key":"way:1311729290@detail:462_96","osmType":"way","osmId":1311729290,"sourceRegion":"guangdong","featureType":"infrastructure","railClass":"highspeed","mode":"rail","name":"龙龙高速线","usage":"main","highspeed":"yes","status":"operational","color":"#E54848","dataOrigin":"datum-2026-08-01","sourceKey":"way:1311729290"}},{"type":"Feature","geometry":{"type":"LineString","coordinates":[[115.7000787,24.0707795],[115.6966933,24.0705137]]},"properties":{"key":"way:1311729292@detail:462_96","osmType":"way","osmId":1311729292,"sourceRegion":"guangdong","featureType":"infrastructure","railClass":"highspeed","mode":"rail","name":"龙龙高速线","usage":"main","highspeed":"yes","bridge":"yes","status":"operational","color":"#E54848","dataOrigin":"datum-2026-08-01","sourceKey":"way:1311729292"}},{"type":"Feature","geometry":{"type":"LineString","coordinates":[[115.7326201,24.0741863],[115.7300731,24.0735653]]},"properties":{"key":"way:1311729297@detail:462_96","osmType":"way","osmId":1311729297,"sourceRegion":"guangdong","featureType":"infrastructure","railClass":"highspeed","mode":"rail","name":"龙龙高速线","usage":"main","highspeed":"yes","status":"operational","color":"#E54848","dataOrigin":"datum-2026-08-01","sourceKey":"way:1311729297"}},{"type":"Feature","geometry":{"type":"LineString","coordinates":[[115.5573469,24.0682299],[115.5595212,24.0677966]]},"properties":{"key":"way:1311729298@detail:462_96","osmType":"way","osmId":1311729298,"sourceRegion":"guangdong","featureType":"infrastructure","railClass":"highspeed","mode":"rail","name":"龙龙高速线","usage":"main","highspeed":"yes","tunnel":"yes","status":"operational","color":"#E54848","dataOrigin":"datum-2026-08-01","sourceKey":"way:1311729298"}},{"type":"Feature","geometry":{"type":"LineString","coordinates":[[115.6924079,24.0700325],[115.6891239,24.0695723],[115.6876875,24.0693348],[115.6862111,24.0690578]]},"properties":{"key":"way:1311729299@detail:462_96","osmType":"way","osmId":1311729299,"sourceRegion":"guangdong","featureType":"infrastructure","railClass":"highspeed","mode":"rail","name":"龙龙高速线","usage":"main","highspeed":"yes","bridge":"yes","status":"operational","color":"#E54848","dataOrigin":"datum-2026-08-01","sourceKey":"way:1311729299"}},{"type":"Feature","geometry":{"type":"LineString","coordinates":[[115.5202747,24.0741191],[115.5224583,24.0737982]]},"properties":{"key":"way:1311729302@detail:462_96","osmType":"way","osmId":1311729302,"sourceRegion":"guangdong","featureType":"infrastructure","railClass":"highspeed","mode":"rail","name":"龙龙高速线","usage":"main","highspeed":"yes","bridge":"yes","status":"operational","color":"#E54848","dataOrigin":"datum-2026-08-01","sourceKey":"way:1311729302"}},{"type":"Feature","geometry":{"type":"LineString","coordinates":[[115.670547,24.0651834],[115.6713155,24.065395]]},"properties":{"key":"way:1311729304@detail:462_96","osmType":"way","osmId":1311729304,"sourceRegion":"guangdong","featureType":"infrastructure","railClass":"highspeed","mode":"rail","name":"龙龙高速线","usage":"main","highspeed":"yes","status":"operational","color":"#E54848","dataOrigin":"datum-2026-08-01","sourceKey":"way:1311729304"}},{"type":"Feature","geometry":{"type":"LineString","coordinates":[[115.5843693,24.0630353],[115.5864956,24.0626739]]},"properties":{"key":"way:1311729308@detail:462_96","osmType":"way","osmId":1311729308,"sourceRegion":"guangdong","featureType":"infrastructure","railClass":"highspeed","mode":"rail","name":"龙龙高速线","usage":"main","highspeed":"yes","status":"operational","color":"#E54848","dataOrigin":"datum-2026-08-01","sourceKey":"way:1311729308"}},{"type":"Feature","geometry":{"type":"LineString","coordinates":[[115.7230538,24.0723003],[115.7216217,24.0721228]]},"properties":{"key":"way:1311729309@detail:462_96","osmType":"way","osmId":1311729309,"sourceRegion":"guangdong","featureType":"infrastructure","railClass":"highspeed","mode":"rail","name":"龙龙高速线","usage":"main","highspeed":"yes","bridge":"yes","status":"operational","color":"#E54848","dataOrigin":"datum-2026-08-01","sourceKey":"way:1311729309"}},{"type":"Feature","geometry":{"type":"LineString","coordinates":[[115.5422895,24.0708533],[115.543157,24.0707035]]},"properties":{"key":"way:1311729310@detail:462_96","osmType":"way","osmId":1311729310,"sourceRegion":"guangdong","featureType":"infrastructure","railClass":"highspeed","mode":"rail","name":"龙龙高速线","usage":"main","highspeed":"yes","status":"operational","color":"#E54848","dataOrigin":"datum-2026-08-01","sourceKey":"way:1311729310"}},{"type":"Feature","geometry":{"type":"LineString","coordinates":[[115.6741959,24.0661755],[115.6762524,24.0667129]]},"properties":{"key":"way:1311729311@detail:462_96","osmType":"way","osmId":1311729311,"sourceRegion":"guangdong","featureType":"infrastructure","railClass":"highspeed","mode":"rail","name":"龙龙高速线","usage":"main","highspeed":"yes","status":"operational","color":"#E54848","dataOrigin":"datum-2026-08-01","sourceKey":"way:1311729311"}},{"type":"Feature","geometry":{"type":"LineString","coordinates":[[115.5086767,24.0763852],[115.5100898,24.0760331]]},"properties":{"key":"way:1311729315@detail:462_96","osmType":"way","osmId":1311729315,"sourceRegion":"guangdong","featureType":"infrastructure","railClass":"highspeed","mode":"rail","name":"龙龙高速线","usage":"main","highspeed":"yes","bridge":"yes","status":"operational","color":"#E54848","dataOrigin":"datum-2026-08-01","sourceKey":"way:1311729315"}},{"type":"Feature","geometry":{"type":"LineString","coordinates":[[115.6762524,24.0667129],[115.6789492,24.0674369],[115.6807767,24.0679007],[115.6828351,24.0683642],[115.6846627,24.0687526]]},"properties":{"key":"way:1311729321@detail:462_96","osmType":"way","osmId":1311729321,"sourceRegion":"guangdong","featureType":"infrastructure","railClass":"highspeed","mode":"rail","name":"龙龙高速线","usage":"main","highspeed":"yes","bridge":"yes","status":"operational","color":"#E54848","dataOrigin":"datum-2026-08-01","sourceKey":"way:1311729321"}},{"type":"Feature","geometry":{"type":"LineString","coordinates":[[115.576361,24.0643965],[115.5783327,24.0640614]]},"properties":{"key":"way:1311729322@detail:462_96","osmType":"way","osmId":1311729322,"sourceRegion":"guangdong","featureType":"infrastructure","railClass":"highspeed","mode":"rail","name":"龙龙高速线","usage":"main","highspeed":"yes","bridge":"yes","status":"operational","color":"#E54848","dataOrigin":"datum-2026-08-01","sourceKey":"way:1311729322"}},{"type":"Feature","geometry":{"type":"LineString","coordinates":[[115.7181545,24.071791],[115.7126783,24.0714956]]},"properties":{"key":"way:1311729323@detail:462_96","osmType":"way","osmId":1311729323,"sourceRegion":"guangdong","featureType":"infrastructure","railClass":"highspeed","mode":"rail","name":"龙龙高速线","usage":"main","highspeed":"yes","status":"operational","color":"#E54848","dataOrigin":"datum-2026-08-01","sourceKey":"way:1311729323"}},{"type":"Feature","geometry":{"type":"LineString","coordinates":[[115.5342751,24.0720613],[115.5380233,24.0715103]]},"properties":{"key":"way:1311729324@detail:462_96","osmType":"way","osmId":1311729324,"sourceRegion":"guangdong","featureType":"infrastructure","railClass":"highspeed","mode":"rail","name":"龙龙高速线","usage":"main","highspeed":"yes","tunnel":"yes","status":"operational","color":"#E54848","dataOrigin":"datum-2026-08-01","sourceKey":"way:1311729324"}},{"type":"Feature","geometry":{"type":"LineString","coordinates":[[115.6635465,24.0632152],[115.6640383,24.0633307]]},"properties":{"key":"way:1311729325@detail:462_96","osmType":"way","osmId":1311729325,"sourceRegion":"guangdong","featureType":"infrastructure","railClass":"highspeed","mode":"rail","name":"龙龙高速线","usage":"main","highspeed":"yes","status":"operational","color":"#E54848","dataOrigin":"datum-2026-08-01","sourceKey":"way:1311729325"}},{"type":"Feature","geometry":{"type":"LineString","coordinates":[[115.7394627,24.076374],[115.7386402,24.0760587]]},"properties":{"key":"way:1311729332@detail:462_96","osmType":"way","osmId":1311729332,"sourceRegion":"guangdong","featureType":"infrastructure","railClass":"highspeed","mode":"rail","name":"龙龙高速线","usage":"main","highspeed":"yes","bridge":"yes","status":"operational","color":"#E54848","dataOrigin":"datum-2026-08-01","sourceKey":"way:1311729332"}},{"type":"Feature","geometry":{"type":"LineString","coordinates":[[115.5689557,24.0657453],[115.5721116,24.0651187]]},"properties":{"key":"way:1311729334@detail:462_96","osmType":"way","osmId":1311729334,"sourceRegion":"guangdong","featureType":"infrastructure","railClass":"highspeed","mode":"rail","name":"龙龙高速线","usage":"main","highspeed":"yes","tunnel":"yes","status":"operational","color":"#E54848","dataOrigin":"datum-2026-08-01","sourceKey":"way:1311729334"}},{"type":"Feature","geometry":{"type":"LineString","coordinates":[[115.707923,24.0712196],[115.7051496,24.0710667]]},"properties":{"key":"way:1311729335@detail:462_96","osmType":"way","osmId":1311729335,"sourceRegion":"guangdong","featureType":"infrastructure","railClass":"highspeed","mode":"rail","name":"龙龙高速线","usage":"main","highspeed":"yes","bridge":"yes","status":"operational","color":"#E54848","dataOrigin":"datum-2026-08-01","sourceKey":"way:1311729335"}},{"type":"Feature","geometry":{"type":"LineString","coordinates":[[115.528048,24.0729766],[115.5290762,24.0728254]]},"properties":{"key":"way:1311729336@detail:462_96","osmType":"way","osmId":1311729336,"sourceRegion":"guangdong","featureType":"infrastructure","railClass":"highspeed","mode":"rail","name":"龙龙高速线","usage":"main","highspeed":"yes","bridge":"yes","status":"operational","color":"#E54848","dataOrigin":"datum-2026-08-01","sourceKey":"way:1311729336"}},{"type":"Feature","geometry":{"type":"LineString","coordinates":[[115.7041267,24.0710007],[115.7000787,24.0707795]]},"properties":{"key":"way:1311729337@detail:462_96","osmType":"way","osmId":1311729337,"sourceRegion":"guangdong","featureType":"infrastructure","railClass":"highspeed","mode":"rail","name":"龙龙高速线","usage":"main","highspeed":"yes","tunnel":"yes","status":"operational","color":"#E54848","dataOrigin":"datum-2026-08-01","sourceKey":"way:1311729337"}},{"type":"Feature","geometry":{"type":"LineString","coordinates":[[115.601468,24.0601291],[115.6049735,24.059684]]},"properties":{"key":"way:1311729342@detail:462_96","osmType":"way","osmId":1311729342,"sourceRegion":"guangdong","featureType":"infrastructure","railClass":"highspeed","mode":"rail","name":"龙龙高速线","usage":"main","highspeed":"yes","tunnel":"yes","status":"operational","color":"#E54848","dataOrigin":"datum-2026-08-01","sourceKey":"way:1311729342"}},{"type":"Feature","geometry":{"type":"LineString","coordinates":[[115.7370078,24.0755003],[115.7326201,24.0741863]]},"properties":{"key":"way:1311729344@detail:462_96","osmType":"way","osmId":1311729344,"sourceRegion":"guangdong","featureType":"infrastructure","railClass":"highspeed","mode":"rail","name":"龙龙高速线","usage":"main","highspeed":"yes","bridge":"yes","status":"operational","color":"#E54848","dataOrigin":"datum-2026-08-01","sourceKey":"way:1311729344"}},{"type":"Feature","geometry":{"type":"LineString","coordinates":[[115.5595212,24.0677966],[115.5625724,24.0671194]]},"properties":{"key":"way:1311729345@detail:462_96","osmType":"way","osmId":1311729345,"sourceRegion":"guangdong","featureType":"infrastructure","railClass":"highspeed","mode":"rail","name":"龙龙高速线","usage":"main","highspeed":"yes","bridge":"yes","status":"operational","color":"#E54848","dataOrigin":"datum-2026-08-01","sourceKey":"way:1311729345"}},{"type":"Feature","geometry":{"type":"LineString","coordinates":[[115.6931684,24.070131],[115.6924079,24.0700325]]},"properties":{"key":"way:1311729346@detail:462_96","osmType":"way","osmId":1311729346,"sourceRegion":"guangdong","featureType":"infrastructure","railClass":"highspeed","mode":"rail","name":"龙龙高速线","usage":"main","highspeed":"yes","status":"operational","color":"#E54848","dataOrigin":"datum-2026-08-01","sourceKey":"way:1311729346"}},{"type":"Feature","geometry":{"type":"LineString","coordinates":[[115.5224583,24.0737982],[115.5239223,24.073583]]},"properties":{"key":"way:1311729349@detail:462_96","osmType":"way","osmId":1311729349,"sourceRegion":"guangdong","featureType":"infrastructure","railClass":"highspeed","mode":"rail","name":"龙龙高速线","usage":"main","highspeed":"yes","status":"operational","color":"#E54848","dataOrigin":"datum-2026-08-01","sourceKey":"way:1311729349"}},{"type":"Feature","geometry":{"type":"LineString","coordinates":[[115.5864956,24.0626739],[115.5931946,24.0615353]]},"properties":{"key":"way:1311729356@detail:462_96","osmType":"way","osmId":1311729356,"sourceRegion":"guangdong","featureType":"infrastructure","railClass":"highspeed","mode":"rail","name":"龙龙高速线","usage":"main","highspeed":"yes","bridge":"yes","status":"operational","color":"#E54848","dataOrigin":"datum-2026-08-01","sourceKey":"way:1311729356"}},{"type":"Feature","geometry":{"type":"LineString","coordinates":[[115.7251959,24.0726154],[115.7230538,24.0723003]]},"properties":{"key":"way:1311729357@detail:462_96","osmType":"way","osmId":1311729357,"sourceRegion":"guangdong","featureType":"infrastructure","railClass":"highspeed","mode":"rail","name":"龙龙高速线","usage":"main","highspeed":"yes","tunnel":"yes","status":"operational","color":"#E54848","dataOrigin":"datum-2026-08-01","sourceKey":"way:1311729357"}},{"type":"Feature","geometry":{"type":"LineString","coordinates":[[115.543157,24.0707035],[115.5556264,24.0685514]]},"properties":{"key":"way:1311729358@detail:462_96","osmType":"way","osmId":1311729358,"sourceRegion":"guangdong","featureType":"infrastructure","railClass":"highspeed","mode":"rail","name":"龙龙高速线","usage":"main","highspeed":"yes","tunnel":"yes","status":"operational","color":"#E54848","dataOrigin":"datum-2026-08-01","sourceKey":"way:1311729358"}},{"type":"Feature","geometry":{"type":"LineString","coordinates":[[115.5100898,24.0760331],[115.5124291,24.0754814]]},"properties":{"key":"way:1311729362@detail:462_96","osmType":"way","osmId":1311729362,"sourceRegion":"guangdong","featureType":"infrastructure","railClass":"highspeed","mode":"rail","name":"龙龙高速线","usage":"main","highspeed":"yes","status":"operational","color":"#E54848","dataOrigin":"datum-2026-08-01","sourceKey":"way:1311729362"}},{"type":"Feature","geometry":{"type":"LineString","coordinates":[[115.632963,24.0598729],[115.6416502,24.0601599],[115.6469077,24.0604325],[115.6496977,24.060667],[115.6525345,24.0609693],[115.6545416,24.0612574],[115.6569135,24.0616915]]},"properties":{"key":"way:1311729366@detail:462_96","osmType":"way","osmId":1311729366,"sourceRegion":"guangdong","featureType":"infrastructure","railClass":"highspeed","mode":"rail","name":"龙龙高速线","usage":"main","highspeed":"yes","tunnel":"yes","status":"operational","color":"#E54848","dataOrigin":"datum-2026-08-01","sourceKey":"way:1311729366"}},{"type":"Feature","geometry":{"type":"LineString","coordinates":[[115.5783327,24.0640614],[115.5825662,24.0633418]]},"properties":{"key":"way:1311729367@detail:462_96","osmType":"way","osmId":1311729367,"sourceRegion":"guangdong","featureType":"infrastructure","railClass":"highspeed","mode":"rail","name":"龙龙高速线","usage":"main","highspeed":"yes","status":"operational","color":"#E54848","dataOrigin":"datum-2026-08-01","sourceKey":"way:1311729367"}},{"type":"Feature","geometry":{"type":"LineString","coordinates":[[115.7216217,24.0721228],[115.7181545,24.071791]]},"properties":{"key":"way:1311729368@detail:462_96","osmType":"way","osmId":1311729368,"sourceRegion":"guangdong","featureType":"infrastructure","railClass":"highspeed","mode":"rail","name":"龙龙高速线","usage":"main","highspeed":"yes","tunnel":"yes","status":"operational","color":"#E54848","dataOrigin":"datum-2026-08-01","sourceKey":"way:1311729368"}},{"type":"Feature","geometry":{"type":"LineString","coordinates":[[115.5152177,24.0749883],[115.5169381,24.0746942]]},"properties":{"key":"way:1321511626@detail:462_96","osmType":"way","osmId":1321511626,"sourceRegion":"guangdong","featureType":"infrastructure","railClass":"highspeed","mode":"rail","name":"龙龙高速线","usage":"main","highspeed":"yes","status":"operational","color":"#E54848","dataOrigin":"datum-2026-08-01","sourceKey":"way:1321511626"}},{"type":"Feature","geometry":{"type":"LineString","coordinates":[[115.5169381,24.0746942],[115.5202836,24.0741679]]},"properties":{"key":"way:1321511627@detail:462_96","osmType":"way","osmId":1321511627,"sourceRegion":"guangdong","featureType":"infrastructure","railClass":"highspeed","mode":"rail","name":"龙龙高速线","usage":"main","highspeed":"yes","tunnel":"yes","status":"operational","color":"#E54848","dataOrigin":"datum-2026-08-01","sourceKey":"way:1321511627"}},{"type":"Feature","geometry":{"type":"LineString","coordinates":[[115.5152626,24.0749303],[115.5169285,24.0746456]]},"properties":{"key":"way:1321511628@detail:462_96","osmType":"way","osmId":1321511628,"sourceRegion":"guangdong","featureType":"infrastructure","railClass":"highspeed","mode":"rail","name":"龙龙高速线","usage":"main","highspeed":"yes","status":"operational","color":"#E54848","dataOrigin":"datum-2026-08-01","sourceKey":"way:1321511628"}},{"type":"Feature","geometry":{"type":"LineString","coordinates":[[115.5169285,24.0746456],[115.5202747,24.0741191]]},"properties":{"key":"way:1321511629@detail:462_96","osmType":"way","osmId":1321511629,"sourceRegion":"guangdong","featureType":"infrastructure","railClass":"highspeed","mode":"rail","name":"龙龙高速线","usage":"main","highspeed":"yes","tunnel":"yes","status":"operational","color":"#E54848","dataOrigin":"datum-2026-08-01","sourceKey":"way:1321511629"}}]}