{"type":"FeatureCollection","features":[{"type":"Feature","geometry":{"type":"Point","coordinates":[115.8848329,22.9081578]},"properties":{"key":"node:10554312400","osmType":"node","osmId":10554312400,"sourceRegion":"guangdong","featureType":"station","railClass":"minor","mode":"station","name":"陆丰东","status":"operational","color":"#52636F","dataOrigin":"datum-2026-08-01","sourceKey":"node:10554312400","stationGroup":"陆丰东","hasOperationalRail":true,"hasConstructionRail":false}},{"type":"Feature","geometry":{"type":"LineString","coordinates":[[115.7556863,22.963876],[115.7579483,22.9653075],[115.7592567,22.9660662],[115.7604902,22.9667299],[115.762306,22.9676199],[115.7644277,22.9685277],[115.7663803,22.9692785],[115.7696311,22.970533]]},"properties":{"key":"way:161238220@detail:463_91","osmType":"way","osmId":161238220,"sourceRegion":"guangdong","featureType":"infrastructure","railClass":"highspeed","mode":"rail","name":"杭深线","nameEn":"Hangzhou-Shenzhen Line","ref":"3009","usage":"main","highspeed":"yes","bridge":"viaduct","status":"operational","color":"#E54848","dataOrigin":"datum-2026-08-01","sourceKey":"way:161238220"}},{"type":"Feature","geometry":{"type":"LineString","coordinates":[[115.7508342,22.9605261],[115.7526903,22.9618202]]},"properties":{"key":"way:161238222@detail:463_91","osmType":"way","osmId":161238222,"sourceRegion":"guangdong","featureType":"infrastructure","railClass":"highspeed","mode":"rail","name":"杭深线","nameEn":"Hangzhou-Shenzhen Line","ref":"3009","usage":"main","highspeed":"yes","bridge":"viaduct","status":"operational","color":"#E54848","dataOrigin":"datum-2026-08-01","sourceKey":"way:161238222"}},{"type":"Feature","geometry":{"type":"LineString","coordinates":[[115.7526903,22.9618202],[115.7556863,22.963876]]},"properties":{"key":"way:161238224@detail:463_91","osmType":"way","osmId":161238224,"sourceRegion":"guangdong","featureType":"infrastructure","railClass":"highspeed","mode":"rail","name":"杭深线","nameEn":"Hangzhou-Shenzhen Line","ref":"3009","usage":"main","highspeed":"yes","status":"operational","color":"#E54848","dataOrigin":"datum-2026-08-01","sourceKey":"way:161238224"}},{"type":"Feature","geometry":{"type":"LineString","coordinates":[[115.75,22.959986100283604],[115.7508342,22.9605261]]},"properties":{"key":"way:161238227@detail:463_91","osmType":"way","osmId":161238227,"sourceRegion":"guangdong","featureType":"infrastructure","railClass":"highspeed","mode":"rail","name":"杭深线","nameEn":"Hangzhou-Shenzhen Line","ref":"3009","usage":"main","highspeed":"yes","status":"operational","color":"#E54848","dataOrigin":"datum-2026-08-01","sourceKey":"way:161238227"}},{"type":"Feature","geometry":{"type":"LineString","coordinates":[[115.8055453,22.9840813],[115.8087995,22.9853625],[115.8105377,22.9860657],[115.8120766,22.9867825],[115.8157029,22.9885406],[115.8179507,22.989834],[115.8202519,22.991227],[115.8312444,22.9979139],[115.83465264898747,23.0]]},"properties":{"key":"way:257083951@detail:463_91","osmType":"way","osmId":257083951,"sourceRegion":"guangdong","featureType":"infrastructure","railClass":"highspeed","mode":"rail","name":"杭深线","nameEn":"Hangzhou-Shenzhen Line","ref":"3009","usage":"main","highspeed":"yes","status":"operational","color":"#E54848","dataOrigin":"datum-2026-08-01","sourceKey":"way:257083951"}},{"type":"Feature","geometry":{"type":"LineString","coordinates":[[115.7875455,22.9773086],[115.7891372,22.9779103]]},"properties":{"key":"way:379674553@detail:463_91","osmType":"way","osmId":379674553,"sourceRegion":"guangdong","featureType":"infrastructure","railClass":"highspeed","mode":"rail","name":"杭深线","nameEn":"Hangzhou-Shenzhen Line","ref":"3009","usage":"main","highspeed":"yes","bridge":"yes","status":"operational","color":"#E54848","dataOrigin":"datum-2026-08-01","sourceKey":"way:379674553"}},{"type":"Feature","geometry":{"type":"LineString","coordinates":[[115.778304,22.9738308],[115.7784538,22.9738873]]},"properties":{"key":"way:379674554@detail:463_91","osmType":"way","osmId":379674554,"sourceRegion":"guangdong","featureType":"infrastructure","railClass":"highspeed","mode":"rail","name":"杭深线","nameEn":"Hangzhou-Shenzhen Line","ref":"3009","usage":"main","highspeed":"yes","bridge":"yes","status":"operational","color":"#E54848","dataOrigin":"datum-2026-08-01","sourceKey":"way:379674554"}},{"type":"Feature","geometry":{"type":"LineString","coordinates":[[115.7784538,22.9738873],[115.7824801,22.9753938]]},"properties":{"key":"way:379674555@detail:463_91","osmType":"way","osmId":379674555,"sourceRegion":"guangdong","featureType":"infrastructure","railClass":"highspeed","mode":"rail","name":"杭深线","nameEn":"Hangzhou-Shenzhen Line","ref":"3009","usage":"main","highspeed":"yes","status":"operational","color":"#E54848","dataOrigin":"datum-2026-08-01","sourceKey":"way:379674555"}},{"type":"Feature","geometry":{"type":"LineString","coordinates":[[115.8023133,22.9828909],[115.8055453,22.9840813]]},"properties":{"key":"way:379674556@detail:463_91","osmType":"way","osmId":379674556,"sourceRegion":"guangdong","featureType":"infrastructure","railClass":"highspeed","mode":"rail","name":"杭深线","nameEn":"Hangzhou-Shenzhen Line","ref":"3009","usage":"main","highspeed":"yes","tunnel":"yes","status":"operational","color":"#E54848","dataOrigin":"datum-2026-08-01","sourceKey":"way:379674556"}},{"type":"Feature","geometry":{"type":"LineString","coordinates":[[115.8001162,22.9820604],[115.8023133,22.9828909]]},"properties":{"key":"way:379674557@detail:463_91","osmType":"way","osmId":379674557,"sourceRegion":"guangdong","featureType":"infrastructure","railClass":"highspeed","mode":"rail","name":"杭深线","nameEn":"Hangzhou-Shenzhen Line","ref":"3009","usage":"main","highspeed":"yes","status":"operational","color":"#E54848","dataOrigin":"datum-2026-08-01","sourceKey":"way:379674557"}},{"type":"Feature","geometry":{"type":"LineString","coordinates":[[115.7983076,22.9813768],[115.8001162,22.9820604]]},"properties":{"key":"way:379674558@detail:463_91","osmType":"way","osmId":379674558,"sourceRegion":"guangdong","featureType":"infrastructure","railClass":"highspeed","mode":"rail","name":"杭深线","nameEn":"Hangzhou-Shenzhen Line","ref":"3009","usage":"main","highspeed":"yes","bridge":"yes","status":"operational","color":"#E54848","dataOrigin":"datum-2026-08-01","sourceKey":"way:379674558"}},{"type":"Feature","geometry":{"type":"LineString","coordinates":[[115.7852349,22.9764352],[115.7875455,22.9773086]]},"properties":{"key":"way:379674559@detail:463_91","osmType":"way","osmId":379674559,"sourceRegion":"guangdong","featureType":"infrastructure","railClass":"highspeed","mode":"rail","name":"杭深线","nameEn":"Hangzhou-Shenzhen Line","ref":"3009","usage":"main","highspeed":"yes","status":"operational","color":"#E54848","dataOrigin":"datum-2026-08-01","sourceKey":"way:379674559"}},{"type":"Feature","geometry":{"type":"LineString","coordinates":[[115.7891372,22.9779103],[115.7983076,22.9813768]]},"properties":{"key":"way:379674560@detail:463_91","osmType":"way","osmId":379674560,"sourceRegion":"guangdong","featureType":"infrastructure","railClass":"highspeed","mode":"rail","name":"杭深线","nameEn":"Hangzhou-Shenzhen Line","ref":"3009","usage":"main","highspeed":"yes","status":"operational","color":"#E54848","dataOrigin":"datum-2026-08-01","sourceKey":"way:379674560"}},{"type":"Feature","geometry":{"type":"LineString","coordinates":[[115.7824801,22.9753938],[115.7852349,22.9764352]]},"properties":{"key":"way:379674561@detail:463_91","osmType":"way","osmId":379674561,"sourceRegion":"guangdong","featureType":"infrastructure","railClass":"highspeed","mode":"rail","name":"杭深线","nameEn":"Hangzhou-Shenzhen Line","ref":"3009","usage":"main","highspeed":"yes","bridge":"yes","status":"operational","color":"#E54848","dataOrigin":"datum-2026-08-01","sourceKey":"way:379674561"}},{"type":"Feature","geometry":{"type":"LineString","coordinates":[[115.7696311,22.970533],[115.7705887,22.9708995],[115.778304,22.9738308]]},"properties":{"key":"way:379674562@detail:463_91","osmType":"way","osmId":379674562,"sourceRegion":"guangdong","featureType":"infrastructure","railClass":"highspeed","mode":"rail","name":"杭深线","nameEn":"Hangzhou-Shenzhen Line","ref":"3009","usage":"main","highspeed":"yes","status":"operational","color":"#E54848","dataOrigin":"datum-2026-08-01","sourceKey":"way:379674562"}},{"type":"Feature","geometry":{"type":"LineString","coordinates":[[115.7508932,22.9604517],[115.75,22.95987347745798]]},"properties":{"key":"way:631441075@detail:463_91","osmType":"way","osmId":631441075,"sourceRegion":"guangdong","featureType":"infrastructure","railClass":"highspeed","mode":"rail","name":"杭深线","nameEn":"Hangzhou-Shenzhen Line","ref":"3009","usage":"main","highspeed":"yes","status":"operational","color":"#E54848","dataOrigin":"datum-2026-08-01","sourceKey":"way:631441075"}},{"type":"Feature","geometry":{"type":"LineString","coordinates":[[115.7527504,22.9617465],[115.7508932,22.9604517]]},"properties":{"key":"way:631441076@detail:463_91","osmType":"way","osmId":631441076,"sourceRegion":"guangdong","featureType":"infrastructure","railClass":"highspeed","mode":"rail","name":"杭深线","nameEn":"Hangzhou-Shenzhen Line","ref":"3009","usage":"main","highspeed":"yes","bridge":"viaduct","status":"operational","color":"#E54848","dataOrigin":"datum-2026-08-01","sourceKey":"way:631441076"}},{"type":"Feature","geometry":{"type":"LineString","coordinates":[[115.7557446,22.9638011],[115.7527504,22.9617465]]},"properties":{"key":"way:631441077@detail:463_91","osmType":"way","osmId":631441077,"sourceRegion":"guangdong","featureType":"infrastructure","railClass":"highspeed","mode":"rail","name":"杭深线","nameEn":"Hangzhou-Shenzhen Line","ref":"3009","usage":"main","highspeed":"yes","status":"operational","color":"#E54848","dataOrigin":"datum-2026-08-01","sourceKey":"way:631441077"}},{"type":"Feature","geometry":{"type":"LineString","coordinates":[[115.7696696,22.970448],[115.7664189,22.9691935],[115.7644681,22.9684434],[115.7623506,22.9675374],[115.760539,22.9666494],[115.7593086,22.9659874],[115.7580033,22.9652305],[115.7557446,22.9638011]]},"properties":{"key":"way:631441078@detail:463_91","osmType":"way","osmId":631441078,"sourceRegion":"guangdong","featureType":"infrastructure","railClass":"highspeed","mode":"rail","name":"杭深线","nameEn":"Hangzhou-Shenzhen Line","ref":"3009","usage":"main","highspeed":"yes","bridge":"viaduct","status":"operational","color":"#E54848","dataOrigin":"datum-2026-08-01","sourceKey":"way:631441078"}},{"type":"Feature","geometry":{"type":"LineString","coordinates":[[115.778342,22.9737456],[115.770627,22.9708144],[115.7696696,22.970448]]},"properties":{"key":"way:631441079@detail:463_91","osmType":"way","osmId":631441079,"sourceRegion":"guangdong","featureType":"infrastructure","railClass":"highspeed","mode":"rail","name":"杭深线","nameEn":"Hangzhou-Shenzhen Line","ref":"3009","usage":"main","highspeed":"yes","status":"operational","color":"#E54848","dataOrigin":"datum-2026-08-01","sourceKey":"way:631441079"}},{"type":"Feature","geometry":{"type":"LineString","coordinates":[[115.7784916,22.973802],[115.778342,22.9737456]]},"properties":{"key":"way:631441080@detail:463_91","osmType":"way","osmId":631441080,"sourceRegion":"guangdong","featureType":"infrastructure","railClass":"highspeed","mode":"rail","name":"杭深线","nameEn":"Hangzhou-Shenzhen Line","ref":"3009","usage":"main","highspeed":"yes","bridge":"yes","status":"operational","color":"#E54848","dataOrigin":"datum-2026-08-01","sourceKey":"way:631441080"}},{"type":"Feature","geometry":{"type":"LineString","coordinates":[[115.7825179,22.9753085],[115.7784916,22.973802]]},"properties":{"key":"way:631441081@detail:463_91","osmType":"way","osmId":631441081,"sourceRegion":"guangdong","featureType":"infrastructure","railClass":"highspeed","mode":"rail","name":"杭深线","nameEn":"Hangzhou-Shenzhen Line","ref":"3009","usage":"main","highspeed":"yes","status":"operational","color":"#E54848","dataOrigin":"datum-2026-08-01","sourceKey":"way:631441081"}},{"type":"Feature","geometry":{"type":"LineString","coordinates":[[115.7852729,22.97635],[115.7825179,22.9753085]]},"properties":{"key":"way:631441082@detail:463_91","osmType":"way","osmId":631441082,"sourceRegion":"guangdong","featureType":"infrastructure","railClass":"highspeed","mode":"rail","name":"杭深线","nameEn":"Hangzhou-Shenzhen Line","ref":"3009","usage":"main","highspeed":"yes","bridge":"yes","status":"operational","color":"#E54848","dataOrigin":"datum-2026-08-01","sourceKey":"way:631441082"}},{"type":"Feature","geometry":{"type":"LineString","coordinates":[[115.7875835,22.9772234],[115.7852729,22.97635]]},"properties":{"key":"way:631441083@detail:463_91","osmType":"way","osmId":631441083,"sourceRegion":"guangdong","featureType":"infrastructure","railClass":"highspeed","mode":"rail","name":"杭深线","nameEn":"Hangzhou-Shenzhen Line","ref":"3009","usage":"main","highspeed":"yes","status":"operational","color":"#E54848","dataOrigin":"datum-2026-08-01","sourceKey":"way:631441083"}},{"type":"Feature","geometry":{"type":"LineString","coordinates":[[115.7891752,22.9778251],[115.7875835,22.9772234]]},"properties":{"key":"way:631441084@detail:463_91","osmType":"way","osmId":631441084,"sourceRegion":"guangdong","featureType":"infrastructure","railClass":"highspeed","mode":"rail","name":"杭深线","nameEn":"Hangzhou-Shenzhen Line","ref":"3009","usage":"main","highspeed":"yes","bridge":"yes","status":"operational","color":"#E54848","dataOrigin":"datum-2026-08-01","sourceKey":"way:631441084"}},{"type":"Feature","geometry":{"type":"LineString","coordinates":[[115.7983456,22.9812916],[115.7891752,22.9778251]]},"properties":{"key":"way:631441085@detail:463_91","osmType":"way","osmId":631441085,"sourceRegion":"guangdong","featureType":"infrastructure","railClass":"highspeed","mode":"rail","name":"杭深线","nameEn":"Hangzhou-Shenzhen Line","ref":"3009","usage":"main","highspeed":"yes","status":"operational","color":"#E54848","dataOrigin":"datum-2026-08-01","sourceKey":"way:631441085"}},{"type":"Feature","geometry":{"type":"LineString","coordinates":[[115.8001542,22.9819752],[115.7983456,22.9812916]]},"properties":{"key":"way:631441086@detail:463_91","osmType":"way","osmId":631441086,"sourceRegion":"guangdong","featureType":"infrastructure","railClass":"highspeed","mode":"rail","name":"杭深线","nameEn":"Hangzhou-Shenzhen Line","ref":"3009","usage":"main","highspeed":"yes","bridge":"yes","status":"operational","color":"#E54848","dataOrigin":"datum-2026-08-01","sourceKey":"way:631441086"}},{"type":"Feature","geometry":{"type":"LineString","coordinates":[[115.8023509,22.9828055],[115.8001542,22.9819752]]},"properties":{"key":"way:631441087@detail:463_91","osmType":"way","osmId":631441087,"sourceRegion":"guangdong","featureType":"infrastructure","railClass":"highspeed","mode":"rail","name":"杭深线","nameEn":"Hangzhou-Shenzhen Line","ref":"3009","usage":"main","highspeed":"yes","status":"operational","color":"#E54848","dataOrigin":"datum-2026-08-01","sourceKey":"way:631441087"}},{"type":"Feature","geometry":{"type":"LineString","coordinates":[[115.8055836,22.9839962],[115.8023509,22.9828055]]},"properties":{"key":"way:631441088@detail:463_91","osmType":"way","osmId":631441088,"sourceRegion":"guangdong","featureType":"infrastructure","railClass":"highspeed","mode":"rail","name":"杭深线","nameEn":"Hangzhou-Shenzhen Line","ref":"3009","usage":"main","highspeed":"yes","tunnel":"yes","status":"operational","color":"#E54848","dataOrigin":"datum-2026-08-01","sourceKey":"way:631441088"}},{"type":"Feature","geometry":{"type":"LineString","coordinates":[[115.83483341001381,23.0],[115.8312997,22.9978371],[115.820307,22.9911501],[115.8180047,22.9897565],[115.8157528,22.9884607],[115.8121225,22.9867007],[115.8105804,22.9859824],[115.8088393,22.985278],[115.8055836,22.9839962]]},"properties":{"key":"way:631441089@detail:463_91","osmType":"way","osmId":631441089,"sourceRegion":"guangdong","featureType":"infrastructure","railClass":"highspeed","mode":"rail","name":"杭深线","nameEn":"Hangzhou-Shenzhen Line","ref":"3009","usage":"main","highspeed":"yes","status":"operational","color":"#E54848","dataOrigin":"datum-2026-08-01","sourceKey":"way:631441089"}},{"type":"Feature","geometry":{"type":"LineString","coordinates":[[116.0,22.90477665922767],[115.9944641,22.9046213]]},"properties":{"key":"way:818797819@detail:463_91","osmType":"way","osmId":818797819,"sourceRegion":"guangdong","featureType":"infrastructure","railClass":"highspeed","mode":"rail","name":"甬广高速线","nameEn":"Ningbo–Guangzhou Highspeed-Railway","ref":"汕汕高速线","usage":"main","highspeed":"yes","status":"operational","color":"#E54848","dataOrigin":"datum-2026-08-01","sourceKey":"way:818797819"}},{"type":"Feature","geometry":{"type":"LineString","coordinates":[[115.9484195,22.903206],[115.9461008,22.9031411],[115.9450205,22.9031182],[115.9430985,22.9030573],[115.9367473,22.902838],[115.9303958,22.9026798],[115.9240441,22.9024998],[115.9221969,22.9024518],[115.9176922,22.9023877],[115.9167533,22.9023904],[115.915868,22.9024195],[115.9148999,22.9024477],[115.9140259,22.9024775],[115.9130263,22.9025288],[115.9120942,22.9025644],[115.91112,22.9026422],[115.9102069,22.9027125],[115.9092665,22.9028106],[115.9083507,22.9028913],[115.9075227,22.9029811],[115.906521,22.9030929],[115.9055243,22.9032204],[115.9046696,22.9033438],[115.9038175,22.903482],[115.90303,22.903607],[115.9022442,22.903743],[115.901372,22.903884],[115.9006054,22.9040126],[115.8998184,22.9041712],[115.8916071,22.9060611]]},"properties":{"key":"way:818797820@detail:463_91","osmType":"way","osmId":818797820,"sourceRegion":"guangdong","featureType":"infrastructure","railClass":"highspeed","mode":"rail","name":"甬广高速线","nameEn":"Ningbo–Guangzhou Highspeed-Railway","ref":"汕汕高速线","usage":"main","highspeed":"yes","bridge":"yes","status":"operational","color":"#E54848","dataOrigin":"datum-2026-08-01","sourceKey":"way:818797820"}},{"type":"Feature","geometry":{"type":"LineString","coordinates":[[115.8438617,22.9153289],[115.8400032,22.9153774],[115.837464,22.9153883],[115.8349498,22.9153483],[115.8319473,22.9153339],[115.8175385,22.9153536],[115.8075103,22.9153332],[115.8066023,22.9153114],[115.8057456,22.9152866],[115.8049402,22.9152591],[115.8040738,22.9152153],[115.8032323,22.9151535],[115.8023982,22.9151037],[115.8015748,22.9150477],[115.8007232,22.9149617],[115.7998759,22.9148787],[115.7990528,22.9147896],[115.7982149,22.9146916]]},"properties":{"key":"way:818797821@detail:463_91","osmType":"way","osmId":818797821,"sourceRegion":"guangdong","featureType":"infrastructure","railClass":"highspeed","mode":"rail","name":"甬广高速线","nameEn":"Ningbo–Guangzhou Highspeed-Railway","ref":"汕汕高速线","usage":"main","highspeed":"yes","status":"operational","color":"#E54848","dataOrigin":"datum-2026-08-01","sourceKey":"way:818797821"}},{"type":"Feature","geometry":{"type":"LineString","coordinates":[[115.7982149,22.9146916],[115.7968937,22.9144987],[115.7952632,22.9142296],[115.7938352,22.9139745],[115.792549,22.9137035],[115.7913451,22.9134194],[115.7896886,22.9130187],[115.7877199,22.9124998],[115.7864357,22.912104],[115.7845657,22.9114958],[115.7831912,22.9110226],[115.7817584,22.9105134],[115.7762878,22.9084953]]},"properties":{"key":"way:818797825@detail:463_91","osmType":"way","osmId":818797825,"sourceRegion":"guangdong","featureType":"infrastructure","railClass":"highspeed","mode":"rail","name":"甬广高速线","nameEn":"Ningbo–Guangzhou Highspeed-Railway","ref":"汕汕高速线","usage":"main","highspeed":"yes","bridge":"yes","status":"operational","color":"#E54848","dataOrigin":"datum-2026-08-01","sourceKey":"way:818797825"}},{"type":"Feature","geometry":{"type":"LineString","coordinates":[[115.7762878,22.9084953],[115.7735098,22.9074582]]},"properties":{"key":"way:818797826@detail:463_91","osmType":"way","osmId":818797826,"sourceRegion":"guangdong","featureType":"infrastructure","railClass":"highspeed","mode":"rail","name":"甬广高速线","nameEn":"Ningbo–Guangzhou Highspeed-Railway","ref":"汕汕高速线","usage":"main","highspeed":"yes","status":"operational","color":"#E54848","dataOrigin":"datum-2026-08-01","sourceKey":"way:818797826"}},{"type":"Feature","geometry":{"type":"LineString","coordinates":[[115.7735098,22.9074582],[115.7723226,22.9070237],[115.7714505,22.906697],[115.7706203,22.9063816],[115.7697539,22.9060863],[115.7689101,22.9057754],[115.7680823,22.9054936],[115.7672155,22.9052054],[115.7663683,22.9049225],[115.7655245,22.9046539],[115.7647899,22.904425],[115.7640632,22.9042106],[115.76264,22.9038105],[115.7619004,22.9035905],[115.7610084,22.9033672],[115.7594444,22.9029978],[115.7578015,22.9026399],[115.7561952,22.9023119],[115.7546144,22.9020337],[115.7530597,22.9017843],[115.7510622,22.9015083],[115.75,22.90139380605845]]},"properties":{"key":"way:818797827@detail:463_91","osmType":"way","osmId":818797827,"sourceRegion":"guangdong","featureType":"infrastructure","railClass":"highspeed","mode":"rail","name":"甬广高速线","nameEn":"Ningbo–Guangzhou Highspeed-Railway","ref":"汕汕高速线","usage":"main","highspeed":"yes","bridge":"yes","status":"operational","color":"#E54848","dataOrigin":"datum-2026-08-01","sourceKey":"way:818797827"}},{"type":"Feature","geometry":{"type":"LineString","coordinates":[[115.75,22.901452651080007],[115.7510384,22.9015653],[115.7530391,22.9018383],[115.7545971,22.9020847],[115.7561844,22.9023719],[115.7577842,22.9026909],[115.7594238,22.9030518],[115.7601973,22.9032276],[115.7610074,22.9034302],[115.7618766,22.9036535],[115.7626226,22.9038614],[115.7640327,22.9042615],[115.7647399,22.9044699],[115.7654582,22.9046868],[115.7663476,22.9049704],[115.7671981,22.9052563],[115.7680486,22.9055416],[115.7688764,22.9058263],[115.7697137,22.9061252],[115.7705996,22.9064385],[115.7714493,22.9067509],[115.7723019,22.9070716],[115.7734883,22.9075116]]},"properties":{"key":"way:1124621668@detail:463_91","osmType":"way","osmId":1124621668,"sourceRegion":"guangdong","featureType":"infrastructure","railClass":"highspeed","mode":"rail","name":"甬广高速线","nameEn":"Ningbo–Guangzhou Highspeed-Railway","ref":"汕汕高速线","usage":"main","highspeed":"yes","bridge":"yes","status":"operational","color":"#E54848","dataOrigin":"datum-2026-08-01","sourceKey":"way:1124621668"}},{"type":"Feature","geometry":{"type":"LineString","coordinates":[[115.7734883,22.9075116],[115.7762723,22.9085457]]},"properties":{"key":"way:1124621670@detail:463_91","osmType":"way","osmId":1124621670,"sourceRegion":"guangdong","featureType":"infrastructure","railClass":"highspeed","mode":"rail","name":"甬广高速线","nameEn":"Ningbo–Guangzhou Highspeed-Railway","ref":"汕汕高速线","usage":"main","highspeed":"yes","status":"operational","color":"#E54848","dataOrigin":"datum-2026-08-01","sourceKey":"way:1124621670"}},{"type":"Feature","geometry":{"type":"LineString","coordinates":[[115.7762723,22.9085457],[115.78175,22.9105688],[115.7831567,22.911072],[115.7845507,22.9115511],[115.7864013,22.9121503],[115.7877179,22.9125551],[115.7896656,22.9130725],[115.791366,22.9134867],[115.7925178,22.9137528],[115.793817,22.9140238],[115.7952743,22.9142969],[115.7968527,22.914557],[115.7982097,22.9147499]]},"properties":{"key":"way:1124621671@detail:463_91","osmType":"way","osmId":1124621671,"sourceRegion":"guangdong","featureType":"infrastructure","railClass":"highspeed","mode":"rail","name":"甬广高速线","nameEn":"Ningbo–Guangzhou Highspeed-Railway","ref":"汕汕高速线","usage":"main","highspeed":"yes","bridge":"yes","status":"operational","color":"#E54848","dataOrigin":"datum-2026-08-01","sourceKey":"way:1124621671"}},{"type":"Feature","geometry":{"type":"LineString","coordinates":[[115.7982097,22.9147499],[115.7990539,22.9148447],[115.79989,22.9149338],[115.8007242,22.9150168],[115.8015661,22.9150999],[115.802383,22.9151588],[115.8032236,22.9152176],[115.8040651,22.9152794],[115.8049424,22.9153232],[115.8057623,22.9153474],[115.8066045,22.9153755],[115.8074806,22.9153986],[115.8175508,22.9154384],[115.8319596,22.9154187],[115.8349408,22.9154135],[115.8374569,22.9154298],[115.8399818,22.9154298],[115.8438778,22.9153882]]},"properties":{"key":"way:1124621672@detail:463_91","osmType":"way","osmId":1124621672,"sourceRegion":"guangdong","featureType":"infrastructure","railClass":"highspeed","mode":"rail","name":"甬广高速线","nameEn":"Ningbo–Guangzhou Highspeed-Railway","ref":"汕汕高速线","usage":"main","highspeed":"yes","status":"operational","color":"#E54848","dataOrigin":"datum-2026-08-01","sourceKey":"way:1124621672"}},{"type":"Feature","geometry":{"type":"LineString","coordinates":[[115.8916224,22.9061049],[115.8998398,22.9042171],[115.900616,22.9040585],[115.9014511,22.9039332],[115.9023017,22.9037789],[115.9030514,22.9036496],[115.9038894,22.9035311],[115.9046549,22.9034096],[115.9054988,22.9032829],[115.90654,22.9031497],[115.9075233,22.9030354],[115.9083441,22.9029572],[115.9092786,22.9028732],[115.9102175,22.9027749],[115.9111393,22.9027023],[115.9120942,22.9026221],[115.9130245,22.9025808],[115.9140357,22.9025304],[115.9149027,22.9025013],[115.9158647,22.902478],[115.9167927,22.9024595],[115.9176809,22.9024468],[115.9222069,22.9025169],[115.9240318,22.902566],[115.9304233,22.9027804],[115.9367539,22.9029397],[115.9430986,22.9031034],[115.9484176,22.9032635]]},"properties":{"key":"way:1124621676@detail:463_91","osmType":"way","osmId":1124621676,"sourceRegion":"guangdong","featureType":"infrastructure","railClass":"highspeed","mode":"rail","name":"甬广高速线","nameEn":"Ningbo–Guangzhou Highspeed-Railway","ref":"汕汕高速线","usage":"main","highspeed":"yes","bridge":"yes","status":"operational","color":"#E54848","dataOrigin":"datum-2026-08-01","sourceKey":"way:1124621676"}},{"type":"Feature","geometry":{"type":"LineString","coordinates":[[115.9944733,22.9046883],[116.0,22.90484420206706]]},"properties":{"key":"way:1124621677@detail:463_91","osmType":"way","osmId":1124621677,"sourceRegion":"guangdong","featureType":"infrastructure","railClass":"highspeed","mode":"rail","name":"甬广高速线","nameEn":"Ningbo–Guangzhou Highspeed-Railway","ref":"汕汕高速线","usage":"main","highspeed":"yes","status":"operational","color":"#E54848","dataOrigin":"datum-2026-08-01","sourceKey":"way:1124621677"}},{"type":"Feature","geometry":{"type":"LineString","coordinates":[[115.9484176,22.9032635],[115.960447,22.903644]]},"properties":{"key":"way:1193718059@detail:463_91","osmType":"way","osmId":1193718059,"sourceRegion":"guangdong","featureType":"infrastructure","railClass":"highspeed","mode":"rail","name":"甬广高速线","nameEn":"Ningbo–Guangzhou Highspeed-Railway","ref":"汕汕高速线","usage":"main","highspeed":"yes","status":"operational","color":"#E54848","dataOrigin":"datum-2026-08-01","sourceKey":"way:1193718059"}},{"type":"Feature","geometry":{"type":"LineString","coordinates":[[115.9604519,22.9035686],[115.9484195,22.903206]]},"properties":{"key":"way:1193718060@detail:463_91","osmType":"way","osmId":1193718060,"sourceRegion":"guangdong","featureType":"infrastructure","railClass":"highspeed","mode":"rail","name":"甬广高速线","nameEn":"Ningbo–Guangzhou Highspeed-Railway","ref":"汕汕高速线","usage":"main","highspeed":"yes","status":"operational","color":"#E54848","dataOrigin":"datum-2026-08-01","sourceKey":"way:1193718060"}},{"type":"Feature","geometry":{"type":"LineString","coordinates":[[115.960447,22.903644],[115.965277,22.9038019]]},"properties":{"key":"way:1193718061@detail:463_91","osmType":"way","osmId":1193718061,"sourceRegion":"guangdong","featureType":"infrastructure","railClass":"highspeed","mode":"rail","name":"甬广高速线","nameEn":"Ningbo–Guangzhou Highspeed-Railway","ref":"汕汕高速线","usage":"main","highspeed":"yes","bridge":"yes","status":"operational","color":"#E54848","dataOrigin":"datum-2026-08-01","sourceKey":"way:1193718061"}},{"type":"Feature","geometry":{"type":"LineString","coordinates":[[115.965277,22.9038019],[115.9677846,22.9038797]]},"properties":{"key":"way:1193718062@detail:463_91","osmType":"way","osmId":1193718062,"sourceRegion":"guangdong","featureType":"infrastructure","railClass":"highspeed","mode":"rail","name":"甬广高速线","nameEn":"Ningbo–Guangzhou Highspeed-Railway","ref":"汕汕高速线","usage":"main","highspeed":"yes","status":"operational","color":"#E54848","dataOrigin":"datum-2026-08-01","sourceKey":"way:1193718062"}},{"type":"Feature","geometry":{"type":"LineString","coordinates":[[115.9652751,22.9037426],[115.9604519,22.9035686]]},"properties":{"key":"way:1193718063@detail:463_91","osmType":"way","osmId":1193718063,"sourceRegion":"guangdong","featureType":"infrastructure","railClass":"highspeed","mode":"rail","name":"甬广高速线","nameEn":"Ningbo–Guangzhou Highspeed-Railway","ref":"汕汕高速线","usage":"main","highspeed":"yes","bridge":"yes","status":"operational","color":"#E54848","dataOrigin":"datum-2026-08-01","sourceKey":"way:1193718063"}},{"type":"Feature","geometry":{"type":"LineString","coordinates":[[115.9677843,22.9038048],[115.9652751,22.9037426]]},"properties":{"key":"way:1193718064@detail:463_91","osmType":"way","osmId":1193718064,"sourceRegion":"guangdong","featureType":"infrastructure","railClass":"highspeed","mode":"rail","name":"甬广高速线","nameEn":"Ningbo–Guangzhou Highspeed-Railway","ref":"汕汕高速线","usage":"main","highspeed":"yes","status":"operational","color":"#E54848","dataOrigin":"datum-2026-08-01","sourceKey":"way:1193718064"}},{"type":"Feature","geometry":{"type":"LineString","coordinates":[[115.9677846,22.9038797],[115.97487,22.9040997]]},"properties":{"key":"way:1193718065@detail:463_91","osmType":"way","osmId":1193718065,"sourceRegion":"guangdong","featureType":"infrastructure","railClass":"highspeed","mode":"rail","name":"甬广高速线","nameEn":"Ningbo–Guangzhou Highspeed-Railway","ref":"汕汕高速线","usage":"main","highspeed":"yes","bridge":"yes","status":"operational","color":"#E54848","dataOrigin":"datum-2026-08-01","sourceKey":"way:1193718065"}},{"type":"Feature","geometry":{"type":"LineString","coordinates":[[115.9748748,22.904038],[115.9677843,22.9038048]]},"properties":{"key":"way:1193718066@detail:463_91","osmType":"way","osmId":1193718066,"sourceRegion":"guangdong","featureType":"infrastructure","railClass":"highspeed","mode":"rail","name":"甬广高速线","nameEn":"Ningbo–Guangzhou Highspeed-Railway","ref":"汕汕高速线","usage":"main","highspeed":"yes","bridge":"yes","status":"operational","color":"#E54848","dataOrigin":"datum-2026-08-01","sourceKey":"way:1193718066"}},{"type":"Feature","geometry":{"type":"LineString","coordinates":[[115.9840984,22.90432],[115.9748748,22.904038]]},"properties":{"key":"way:1193718067@detail:463_91","osmType":"way","osmId":1193718067,"sourceRegion":"guangdong","featureType":"infrastructure","railClass":"highspeed","mode":"rail","name":"甬广高速线","nameEn":"Ningbo–Guangzhou Highspeed-Railway","ref":"汕汕高速线","usage":"main","highspeed":"yes","status":"operational","color":"#E54848","dataOrigin":"datum-2026-08-01","sourceKey":"way:1193718067"}},{"type":"Feature","geometry":{"type":"LineString","coordinates":[[115.97487,22.9040997],[115.9840951,22.904378]]},"properties":{"key":"way:1193718068@detail:463_91","osmType":"way","osmId":1193718068,"sourceRegion":"guangdong","featureType":"infrastructure","railClass":"highspeed","mode":"rail","name":"甬广高速线","nameEn":"Ningbo–Guangzhou Highspeed-Railway","ref":"汕汕高速线","usage":"main","highspeed":"yes","status":"operational","color":"#E54848","dataOrigin":"datum-2026-08-01","sourceKey":"way:1193718068"}},{"type":"Feature","geometry":{"type":"LineString","coordinates":[[115.9840951,22.904378],[115.9944733,22.9046883]]},"properties":{"key":"way:1193718069@detail:463_91","osmType":"way","osmId":1193718069,"sourceRegion":"guangdong","featureType":"infrastructure","railClass":"highspeed","mode":"rail","name":"甬广高速线","nameEn":"Ningbo–Guangzhou Highspeed-Railway","ref":"汕汕高速线","usage":"main","highspeed":"yes","bridge":"yes","status":"operational","color":"#E54848","dataOrigin":"datum-2026-08-01","sourceKey":"way:1193718069"}},{"type":"Feature","geometry":{"type":"LineString","coordinates":[[115.9944641,22.9046213],[115.9840984,22.90432]]},"properties":{"key":"way:1193718070@detail:463_91","osmType":"way","osmId":1193718070,"sourceRegion":"guangdong","featureType":"infrastructure","railClass":"highspeed","mode":"rail","name":"甬广高速线","nameEn":"Ningbo–Guangzhou Highspeed-Railway","ref":"汕汕高速线","usage":"main","highspeed":"yes","bridge":"yes","status":"operational","color":"#E54848","dataOrigin":"datum-2026-08-01","sourceKey":"way:1193718070"}},{"type":"Feature","geometry":{"type":"LineString","coordinates":[[115.8800994,22.908716],[115.8805999,22.9085595],[115.881131,22.9084137]]},"properties":{"key":"way:1478717214@detail:463_91","osmType":"way","osmId":1478717214,"sourceRegion":"guangdong","featureType":"infrastructure","railClass":"minor","mode":"rail","name":"未命名","service":"yard","status":"operational","color":"#52636F","dataOrigin":"datum-2026-08-01","sourceKey":"way:1478717214"}},{"type":"Feature","geometry":{"type":"LineString","coordinates":[[115.8726311,22.9082976],[115.8764425,22.9086361],[115.87659,22.9086509],[115.8787009,22.9088288],[115.8792132,22.908856],[115.8796209,22.9088164],[115.8800994,22.908716],[115.8805034,22.9086311],[115.8813107,22.9084359]]},"properties":{"key":"way:1478717215@detail:463_91","osmType":"way","osmId":1478717215,"sourceRegion":"guangdong","featureType":"infrastructure","railClass":"minor","mode":"rail","name":"未命名","service":"yard","status":"operational","color":"#52636F","dataOrigin":"datum-2026-08-01","sourceKey":"way:1478717215"}},{"type":"Feature","geometry":{"type":"LineString","coordinates":[[115.8806085,22.9086557],[115.8813107,22.9084359],[115.8864203,22.9072303],[115.8873001,22.9070227],[115.8878231,22.906914],[115.8891888,22.9066289]]},"properties":{"key":"way:1478717216@detail:463_91","osmType":"way","osmId":1478717216,"sourceRegion":"guangdong","featureType":"infrastructure","railClass":"minor","mode":"rail","name":"未命名","service":"yard","status":"operational","color":"#52636F","dataOrigin":"datum-2026-08-01","sourceKey":"way:1478717216"}},{"type":"Feature","geometry":{"type":"LineString","coordinates":[[115.8807534,22.9086728],[115.881536,22.9085422],[115.8828315,22.9082408],[115.887225,22.9071957],[115.8879358,22.9069931],[115.8885808,22.9068275],[115.8891668,22.9066598]]},"properties":{"key":"way:1478717217@detail:463_91","osmType":"way","osmId":1478717217,"sourceRegion":"guangdong","featureType":"infrastructure","railClass":"minor","mode":"rail","name":"未命名","service":"yard","status":"operational","color":"#52636F","dataOrigin":"datum-2026-08-01","sourceKey":"way:1478717217"}},{"type":"Feature","geometry":{"type":"LineString","coordinates":[[115.8691844,22.9114328],[115.877559,22.9094356]]},"properties":{"key":"way:1478717218@detail:463_91","osmType":"way","osmId":1478717218,"sourceRegion":"guangdong","featureType":"infrastructure","railClass":"highspeed","mode":"rail","name":"甬广高速线","nameEn":"Ningbo–Guangzhou Highspeed-Railway","ref":"汕汕高速线","usage":"main","highspeed":"yes","bridge":"yes","status":"operational","color":"#E54848","dataOrigin":"datum-2026-08-01","sourceKey":"way:1478717218"}},{"type":"Feature","geometry":{"type":"LineString","coordinates":[[115.8775315,22.9093847],[115.8691791,22.9113661]]},"properties":{"key":"way:1478717219@detail:463_91","osmType":"way","osmId":1478717219,"sourceRegion":"guangdong","featureType":"infrastructure","railClass":"highspeed","mode":"rail","name":"甬广高速线","nameEn":"Ningbo–Guangzhou Highspeed-Railway","ref":"汕汕高速线","usage":"main","highspeed":"yes","bridge":"yes","status":"operational","color":"#E54848","dataOrigin":"datum-2026-08-01","sourceKey":"way:1478717219"}},{"type":"Feature","geometry":{"type":"LineString","coordinates":[[115.8510345,22.9148635],[115.8503044,22.9149188],[115.8495758,22.914984],[115.8488465,22.9150419],[115.8481166,22.9150927],[115.8473861,22.9151362],[115.8452723,22.9152873]]},"properties":{"key":"way:1478717220@detail:463_91","osmType":"way","osmId":1478717220,"sourceRegion":"guangdong","featureType":"infrastructure","railClass":"highspeed","mode":"rail","name":"甬广高速线","nameEn":"Ningbo–Guangzhou Highspeed-Railway","ref":"汕汕高速线","usage":"main","highspeed":"yes","status":"operational","color":"#E54848","dataOrigin":"datum-2026-08-01","sourceKey":"way:1478717220"}},{"type":"Feature","geometry":{"type":"LineString","coordinates":[[115.8452644,22.9153437],[115.8474061,22.9152011],[115.8486698,22.9151164],[115.8493997,22.9150656],[115.850129,22.9150077],[115.8510454,22.9149277]]},"properties":{"key":"way:1478717221@detail:463_91","osmType":"way","osmId":1478717221,"sourceRegion":"guangdong","featureType":"infrastructure","railClass":"highspeed","mode":"rail","name":"甬广高速线","nameEn":"Ningbo–Guangzhou Highspeed-Railway","ref":"汕汕高速线","usage":"main","highspeed":"yes","status":"operational","color":"#E54848","dataOrigin":"datum-2026-08-01","sourceKey":"way:1478717221"}},{"type":"Feature","geometry":{"type":"LineString","coordinates":[[115.8452723,22.9152873],[115.8438617,22.9153289]]},"properties":{"key":"way:1478717222@detail:463_91","osmType":"way","osmId":1478717222,"sourceRegion":"guangdong","featureType":"infrastructure","railClass":"highspeed","mode":"rail","name":"甬广高速线","nameEn":"Ningbo–Guangzhou Highspeed-Railway","ref":"汕汕高速线","usage":"main","highspeed":"yes","bridge":"yes","status":"operational","color":"#E54848","dataOrigin":"datum-2026-08-01","sourceKey":"way:1478717222"}},{"type":"Feature","geometry":{"type":"LineString","coordinates":[[115.8570676,22.914043],[115.8558136,22.9142592],[115.8549635,22.914382],[115.8541732,22.9144981],[115.8533384,22.9146101],[115.8524993,22.9147103],[115.8516777,22.9148039],[115.8510345,22.9148635]]},"properties":{"key":"way:1478717223@detail:463_91","osmType":"way","osmId":1478717223,"sourceRegion":"guangdong","featureType":"infrastructure","railClass":"highspeed","mode":"rail","name":"甬广高速线","nameEn":"Ningbo–Guangzhou Highspeed-Railway","ref":"汕汕高速线","usage":"main","highspeed":"yes","bridge":"yes","status":"operational","color":"#E54848","dataOrigin":"datum-2026-08-01","sourceKey":"way:1478717223"}},{"type":"Feature","geometry":{"type":"LineString","coordinates":[[115.8510454,22.9149277],[115.8516816,22.91486],[115.8525045,22.9147683],[115.8533261,22.9146673],[115.8541464,22.9145572],[115.8549651,22.9144378],[115.8557822,22.9143093],[115.8562719,22.9142241],[115.8570925,22.914084]]},"properties":{"key":"way:1478717224@detail:463_91","osmType":"way","osmId":1478717224,"sourceRegion":"guangdong","featureType":"infrastructure","railClass":"highspeed","mode":"rail","name":"甬广高速线","nameEn":"Ningbo–Guangzhou Highspeed-Railway","ref":"汕汕高速线","usage":"main","highspeed":"yes","bridge":"yes","status":"operational","color":"#E54848","dataOrigin":"datum-2026-08-01","sourceKey":"way:1478717224"}},{"type":"Feature","geometry":{"type":"LineString","coordinates":[[115.8438778,22.9153882],[115.8452644,22.9153437]]},"properties":{"key":"way:1478717225@detail:463_91","osmType":"way","osmId":1478717225,"sourceRegion":"guangdong","featureType":"infrastructure","railClass":"highspeed","mode":"rail","name":"甬广高速线","nameEn":"Ningbo–Guangzhou Highspeed-Railway","ref":"汕汕高速线","usage":"main","highspeed":"yes","bridge":"yes","status":"operational","color":"#E54848","dataOrigin":"datum-2026-08-01","sourceKey":"way:1478717225"}},{"type":"Feature","geometry":{"type":"LineString","coordinates":[[115.8633956,22.9127925],[115.8645411,22.9125135],[115.865947,22.9121669],[115.8691844,22.9114328]]},"properties":{"key":"way:1478717226@detail:463_91","osmType":"way","osmId":1478717226,"sourceRegion":"guangdong","featureType":"infrastructure","railClass":"highspeed","mode":"rail","name":"甬广高速线","nameEn":"Ningbo–Guangzhou Highspeed-Railway","ref":"汕汕高速线","usage":"main","highspeed":"yes","status":"operational","color":"#E54848","dataOrigin":"datum-2026-08-01","sourceKey":"way:1478717226"}},{"type":"Feature","geometry":{"type":"LineString","coordinates":[[115.8580336,22.913932],[115.859931,22.9135528],[115.8614393,22.9132426],[115.8633956,22.9127925]]},"properties":{"key":"way:1478717227@detail:463_91","osmType":"way","osmId":1478717227,"sourceRegion":"guangdong","featureType":"infrastructure","railClass":"highspeed","mode":"rail","name":"甬广高速线","nameEn":"Ningbo–Guangzhou Highspeed-Railway","ref":"汕汕高速线","usage":"main","highspeed":"yes","bridge":"yes","status":"operational","color":"#E54848","dataOrigin":"datum-2026-08-01","sourceKey":"way:1478717227"}},{"type":"Feature","geometry":{"type":"LineString","coordinates":[[115.8633742,22.9127355],[115.8614122,22.9132005],[115.8599442,22.9135032],[115.8580386,22.9138725]]},"properties":{"key":"way:1478717228@detail:463_91","osmType":"way","osmId":1478717228,"sourceRegion":"guangdong","featureType":"infrastructure","railClass":"highspeed","mode":"rail","name":"甬广高速线","nameEn":"Ningbo–Guangzhou Highspeed-Railway","ref":"汕汕高速线","usage":"main","highspeed":"yes","bridge":"yes","status":"operational","color":"#E54848","dataOrigin":"datum-2026-08-01","sourceKey":"way:1478717228"}},{"type":"Feature","geometry":{"type":"LineString","coordinates":[[115.8691791,22.9113661],[115.8659121,22.9120974],[115.8645371,22.9124519],[115.8633742,22.9127355]]},"properties":{"key":"way:1478717229@detail:463_91","osmType":"way","osmId":1478717229,"sourceRegion":"guangdong","featureType":"infrastructure","railClass":"highspeed","mode":"rail","name":"甬广高速线","nameEn":"Ningbo–Guangzhou Highspeed-Railway","ref":"汕汕高速线","usage":"main","highspeed":"yes","status":"operational","color":"#E54848","dataOrigin":"datum-2026-08-01","sourceKey":"way:1478717229"}},{"type":"Feature","geometry":{"type":"LineString","coordinates":[[115.877559,22.9094356],[115.8807534,22.9086728],[115.8864316,22.9073216],[115.8891668,22.9066598],[115.8916224,22.9061049]]},"properties":{"key":"way:1478717230@detail:463_91","osmType":"way","osmId":1478717230,"sourceRegion":"guangdong","featureType":"infrastructure","railClass":"highspeed","mode":"rail","name":"甬广高速线","nameEn":"Ningbo–Guangzhou Highspeed-Railway","ref":"汕汕高速线","usage":"main","highspeed":"yes","status":"operational","color":"#E54848","dataOrigin":"datum-2026-08-01","sourceKey":"way:1478717230"}},{"type":"Feature","geometry":{"type":"LineString","coordinates":[[115.8570925,22.914084],[115.8580336,22.913932]]},"properties":{"key":"way:1478717231@detail:463_91","osmType":"way","osmId":1478717231,"sourceRegion":"guangdong","featureType":"infrastructure","railClass":"highspeed","mode":"rail","name":"甬广高速线","nameEn":"Ningbo–Guangzhou Highspeed-Railway","ref":"汕汕高速线","usage":"main","highspeed":"yes","status":"operational","color":"#E54848","dataOrigin":"datum-2026-08-01","sourceKey":"way:1478717231"}},{"type":"Feature","geometry":{"type":"LineString","coordinates":[[115.8580386,22.9138725],[115.8570676,22.914043]]},"properties":{"key":"way:1478717232@detail:463_91","osmType":"way","osmId":1478717232,"sourceRegion":"guangdong","featureType":"infrastructure","railClass":"highspeed","mode":"rail","name":"甬广高速线","nameEn":"Ningbo–Guangzhou Highspeed-Railway","ref":"汕汕高速线","usage":"main","highspeed":"yes","status":"operational","color":"#E54848","dataOrigin":"datum-2026-08-01","sourceKey":"way:1478717232"}},{"type":"Feature","geometry":{"type":"LineString","coordinates":[[115.8916071,22.9060611],[115.8891888,22.9066289],[115.8863854,22.9072871],[115.8806085,22.9086557],[115.8775315,22.9093847]]},"properties":{"key":"way:1478717233@detail:463_91","osmType":"way","osmId":1478717233,"sourceRegion":"guangdong","featureType":"infrastructure","railClass":"highspeed","mode":"rail","name":"甬广高速线","nameEn":"Ningbo–Guangzhou Highspeed-Railway","ref":"汕汕高速线","usage":"main","highspeed":"yes","status":"operational","color":"#E54848","dataOrigin":"datum-2026-08-01","sourceKey":"way:1478717233"}}]}