{"type":"FeatureCollection","features":[{"type":"Feature","geometry":{"type":"Point","coordinates":[115.9550661,24.0518159]},"properties":{"key":"node:7707577737","osmType":"node","osmId":7707577737,"sourceRegion":"guangdong","featureType":"station","railClass":"minor","mode":"station","name":"畬江","nameEn":"Shejiang","status":"operational","color":"#52636F","dataOrigin":"datum-2026-08-01","sourceKey":"node:7707577737","stationGroup":"畬江","hasOperationalRail":true,"hasConstructionRail":false}},{"type":"Feature","geometry":{"type":"Point","coordinates":[115.8836818,24.0386942]},"properties":{"key":"node:9980091032","osmType":"node","osmId":9980091032,"sourceRegion":"guangdong","featureType":"station","railClass":"minor","mode":"station","name":"新墟镇","status":"operational","color":"#52636F","dataOrigin":"datum-2026-08-01","sourceKey":"node:9980091032","stationGroup":"新墟镇","hasOperationalRail":true,"hasConstructionRail":false}},{"type":"Feature","geometry":{"type":"Point","coordinates":[115.7885009,24.105281]},"properties":{"key":"node:9992012167","osmType":"node","osmId":9992012167,"sourceRegion":"guangdong","featureType":"station","railClass":"highspeed","mode":"station","name":"兴宁南","usage":"main","highspeed":"yes","status":"operational","color":"#E54848","dataOrigin":"datum-2026-08-01","sourceKey":"node:9992012167","stationGroup":"兴宁南","hasOperationalRail":true,"hasConstructionRail":false}},{"type":"Feature","geometry":{"type":"LineString","coordinates":[[115.9353701,24.0555308],[115.93818,24.055488],[115.939158,24.055593],[115.940343,24.055893],[115.942569,24.056849],[115.943258,24.057083],[115.944465,24.057278],[115.944954,24.057283],[115.945698,24.057213],[115.946621,24.056956],[115.947694,24.056396],[115.951674,24.053735],[115.961696,24.047211]]},"properties":{"key":"way:148846606@detail:463_96","osmType":"way","osmId":148846606,"sourceRegion":"guangdong","featureType":"infrastructure","railClass":"national","mode":"rail","name":"漳龙线","ref":"0067","usage":"main","status":"operational","color":"#E54848","dataOrigin":"datum-2026-08-01","sourceKey":"way:148846606"}},{"type":"Feature","geometry":{"type":"LineString","coordinates":[[115.75,24.082795548890093],[115.751155,24.0818604],[115.7524551,24.080953],[115.7563614,24.0782117],[115.766009,24.071406],[115.766621,24.071003],[115.767284,24.070666],[115.767998,24.070391],[115.76899,24.070118],[115.769754,24.069984],[115.7707735,24.0699358],[115.772063,24.069981],[115.774871,24.070439],[115.775933,24.070536],[115.777013,24.070521],[115.778346,24.070305],[115.7797729,24.0698982],[115.781201,24.069491],[115.7824115,24.0690514],[115.7835791,24.0685502],[115.795771,24.0633],[115.796578,24.063061],[115.797413,24.062881],[115.802301,24.0622693],[115.80362,24.061986],[115.804439,24.061723],[115.804968,24.061509],[115.8058929,24.0610376],[115.806691,24.06054],[115.807353,24.060055],[115.808334,24.059081],[115.810848,24.055936],[115.811563,24.055134],[115.812354,24.054411],[115.812991,24.053919],[115.813661,24.053469],[115.814381,24.0531],[115.854524,24.038506],[115.856111,24.038],[115.857466,24.037656],[115.861039,24.036798],[115.862728,24.036514],[115.8665711,24.0361615]]},"properties":{"key":"way:148846653@detail:463_96","osmType":"way","osmId":148846653,"sourceRegion":"guangdong","featureType":"infrastructure","railClass":"national","mode":"rail","name":"漳龙线","ref":"0067","usage":"main","status":"operational","color":"#E54848","dataOrigin":"datum-2026-08-01","sourceKey":"way:148846653"}},{"type":"Feature","geometry":{"type":"LineString","coordinates":[[115.961696,24.047211],[115.962318,24.046878],[115.962976,24.046621],[115.963448,24.046499],[115.964156,24.046408],[115.964869,24.0464],[115.965576,24.046483],[115.966038,24.046603],[115.966718,24.04687],[115.9707727,24.0491894]]},"properties":{"key":"way:148968989@detail:463_96","osmType":"way","osmId":148968989,"sourceRegion":"guangdong","featureType":"infrastructure","railClass":"national","mode":"rail","name":"漳龙线","ref":"0067","usage":"main","status":"operational","color":"#E54848","dataOrigin":"datum-2026-08-01","sourceKey":"way:148968989"}},{"type":"Feature","geometry":{"type":"LineString","coordinates":[[115.8665711,24.0361615],[115.8688408,24.0359799]]},"properties":{"key":"way:166567205@detail:463_96","osmType":"way","osmId":166567205,"sourceRegion":"guangdong","featureType":"infrastructure","railClass":"national","mode":"rail","name":"漳龙线","ref":"0067","usage":"main","bridge":"yes","status":"operational","color":"#E54848","dataOrigin":"datum-2026-08-01","sourceKey":"way:166567205"}},{"type":"Feature","geometry":{"type":"LineString","coordinates":[[115.954299,24.0519457],[115.9616643,24.0471768],[115.9622714,24.0467734],[115.962766,24.046448],[115.9649115,24.0450466],[115.9653915,24.0446547],[115.9658278,24.044223],[115.9662788,24.0436252],[115.9665915,24.0430208],[115.9668679,24.0423699],[115.9671661,24.0411079],[115.967857,24.0384445],[115.9680024,24.0377869],[115.9680606,24.0370895],[115.968017,24.0363655],[115.9678933,24.0358009],[115.9669697,24.0331307],[115.966737,24.0323203],[115.9665406,24.0314701],[115.9664328,24.0305647],[115.9664474,24.0297941],[115.9665056,24.0290302],[115.9669492,24.0268514]]},"properties":{"key":"way:241678602@detail:463_96","osmType":"way","osmId":241678602,"sourceRegion":"guangdong","featureType":"infrastructure","railClass":"national","mode":"rail","name":"畲龙线","ref":"0716","usage":"main","status":"operational","color":"#E54848","dataOrigin":"datum-2026-08-01","sourceKey":"way:241678602"}},{"type":"Feature","geometry":{"type":"LineString","coordinates":[[115.9707727,24.0491894],[115.9693843,24.0482811],[115.9688897,24.0479291],[115.9683952,24.047504],[115.9680097,24.0470391],[115.9676097,24.0465144],[115.9673188,24.0459897],[115.9670424,24.0453388],[115.966897,24.0448141],[115.966817,24.044316],[115.9667733,24.0438643],[115.966817,24.0432666],[115.9668897,24.0428016],[115.9671661,24.0411079]]},"properties":{"key":"way:241678603@detail:463_96","osmType":"way","osmId":241678603,"sourceRegion":"guangdong","featureType":"infrastructure","railClass":"national","mode":"rail","name":"畲江联络线","ref":"1731","usage":"branch","status":"operational","color":"#E54848","dataOrigin":"datum-2026-08-01","sourceKey":"way:241678603"}},{"type":"Feature","geometry":{"type":"LineString","coordinates":[[115.9686453,24.0194182],[115.9687046,24.019178]]},"properties":{"key":"way:241678604@detail:463_96","osmType":"way","osmId":241678604,"sourceRegion":"guangdong","featureType":"infrastructure","railClass":"national","mode":"rail","name":"畲龙线","ref":"0716","usage":"main","bridge":"yes","status":"operational","color":"#E54848","dataOrigin":"datum-2026-08-01","sourceKey":"way:241678604"}},{"type":"Feature","geometry":{"type":"LineString","coordinates":[[115.9678874,24.0227129],[115.9686453,24.0194182]]},"properties":{"key":"way:241678605@detail:463_96","osmType":"way","osmId":241678605,"sourceRegion":"guangdong","featureType":"infrastructure","railClass":"national","mode":"rail","name":"畲龙线","ref":"0716","usage":"main","status":"operational","color":"#E54848","dataOrigin":"datum-2026-08-01","sourceKey":"way:241678605"}},{"type":"Feature","geometry":{"type":"LineString","coordinates":[[115.9669492,24.0268514],[115.9678874,24.0227129]]},"properties":{"key":"way:241678606@detail:463_96","osmType":"way","osmId":241678606,"sourceRegion":"guangdong","featureType":"infrastructure","railClass":"national","mode":"rail","name":"畲龙线","ref":"0716","usage":"main","bridge":"yes","status":"operational","color":"#E54848","dataOrigin":"datum-2026-08-01","sourceKey":"way:241678606"}},{"type":"Feature","geometry":{"type":"LineString","coordinates":[[115.9766051,24.0091511],[115.9782513,24.0059716],[115.9786077,24.0052142],[115.9789349,24.0043505],[115.9796986,24.0016996],[115.98039130074933,24.0]]},"properties":{"key":"way:241678607@detail:463_96","osmType":"way","osmId":241678607,"sourceRegion":"guangdong","featureType":"infrastructure","railClass":"national","mode":"rail","name":"畲龙线","ref":"0716","usage":"main","status":"operational","color":"#E54848","dataOrigin":"datum-2026-08-01","sourceKey":"way:241678607"}},{"type":"Feature","geometry":{"type":"LineString","coordinates":[[115.9976453,24.068548],[115.9992809,24.0687131],[116.0,24.068880112159643]]},"properties":{"key":"way:241678608@detail:463_96","osmType":"way","osmId":241678608,"sourceRegion":"guangdong","featureType":"infrastructure","railClass":"national","mode":"rail","name":"漳龙线","ref":"0067","usage":"main","status":"operational","color":"#E54848","dataOrigin":"datum-2026-08-01","sourceKey":"way:241678608"}},{"type":"Feature","geometry":{"type":"LineString","coordinates":[[115.7830001,24.1018833],[115.75,24.081402073459447]]},"properties":{"key":"way:1026092733@detail:463_96","osmType":"way","osmId":1026092733,"sourceRegion":"guangdong","featureType":"infrastructure","railClass":"highspeed","mode":"rail","name":"龙龙高速线","usage":"main","highspeed":"yes","bridge":"yes","status":"operational","color":"#E54848","dataOrigin":"datum-2026-08-01","sourceKey":"way:1026092733"}},{"type":"Feature","geometry":{"type":"LineString","coordinates":[[115.9647575,24.2240597],[115.9964241,24.2454438],[115.9975441,24.2461971],[115.9985715,24.2468564],[115.9996293,24.2475173],[116.0,24.24774007840035]]},"properties":{"key":"way:1090900735@detail:463_96","osmType":"way","osmId":1090900735,"sourceRegion":"guangdong","featureType":"infrastructure","railClass":"highspeed","mode":"rail","name":"龙龙高速线","usage":"main","highspeed":"yes","tunnel":"yes","status":"operational","color":"#E54848","dataOrigin":"datum-2026-08-01","sourceKey":"way:1090900735"}},{"type":"Feature","geometry":{"type":"LineString","coordinates":[[115.8536818,24.1455698],[115.847106,24.1420408]]},"properties":{"key":"way:1104331058@detail:463_96","osmType":"way","osmId":1104331058,"sourceRegion":"guangdong","featureType":"infrastructure","railClass":"highspeed","mode":"rail","name":"龙龙高速线","usage":"main","highspeed":"yes","tunnel":"yes","status":"operational","color":"#E54848","dataOrigin":"datum-2026-08-01","sourceKey":"way:1104331058"}},{"type":"Feature","geometry":{"type":"LineString","coordinates":[[115.8350499,24.1356506],[115.8334237,24.1348229],[115.8319341,24.1340096],[115.8304365,24.1331056],[115.8287651,24.132056],[115.8269002,24.1308215],[115.8184074,24.124823]]},"properties":{"key":"way:1104331059@detail:463_96","osmType":"way","osmId":1104331059,"sourceRegion":"guangdong","featureType":"infrastructure","railClass":"highspeed","mode":"rail","name":"龙龙高速线","usage":"main","highspeed":"yes","tunnel":"yes","status":"operational","color":"#E54848","dataOrigin":"datum-2026-08-01","sourceKey":"way:1104331059"}},{"type":"Feature","geometry":{"type":"LineString","coordinates":[[115.8152065,24.1225316],[115.8123476,24.1204531],[115.8108035,24.1193445],[115.8094849,24.1184631],[115.7995496,24.1121582]]},"properties":{"key":"way:1104331062@detail:463_96","osmType":"way","osmId":1104331062,"sourceRegion":"guangdong","featureType":"infrastructure","railClass":"highspeed","mode":"rail","name":"龙龙高速线","usage":"main","highspeed":"yes","bridge":"yes","status":"operational","color":"#E54848","dataOrigin":"datum-2026-08-01","sourceKey":"way:1104331062"}},{"type":"Feature","geometry":{"type":"LineString","coordinates":[[115.8609873,24.149747],[115.863636,24.1514003]]},"properties":{"key":"way:1115812051@detail:463_96","osmType":"way","osmId":1115812051,"sourceRegion":"guangdong","featureType":"infrastructure","railClass":"highspeed","mode":"rail","name":"龙龙高速线","usage":"main","highspeed":"yes","bridge":"yes","status":"operational","color":"#E54848","dataOrigin":"datum-2026-08-01","sourceKey":"way:1115812051"}},{"type":"Feature","geometry":{"type":"LineString","coordinates":[[115.863636,24.1514003],[115.8736756,24.157744],[115.8769756,24.1598948],[115.881258,24.1628596],[115.8855965,24.1659101],[115.8898984,24.1691281],[115.8932936,24.1718224],[115.8953436,24.1735304],[115.8969229,24.174892],[115.8986037,24.1764049],[115.9026484,24.18014]]},"properties":{"key":"way:1115812052@detail:463_96","osmType":"way","osmId":1115812052,"sourceRegion":"guangdong","featureType":"infrastructure","railClass":"highspeed","mode":"rail","name":"龙龙高速线","usage":"main","highspeed":"yes","tunnel":"yes","status":"operational","color":"#E54848","dataOrigin":"datum-2026-08-01","sourceKey":"way:1115812052"}},{"type":"Feature","geometry":{"type":"LineString","coordinates":[[115.9707727,24.0491894],[115.9728843,24.0503973]]},"properties":{"key":"way:1127958025@detail:463_96","osmType":"way","osmId":1127958025,"sourceRegion":"guangdong","featureType":"infrastructure","railClass":"national","mode":"rail","name":"漳龙线","ref":"0067","usage":"main","status":"operational","color":"#E54848","dataOrigin":"datum-2026-08-01","sourceKey":"way:1127958025"}},{"type":"Feature","geometry":{"type":"LineString","coordinates":[[115.9728843,24.0503973],[115.9734088,24.0507429]]},"properties":{"key":"way:1127958026@detail:463_96","osmType":"way","osmId":1127958026,"sourceRegion":"guangdong","featureType":"infrastructure","railClass":"national","mode":"rail","name":"漳龙线","ref":"0067","usage":"main","bridge":"yes","status":"operational","color":"#E54848","dataOrigin":"datum-2026-08-01","sourceKey":"way:1127958026"}},{"type":"Feature","geometry":{"type":"LineString","coordinates":[[115.8688408,24.0359799],[115.872181,24.035688],[115.873286,24.035666],[115.874381,24.035753],[115.8755866,24.0359528]]},"properties":{"key":"way:1139113929@detail:463_96","osmType":"way","osmId":1139113929,"sourceRegion":"guangdong","featureType":"infrastructure","railClass":"national","mode":"rail","name":"漳龙线","ref":"0067","usage":"main","status":"operational","color":"#E54848","dataOrigin":"datum-2026-08-01","sourceKey":"way:1139113929"}},{"type":"Feature","geometry":{"type":"LineString","coordinates":[[115.8755866,24.0359528],[115.8773765,24.0364453]]},"properties":{"key":"way:1139113930@detail:463_96","osmType":"way","osmId":1139113930,"sourceRegion":"guangdong","featureType":"infrastructure","railClass":"national","mode":"rail","name":"漳龙线","ref":"0067","usage":"main","tunnel":"yes","status":"operational","color":"#E54848","dataOrigin":"datum-2026-08-01","sourceKey":"way:1139113930"}},{"type":"Feature","geometry":{"type":"LineString","coordinates":[[115.8773765,24.0364453],[115.882391,24.037843],[115.883341,24.038176],[115.884533,24.03866],[115.885888,24.039336],[115.893188,24.043601],[115.893976,24.044164],[115.895013,24.045131],[115.896411,24.046661],[115.896803,24.047225],[115.897008,24.047615],[115.897288,24.048219],[115.897836,24.049643],[115.898318,24.050594],[115.898568,24.050946],[115.899029,24.051416],[115.899933,24.052063],[115.900324,24.052268],[115.900963,24.052508],[115.901849,24.052698],[115.90362,24.052989],[115.904499,24.053196],[115.905133,24.053423],[115.9064193,24.0539958]]},"properties":{"key":"way:1160063626@detail:463_96","osmType":"way","osmId":1160063626,"sourceRegion":"guangdong","featureType":"infrastructure","railClass":"national","mode":"rail","name":"漳龙线","ref":"0067","usage":"main","status":"operational","color":"#E54848","dataOrigin":"datum-2026-08-01","sourceKey":"way:1160063626"}},{"type":"Feature","geometry":{"type":"LineString","coordinates":[[115.9064193,24.0539958],[115.9069786,24.0542009],[115.9080789,24.0544933],[115.909295,24.0547303]]},"properties":{"key":"way:1160063627@detail:463_96","osmType":"way","osmId":1160063627,"sourceRegion":"guangdong","featureType":"infrastructure","railClass":"national","mode":"rail","name":"漳龙线","ref":"0067","usage":"main","tunnel":"yes","status":"operational","color":"#E54848","dataOrigin":"datum-2026-08-01","sourceKey":"way:1160063627"}},{"type":"Feature","geometry":{"type":"LineString","coordinates":[[115.7995496,24.1121582],[115.7830001,24.1018833]]},"properties":{"key":"way:1168194523@detail:463_96","osmType":"way","osmId":1168194523,"sourceRegion":"guangdong","featureType":"infrastructure","railClass":"highspeed","mode":"rail","name":"龙龙高速线","usage":"main","highspeed":"yes","status":"operational","color":"#E54848","dataOrigin":"datum-2026-08-01","sourceKey":"way:1168194523"}},{"type":"Feature","geometry":{"type":"LineString","coordinates":[[115.8184074,24.124823],[115.8152065,24.1225316]]},"properties":{"key":"way:1168194525@detail:463_96","osmType":"way","osmId":1168194525,"sourceRegion":"guangdong","featureType":"infrastructure","railClass":"highspeed","mode":"rail","name":"龙龙高速线","usage":"main","highspeed":"yes","status":"operational","color":"#E54848","dataOrigin":"datum-2026-08-01","sourceKey":"way:1168194525"}},{"type":"Feature","geometry":{"type":"LineString","coordinates":[[115.8383276,24.1373899],[115.8355343,24.1359077]]},"properties":{"key":"way:1168194527@detail:463_96","osmType":"way","osmId":1168194527,"sourceRegion":"guangdong","featureType":"infrastructure","railClass":"highspeed","mode":"rail","name":"龙龙高速线","usage":"main","highspeed":"yes","bridge":"yes","status":"operational","color":"#E54848","dataOrigin":"datum-2026-08-01","sourceKey":"way:1168194527"}},{"type":"Feature","geometry":{"type":"LineString","coordinates":[[115.841784,24.1392031],[115.8383276,24.1373899]]},"properties":{"key":"way:1168194528@detail:463_96","osmType":"way","osmId":1168194528,"sourceRegion":"guangdong","featureType":"infrastructure","railClass":"highspeed","mode":"rail","name":"龙龙高速线","usage":"main","highspeed":"yes","tunnel":"yes","status":"operational","color":"#E54848","dataOrigin":"datum-2026-08-01","sourceKey":"way:1168194528"}},{"type":"Feature","geometry":{"type":"LineString","coordinates":[[115.8609873,24.149747],[115.8568017,24.1472939]]},"properties":{"key":"way:1168194529@detail:463_96","osmType":"way","osmId":1168194529,"sourceRegion":"guangdong","featureType":"infrastructure","railClass":"highspeed","mode":"rail","name":"龙龙高速线","usage":"main","highspeed":"yes","tunnel":"yes","status":"operational","color":"#E54848","dataOrigin":"datum-2026-08-01","sourceKey":"way:1168194529"}},{"type":"Feature","geometry":{"type":"LineString","coordinates":[[115.9026484,24.18014],[115.9031971,24.1806543]]},"properties":{"key":"way:1168194530@detail:463_96","osmType":"way","osmId":1168194530,"sourceRegion":"guangdong","featureType":"infrastructure","railClass":"highspeed","mode":"rail","name":"龙龙高速线","usage":"main","highspeed":"yes","status":"operational","color":"#E54848","dataOrigin":"datum-2026-08-01","sourceKey":"way:1168194530"}},{"type":"Feature","geometry":{"type":"LineString","coordinates":[[115.9031971,24.1806543],[115.9048031,24.1821835]]},"properties":{"key":"way:1168194531@detail:463_96","osmType":"way","osmId":1168194531,"sourceRegion":"guangdong","featureType":"infrastructure","railClass":"highspeed","mode":"rail","name":"龙龙高速线","usage":"main","highspeed":"yes","tunnel":"yes","status":"operational","color":"#E54848","dataOrigin":"datum-2026-08-01","sourceKey":"way:1168194531"}},{"type":"Feature","geometry":{"type":"LineString","coordinates":[[115.9048031,24.1821835],[115.9070301,24.1843915]]},"properties":{"key":"way:1168194532@detail:463_96","osmType":"way","osmId":1168194532,"sourceRegion":"guangdong","featureType":"infrastructure","railClass":"highspeed","mode":"rail","name":"龙龙高速线","usage":"main","highspeed":"yes","bridge":"yes","status":"operational","color":"#E54848","dataOrigin":"datum-2026-08-01","sourceKey":"way:1168194532"}},{"type":"Feature","geometry":{"type":"LineString","coordinates":[[115.9070301,24.1843915],[115.9082523,24.1855846]]},"properties":{"key":"way:1168194533@detail:463_96","osmType":"way","osmId":1168194533,"sourceRegion":"guangdong","featureType":"infrastructure","railClass":"highspeed","mode":"rail","name":"龙龙高速线","usage":"main","highspeed":"yes","tunnel":"yes","status":"operational","color":"#E54848","dataOrigin":"datum-2026-08-01","sourceKey":"way:1168194533"}},{"type":"Feature","geometry":{"type":"LineString","coordinates":[[115.9082523,24.1855846],[115.9087921,24.1860973]]},"properties":{"key":"way:1168194534@detail:463_96","osmType":"way","osmId":1168194534,"sourceRegion":"guangdong","featureType":"infrastructure","railClass":"highspeed","mode":"rail","name":"龙龙高速线","usage":"main","highspeed":"yes","status":"operational","color":"#E54848","dataOrigin":"datum-2026-08-01","sourceKey":"way:1168194534"}},{"type":"Feature","geometry":{"type":"LineString","coordinates":[[115.9087921,24.1860973],[115.9109265,24.1881806]]},"properties":{"key":"way:1168194535@detail:463_96","osmType":"way","osmId":1168194535,"sourceRegion":"guangdong","featureType":"infrastructure","railClass":"highspeed","mode":"rail","name":"龙龙高速线","usage":"main","highspeed":"yes","tunnel":"yes","status":"operational","color":"#E54848","dataOrigin":"datum-2026-08-01","sourceKey":"way:1168194535"}},{"type":"Feature","geometry":{"type":"LineString","coordinates":[[115.9152439,24.1921431],[115.9173399,24.1938476]]},"properties":{"key":"way:1168194536@detail:463_96","osmType":"way","osmId":1168194536,"sourceRegion":"guangdong","featureType":"infrastructure","railClass":"highspeed","mode":"rail","name":"龙龙高速线","usage":"main","highspeed":"yes","bridge":"yes","status":"operational","color":"#E54848","dataOrigin":"datum-2026-08-01","sourceKey":"way:1168194536"}},{"type":"Feature","geometry":{"type":"LineString","coordinates":[[115.9180841,24.194415],[115.919373,24.1953725]]},"properties":{"key":"way:1168194537@detail:463_96","osmType":"way","osmId":1168194537,"sourceRegion":"guangdong","featureType":"infrastructure","railClass":"highspeed","mode":"rail","name":"龙龙高速线","usage":"main","highspeed":"yes","tunnel":"yes","status":"operational","color":"#E54848","dataOrigin":"datum-2026-08-01","sourceKey":"way:1168194537"}},{"type":"Feature","geometry":{"type":"LineString","coordinates":[[115.919373,24.1953725],[115.9213501,24.1967825]]},"properties":{"key":"way:1168194538@detail:463_96","osmType":"way","osmId":1168194538,"sourceRegion":"guangdong","featureType":"infrastructure","railClass":"highspeed","mode":"rail","name":"龙龙高速线","usage":"main","highspeed":"yes","bridge":"yes","status":"operational","color":"#E54848","dataOrigin":"datum-2026-08-01","sourceKey":"way:1168194538"}},{"type":"Feature","geometry":{"type":"LineString","coordinates":[[115.9213501,24.1967825],[115.9226157,24.1976218]]},"properties":{"key":"way:1168194539@detail:463_96","osmType":"way","osmId":1168194539,"sourceRegion":"guangdong","featureType":"infrastructure","railClass":"highspeed","mode":"rail","name":"龙龙高速线","usage":"main","highspeed":"yes","status":"operational","color":"#E54848","dataOrigin":"datum-2026-08-01","sourceKey":"way:1168194539"}},{"type":"Feature","geometry":{"type":"LineString","coordinates":[[115.9226157,24.1976218],[115.9242558,24.1986707]]},"properties":{"key":"way:1168194540@detail:463_96","osmType":"way","osmId":1168194540,"sourceRegion":"guangdong","featureType":"infrastructure","railClass":"highspeed","mode":"rail","name":"龙龙高速线","usage":"main","highspeed":"yes","bridge":"yes","status":"operational","color":"#E54848","dataOrigin":"datum-2026-08-01","sourceKey":"way:1168194540"}},{"type":"Feature","geometry":{"type":"LineString","coordinates":[[115.9258459,24.1996873],[115.9268484,24.200317]]},"properties":{"key":"way:1168194541@detail:463_96","osmType":"way","osmId":1168194541,"sourceRegion":"guangdong","featureType":"infrastructure","railClass":"highspeed","mode":"rail","name":"龙龙高速线","usage":"main","highspeed":"yes","status":"operational","color":"#E54848","dataOrigin":"datum-2026-08-01","sourceKey":"way:1168194541"}},{"type":"Feature","geometry":{"type":"LineString","coordinates":[[115.9279244,24.2010083],[115.9291868,24.2017966]]},"properties":{"key":"way:1168194542@detail:463_96","osmType":"way","osmId":1168194542,"sourceRegion":"guangdong","featureType":"infrastructure","railClass":"highspeed","mode":"rail","name":"龙龙高速线","usage":"main","highspeed":"yes","status":"operational","color":"#E54848","dataOrigin":"datum-2026-08-01","sourceKey":"way:1168194542"}},{"type":"Feature","geometry":{"type":"LineString","coordinates":[[115.9268484,24.200317],[115.9279244,24.2010083]]},"properties":{"key":"way:1168194543@detail:463_96","osmType":"way","osmId":1168194543,"sourceRegion":"guangdong","featureType":"infrastructure","railClass":"highspeed","mode":"rail","name":"龙龙高速线","usage":"main","highspeed":"yes","bridge":"yes","status":"operational","color":"#E54848","dataOrigin":"datum-2026-08-01","sourceKey":"way:1168194543"}},{"type":"Feature","geometry":{"type":"LineString","coordinates":[[115.9291868,24.2017966],[115.9320351,24.2036085]]},"properties":{"key":"way:1168194544@detail:463_96","osmType":"way","osmId":1168194544,"sourceRegion":"guangdong","featureType":"infrastructure","railClass":"highspeed","mode":"rail","name":"龙龙高速线","usage":"main","highspeed":"yes","bridge":"yes","status":"operational","color":"#E54848","dataOrigin":"datum-2026-08-01","sourceKey":"way:1168194544"}},{"type":"Feature","geometry":{"type":"LineString","coordinates":[[115.9320351,24.2036085],[115.9332785,24.2043662]]},"properties":{"key":"way:1168194545@detail:463_96","osmType":"way","osmId":1168194545,"sourceRegion":"guangdong","featureType":"infrastructure","railClass":"highspeed","mode":"rail","name":"龙龙高速线","usage":"main","highspeed":"yes","status":"operational","color":"#E54848","dataOrigin":"datum-2026-08-01","sourceKey":"way:1168194545"}},{"type":"Feature","geometry":{"type":"LineString","coordinates":[[115.9353136,24.2056162],[115.9394197,24.2081723]]},"properties":{"key":"way:1168194546@detail:463_96","osmType":"way","osmId":1168194546,"sourceRegion":"guangdong","featureType":"infrastructure","railClass":"highspeed","mode":"rail","name":"龙龙高速线","usage":"main","highspeed":"yes","bridge":"yes","status":"operational","color":"#E54848","dataOrigin":"datum-2026-08-01","sourceKey":"way:1168194546"}},{"type":"Feature","geometry":{"type":"LineString","coordinates":[[115.9394197,24.2081723],[115.9411652,24.209282]]},"properties":{"key":"way:1168194547@detail:463_96","osmType":"way","osmId":1168194547,"sourceRegion":"guangdong","featureType":"infrastructure","railClass":"highspeed","mode":"rail","name":"龙龙高速线","usage":"main","highspeed":"yes","status":"operational","color":"#E54848","dataOrigin":"datum-2026-08-01","sourceKey":"way:1168194547"}},{"type":"Feature","geometry":{"type":"LineString","coordinates":[[115.9411652,24.209282],[115.9420012,24.2097936]]},"properties":{"key":"way:1168194548@detail:463_96","osmType":"way","osmId":1168194548,"sourceRegion":"guangdong","featureType":"infrastructure","railClass":"highspeed","mode":"rail","name":"龙龙高速线","usage":"main","highspeed":"yes","bridge":"yes","status":"operational","color":"#E54848","dataOrigin":"datum-2026-08-01","sourceKey":"way:1168194548"}},{"type":"Feature","geometry":{"type":"LineString","coordinates":[[115.9420012,24.2097936],[115.943266,24.210589]]},"properties":{"key":"way:1168194549@detail:463_96","osmType":"way","osmId":1168194549,"sourceRegion":"guangdong","featureType":"infrastructure","railClass":"highspeed","mode":"rail","name":"龙龙高速线","usage":"main","highspeed":"yes","status":"operational","color":"#E54848","dataOrigin":"datum-2026-08-01","sourceKey":"way:1168194549"}},{"type":"Feature","geometry":{"type":"LineString","coordinates":[[115.943266,24.210589],[115.9463804,24.2125303]]},"properties":{"key":"way:1168194550@detail:463_96","osmType":"way","osmId":1168194550,"sourceRegion":"guangdong","featureType":"infrastructure","railClass":"highspeed","mode":"rail","name":"龙龙高速线","usage":"main","highspeed":"yes","bridge":"yes","status":"operational","color":"#E54848","dataOrigin":"datum-2026-08-01","sourceKey":"way:1168194550"}},{"type":"Feature","geometry":{"type":"LineString","coordinates":[[115.9463804,24.2125303],[115.9505581,24.2151342]]},"properties":{"key":"way:1168194551@detail:463_96","osmType":"way","osmId":1168194551,"sourceRegion":"guangdong","featureType":"infrastructure","railClass":"highspeed","mode":"rail","name":"龙龙高速线","usage":"main","highspeed":"yes","tunnel":"yes","status":"operational","color":"#E54848","dataOrigin":"datum-2026-08-01","sourceKey":"way:1168194551"}},{"type":"Feature","geometry":{"type":"LineString","coordinates":[[115.9537325,24.2172173],[115.9639004,24.2235068]]},"properties":{"key":"way:1168194552@detail:463_96","osmType":"way","osmId":1168194552,"sourceRegion":"guangdong","featureType":"infrastructure","railClass":"highspeed","mode":"rail","name":"龙龙高速线","usage":"main","highspeed":"yes","tunnel":"yes","status":"operational","color":"#E54848","dataOrigin":"datum-2026-08-01","sourceKey":"way:1168194552"}},{"type":"Feature","geometry":{"type":"LineString","coordinates":[[115.9639004,24.2235068],[115.9647575,24.2240597]]},"properties":{"key":"way:1168194553@detail:463_96","osmType":"way","osmId":1168194553,"sourceRegion":"guangdong","featureType":"infrastructure","railClass":"highspeed","mode":"rail","name":"龙龙高速线","usage":"main","highspeed":"yes","status":"operational","color":"#E54848","dataOrigin":"datum-2026-08-01","sourceKey":"way:1168194553"}},{"type":"Feature","geometry":{"type":"LineString","coordinates":[[115.9514446,24.215716],[115.9520049,24.2160837]]},"properties":{"key":"way:1168194554@detail:463_96","osmType":"way","osmId":1168194554,"sourceRegion":"guangdong","featureType":"infrastructure","railClass":"highspeed","mode":"rail","name":"龙龙高速线","usage":"main","highspeed":"yes","tunnel":"yes","status":"operational","color":"#E54848","dataOrigin":"datum-2026-08-01","sourceKey":"way:1168194554"}},{"type":"Feature","geometry":{"type":"LineString","coordinates":[[115.9734088,24.0507429],[115.9746608,24.0514525],[115.9755499,24.0520757],[115.976391,24.052868],[115.976848,24.053428],[115.977475,24.05444],[115.980813,24.060859],[115.981331,24.061578],[115.981766,24.06208],[115.982421,24.062699],[115.983131,24.063253],[115.985439,24.064735],[115.986459,24.065279],[115.991865,24.067746],[115.9924904,24.0680463],[115.9933449,24.0682652],[115.9941204,24.068372],[115.9959113,24.068476],[115.996539,24.068498]]},"properties":{"key":"way:1174486317@detail:463_96","osmType":"way","osmId":1174486317,"sourceRegion":"guangdong","featureType":"infrastructure","railClass":"national","mode":"rail","name":"漳龙线","ref":"0067","usage":"main","status":"operational","color":"#E54848","dataOrigin":"datum-2026-08-01","sourceKey":"way:1174486317"}},{"type":"Feature","geometry":{"type":"LineString","coordinates":[[115.996539,24.068498],[115.9976453,24.068548]]},"properties":{"key":"way:1174486318@detail:463_96","osmType":"way","osmId":1174486318,"sourceRegion":"guangdong","featureType":"infrastructure","railClass":"national","mode":"rail","name":"漳龙线","ref":"0067","usage":"main","tunnel":"yes","status":"operational","color":"#E54848","dataOrigin":"datum-2026-08-01","sourceKey":"way:1174486318"}},{"type":"Feature","geometry":{"type":"LineString","coordinates":[[115.9687046,24.019178],[115.9688183,24.0186607],[115.9691093,24.0179432],[115.9698947,24.0164551],[115.9711311,24.0141433],[115.9715893,24.0135919],[115.9721784,24.0130072],[115.9728984,24.0124293],[115.974033,24.0117848],[115.9746658,24.0113796],[115.9752621,24.0109411],[115.9757567,24.0104229],[115.9762149,24.009825],[115.9763833,24.0095523]]},"properties":{"key":"way:1174493120@detail:463_96","osmType":"way","osmId":1174493120,"sourceRegion":"guangdong","featureType":"infrastructure","railClass":"national","mode":"rail","name":"畲龙线","ref":"0716","usage":"main","status":"operational","color":"#E54848","dataOrigin":"datum-2026-08-01","sourceKey":"way:1174493120"}},{"type":"Feature","geometry":{"type":"LineString","coordinates":[[115.9763833,24.0095523],[115.9766051,24.0091511]]},"properties":{"key":"way:1174493121@detail:463_96","osmType":"way","osmId":1174493121,"sourceRegion":"guangdong","featureType":"infrastructure","railClass":"national","mode":"rail","name":"畲龙线","ref":"0716","usage":"main","bridge":"yes","status":"operational","color":"#E54848","dataOrigin":"datum-2026-08-01","sourceKey":"way:1174493121"}},{"type":"Feature","geometry":{"type":"LineString","coordinates":[[115.8427629,24.1397314],[115.841784,24.1392031]]},"properties":{"key":"way:1177191837@detail:463_96","osmType":"way","osmId":1177191837,"sourceRegion":"guangdong","featureType":"infrastructure","railClass":"highspeed","mode":"rail","name":"龙龙高速线","usage":"main","highspeed":"yes","status":"operational","color":"#E54848","dataOrigin":"datum-2026-08-01","sourceKey":"way:1177191837"}},{"type":"Feature","geometry":{"type":"LineString","coordinates":[[115.8437522,24.1402674],[115.8427629,24.1397314]]},"properties":{"key":"way:1177191838@detail:463_96","osmType":"way","osmId":1177191838,"sourceRegion":"guangdong","featureType":"infrastructure","railClass":"highspeed","mode":"rail","name":"龙龙高速线","usage":"main","highspeed":"yes","tunnel":"yes","status":"operational","color":"#E54848","dataOrigin":"datum-2026-08-01","sourceKey":"way:1177191838"}},{"type":"Feature","geometry":{"type":"LineString","coordinates":[[115.8446625,24.1407588],[115.8437522,24.1402674]]},"properties":{"key":"way:1177191839@detail:463_96","osmType":"way","osmId":1177191839,"sourceRegion":"guangdong","featureType":"infrastructure","railClass":"highspeed","mode":"rail","name":"龙龙高速线","usage":"main","highspeed":"yes","bridge":"yes","status":"operational","color":"#E54848","dataOrigin":"datum-2026-08-01","sourceKey":"way:1177191839"}},{"type":"Feature","geometry":{"type":"LineString","coordinates":[[115.8458338,24.1413892],[115.8446625,24.1407588]]},"properties":{"key":"way:1177191840@detail:463_96","osmType":"way","osmId":1177191840,"sourceRegion":"guangdong","featureType":"infrastructure","railClass":"highspeed","mode":"rail","name":"龙龙高速线","usage":"main","highspeed":"yes","tunnel":"yes","status":"operational","color":"#E54848","dataOrigin":"datum-2026-08-01","sourceKey":"way:1177191840"}},{"type":"Feature","geometry":{"type":"LineString","coordinates":[[115.847106,24.1420408],[115.8458338,24.1413892]]},"properties":{"key":"way:1177191841@detail:463_96","osmType":"way","osmId":1177191841,"sourceRegion":"guangdong","featureType":"infrastructure","railClass":"highspeed","mode":"rail","name":"龙龙高速线","usage":"main","highspeed":"yes","bridge":"yes","status":"operational","color":"#E54848","dataOrigin":"datum-2026-08-01","sourceKey":"way:1177191841"}},{"type":"Feature","geometry":{"type":"LineString","coordinates":[[115.8568017,24.1472939],[115.8536818,24.1455698]]},"properties":{"key":"way:1177191842@detail:463_96","osmType":"way","osmId":1177191842,"sourceRegion":"guangdong","featureType":"infrastructure","railClass":"highspeed","mode":"rail","name":"龙龙高速线","usage":"main","highspeed":"yes","bridge":"yes","status":"operational","color":"#E54848","dataOrigin":"datum-2026-08-01","sourceKey":"way:1177191842"}},{"type":"Feature","geometry":{"type":"LineString","coordinates":[[115.9109265,24.1881806],[115.9137184,24.190804]]},"properties":{"key":"way:1177191843@detail:463_96","osmType":"way","osmId":1177191843,"sourceRegion":"guangdong","featureType":"infrastructure","railClass":"highspeed","mode":"rail","name":"龙龙高速线","usage":"main","highspeed":"yes","bridge":"yes","status":"operational","color":"#E54848","dataOrigin":"datum-2026-08-01","sourceKey":"way:1177191843"}},{"type":"Feature","geometry":{"type":"LineString","coordinates":[[115.9137184,24.190804],[115.9152439,24.1921431]]},"properties":{"key":"way:1177191844@detail:463_96","osmType":"way","osmId":1177191844,"sourceRegion":"guangdong","featureType":"infrastructure","railClass":"highspeed","mode":"rail","name":"龙龙高速线","usage":"main","highspeed":"yes","status":"operational","color":"#E54848","dataOrigin":"datum-2026-08-01","sourceKey":"way:1177191844"}},{"type":"Feature","geometry":{"type":"LineString","coordinates":[[115.9248154,24.1990285],[115.9258459,24.1996873]]},"properties":{"key":"way:1177191845@detail:463_96","osmType":"way","osmId":1177191845,"sourceRegion":"guangdong","featureType":"infrastructure","railClass":"highspeed","mode":"rail","name":"龙龙高速线","usage":"main","highspeed":"yes","bridge":"yes","status":"operational","color":"#E54848","dataOrigin":"datum-2026-08-01","sourceKey":"way:1177191845"}},{"type":"Feature","geometry":{"type":"LineString","coordinates":[[115.9242558,24.1986707],[115.9248154,24.1990285]]},"properties":{"key":"way:1177191846@detail:463_96","osmType":"way","osmId":1177191846,"sourceRegion":"guangdong","featureType":"infrastructure","railClass":"highspeed","mode":"rail","name":"龙龙高速线","usage":"main","highspeed":"yes","status":"operational","color":"#E54848","dataOrigin":"datum-2026-08-01","sourceKey":"way:1177191846"}},{"type":"Feature","geometry":{"type":"LineString","coordinates":[[115.9332785,24.2043662],[115.9353136,24.2056162]]},"properties":{"key":"way:1177191847@detail:463_96","osmType":"way","osmId":1177191847,"sourceRegion":"guangdong","featureType":"infrastructure","railClass":"highspeed","mode":"rail","name":"龙龙高速线","usage":"main","highspeed":"yes","tunnel":"yes","status":"operational","color":"#E54848","dataOrigin":"datum-2026-08-01","sourceKey":"way:1177191847"}},{"type":"Feature","geometry":{"type":"LineString","coordinates":[[115.909295,24.0547303],[115.91194,24.055184],[115.913248,24.05529],[115.913906,24.055273],[115.926086,24.054104],[115.926806,24.054066],[115.927753,24.054093],[115.92869,24.054228],[115.932406,24.055173],[115.9340773,24.0554874],[115.9350203,24.0555383]]},"properties":{"key":"way:1222933777@detail:463_96","osmType":"way","osmId":1222933777,"sourceRegion":"guangdong","featureType":"infrastructure","railClass":"national","mode":"rail","name":"漳龙线","ref":"0067","usage":"main","status":"operational","color":"#E54848","dataOrigin":"datum-2026-08-01","sourceKey":"way:1222933777"}},{"type":"Feature","geometry":{"type":"LineString","coordinates":[[115.9350203,24.0555383],[115.9353701,24.0555308]]},"properties":{"key":"way:1222933778@detail:463_96","osmType":"way","osmId":1222933778,"sourceRegion":"guangdong","featureType":"infrastructure","railClass":"national","mode":"rail","name":"漳龙线","ref":"0067","usage":"main","bridge":"yes","status":"operational","color":"#E54848","dataOrigin":"datum-2026-08-01","sourceKey":"way:1222933778"}},{"type":"Feature","geometry":{"type":"LineString","coordinates":[[115.9173399,24.1938476],[115.9180841,24.194415]]},"properties":{"key":"way:1265163293@detail:463_96","osmType":"way","osmId":1265163293,"sourceRegion":"guangdong","featureType":"infrastructure","railClass":"highspeed","mode":"rail","name":"龙龙高速线","usage":"main","highspeed":"yes","status":"operational","color":"#E54848","dataOrigin":"datum-2026-08-01","sourceKey":"way:1265163293"}},{"type":"Feature","geometry":{"type":"LineString","coordinates":[[115.9505581,24.2151342],[115.9514446,24.215716]]},"properties":{"key":"way:1265163294@detail:463_96","osmType":"way","osmId":1265163294,"sourceRegion":"guangdong","featureType":"infrastructure","railClass":"highspeed","mode":"rail","name":"龙龙高速线","usage":"main","highspeed":"yes","bridge":"yes","status":"operational","color":"#E54848","dataOrigin":"datum-2026-08-01","sourceKey":"way:1265163294"}},{"type":"Feature","geometry":{"type":"LineString","coordinates":[[115.8355343,24.1359077],[115.8350499,24.1356506]]},"properties":{"key":"way:1302521055@detail:463_96","osmType":"way","osmId":1302521055,"sourceRegion":"guangdong","featureType":"infrastructure","railClass":"highspeed","mode":"rail","name":"龙龙高速线","usage":"main","highspeed":"yes","status":"operational","color":"#E54848","dataOrigin":"datum-2026-08-01","sourceKey":"way:1302521055"}},{"type":"Feature","geometry":{"type":"LineString","coordinates":[[115.9505892,24.2150938],[115.9514762,24.2156759]]},"properties":{"key":"way:1311729218@detail:463_96","osmType":"way","osmId":1311729218,"sourceRegion":"guangdong","featureType":"infrastructure","railClass":"highspeed","mode":"rail","name":"龙龙高速线","usage":"main","highspeed":"yes","bridge":"yes","status":"operational","color":"#E54848","dataOrigin":"datum-2026-08-01","sourceKey":"way:1311729218"}},{"type":"Feature","geometry":{"type":"LineString","coordinates":[[115.8152401,24.1224928],[115.8123812,24.1204144],[115.8108362,24.1193051],[115.8095163,24.1184229],[115.7995803,24.1121175]]},"properties":{"key":"way:1311729219@detail:463_96","osmType":"way","osmId":1311729219,"sourceRegion":"guangdong","featureType":"infrastructure","railClass":"highspeed","mode":"rail","name":"龙龙高速线","usage":"main","highspeed":"yes","bridge":"yes","status":"operational","color":"#E54848","dataOrigin":"datum-2026-08-01","sourceKey":"way:1311729219"}},{"type":"Feature","geometry":{"type":"LineString","coordinates":[[115.8458608,24.1413464],[115.84469,24.1407163]]},"properties":{"key":"way:1311729220@detail:463_96","osmType":"way","osmId":1311729220,"sourceRegion":"guangdong","featureType":"infrastructure","railClass":"highspeed","mode":"rail","name":"龙龙高速线","usage":"main","highspeed":"yes","tunnel":"yes","status":"operational","color":"#E54848","dataOrigin":"datum-2026-08-01","sourceKey":"way:1311729220"}},{"type":"Feature","geometry":{"type":"LineString","coordinates":[[115.9394504,24.2081317],[115.9411958,24.2092412]]},"properties":{"key":"way:1311729221@detail:463_96","osmType":"way","osmId":1311729221,"sourceRegion":"guangdong","featureType":"infrastructure","railClass":"highspeed","mode":"rail","name":"龙龙高速线","usage":"main","highspeed":"yes","status":"operational","color":"#E54848","dataOrigin":"datum-2026-08-01","sourceKey":"way:1311729221"}},{"type":"Feature","geometry":{"type":"LineString","coordinates":[[115.9082916,24.1855506],[115.9088314,24.1860633]]},"properties":{"key":"way:1311729224@detail:463_96","osmType":"way","osmId":1311729224,"sourceRegion":"guangdong","featureType":"infrastructure","railClass":"highspeed","mode":"rail","name":"龙龙高速线","usage":"main","highspeed":"yes","status":"operational","color":"#E54848","dataOrigin":"datum-2026-08-01","sourceKey":"way:1311729224"}},{"type":"Feature","geometry":{"type":"LineString","coordinates":[[115.8350767,24.1356077],[115.8334508,24.1347801],[115.8319629,24.1339678],[115.8304668,24.1330646],[115.8287963,24.1320157],[115.8269327,24.130782],[115.8184407,24.124784]]},"properties":{"key":"way:1311729231@detail:463_96","osmType":"way","osmId":1311729231,"sourceRegion":"guangdong","featureType":"infrastructure","railClass":"highspeed","mode":"rail","name":"龙龙高速线","usage":"main","highspeed":"yes","tunnel":"yes","status":"operational","color":"#E54848","dataOrigin":"datum-2026-08-01","sourceKey":"way:1311729231"}},{"type":"Feature","geometry":{"type":"LineString","coordinates":[[115.8427905,24.1396889],[115.8418113,24.1391604]]},"properties":{"key":"way:1311729232@detail:463_96","osmType":"way","osmId":1311729232,"sourceRegion":"guangdong","featureType":"infrastructure","railClass":"highspeed","mode":"rail","name":"龙龙高速线","usage":"main","highspeed":"yes","status":"operational","color":"#E54848","dataOrigin":"datum-2026-08-01","sourceKey":"way:1311729232"}},{"type":"Feature","geometry":{"type":"LineString","coordinates":[[115.9292176,24.201756],[115.9320656,24.2035677]]},"properties":{"key":"way:1311729233@detail:463_96","osmType":"way","osmId":1311729233,"sourceRegion":"guangdong","featureType":"infrastructure","railClass":"highspeed","mode":"rail","name":"龙龙高速线","usage":"main","highspeed":"yes","bridge":"yes","status":"operational","color":"#E54848","dataOrigin":"datum-2026-08-01","sourceKey":"way:1311729233"}},{"type":"Feature","geometry":{"type":"LineString","coordinates":[[115.903236,24.18062],[115.9048426,24.1821497]]},"properties":{"key":"way:1311729236@detail:463_96","osmType":"way","osmId":1311729236,"sourceRegion":"guangdong","featureType":"infrastructure","railClass":"highspeed","mode":"rail","name":"龙龙高速线","usage":"main","highspeed":"yes","tunnel":"yes","status":"operational","color":"#E54848","dataOrigin":"datum-2026-08-01","sourceKey":"way:1311729236"}},{"type":"Feature","geometry":{"type":"LineString","coordinates":[[115.9333087,24.2043252],[115.935344,24.2055753]]},"properties":{"key":"way:1311729240@detail:463_96","osmType":"way","osmId":1311729240,"sourceRegion":"guangdong","featureType":"infrastructure","railClass":"highspeed","mode":"rail","name":"龙龙高速线","usage":"main","highspeed":"yes","tunnel":"yes","status":"operational","color":"#E54848","dataOrigin":"datum-2026-08-01","sourceKey":"way:1311729240"}},{"type":"Feature","geometry":{"type":"LineString","coordinates":[[115.9514762,24.2156759],[115.9520641,24.2160617]]},"properties":{"key":"way:1311729241@detail:463_96","osmType":"way","osmId":1311729241,"sourceRegion":"guangdong","featureType":"infrastructure","railClass":"highspeed","mode":"rail","name":"龙龙高速线","usage":"main","highspeed":"yes","tunnel":"yes","status":"operational","color":"#E54848","dataOrigin":"datum-2026-08-01","sourceKey":"way:1311729241"}},{"type":"Feature","geometry":{"type":"LineString","coordinates":[[115.9258768,24.1996468],[115.9268793,24.2002765]]},"properties":{"key":"way:1311729244@detail:463_96","osmType":"way","osmId":1311729244,"sourceRegion":"guangdong","featureType":"infrastructure","railClass":"highspeed","mode":"rail","name":"龙龙高速线","usage":"main","highspeed":"yes","status":"operational","color":"#E54848","dataOrigin":"datum-2026-08-01","sourceKey":"way:1311729244"}},{"type":"Feature","geometry":{"type":"LineString","coordinates":[[115.8418113,24.1391604],[115.8383547,24.1373471]]},"properties":{"key":"way:1311729246@detail:463_96","osmType":"way","osmId":1311729246,"sourceRegion":"guangdong","featureType":"infrastructure","railClass":"highspeed","mode":"rail","name":"龙龙高速线","usage":"main","highspeed":"yes","tunnel":"yes","status":"operational","color":"#E54848","dataOrigin":"datum-2026-08-01","sourceKey":"way:1311729246"}},{"type":"Feature","geometry":{"type":"LineString","coordinates":[[115.9137566,24.190769],[115.9152807,24.1921069]]},"properties":{"key":"way:1311729252@detail:463_96","osmType":"way","osmId":1311729252,"sourceRegion":"guangdong","featureType":"infrastructure","railClass":"highspeed","mode":"rail","name":"龙龙高速线","usage":"main","highspeed":"yes","status":"operational","color":"#E54848","dataOrigin":"datum-2026-08-01","sourceKey":"way:1311729252"}},{"type":"Feature","geometry":{"type":"LineString","coordinates":[[115.9464109,24.2124895],[115.9505892,24.2150938]]},"properties":{"key":"way:1311729253@detail:463_96","osmType":"way","osmId":1311729253,"sourceRegion":"guangdong","featureType":"infrastructure","railClass":"highspeed","mode":"rail","name":"龙龙高速线","usage":"main","highspeed":"yes","tunnel":"yes","status":"operational","color":"#E54848","dataOrigin":"datum-2026-08-01","sourceKey":"way:1311729253"}},{"type":"Feature","geometry":{"type":"LineString","coordinates":[[115.7830305,24.1018424],[115.75,24.081342360780912]]},"properties":{"key":"way:1311729257@detail:463_96","osmType":"way","osmId":1311729257,"sourceRegion":"guangdong","featureType":"infrastructure","railClass":"highspeed","mode":"rail","name":"龙龙高速线","usage":"main","highspeed":"yes","bridge":"yes","status":"operational","color":"#E54848","dataOrigin":"datum-2026-08-01","sourceKey":"way:1311729257"}},{"type":"Feature","geometry":{"type":"LineString","coordinates":[[115.9194068,24.1953339],[115.9213827,24.1967431]]},"properties":{"key":"way:1311729258@detail:463_96","osmType":"way","osmId":1311729258,"sourceRegion":"guangdong","featureType":"infrastructure","railClass":"highspeed","mode":"rail","name":"龙龙高速线","usage":"main","highspeed":"yes","bridge":"yes","status":"operational","color":"#E54848","dataOrigin":"datum-2026-08-01","sourceKey":"way:1311729258"}},{"type":"Feature","geometry":{"type":"LineString","coordinates":[[115.8184407,24.124784],[115.8152401,24.1224928]]},"properties":{"key":"way:1311729259@detail:463_96","osmType":"way","osmId":1311729259,"sourceRegion":"guangdong","featureType":"infrastructure","railClass":"highspeed","mode":"rail","name":"龙龙高速线","usage":"main","highspeed":"yes","status":"operational","color":"#E54848","dataOrigin":"datum-2026-08-01","sourceKey":"way:1311729259"}},{"type":"Feature","geometry":{"type":"LineString","coordinates":[[115.847133,24.141998],[115.8458608,24.1413464]]},"properties":{"key":"way:1311729266@detail:463_96","osmType":"way","osmId":1311729266,"sourceRegion":"guangdong","featureType":"infrastructure","railClass":"highspeed","mode":"rail","name":"龙龙高速线","usage":"main","highspeed":"yes","bridge":"yes","status":"operational","color":"#E54848","dataOrigin":"datum-2026-08-01","sourceKey":"way:1311729266"}},{"type":"Feature","geometry":{"type":"LineString","coordinates":[[115.9411958,24.2092412],[115.9420316,24.2097528]]},"properties":{"key":"way:1311729267@detail:463_96","osmType":"way","osmId":1311729267,"sourceRegion":"guangdong","featureType":"infrastructure","railClass":"highspeed","mode":"rail","name":"龙龙高速线","usage":"main","highspeed":"yes","bridge":"yes","status":"operational","color":"#E54848","dataOrigin":"datum-2026-08-01","sourceKey":"way:1311729267"}},{"type":"Feature","geometry":{"type":"LineString","coordinates":[[115.8610172,24.1497058],[115.8636667,24.1513596]]},"properties":{"key":"way:1311729270@detail:463_96","osmType":"way","osmId":1311729270,"sourceRegion":"guangdong","featureType":"infrastructure","railClass":"highspeed","mode":"rail","name":"龙龙高速线","usage":"main","highspeed":"yes","bridge":"yes","status":"operational","color":"#E54848","dataOrigin":"datum-2026-08-01","sourceKey":"way:1311729270"}},{"type":"Feature","geometry":{"type":"LineString","coordinates":[[115.9647892,24.2240197],[115.9964563,24.2454041],[115.9975757,24.2461571],[115.9986024,24.2468159],[115.9996595,24.2474763],[116.0,24.247680952073477]]},"properties":{"key":"way:1311729271@detail:463_96","osmType":"way","osmId":1311729271,"sourceRegion":"guangdong","featureType":"infrastructure","railClass":"highspeed","mode":"rail","name":"龙龙高速线","usage":"main","highspeed":"yes","tunnel":"yes","status":"operational","color":"#E54848","dataOrigin":"datum-2026-08-01","sourceKey":"way:1311729271"}},{"type":"Feature","geometry":{"type":"LineString","coordinates":[[115.9088314,24.1860633],[115.9109657,24.1881465]]},"properties":{"key":"way:1311729272@detail:463_96","osmType":"way","osmId":1311729272,"sourceRegion":"guangdong","featureType":"infrastructure","railClass":"highspeed","mode":"rail","name":"龙龙高速线","usage":"main","highspeed":"yes","tunnel":"yes","status":"operational","color":"#E54848","dataOrigin":"datum-2026-08-01","sourceKey":"way:1311729272"}},{"type":"Feature","geometry":{"type":"LineString","coordinates":[[115.8437798,24.1402249],[115.8427905,24.1396889]]},"properties":{"key":"way:1311729280@detail:463_96","osmType":"way","osmId":1311729280,"sourceRegion":"guangdong","featureType":"infrastructure","railClass":"highspeed","mode":"rail","name":"龙龙高速线","usage":"main","highspeed":"yes","tunnel":"yes","status":"operational","color":"#E54848","dataOrigin":"datum-2026-08-01","sourceKey":"way:1311729280"}},{"type":"Feature","geometry":{"type":"LineString","coordinates":[[115.9320656,24.2035677],[115.9333087,24.2043252]]},"properties":{"key":"way:1311729281@detail:463_96","osmType":"way","osmId":1311729281,"sourceRegion":"guangdong","featureType":"infrastructure","railClass":"highspeed","mode":"rail","name":"龙龙高速线","usage":"main","highspeed":"yes","status":"operational","color":"#E54848","dataOrigin":"datum-2026-08-01","sourceKey":"way:1311729281"}},{"type":"Feature","geometry":{"type":"LineString","coordinates":[[115.9048426,24.1821497],[115.9070698,24.1843579]]},"properties":{"key":"way:1311729284@detail:463_96","osmType":"way","osmId":1311729284,"sourceRegion":"guangdong","featureType":"infrastructure","railClass":"highspeed","mode":"rail","name":"龙龙高速线","usage":"main","highspeed":"yes","bridge":"yes","status":"operational","color":"#E54848","dataOrigin":"datum-2026-08-01","sourceKey":"way:1311729284"}},{"type":"Feature","geometry":{"type":"LineString","coordinates":[[115.9279553,24.2009677],[115.9292176,24.201756]]},"properties":{"key":"way:1311729293@detail:463_96","osmType":"way","osmId":1311729293,"sourceRegion":"guangdong","featureType":"infrastructure","railClass":"highspeed","mode":"rail","name":"龙龙高速线","usage":"main","highspeed":"yes","status":"operational","color":"#E54848","dataOrigin":"datum-2026-08-01","sourceKey":"way:1311729293"}},{"type":"Feature","geometry":{"type":"LineString","coordinates":[[115.8610172,24.1497058],[115.8568304,24.147252]]},"properties":{"key":"way:1311729295@detail:463_96","osmType":"way","osmId":1311729295,"sourceRegion":"guangdong","featureType":"infrastructure","railClass":"highspeed","mode":"rail","name":"龙龙高速线","usage":"main","highspeed":"yes","tunnel":"yes","status":"operational","color":"#E54848","dataOrigin":"datum-2026-08-01","sourceKey":"way:1311729295"}},{"type":"Feature","geometry":{"type":"LineString","coordinates":[[115.9248465,24.1989881],[115.9258768,24.1996468]]},"properties":{"key":"way:1311729300@detail:463_96","osmType":"way","osmId":1311729300,"sourceRegion":"guangdong","featureType":"infrastructure","railClass":"highspeed","mode":"rail","name":"龙龙高速线","usage":"main","highspeed":"yes","bridge":"yes","status":"operational","color":"#E54848","dataOrigin":"datum-2026-08-01","sourceKey":"way:1311729300"}},{"type":"Feature","geometry":{"type":"LineString","coordinates":[[115.9537635,24.2171768],[115.9639312,24.2234662]]},"properties":{"key":"way:1311729301@detail:463_96","osmType":"way","osmId":1311729301,"sourceRegion":"guangdong","featureType":"infrastructure","railClass":"highspeed","mode":"rail","name":"龙龙高速线","usage":"main","highspeed":"yes","tunnel":"yes","status":"operational","color":"#E54848","dataOrigin":"datum-2026-08-01","sourceKey":"way:1311729301"}},{"type":"Feature","geometry":{"type":"LineString","coordinates":[[115.9213827,24.1967431],[115.9226472,24.1975816]]},"properties":{"key":"way:1311729305@detail:463_96","osmType":"way","osmId":1311729305,"sourceRegion":"guangdong","featureType":"infrastructure","railClass":"highspeed","mode":"rail","name":"龙龙高速线","usage":"main","highspeed":"yes","status":"operational","color":"#E54848","dataOrigin":"datum-2026-08-01","sourceKey":"way:1311729305"}},{"type":"Feature","geometry":{"type":"LineString","coordinates":[[115.8568304,24.147252],[115.8537095,24.1455274]]},"properties":{"key":"way:1311729313@detail:463_96","osmType":"way","osmId":1311729313,"sourceRegion":"guangdong","featureType":"infrastructure","railClass":"highspeed","mode":"rail","name":"龙龙高速线","usage":"main","highspeed":"yes","bridge":"yes","status":"operational","color":"#E54848","dataOrigin":"datum-2026-08-01","sourceKey":"way:1311729313"}},{"type":"Feature","geometry":{"type":"LineString","coordinates":[[115.9420316,24.2097528],[115.9432966,24.2105483]]},"properties":{"key":"way:1311729314@detail:463_96","osmType":"way","osmId":1311729314,"sourceRegion":"guangdong","featureType":"infrastructure","railClass":"highspeed","mode":"rail","name":"龙龙高速线","usage":"main","highspeed":"yes","status":"operational","color":"#E54848","dataOrigin":"datum-2026-08-01","sourceKey":"way:1311729314"}},{"type":"Feature","geometry":{"type":"LineString","coordinates":[[115.8636667,24.1513596],[115.8737067,24.1577036],[115.8770077,24.159855],[115.8812909,24.1628204],[115.8856302,24.1658714],[115.8899333,24.1690904],[115.8933296,24.1717855],[115.8953804,24.1734942],[115.8969605,24.1748565],[115.898642,24.17637],[115.9026871,24.1801054]]},"properties":{"key":"way:1311729317@detail:463_96","osmType":"way","osmId":1311729317,"sourceRegion":"guangdong","featureType":"infrastructure","railClass":"highspeed","mode":"rail","name":"龙龙高速线","usage":"main","highspeed":"yes","tunnel":"yes","status":"operational","color":"#E54848","dataOrigin":"datum-2026-08-01","sourceKey":"way:1311729317"}},{"type":"Feature","geometry":{"type":"LineString","coordinates":[[115.9152807,24.1921069],[115.9173753,24.1938102]]},"properties":{"key":"way:1311729318@detail:463_96","osmType":"way","osmId":1311729318,"sourceRegion":"guangdong","featureType":"infrastructure","railClass":"highspeed","mode":"rail","name":"龙龙高速线","usage":"main","highspeed":"yes","bridge":"yes","status":"operational","color":"#E54848","dataOrigin":"datum-2026-08-01","sourceKey":"way:1311729318"}},{"type":"Feature","geometry":{"type":"LineString","coordinates":[[115.7995803,24.1121175],[115.7830305,24.1018424]]},"properties":{"key":"way:1311729319@detail:463_96","osmType":"way","osmId":1311729319,"sourceRegion":"guangdong","featureType":"infrastructure","railClass":"highspeed","mode":"rail","name":"龙龙高速线","usage":"main","highspeed":"yes","status":"operational","color":"#E54848","dataOrigin":"datum-2026-08-01","sourceKey":"way:1311729319"}},{"type":"Feature","geometry":{"type":"LineString","coordinates":[[115.9173753,24.1938102],[115.9181186,24.1943769]]},"properties":{"key":"way:1311729326@detail:463_96","osmType":"way","osmId":1311729326,"sourceRegion":"guangdong","featureType":"infrastructure","railClass":"highspeed","mode":"rail","name":"龙龙高速线","usage":"main","highspeed":"yes","status":"operational","color":"#E54848","dataOrigin":"datum-2026-08-01","sourceKey":"way:1311729326"}},{"type":"Feature","geometry":{"type":"LineString","coordinates":[[115.84469,24.1407163],[115.8437798,24.1402249]]},"properties":{"key":"way:1311729327@detail:463_96","osmType":"way","osmId":1311729327,"sourceRegion":"guangdong","featureType":"infrastructure","railClass":"highspeed","mode":"rail","name":"龙龙高速线","usage":"main","highspeed":"yes","bridge":"yes","status":"operational","color":"#E54848","dataOrigin":"datum-2026-08-01","sourceKey":"way:1311729327"}},{"type":"Feature","geometry":{"type":"LineString","coordinates":[[115.935344,24.2055753],[115.9394504,24.2081317]]},"properties":{"key":"way:1311729328@detail:463_96","osmType":"way","osmId":1311729328,"sourceRegion":"guangdong","featureType":"infrastructure","railClass":"highspeed","mode":"rail","name":"龙龙高速线","usage":"main","highspeed":"yes","bridge":"yes","status":"operational","color":"#E54848","dataOrigin":"datum-2026-08-01","sourceKey":"way:1311729328"}},{"type":"Feature","geometry":{"type":"LineString","coordinates":[[115.9070698,24.1843579],[115.9082916,24.1855506]]},"properties":{"key":"way:1311729331@detail:463_96","osmType":"way","osmId":1311729331,"sourceRegion":"guangdong","featureType":"infrastructure","railClass":"highspeed","mode":"rail","name":"龙龙高速线","usage":"main","highspeed":"yes","tunnel":"yes","status":"operational","color":"#E54848","dataOrigin":"datum-2026-08-01","sourceKey":"way:1311729331"}},{"type":"Feature","geometry":{"type":"LineString","coordinates":[[115.8537095,24.1455274],[115.847133,24.141998]]},"properties":{"key":"way:1311729338@detail:463_96","osmType":"way","osmId":1311729338,"sourceRegion":"guangdong","featureType":"infrastructure","railClass":"highspeed","mode":"rail","name":"龙龙高速线","usage":"main","highspeed":"yes","tunnel":"yes","status":"operational","color":"#E54848","dataOrigin":"datum-2026-08-01","sourceKey":"way:1311729338"}},{"type":"Feature","geometry":{"type":"LineString","coordinates":[[115.9268793,24.2002765],[115.9279553,24.2009677]]},"properties":{"key":"way:1311729339@detail:463_96","osmType":"way","osmId":1311729339,"sourceRegion":"guangdong","featureType":"infrastructure","railClass":"highspeed","mode":"rail","name":"龙龙高速线","usage":"main","highspeed":"yes","bridge":"yes","status":"operational","color":"#E54848","dataOrigin":"datum-2026-08-01","sourceKey":"way:1311729339"}},{"type":"Feature","geometry":{"type":"LineString","coordinates":[[115.9026871,24.1801054],[115.903236,24.18062]]},"properties":{"key":"way:1311729343@detail:463_96","osmType":"way","osmId":1311729343,"sourceRegion":"guangdong","featureType":"infrastructure","railClass":"highspeed","mode":"rail","name":"龙龙高速线","usage":"main","highspeed":"yes","status":"operational","color":"#E54848","dataOrigin":"datum-2026-08-01","sourceKey":"way:1311729343"}},{"type":"Feature","geometry":{"type":"LineString","coordinates":[[115.9242869,24.1986303],[115.9248465,24.1989881]]},"properties":{"key":"way:1311729347@detail:463_96","osmType":"way","osmId":1311729347,"sourceRegion":"guangdong","featureType":"infrastructure","railClass":"highspeed","mode":"rail","name":"龙龙高速线","usage":"main","highspeed":"yes","status":"operational","color":"#E54848","dataOrigin":"datum-2026-08-01","sourceKey":"way:1311729347"}},{"type":"Feature","geometry":{"type":"LineString","coordinates":[[115.9639312,24.2234662],[115.9647892,24.2240197]]},"properties":{"key":"way:1311729348@detail:463_96","osmType":"way","osmId":1311729348,"sourceRegion":"guangdong","featureType":"infrastructure","railClass":"highspeed","mode":"rail","name":"龙龙高速线","usage":"main","highspeed":"yes","status":"operational","color":"#E54848","dataOrigin":"datum-2026-08-01","sourceKey":"way:1311729348"}},{"type":"Feature","geometry":{"type":"LineString","coordinates":[[115.9226472,24.1975816],[115.9242869,24.1986303]]},"properties":{"key":"way:1311729351@detail:463_96","osmType":"way","osmId":1311729351,"sourceRegion":"guangdong","featureType":"infrastructure","railClass":"highspeed","mode":"rail","name":"龙龙高速线","usage":"main","highspeed":"yes","bridge":"yes","status":"operational","color":"#E54848","dataOrigin":"datum-2026-08-01","sourceKey":"way:1311729351"}},{"type":"Feature","geometry":{"type":"LineString","coordinates":[[115.8383547,24.1373471],[115.8355615,24.135865]]},"properties":{"key":"way:1311729353@detail:463_96","osmType":"way","osmId":1311729353,"sourceRegion":"guangdong","featureType":"infrastructure","railClass":"highspeed","mode":"rail","name":"龙龙高速线","usage":"main","highspeed":"yes","bridge":"yes","status":"operational","color":"#E54848","dataOrigin":"datum-2026-08-01","sourceKey":"way:1311729353"}},{"type":"Feature","geometry":{"type":"LineString","coordinates":[[115.8355615,24.135865],[115.8350767,24.1356077]]},"properties":{"key":"way:1311729355@detail:463_96","osmType":"way","osmId":1311729355,"sourceRegion":"guangdong","featureType":"infrastructure","railClass":"highspeed","mode":"rail","name":"龙龙高速线","usage":"main","highspeed":"yes","status":"operational","color":"#E54848","dataOrigin":"datum-2026-08-01","sourceKey":"way:1311729355"}},{"type":"Feature","geometry":{"type":"LineString","coordinates":[[115.9109657,24.1881465],[115.9137566,24.190769]]},"properties":{"key":"way:1311729360@detail:463_96","osmType":"way","osmId":1311729360,"sourceRegion":"guangdong","featureType":"infrastructure","railClass":"highspeed","mode":"rail","name":"龙龙高速线","usage":"main","highspeed":"yes","bridge":"yes","status":"operational","color":"#E54848","dataOrigin":"datum-2026-08-01","sourceKey":"way:1311729360"}},{"type":"Feature","geometry":{"type":"LineString","coordinates":[[115.9432966,24.2105483],[115.9464109,24.2124895]]},"properties":{"key":"way:1311729361@detail:463_96","osmType":"way","osmId":1311729361,"sourceRegion":"guangdong","featureType":"infrastructure","railClass":"highspeed","mode":"rail","name":"龙龙高速线","usage":"main","highspeed":"yes","bridge":"yes","status":"operational","color":"#E54848","dataOrigin":"datum-2026-08-01","sourceKey":"way:1311729361"}},{"type":"Feature","geometry":{"type":"LineString","coordinates":[[115.9181186,24.1943769],[115.9194068,24.1953339]]},"properties":{"key":"way:1311729364@detail:463_96","osmType":"way","osmId":1311729364,"sourceRegion":"guangdong","featureType":"infrastructure","railClass":"highspeed","mode":"rail","name":"龙龙高速线","usage":"main","highspeed":"yes","tunnel":"yes","status":"operational","color":"#E54848","dataOrigin":"datum-2026-08-01","sourceKey":"way:1311729364"}},{"type":"Feature","geometry":{"type":"LineString","coordinates":[[115.9520641,24.2160617],[115.9537635,24.2171768]]},"properties":{"key":"way:1363828747@detail:463_96","osmType":"way","osmId":1363828747,"sourceRegion":"guangdong","featureType":"infrastructure","railClass":"highspeed","mode":"rail","name":"龙龙高速线","usage":"main","highspeed":"yes","status":"operational","color":"#E54848","dataOrigin":"datum-2026-08-01","sourceKey":"way:1363828747"}},{"type":"Feature","geometry":{"type":"LineString","coordinates":[[115.9520049,24.2160837],[115.9537325,24.2172173]]},"properties":{"key":"way:1363828748@detail:463_96","osmType":"way","osmId":1363828748,"sourceRegion":"guangdong","featureType":"infrastructure","railClass":"highspeed","mode":"rail","name":"龙龙高速线","usage":"main","highspeed":"yes","status":"operational","color":"#E54848","dataOrigin":"datum-2026-08-01","sourceKey":"way:1363828748"}}]}