{"type":"FeatureCollection","features":[{"type":"Feature","geometry":{"type":"Point","coordinates":[115.9888646,23.9830374]},"properties":{"key":"node:9202090141","osmType":"node","osmId":9202090141,"sourceRegion":"guangdong","featureType":"station","railClass":"minor","mode":"station","name":"松棚","status":"operational","color":"#52636F","dataOrigin":"datum-2026-08-01","sourceKey":"node:9202090141","stationGroup":"松棚","hasOperationalRail":true,"hasConstructionRail":false}},{"type":"Feature","geometry":{"type":"LineString","coordinates":[[115.9985769,23.971612],[115.999108,23.9714257],[116.0,23.97102299576713]]},"properties":{"key":"way:148846565@detail:463_95","osmType":"way","osmId":148846565,"sourceRegion":"guangdong","featureType":"infrastructure","railClass":"national","mode":"rail","name":"畲龙线","ref":"0716","usage":"main","status":"operational","color":"#E54848","dataOrigin":"datum-2026-08-01","sourceKey":"way:148846565"}},{"type":"Feature","geometry":{"type":"LineString","coordinates":[[115.98039130074933,24.0],[115.9822441,23.995454],[115.983586,23.992278],[115.9841168,23.9913147],[115.9843438,23.9909362]]},"properties":{"key":"way:241678607@detail:463_95","osmType":"way","osmId":241678607,"sourceRegion":"guangdong","featureType":"infrastructure","railClass":"national","mode":"rail","name":"畲龙线","ref":"0716","usage":"main","status":"operational","color":"#E54848","dataOrigin":"datum-2026-08-01","sourceKey":"way:241678607"}},{"type":"Feature","geometry":{"type":"LineString","coordinates":[[115.9843438,23.9909362],[115.9851566,23.9895807],[115.9857267,23.9884364]]},"properties":{"key":"way:379674563@detail:463_95","osmType":"way","osmId":379674563,"sourceRegion":"guangdong","featureType":"infrastructure","railClass":"national","mode":"rail","name":"畲龙线","ref":"0716","usage":"main","bridge":"yes","status":"operational","color":"#E54848","dataOrigin":"datum-2026-08-01","sourceKey":"way:379674563"}},{"type":"Feature","geometry":{"type":"LineString","coordinates":[[115.9857267,23.9884364],[115.9869277,23.9862467],[115.987284,23.9856452],[115.9886258,23.9833794],[115.9888837,23.9827486],[115.989056,23.9821137],[115.9894036,23.9800091],[115.9894424,23.9794308],[115.9894257,23.9790706],[115.989476,23.9785387],[115.9897887,23.9756352]]},"properties":{"key":"way:379674565@detail:463_95","osmType":"way","osmId":379674565,"sourceRegion":"guangdong","featureType":"infrastructure","railClass":"national","mode":"rail","name":"畲龙线","ref":"0716","usage":"main","status":"operational","color":"#E54848","dataOrigin":"datum-2026-08-01","sourceKey":"way:379674565"}},{"type":"Feature","geometry":{"type":"LineString","coordinates":[[115.9908241,23.9732914],[115.9914368,23.9727051],[115.9918016,23.9724894],[115.9922683,23.9722541],[115.9928155,23.9720188],[115.9934431,23.9719012],[115.9941244,23.9718277]]},"properties":{"key":"way:1104499996@detail:463_95","osmType":"way","osmId":1104499996,"sourceRegion":"guangdong","featureType":"infrastructure","railClass":"national","mode":"rail","name":"畲龙线","ref":"0716","usage":"main","status":"operational","color":"#E54848","dataOrigin":"datum-2026-08-01","sourceKey":"way:1104499996"}},{"type":"Feature","geometry":{"type":"LineString","coordinates":[[115.9941244,23.9718277],[115.9953764,23.9718178]]},"properties":{"key":"way:1104499997@detail:463_95","osmType":"way","osmId":1104499997,"sourceRegion":"guangdong","featureType":"infrastructure","railClass":"national","mode":"rail","name":"畲龙线","ref":"0716","usage":"main","tunnel":"yes","status":"operational","color":"#E54848","dataOrigin":"datum-2026-08-01","sourceKey":"way:1104499997"}},{"type":"Feature","geometry":{"type":"LineString","coordinates":[[115.9953764,23.9718178],[115.9966242,23.9718669],[115.9971553,23.9718571],[115.9978151,23.9717787]]},"properties":{"key":"way:1104499998@detail:463_95","osmType":"way","osmId":1104499998,"sourceRegion":"guangdong","featureType":"infrastructure","railClass":"national","mode":"rail","name":"畲龙线","ref":"0716","usage":"main","status":"operational","color":"#E54848","dataOrigin":"datum-2026-08-01","sourceKey":"way:1104499998"}},{"type":"Feature","geometry":{"type":"LineString","coordinates":[[115.9978151,23.9717787],[115.9985769,23.971612]]},"properties":{"key":"way:1104499999@detail:463_95","osmType":"way","osmId":1104499999,"sourceRegion":"guangdong","featureType":"infrastructure","railClass":"national","mode":"rail","name":"畲龙线","ref":"0716","usage":"main","tunnel":"yes","status":"operational","color":"#E54848","dataOrigin":"datum-2026-08-01","sourceKey":"way:1104499999"}},{"type":"Feature","geometry":{"type":"LineString","coordinates":[[115.9899455,23.9747981],[115.9904026,23.9737143]]},"properties":{"key":"way:1104500012@detail:463_95","osmType":"way","osmId":1104500012,"sourceRegion":"guangdong","featureType":"infrastructure","railClass":"national","mode":"rail","name":"畲龙线","ref":"0716","usage":"main","tunnel":"yes","status":"operational","color":"#E54848","dataOrigin":"datum-2026-08-01","sourceKey":"way:1104500012"}},{"type":"Feature","geometry":{"type":"LineString","coordinates":[[115.9905222,23.9735715],[115.9908241,23.9732914]]},"properties":{"key":"way:1104500013@detail:463_95","osmType":"way","osmId":1104500013,"sourceRegion":"guangdong","featureType":"infrastructure","railClass":"national","mode":"rail","name":"畲龙线","ref":"0716","usage":"main","bridge":"yes","status":"operational","color":"#E54848","dataOrigin":"datum-2026-08-01","sourceKey":"way:1104500013"}},{"type":"Feature","geometry":{"type":"LineString","coordinates":[[115.9897887,23.9756352],[115.9899455,23.9747981]]},"properties":{"key":"way:1104500014@detail:463_95","osmType":"way","osmId":1104500014,"sourceRegion":"guangdong","featureType":"infrastructure","railClass":"national","mode":"rail","name":"畲龙线","ref":"0716","usage":"main","status":"operational","color":"#E54848","dataOrigin":"datum-2026-08-01","sourceKey":"way:1104500014"}},{"type":"Feature","geometry":{"type":"LineString","coordinates":[[115.9904026,23.9737143],[115.9905222,23.9735715]]},"properties":{"key":"way:1104500015@detail:463_95","osmType":"way","osmId":1104500015,"sourceRegion":"guangdong","featureType":"infrastructure","railClass":"national","mode":"rail","name":"畲龙线","ref":"0716","usage":"main","status":"operational","color":"#E54848","dataOrigin":"datum-2026-08-01","sourceKey":"way:1104500015"}},{"type":"Feature","geometry":{"type":"LineString","coordinates":[[115.989476,23.9785387],[115.9893106,23.9792017],[115.9892816,23.9800349],[115.9890356,23.9813508],[115.9888908,23.9821377],[115.9887874,23.9826652],[115.988509,23.9833445],[115.9879882,23.9842601],[115.9872247,23.9855352],[115.9870764,23.9858885]]},"properties":{"key":"way:1104500016@detail:463_95","osmType":"way","osmId":1104500016,"sourceRegion":"guangdong","featureType":"infrastructure","railClass":"national","mode":"rail","name":"未命名","status":"operational","color":"#E54848","dataOrigin":"datum-2026-08-01","sourceKey":"way:1104500016"}},{"type":"Feature","geometry":{"type":"LineString","coordinates":[[115.9894257,23.9790706],[115.9893719,23.9794027],[115.9893401,23.9800494],[115.9889544,23.9821602],[115.9888271,23.9826906],[115.9885687,23.9833482],[115.9880359,23.9842891],[115.9872764,23.9855534],[115.9870764,23.9858885],[115.9869277,23.9862467]]},"properties":{"key":"way:1104500017@detail:463_95","osmType":"way","osmId":1104500017,"sourceRegion":"guangdong","featureType":"infrastructure","railClass":"national","mode":"rail","name":"未命名","status":"operational","color":"#E54848","dataOrigin":"datum-2026-08-01","sourceKey":"way:1104500017"}}]}