{"type":"FeatureCollection","features":[{"type":"Feature","geometry":{"type":"LineString","coordinates":[[115.992009,24.4699259],[116.0,24.461787820919362]]},"properties":{"key":"way:1464136026@detail:463_97","osmType":"way","osmId":1464136026,"sourceRegion":"guangdong","featureType":"infrastructure","railClass":"construction","mode":"construction","name":"瑞梅铁路","usage":"main","tunnel":"yes","status":"construction","color":"#E54848","dataOrigin":"datum-2026-08-01","sourceKey":"way:1464136026"}},{"type":"Feature","geometry":{"type":"LineString","coordinates":[[115.9634849620224,24.5],[115.9636833,24.4997448],[115.9704077,24.4906248]]},"properties":{"key":"way:1464136031@detail:463_97","osmType":"way","osmId":1464136031,"sourceRegion":"guangdong","featureType":"infrastructure","railClass":"construction","mode":"construction","name":"瑞梅铁路","usage":"main","status":"construction","color":"#E54848","dataOrigin":"datum-2026-08-01","sourceKey":"way:1464136031"}},{"type":"Feature","geometry":{"type":"LineString","coordinates":[[115.9882665,24.4734872],[115.9906279,24.4712785]]},"properties":{"key":"way:1464136033@detail:463_97","osmType":"way","osmId":1464136033,"sourceRegion":"guangdong","featureType":"infrastructure","railClass":"construction","mode":"construction","name":"瑞梅铁路","usage":"main","tunnel":"yes","status":"construction","color":"#E54848","dataOrigin":"datum-2026-08-01","sourceKey":"way:1464136033"}},{"type":"Feature","geometry":{"type":"LineString","coordinates":[[115.971429,24.4894105],[115.9722085,24.4885559],[115.9730283,24.4877391],[115.975451,24.4854733]]},"properties":{"key":"way:1464136034@detail:463_97","osmType":"way","osmId":1464136034,"sourceRegion":"guangdong","featureType":"infrastructure","railClass":"construction","mode":"construction","name":"瑞梅铁路","usage":"main","status":"construction","color":"#E54848","dataOrigin":"datum-2026-08-01","sourceKey":"way:1464136034"}},{"type":"Feature","geometry":{"type":"LineString","coordinates":[[115.9704077,24.4906248],[115.971429,24.4894105]]},"properties":{"key":"way:1464136035@detail:463_97","osmType":"way","osmId":1464136035,"sourceRegion":"guangdong","featureType":"infrastructure","railClass":"construction","mode":"construction","name":"瑞梅铁路","usage":"main","bridge":"yes","status":"construction","color":"#E54848","dataOrigin":"datum-2026-08-01","sourceKey":"way:1464136035"}},{"type":"Feature","geometry":{"type":"LineString","coordinates":[[115.975451,24.4854733],[115.9767366,24.484271]]},"properties":{"key":"way:1464136036@detail:463_97","osmType":"way","osmId":1464136036,"sourceRegion":"guangdong","featureType":"infrastructure","railClass":"construction","mode":"construction","name":"瑞梅铁路","usage":"main","bridge":"yes","status":"construction","color":"#E54848","dataOrigin":"datum-2026-08-01","sourceKey":"way:1464136036"}},{"type":"Feature","geometry":{"type":"LineString","coordinates":[[115.9767366,24.484271],[115.9820228,24.479327]]},"properties":{"key":"way:1464136037@detail:463_97","osmType":"way","osmId":1464136037,"sourceRegion":"guangdong","featureType":"infrastructure","railClass":"construction","mode":"construction","name":"瑞梅铁路","usage":"main","status":"construction","color":"#E54848","dataOrigin":"datum-2026-08-01","sourceKey":"way:1464136037"}},{"type":"Feature","geometry":{"type":"LineString","coordinates":[[115.9820228,24.479327],[115.9851184,24.4764317]]},"properties":{"key":"way:1464136038@detail:463_97","osmType":"way","osmId":1464136038,"sourceRegion":"guangdong","featureType":"infrastructure","railClass":"construction","mode":"construction","name":"瑞梅铁路","usage":"main","bridge":"yes","status":"construction","color":"#E54848","dataOrigin":"datum-2026-08-01","sourceKey":"way:1464136038"}},{"type":"Feature","geometry":{"type":"LineString","coordinates":[[115.9851184,24.4764317],[115.9882665,24.4734872]]},"properties":{"key":"way:1464136039@detail:463_97","osmType":"way","osmId":1464136039,"sourceRegion":"guangdong","featureType":"infrastructure","railClass":"construction","mode":"construction","name":"瑞梅铁路","usage":"main","status":"construction","color":"#E54848","dataOrigin":"datum-2026-08-01","sourceKey":"way:1464136039"}},{"type":"Feature","geometry":{"type":"LineString","coordinates":[[115.9906279,24.4712785],[115.992009,24.4699259]]},"properties":{"key":"way:1464136040@detail:463_97","osmType":"way","osmId":1464136040,"sourceRegion":"guangdong","featureType":"infrastructure","railClass":"construction","mode":"construction","name":"瑞梅铁路","usage":"main","status":"construction","color":"#E54848","dataOrigin":"datum-2026-08-01","sourceKey":"way:1464136040"}}]}