{"type":"FeatureCollection","features":[{"type":"Feature","geometry":{"type":"Point","coordinates":[116.1201856,23.837657]},"properties":{"key":"node:9202090139","osmType":"node","osmId":9202090139,"sourceRegion":"guangdong","featureType":"station","railClass":"minor","mode":"station","name":"北斗","status":"operational","color":"#52636F","dataOrigin":"datum-2026-08-01","sourceKey":"node:9202090139","stationGroup":"北斗","hasOperationalRail":true,"hasConstructionRail":false}},{"type":"Feature","geometry":{"type":"Point","coordinates":[116.05342,23.9181452]},"properties":{"key":"node:9202090140","osmType":"node","osmId":9202090140,"sourceRegion":"guangdong","featureType":"station","railClass":"minor","mode":"station","name":"清潭","status":"operational","color":"#52636F","dataOrigin":"datum-2026-08-01","sourceKey":"node:9202090140","stationGroup":"清潭","hasOperationalRail":true,"hasConstructionRail":false}},{"type":"Feature","geometry":{"type":"Point","coordinates":[116.1077111,23.9311287]},"properties":{"key":"node:13061379940","osmType":"node","osmId":13061379940,"sourceRegion":"guangdong","featureType":"station","railClass":"minor","mode":"station","name":"建桥","nameEn":"Jianqiao","status":"operational","color":"#52636F","dataOrigin":"datum-2026-08-01","sourceKey":"node:13061379940","stationGroup":"建桥","hasOperationalRail":true,"hasConstructionRail":false}},{"type":"Feature","geometry":{"type":"Point","coordinates":[116.1861424,23.8069818]},"properties":{"key":"node:13061379941","osmType":"node","osmId":13061379941,"sourceRegion":"guangdong","featureType":"station","railClass":"minor","mode":"station","name":"丰顺东","nameEn":"Fengshun East","status":"operational","color":"#52636F","dataOrigin":"datum-2026-08-01","sourceKey":"node:13061379941","stationGroup":"丰顺东","hasOperationalRail":true,"hasConstructionRail":false}},{"type":"Feature","geometry":{"type":"Point","coordinates":[116.1862396,23.7538719]},"properties":{"key":"node:13645613004","osmType":"node","osmId":13645613004,"sourceRegion":"guangdong","featureType":"station","railClass":"minor","mode":"station","name":"丰顺","status":"operational","color":"#52636F","dataOrigin":"datum-2026-08-01","sourceKey":"node:13645613004","stationGroup":"丰顺","hasOperationalRail":true,"hasConstructionRail":false}},{"type":"Feature","geometry":{"type":"LineString","coordinates":[[116.0271362,23.9557775],[116.0269175,23.9551874],[116.0263396,23.9538819],[116.0262056,23.9533085],[116.0261671,23.9529318],[116.0261728,23.9525127],[116.0262558,23.9519075],[116.0264476,23.9513033],[116.026662,23.9507798],[116.026935,23.9503594],[116.0272191,23.9499758],[116.0274734,23.9497219],[116.027906,23.9495003]]},"properties":{"key":"way:148846541@detail:464_95","osmType":"way","osmId":148846541,"sourceRegion":"guangdong","featureType":"infrastructure","railClass":"national","mode":"rail","name":"畲龙线","ref":"0716","usage":"main","status":"operational","color":"#E54848","dataOrigin":"datum-2026-08-01","sourceKey":"way:148846541"}},{"type":"Feature","geometry":{"type":"LineString","coordinates":[[116.0439881,23.9312348],[116.0430215,23.9325893],[116.0425381,23.9332213],[116.0421678,23.9336321],[116.0417117,23.9340498],[116.0397789,23.93534],[116.0392594,23.9357626],[116.038853,23.9361559],[116.0385512,23.9365599],[116.0383212,23.9370065],[116.0381937,23.9373527]]},"properties":{"key":"way:148846545@detail:464_95","osmType":"way","osmId":148846545,"sourceRegion":"guangdong","featureType":"infrastructure","railClass":"national","mode":"rail","name":"畲龙线","ref":"0716","usage":"main","status":"operational","color":"#E54848","dataOrigin":"datum-2026-08-01","sourceKey":"way:148846545"}},{"type":"Feature","geometry":{"type":"LineString","coordinates":[[116.1425508,23.7951793],[116.1433905,23.7949888],[116.1515861,23.7927943],[116.1516798,23.7927692],[116.1549453,23.7919024],[116.1556558,23.7916923],[116.1565027,23.7913705],[116.1574644,23.7909174],[116.158139,23.7905168],[116.158749,23.7900702],[116.1593734,23.789558],[116.1600122,23.7888947],[116.1607083,23.7880541],[116.1618781,23.7865437],[116.1651436,23.7823603]]},"properties":{"key":"way:148846547@detail:464_95","osmType":"way","osmId":148846547,"sourceRegion":"guangdong","featureType":"infrastructure","railClass":"national","mode":"rail","name":"畲龙线","ref":"0716","usage":"main","status":"operational","color":"#E54848","dataOrigin":"datum-2026-08-01","sourceKey":"way:148846547"}},{"type":"Feature","geometry":{"type":"LineString","coordinates":[[116.0194039,23.967821],[116.0202447,23.9675452],[116.0209705,23.9671841],[116.0215454,23.9668229],[116.0218832,23.9665143],[116.0222137,23.9661334],[116.0235239,23.9644433],[116.0239949,23.9639507],[116.0245122,23.9634989],[116.0255553,23.9624495],[116.025929,23.962003],[116.0261805,23.9615761],[116.0264104,23.9610114],[116.0266691,23.9601117],[116.0272225,23.9581876],[116.0273662,23.9576031]]},"properties":{"key":"way:148846550@detail:464_95","osmType":"way","osmId":148846550,"sourceRegion":"guangdong","featureType":"infrastructure","railClass":"national","mode":"rail","name":"畲龙线","ref":"0716","usage":"main","status":"operational","color":"#E54848","dataOrigin":"datum-2026-08-01","sourceKey":"way:148846550"}},{"type":"Feature","geometry":{"type":"LineString","coordinates":[[116.027906,23.9495003],[116.0285128,23.9491566],[116.0299801,23.9485242]]},"properties":{"key":"way:148846558@detail:464_95","osmType":"way","osmId":148846558,"sourceRegion":"guangdong","featureType":"infrastructure","railClass":"national","mode":"rail","name":"畲龙线","ref":"0716","usage":"main","bridge":"yes","status":"operational","color":"#E54848","dataOrigin":"datum-2026-08-01","sourceKey":"way:148846558"}},{"type":"Feature","geometry":{"type":"LineString","coordinates":[[116.1651436,23.7823603],[116.1654235,23.7820056]]},"properties":{"key":"way:148846560@detail:464_95","osmType":"way","osmId":148846560,"sourceRegion":"guangdong","featureType":"infrastructure","railClass":"national","mode":"rail","name":"畲龙线","ref":"0716","usage":"main","bridge":"yes","status":"operational","color":"#E54848","dataOrigin":"datum-2026-08-01","sourceKey":"way:148846560"}},{"type":"Feature","geometry":{"type":"LineString","coordinates":[[116.002263,23.9701622],[116.0034778,23.9699586]]},"properties":{"key":"way:148846564@detail:464_95","osmType":"way","osmId":148846564,"sourceRegion":"guangdong","featureType":"infrastructure","railClass":"national","mode":"rail","name":"畲龙线","ref":"0716","usage":"main","tunnel":"yes","status":"operational","color":"#E54848","dataOrigin":"datum-2026-08-01","sourceKey":"way:148846564"}},{"type":"Feature","geometry":{"type":"LineString","coordinates":[[116.0,23.97102299576713],[116.0006058,23.9707495],[116.0016233,23.970333],[116.002263,23.9701622]]},"properties":{"key":"way:148846565@detail:464_95","osmType":"way","osmId":148846565,"sourceRegion":"guangdong","featureType":"infrastructure","railClass":"national","mode":"rail","name":"畲龙线","ref":"0716","usage":"main","status":"operational","color":"#E54848","dataOrigin":"datum-2026-08-01","sourceKey":"way:148846565"}},{"type":"Feature","geometry":{"type":"LineString","coordinates":[[116.1835887,23.7625833],[116.1839911,23.761462]]},"properties":{"key":"way:148846566@detail:464_95","osmType":"way","osmId":148846566,"sourceRegion":"guangdong","featureType":"infrastructure","railClass":"national","mode":"rail","name":"畲龙线","ref":"0716","usage":"main","bridge":"yes","status":"operational","color":"#E54848","dataOrigin":"datum-2026-08-01","sourceKey":"way:148846566"}},{"type":"Feature","geometry":{"type":"LineString","coordinates":[[116.0299801,23.9485242],[116.0314439,23.9478693]]},"properties":{"key":"way:148846572@detail:464_95","osmType":"way","osmId":148846572,"sourceRegion":"guangdong","featureType":"infrastructure","railClass":"national","mode":"rail","name":"畲龙线","ref":"0716","usage":"main","status":"operational","color":"#E54848","dataOrigin":"datum-2026-08-01","sourceKey":"way:148846572"}},{"type":"Feature","geometry":{"type":"LineString","coordinates":[[116.1820825,23.7668801],[116.1821755,23.7666439]]},"properties":{"key":"way:148846573@detail:464_95","osmType":"way","osmId":148846573,"sourceRegion":"guangdong","featureType":"infrastructure","railClass":"national","mode":"rail","name":"畲龙线","ref":"0716","usage":"main","bridge":"yes","status":"operational","color":"#E54848","dataOrigin":"datum-2026-08-01","sourceKey":"way:148846573"}},{"type":"Feature","geometry":{"type":"LineString","coordinates":[[116.1330127,23.8107614],[116.133228,23.8104068]]},"properties":{"key":"way:148846578@detail:464_95","osmType":"way","osmId":148846578,"sourceRegion":"guangdong","featureType":"infrastructure","railClass":"national","mode":"rail","name":"畲龙线","ref":"0716","usage":"main","status":"operational","color":"#E54848","dataOrigin":"datum-2026-08-01","sourceKey":"way:148846578"}},{"type":"Feature","geometry":{"type":"LineString","coordinates":[[116.1821755,23.7666439],[116.1835887,23.7625833]]},"properties":{"key":"way:148846580@detail:464_95","osmType":"way","osmId":148846580,"sourceRegion":"guangdong","featureType":"infrastructure","railClass":"national","mode":"rail","name":"畲龙线","ref":"0716","usage":"main","status":"operational","color":"#E54848","dataOrigin":"datum-2026-08-01","sourceKey":"way:148846580"}},{"type":"Feature","geometry":{"type":"LineString","coordinates":[[116.1374337,23.801017],[116.1381227,23.7994739]]},"properties":{"key":"way:148846582@detail:464_95","osmType":"way","osmId":148846582,"sourceRegion":"guangdong","featureType":"infrastructure","railClass":"national","mode":"rail","name":"畲龙线","ref":"0716","usage":"main","bridge":"yes","status":"operational","color":"#E54848","dataOrigin":"datum-2026-08-01","sourceKey":"way:148846582"}},{"type":"Feature","geometry":{"type":"LineString","coordinates":[[116.1414958,23.795547],[116.1425508,23.7951793]]},"properties":{"key":"way:148846583@detail:464_95","osmType":"way","osmId":148846583,"sourceRegion":"guangdong","featureType":"infrastructure","railClass":"national","mode":"rail","name":"畲龙线","ref":"0716","usage":"main","tunnel":"yes","status":"operational","color":"#E54848","dataOrigin":"datum-2026-08-01","sourceKey":"way:148846583"}},{"type":"Feature","geometry":{"type":"LineString","coordinates":[[116.1387542,23.7982656],[116.1393499,23.7974448]]},"properties":{"key":"way:148846585@detail:464_95","osmType":"way","osmId":148846585,"sourceRegion":"guangdong","featureType":"infrastructure","railClass":"national","mode":"rail","name":"畲龙线","ref":"0716","usage":"main","tunnel":"yes","status":"operational","color":"#E54848","dataOrigin":"datum-2026-08-01","sourceKey":"way:148846585"}},{"type":"Feature","geometry":{"type":"LineString","coordinates":[[116.1808049,23.7689393],[116.1808323,23.7689094],[116.1810978,23.768604],[116.1815045,23.7680032],[116.1818327,23.767409],[116.1820825,23.7668801]]},"properties":{"key":"way:148846587@detail:464_95","osmType":"way","osmId":148846587,"sourceRegion":"guangdong","featureType":"infrastructure","railClass":"national","mode":"rail","name":"畲龙线","ref":"0716","usage":"main","status":"operational","color":"#E54848","dataOrigin":"datum-2026-08-01","sourceKey":"way:148846587"}},{"type":"Feature","geometry":{"type":"LineString","coordinates":[[116.1317281,23.8125867],[116.1326108,23.811418],[116.1330127,23.8107614]]},"properties":{"key":"way:148846589@detail:464_95","osmType":"way","osmId":148846589,"sourceRegion":"guangdong","featureType":"infrastructure","railClass":"national","mode":"rail","name":"畲龙线","ref":"0716","usage":"main","bridge":"yes","status":"operational","color":"#E54848","dataOrigin":"datum-2026-08-01","sourceKey":"way:148846589"}},{"type":"Feature","geometry":{"type":"LineString","coordinates":[[116.1364002,23.8027703],[116.1369815,23.8018707],[116.1374337,23.801017]]},"properties":{"key":"way:148846592@detail:464_95","osmType":"way","osmId":148846592,"sourceRegion":"guangdong","featureType":"infrastructure","railClass":"national","mode":"rail","name":"畲龙线","ref":"0716","usage":"main","status":"operational","color":"#E54848","dataOrigin":"datum-2026-08-01","sourceKey":"way:148846592"}},{"type":"Feature","geometry":{"type":"LineString","coordinates":[[116.0103781,23.9694824],[116.0119375,23.9700077],[116.0126417,23.9701981]]},"properties":{"key":"way:148846593@detail:464_95","osmType":"way","osmId":148846593,"sourceRegion":"guangdong","featureType":"infrastructure","railClass":"national","mode":"rail","name":"畲龙线","ref":"0716","usage":"main","bridge":"yes","status":"operational","color":"#E54848","dataOrigin":"datum-2026-08-01","sourceKey":"way:148846593"}},{"type":"Feature","geometry":{"type":"LineString","coordinates":[[116.133228,23.8104068],[116.1340821,23.8089688],[116.1344266,23.8082991]]},"properties":{"key":"way:148846595@detail:464_95","osmType":"way","osmId":148846595,"sourceRegion":"guangdong","featureType":"infrastructure","railClass":"national","mode":"rail","name":"畲龙线","ref":"0716","usage":"main","tunnel":"yes","status":"operational","color":"#E54848","dataOrigin":"datum-2026-08-01","sourceKey":"way:148846595"}},{"type":"Feature","geometry":{"type":"LineString","coordinates":[[116.1381227,23.7994739],[116.138381,23.7988829],[116.1387542,23.7982656]]},"properties":{"key":"way:148846597@detail:464_95","osmType":"way","osmId":148846597,"sourceRegion":"guangdong","featureType":"infrastructure","railClass":"national","mode":"rail","name":"畲龙线","ref":"0716","usage":"main","status":"operational","color":"#E54848","dataOrigin":"datum-2026-08-01","sourceKey":"way:148846597"}},{"type":"Feature","geometry":{"type":"LineString","coordinates":[[116.1393499,23.7974448],[116.1403403,23.7963285],[116.140814,23.7959739],[116.1414958,23.795547]]},"properties":{"key":"way:148846599@detail:464_95","osmType":"way","osmId":148846599,"sourceRegion":"guangdong","featureType":"infrastructure","railClass":"national","mode":"rail","name":"畲龙线","ref":"0716","usage":"main","status":"operational","color":"#E54848","dataOrigin":"datum-2026-08-01","sourceKey":"way:148846599"}},{"type":"Feature","geometry":{"type":"LineString","coordinates":[[116.1353883,23.8043659],[116.135661,23.8037487],[116.1359911,23.8032759],[116.1364002,23.8027703]]},"properties":{"key":"way:148846601@detail:464_95","osmType":"way","osmId":148846601,"sourceRegion":"guangdong","featureType":"infrastructure","railClass":"national","mode":"rail","name":"畲龙线","ref":"0716","usage":"main","tunnel":"yes","status":"operational","color":"#E54848","dataOrigin":"datum-2026-08-01","sourceKey":"way:148846601"}},{"type":"Feature","geometry":{"type":"LineString","coordinates":[[116.016666,23.9693839],[116.0181607,23.9683398],[116.0187644,23.9680509],[116.0194039,23.967821]]},"properties":{"key":"way:148846602@detail:464_95","osmType":"way","osmId":148846602,"sourceRegion":"guangdong","featureType":"infrastructure","railClass":"national","mode":"rail","name":"畲龙线","ref":"0716","usage":"main","tunnel":"yes","status":"operational","color":"#E54848","dataOrigin":"datum-2026-08-01","sourceKey":"way:148846602"}},{"type":"Feature","geometry":{"type":"LineString","coordinates":[[116.18806915041945,23.75],[116.187328,23.7507035]]},"properties":{"key":"way:148846641@detail:464_95","osmType":"way","osmId":148846641,"sourceRegion":"guangdong","featureType":"infrastructure","railClass":"national","mode":"rail","name":"未命名","status":"operational","color":"#E54848","dataOrigin":"datum-2026-08-01","sourceKey":"way:148846641"}},{"type":"Feature","geometry":{"type":"LineString","coordinates":[[116.0273662,23.9576031],[116.0274165,23.9571368],[116.0273949,23.9566443],[116.0273087,23.9562306],[116.0271362,23.9557775]]},"properties":{"key":"way:148846645@detail:464_95","osmType":"way","osmId":148846645,"sourceRegion":"guangdong","featureType":"infrastructure","railClass":"national","mode":"rail","name":"畲龙线","ref":"0716","usage":"main","bridge":"yes","status":"operational","color":"#E54848","dataOrigin":"datum-2026-08-01","sourceKey":"way:148846645"}},{"type":"Feature","geometry":{"type":"LineString","coordinates":[[116.1344266,23.8082991],[116.1346706,23.8076556],[116.1348572,23.8068611],[116.1349864,23.8059944],[116.1351443,23.8052327],[116.1353883,23.8043659]]},"properties":{"key":"way:148846646@detail:464_95","osmType":"way","osmId":148846646,"sourceRegion":"guangdong","featureType":"infrastructure","railClass":"national","mode":"rail","name":"畲龙线","ref":"0716","usage":"main","status":"operational","color":"#E54848","dataOrigin":"datum-2026-08-01","sourceKey":"way:148846646"}},{"type":"Feature","geometry":{"type":"LineString","coordinates":[[116.1888960390668,23.75],[116.1884833,23.7505393],[116.1870553,23.752871],[116.1867252,23.7535278],[116.1863305,23.7544342],[116.1855483,23.7566345],[116.18529,23.7576197]]},"properties":{"key":"way:148846651@detail:464_95","osmType":"way","osmId":148846651,"sourceRegion":"guangdong","featureType":"infrastructure","railClass":"national","mode":"rail","name":"未命名","status":"operational","color":"#E54848","dataOrigin":"datum-2026-08-01","sourceKey":"way:148846651"}},{"type":"Feature","geometry":{"type":"LineString","coordinates":[[116.0126417,23.9701981],[116.0129507,23.9702769],[116.0133316,23.9703229],[116.0138131,23.9703229],[116.0143233,23.9702769],[116.0149844,23.9701718],[116.0156096,23.9699748],[116.0160983,23.9697581],[116.016666,23.9693839]]},"properties":{"key":"way:148846660@detail:464_95","osmType":"way","osmId":148846660,"sourceRegion":"guangdong","featureType":"infrastructure","railClass":"national","mode":"rail","name":"畲龙线","ref":"0716","usage":"main","status":"operational","color":"#E54848","dataOrigin":"datum-2026-08-01","sourceKey":"way:148846660"}},{"type":"Feature","geometry":{"type":"LineString","coordinates":[[116.1304554,23.8186453],[116.1303142,23.8182398],[116.1299123,23.8171368],[116.1298621,23.8165525],[116.129898,23.8160338],[116.130063,23.8152918],[116.1302999,23.8145959],[116.1306659,23.813959],[116.1311611,23.813263],[116.1317281,23.8125867]]},"properties":{"key":"way:148846661@detail:464_95","osmType":"way","osmId":148846661,"sourceRegion":"guangdong","featureType":"infrastructure","railClass":"national","mode":"rail","name":"畲龙线","ref":"0716","usage":"main","status":"operational","color":"#E54848","dataOrigin":"datum-2026-08-01","sourceKey":"way:148846661"}},{"type":"Feature","geometry":{"type":"LineString","coordinates":[[116.0034778,23.9699586],[116.0057348,23.9695842],[116.0065399,23.9694397],[116.0072227,23.9692887],[116.007805,23.9692033],[116.0084806,23.969177],[116.0090773,23.9691967],[116.0096667,23.9692985],[116.0103781,23.9694824]]},"properties":{"key":"way:148846662@detail:464_95","osmType":"way","osmId":148846662,"sourceRegion":"guangdong","featureType":"infrastructure","railClass":"national","mode":"rail","name":"畲龙线","ref":"0716","usage":"main","status":"operational","color":"#E54848","dataOrigin":"datum-2026-08-01","sourceKey":"way:148846662"}},{"type":"Feature","geometry":{"type":"LineString","coordinates":[[116.0896468,23.883057],[116.0898838,23.882341],[116.0901497,23.8815724],[116.0904083,23.8809286],[116.0908322,23.8799498],[116.0910693,23.8792731],[116.0912561,23.8785571],[116.0913494,23.8779067],[116.0914716,23.8765468],[116.0916153,23.8759096],[116.0917877,23.8753577],[116.0919673,23.8749438],[116.0928438,23.8733277],[116.0932533,23.8727167],[116.0935335,23.8720663],[116.0936556,23.8717575]]},"properties":{"key":"way:148850646@detail:464_95","osmType":"way","osmId":148850646,"sourceRegion":"guangdong","featureType":"infrastructure","railClass":"national","mode":"rail","name":"畲龙线","ref":"0716","usage":"main","status":"operational","color":"#E54848","dataOrigin":"datum-2026-08-01","sourceKey":"way:148850646"}},{"type":"Feature","geometry":{"type":"LineString","coordinates":[[116.0605639,23.9091136],[116.0605335,23.9086028]]},"properties":{"key":"way:148850647@detail:464_95","osmType":"way","osmId":148850647,"sourceRegion":"guangdong","featureType":"infrastructure","railClass":"national","mode":"rail","name":"畲龙线","ref":"0716","usage":"main","status":"operational","color":"#E54848","dataOrigin":"datum-2026-08-01","sourceKey":"way:148850647"}},{"type":"Feature","geometry":{"type":"LineString","coordinates":[[116.0890648,23.8842264],[116.0893235,23.8837928]]},"properties":{"key":"way:148850648@detail:464_95","osmType":"way","osmId":148850648,"sourceRegion":"guangdong","featureType":"infrastructure","railClass":"national","mode":"rail","name":"畲龙线","ref":"0716","usage":"main","status":"operational","color":"#E54848","dataOrigin":"datum-2026-08-01","sourceKey":"way:148850648"}},{"type":"Feature","geometry":{"type":"LineString","coordinates":[[116.0512636,23.9212624],[116.053261,23.9185762]]},"properties":{"key":"way:148850649@detail:464_95","osmType":"way","osmId":148850649,"sourceRegion":"guangdong","featureType":"infrastructure","railClass":"national","mode":"rail","name":"畲龙线","ref":"0716","usage":"main","bridge":"yes","status":"operational","color":"#E54848","dataOrigin":"datum-2026-08-01","sourceKey":"way:148850649"}},{"type":"Feature","geometry":{"type":"LineString","coordinates":[[116.0613158,23.9064479],[116.0614123,23.9062734]]},"properties":{"key":"way:148850650@detail:464_95","osmType":"way","osmId":148850650,"sourceRegion":"guangdong","featureType":"infrastructure","railClass":"national","mode":"rail","name":"畲龙线","ref":"0716","usage":"main","status":"operational","color":"#E54848","dataOrigin":"datum-2026-08-01","sourceKey":"way:148850650"}},{"type":"Feature","geometry":{"type":"LineString","coordinates":[[116.0893235,23.8837928],[116.0896468,23.883057]]},"properties":{"key":"way:148850651@detail:464_95","osmType":"way","osmId":148850651,"sourceRegion":"guangdong","featureType":"infrastructure","railClass":"national","mode":"rail","name":"畲龙线","ref":"0716","usage":"main","bridge":"yes","status":"operational","color":"#E54848","dataOrigin":"datum-2026-08-01","sourceKey":"way:148850651"}},{"type":"Feature","geometry":{"type":"LineString","coordinates":[[116.1134751,23.8417369],[116.1142343,23.8404368]]},"properties":{"key":"way:148850652@detail:464_95","osmType":"way","osmId":148850652,"sourceRegion":"guangdong","featureType":"infrastructure","railClass":"national","mode":"rail","name":"畲龙线","ref":"0716","usage":"main","bridge":"yes","status":"operational","color":"#E54848","dataOrigin":"datum-2026-08-01","sourceKey":"way:148850652"}},{"type":"Feature","geometry":{"type":"LineString","coordinates":[[116.1100572,23.8468127],[116.111543,23.8453481]]},"properties":{"key":"way:148850653@detail:464_95","osmType":"way","osmId":148850653,"sourceRegion":"guangdong","featureType":"infrastructure","railClass":"national","mode":"rail","name":"畲龙线","ref":"0716","usage":"main","tunnel":"yes","status":"operational","color":"#E54848","dataOrigin":"datum-2026-08-01","sourceKey":"way:148850653"}},{"type":"Feature","geometry":{"type":"LineString","coordinates":[[116.0496614,23.9233837],[116.0439881,23.9312348]]},"properties":{"key":"way:148850654@detail:464_95","osmType":"way","osmId":148850654,"sourceRegion":"guangdong","featureType":"infrastructure","railClass":"national","mode":"rail","name":"畲龙线","ref":"0716","usage":"main","tunnel":"yes","status":"operational","color":"#E54848","dataOrigin":"datum-2026-08-01","sourceKey":"way:148850654"}},{"type":"Feature","geometry":{"type":"LineString","coordinates":[[116.0605335,23.9086028],[116.0605944,23.9080083]]},"properties":{"key":"way:148850655@detail:464_95","osmType":"way","osmId":148850655,"sourceRegion":"guangdong","featureType":"infrastructure","railClass":"national","mode":"rail","name":"畲龙线","ref":"0716","usage":"main","status":"operational","color":"#E54848","dataOrigin":"datum-2026-08-01","sourceKey":"way:148850655"}},{"type":"Feature","geometry":{"type":"LineString","coordinates":[[116.1082197,23.855864],[116.1084507,23.8550862],[116.108526,23.8547119],[116.1085084,23.8542748]]},"properties":{"key":"way:148850656@detail:464_95","osmType":"way","osmId":148850656,"sourceRegion":"guangdong","featureType":"infrastructure","railClass":"national","mode":"rail","name":"畲龙线","ref":"0716","usage":"main","bridge":"yes","status":"operational","color":"#E54848","dataOrigin":"datum-2026-08-01","sourceKey":"way:148850656"}},{"type":"Feature","geometry":{"type":"LineString","coordinates":[[116.1090545,23.8479459],[116.1094587,23.8474705],[116.1100572,23.8468127]]},"properties":{"key":"way:148850657@detail:464_95","osmType":"way","osmId":148850657,"sourceRegion":"guangdong","featureType":"infrastructure","railClass":"national","mode":"rail","name":"畲龙线","ref":"0716","usage":"main","status":"operational","color":"#E54848","dataOrigin":"datum-2026-08-01","sourceKey":"way:148850657"}},{"type":"Feature","geometry":{"type":"LineString","coordinates":[[116.0936556,23.8717575],[116.0939861,23.8706867],[116.09441,23.8689062]]},"properties":{"key":"way:148850658@detail:464_95","osmType":"way","osmId":148850658,"sourceRegion":"guangdong","featureType":"infrastructure","railClass":"national","mode":"rail","name":"畲龙线","ref":"0716","usage":"main","bridge":"yes","status":"operational","color":"#E54848","dataOrigin":"datum-2026-08-01","sourceKey":"way:148850658"}},{"type":"Feature","geometry":{"type":"LineString","coordinates":[[116.0607834,23.910675],[116.0607367,23.9101725],[116.0605639,23.9091136]]},"properties":{"key":"way:148850659@detail:464_95","osmType":"way","osmId":148850659,"sourceRegion":"guangdong","featureType":"infrastructure","railClass":"national","mode":"rail","name":"畲龙线","ref":"0716","usage":"main","bridge":"yes","status":"operational","color":"#E54848","dataOrigin":"datum-2026-08-01","sourceKey":"way:148850659"}},{"type":"Feature","geometry":{"type":"LineString","coordinates":[[116.0614123,23.9062734],[116.0620981,23.9048502]]},"properties":{"key":"way:148850660@detail:464_95","osmType":"way","osmId":148850660,"sourceRegion":"guangdong","featureType":"infrastructure","railClass":"national","mode":"rail","name":"畲龙线","ref":"0716","usage":"main","bridge":"yes","status":"operational","color":"#E54848","dataOrigin":"datum-2026-08-01","sourceKey":"way:148850660"}},{"type":"Feature","geometry":{"type":"LineString","coordinates":[[116.0968759,23.8643337],[116.0971548,23.863473],[116.097372,23.8629507],[116.0975901,23.8624955],[116.0979261,23.8620154],[116.0982488,23.8616559],[116.0987556,23.8611262],[116.0992704,23.860729],[116.0998335,23.8603685],[116.1004046,23.8600448],[116.1009597,23.8598094],[116.101783,23.8595612],[116.1023553,23.8595036],[116.1032516,23.8594549],[116.1038393,23.8594598]]},"properties":{"key":"way:148850661@detail:464_95","osmType":"way","osmId":148850661,"sourceRegion":"guangdong","featureType":"infrastructure","railClass":"national","mode":"rail","name":"畲龙线","ref":"0716","usage":"main","status":"operational","color":"#E54848","dataOrigin":"datum-2026-08-01","sourceKey":"way:148850661"}},{"type":"Feature","geometry":{"type":"LineString","coordinates":[[116.0496614,23.9233837],[116.0506601,23.9221227],[116.0509906,23.9216367],[116.0512636,23.9212624]]},"properties":{"key":"way:148850662@detail:464_95","osmType":"way","osmId":148850662,"sourceRegion":"guangdong","featureType":"infrastructure","railClass":"national","mode":"rail","name":"畲龙线","ref":"0716","usage":"main","status":"operational","color":"#E54848","dataOrigin":"datum-2026-08-01","sourceKey":"way:148850662"}},{"type":"Feature","geometry":{"type":"LineString","coordinates":[[116.0587285,23.9149245],[116.0592889,23.9145633],[116.0597128,23.9141955],[116.0600146,23.9138474]]},"properties":{"key":"way:148850663@detail:464_95","osmType":"way","osmId":148850663,"sourceRegion":"guangdong","featureType":"infrastructure","railClass":"national","mode":"rail","name":"畲龙线","ref":"0716","usage":"main","tunnel":"yes","status":"operational","color":"#E54848","dataOrigin":"datum-2026-08-01","sourceKey":"way:148850663"}},{"type":"Feature","geometry":{"type":"LineString","coordinates":[[116.0639519,23.9009963],[116.064807,23.9],[116.0882665,23.8851781],[116.0890648,23.8842264]]},"properties":{"key":"way:148850664@detail:464_95","osmType":"way","osmId":148850664,"sourceRegion":"guangdong","featureType":"infrastructure","railClass":"national","mode":"rail","name":"畲龙线","ref":"0716","usage":"main","tunnel":"yes","status":"operational","color":"#E54848","dataOrigin":"datum-2026-08-01","sourceKey":"way:148850664"}},{"type":"Feature","geometry":{"type":"LineString","coordinates":[[116.1082407,23.8501644],[116.1084244,23.8494393],[116.108813,23.8483493],[116.1090545,23.8479459]]},"properties":{"key":"way:148850665@detail:464_95","osmType":"way","osmId":148850665,"sourceRegion":"guangdong","featureType":"infrastructure","railClass":"national","mode":"rail","name":"畲龙线","ref":"0716","usage":"main","bridge":"yes","status":"operational","color":"#E54848","dataOrigin":"datum-2026-08-01","sourceKey":"way:148850665"}},{"type":"Feature","geometry":{"type":"LineString","coordinates":[[116.0620981,23.9048502],[116.0629749,23.9028387],[116.063643,23.9014265],[116.0639519,23.9009963]]},"properties":{"key":"way:148850666@detail:464_95","osmType":"way","osmId":148850666,"sourceRegion":"guangdong","featureType":"infrastructure","railClass":"national","mode":"rail","name":"畲龙线","ref":"0716","usage":"main","status":"operational","color":"#E54848","dataOrigin":"datum-2026-08-01","sourceKey":"way:148850666"}},{"type":"Feature","geometry":{"type":"LineString","coordinates":[[116.0605944,23.9080083],[116.0608078,23.9074789],[116.0610415,23.9069216],[116.0613158,23.9064479]]},"properties":{"key":"way:148850667@detail:464_95","osmType":"way","osmId":148850667,"sourceRegion":"guangdong","featureType":"infrastructure","railClass":"national","mode":"rail","name":"畲龙线","ref":"0716","usage":"main","tunnel":"yes","status":"operational","color":"#E54848","dataOrigin":"datum-2026-08-01","sourceKey":"way:148850667"}},{"type":"Feature","geometry":{"type":"LineString","coordinates":[[116.09441,23.8689062],[116.0947764,23.8674937],[116.0949991,23.8670404],[116.0953296,23.8665148],[116.095854,23.8658906]]},"properties":{"key":"way:148850668@detail:464_95","osmType":"way","osmId":148850668,"sourceRegion":"guangdong","featureType":"infrastructure","railClass":"national","mode":"rail","name":"畲龙线","ref":"0716","usage":"main","status":"operational","color":"#E54848","dataOrigin":"datum-2026-08-01","sourceKey":"way:148850668"}},{"type":"Feature","geometry":{"type":"LineString","coordinates":[[116.1085084,23.8542748],[116.1085084,23.8539434],[116.1084664,23.8527622],[116.1082249,23.8511008],[116.1081882,23.8506782],[116.1082407,23.8501644]]},"properties":{"key":"way:148850669@detail:464_95","osmType":"way","osmId":148850669,"sourceRegion":"guangdong","featureType":"infrastructure","railClass":"national","mode":"rail","name":"畲龙线","ref":"0716","usage":"main","status":"operational","color":"#E54848","dataOrigin":"datum-2026-08-01","sourceKey":"way:148850669"}},{"type":"Feature","geometry":{"type":"LineString","coordinates":[[116.1344005,23.8280921],[116.1336245,23.8275533],[116.131705,23.8262412],[116.1311992,23.8258419],[116.1308388,23.8254172],[116.1305686,23.8249861],[116.1303261,23.8244156],[116.1302013,23.8238198],[116.1301459,23.8232429],[116.130132,23.8225837],[116.1302045,23.821903],[116.130589,23.8204814]]},"properties":{"key":"way:148850670@detail:464_95","osmType":"way","osmId":148850670,"sourceRegion":"guangdong","featureType":"infrastructure","railClass":"national","mode":"rail","name":"畲龙线","ref":"0716","usage":"main","status":"operational","color":"#E54848","dataOrigin":"datum-2026-08-01","sourceKey":"way:148850670"}},{"type":"Feature","geometry":{"type":"LineString","coordinates":[[116.111543,23.8453481],[116.1119893,23.8447862],[116.1122466,23.84433],[116.1125353,23.8436482],[116.1130183,23.8426061],[116.1134751,23.8417369]]},"properties":{"key":"way:148850671@detail:464_95","osmType":"way","osmId":148850671,"sourceRegion":"guangdong","featureType":"infrastructure","railClass":"national","mode":"rail","name":"畲龙线","ref":"0716","usage":"main","status":"operational","color":"#E54848","dataOrigin":"datum-2026-08-01","sourceKey":"way:148850671"}},{"type":"Feature","geometry":{"type":"LineString","coordinates":[[116.053261,23.9185762],[116.053474,23.9183606],[116.0537809,23.9180719],[116.0542668,23.9176042],[116.054856,23.9171707],[116.0581609,23.9152923],[116.0587285,23.9149245]]},"properties":{"key":"way:148850673@detail:464_95","osmType":"way","osmId":148850673,"sourceRegion":"guangdong","featureType":"infrastructure","railClass":"national","mode":"rail","name":"畲龙线","ref":"0716","usage":"main","status":"operational","color":"#E54848","dataOrigin":"datum-2026-08-01","sourceKey":"way:148850673"}},{"type":"Feature","geometry":{"type":"LineString","coordinates":[[116.0600146,23.9138474],[116.060187,23.9136043],[116.0604313,23.9131249],[116.0606612,23.9125535],[116.0607834,23.9119886],[116.0608121,23.9113646],[116.0607834,23.910675]]},"properties":{"key":"way:148850674@detail:464_95","osmType":"way","osmId":148850674,"sourceRegion":"guangdong","featureType":"infrastructure","railClass":"national","mode":"rail","name":"畲龙线","ref":"0716","usage":"main","status":"operational","color":"#E54848","dataOrigin":"datum-2026-08-01","sourceKey":"way:148850674"}},{"type":"Feature","geometry":{"type":"LineString","coordinates":[[116.0469384,23.9228648],[116.0484544,23.9230356],[116.0489501,23.923029],[116.0494459,23.922924],[116.0497979,23.9227926],[116.0501212,23.9225824],[116.0503871,23.9223394],[116.0509906,23.9216367]]},"properties":{"key":"way:148850675@detail:464_95","osmType":"way","osmId":148850675,"sourceRegion":"guangdong","featureType":"infrastructure","railClass":"minor","mode":"rail","name":"未命名","service":"spur","status":"operational","color":"#52636F","dataOrigin":"datum-2026-08-01","sourceKey":"way:148850675"}},{"type":"Feature","geometry":{"type":"LineString","coordinates":[[116.1142343,23.8404368],[116.1144201,23.8401186],[116.1145514,23.8399793],[116.1148139,23.8397584],[116.1151761,23.8395183],[116.1154702,23.839355],[116.1161901,23.839007],[116.1171117,23.838652],[116.1191143,23.8379104],[116.1196271,23.8377964],[116.1201953,23.837752],[116.1207289,23.837733],[116.1257042,23.8382907],[116.1281017,23.8385569],[116.128541,23.8385619]]},"properties":{"key":"way:166625152@detail:464_95","osmType":"way","osmId":166625152,"sourceRegion":"guangdong","featureType":"infrastructure","railClass":"national","mode":"rail","name":"畲龙线","ref":"0716","usage":"main","status":"operational","color":"#E54848","dataOrigin":"datum-2026-08-01","sourceKey":"way:166625152"}},{"type":"Feature","geometry":{"type":"LineString","coordinates":[[116.1358141,23.8295183],[116.1351281,23.8287704],[116.1344005,23.8280921]]},"properties":{"key":"way:166625153@detail:464_95","osmType":"way","osmId":166625153,"sourceRegion":"guangdong","featureType":"infrastructure","railClass":"national","mode":"rail","name":"畲龙线","ref":"0716","usage":"main","tunnel":"yes","status":"operational","color":"#E54848","dataOrigin":"datum-2026-08-01","sourceKey":"way:166625153"}},{"type":"Feature","geometry":{"type":"LineString","coordinates":[[116.1293548,23.8384854],[116.1300388,23.8383408],[116.1306448,23.8380943],[116.1316683,23.8373695]]},"properties":{"key":"way:166625154@detail:464_95","osmType":"way","osmId":166625154,"sourceRegion":"guangdong","featureType":"infrastructure","railClass":"national","mode":"rail","name":"畲龙线","ref":"0716","usage":"main","tunnel":"yes","status":"operational","color":"#E54848","dataOrigin":"datum-2026-08-01","sourceKey":"way:166625154"}},{"type":"Feature","geometry":{"type":"LineString","coordinates":[[116.1316683,23.8373695],[116.1336175,23.8361104],[116.1342897,23.8357047],[116.1346777,23.8353751]]},"properties":{"key":"way:166625155@detail:464_95","osmType":"way","osmId":166625155,"sourceRegion":"guangdong","featureType":"infrastructure","railClass":"national","mode":"rail","name":"畲龙线","ref":"0716","usage":"main","status":"operational","color":"#E54848","dataOrigin":"datum-2026-08-01","sourceKey":"way:166625155"}},{"type":"Feature","geometry":{"type":"LineString","coordinates":[[116.1346777,23.8353751],[116.1351558,23.8348554],[116.1356132,23.8342786],[116.1359735,23.8337969],[116.1362992,23.8330553]]},"properties":{"key":"way:166625156@detail:464_95","osmType":"way","osmId":166625156,"sourceRegion":"guangdong","featureType":"infrastructure","railClass":"national","mode":"rail","name":"畲龙线","ref":"0716","usage":"main","bridge":"yes","status":"operational","color":"#E54848","dataOrigin":"datum-2026-08-01","sourceKey":"way:166625156"}},{"type":"Feature","geometry":{"type":"LineString","coordinates":[[116.1362992,23.8330553],[116.1364031,23.832751],[116.1365071,23.8322186],[116.1365486,23.8316228],[116.1365625,23.8310713],[116.1364516,23.8306339],[116.1362784,23.8301649],[116.1360082,23.8297719],[116.1358141,23.8295183]]},"properties":{"key":"way:166625157@detail:464_95","osmType":"way","osmId":166625157,"sourceRegion":"guangdong","featureType":"infrastructure","railClass":"national","mode":"rail","name":"畲龙线","ref":"0716","usage":"main","status":"operational","color":"#E54848","dataOrigin":"datum-2026-08-01","sourceKey":"way:166625157"}},{"type":"Feature","geometry":{"type":"LineString","coordinates":[[116.1049828,23.9344321],[116.1100817,23.9271237]]},"properties":{"key":"way:531638149@detail:464_95","osmType":"way","osmId":531638149,"sourceRegion":"guangdong","featureType":"infrastructure","railClass":"highspeed","mode":"rail","name":"梅汕线","nameEn":"Meizhou-Shantou High-Speed Railway","ref":"3080","usage":"main","highspeed":"yes","bridge":"viaduct","status":"operational","color":"#E54848","dataOrigin":"datum-2026-08-01","sourceKey":"way:531638149"}},{"type":"Feature","geometry":{"type":"LineString","coordinates":[[116.0584115,23.9938419],[116.1049828,23.9344321]]},"properties":{"key":"way:531638150@detail:464_95","osmType":"way","osmId":531638150,"sourceRegion":"guangdong","featureType":"infrastructure","railClass":"highspeed","mode":"rail","name":"梅汕线","nameEn":"Meizhou-Shantou High-Speed Railway","ref":"3080","usage":"main","highspeed":"yes","tunnel":"yes","status":"operational","color":"#E54848","dataOrigin":"datum-2026-08-01","sourceKey":"way:531638150"}},{"type":"Feature","geometry":{"type":"LineString","coordinates":[[116.0574031,23.9951479],[116.0584115,23.9938419]]},"properties":{"key":"way:531638151@detail:464_95","osmType":"way","osmId":531638151,"sourceRegion":"guangdong","featureType":"infrastructure","railClass":"highspeed","mode":"rail","name":"梅汕线","nameEn":"Meizhou-Shantou High-Speed Railway","ref":"3080","usage":"main","highspeed":"yes","status":"operational","color":"#E54848","dataOrigin":"datum-2026-08-01","sourceKey":"way:531638151"}},{"type":"Feature","geometry":{"type":"LineString","coordinates":[[116.05354238937268,24.0],[116.0574031,23.9951479]]},"properties":{"key":"way:531638152@detail:464_95","osmType":"way","osmId":531638152,"sourceRegion":"guangdong","featureType":"infrastructure","railClass":"highspeed","mode":"rail","name":"梅汕线","nameEn":"Meizhou-Shantou High-Speed Railway","ref":"3080","usage":"main","highspeed":"yes","tunnel":"yes","status":"operational","color":"#E54848","dataOrigin":"datum-2026-08-01","sourceKey":"way:531638152"}},{"type":"Feature","geometry":{"type":"LineString","coordinates":[[116.1100817,23.9271237],[116.1800337,23.8174835],[116.1811445,23.81518]]},"properties":{"key":"way:630204631@detail:464_95","osmType":"way","osmId":630204631,"sourceRegion":"guangdong","featureType":"infrastructure","railClass":"highspeed","mode":"rail","name":"梅汕线","nameEn":"Meizhou-Shantou High-Speed Railway","ref":"3080","usage":"main","highspeed":"yes","tunnel":"yes","status":"operational","color":"#E54848","dataOrigin":"datum-2026-08-01","sourceKey":"way:630204631"}},{"type":"Feature","geometry":{"type":"LineString","coordinates":[[116.1839911,23.761462],[116.1848737,23.7588939],[116.18529,23.7576197],[116.1855842,23.7568579],[116.1859286,23.7559974],[116.1866104,23.7541321],[116.1869333,23.7533768],[116.1873567,23.7526477],[116.1877827,23.7519498]]},"properties":{"key":"way:787449531@detail:464_95","osmType":"way","osmId":787449531,"sourceRegion":"guangdong","featureType":"infrastructure","railClass":"national","mode":"rail","name":"畲龙线","ref":"0716","usage":"main","status":"operational","color":"#E54848","dataOrigin":"datum-2026-08-01","sourceKey":"way:787449531"}},{"type":"Feature","geometry":{"type":"LineString","coordinates":[[116.1877827,23.7519498],[116.1878402,23.7518555]]},"properties":{"key":"way:787449532@detail:464_95","osmType":"way","osmId":787449532,"sourceRegion":"guangdong","featureType":"infrastructure","railClass":"national","mode":"rail","name":"畲龙线","ref":"0716","usage":"main","bridge":"yes","status":"operational","color":"#E54848","dataOrigin":"datum-2026-08-01","sourceKey":"way:787449532"}},{"type":"Feature","geometry":{"type":"LineString","coordinates":[[116.1878402,23.7518555],[116.1885192,23.7507429],[116.18890618233044,23.75]]},"properties":{"key":"way:787449533@detail:464_95","osmType":"way","osmId":787449533,"sourceRegion":"guangdong","featureType":"infrastructure","railClass":"national","mode":"rail","name":"畲龙线","ref":"0716","usage":"main","status":"operational","color":"#E54848","dataOrigin":"datum-2026-08-01","sourceKey":"way:787449533"}},{"type":"Feature","geometry":{"type":"LineString","coordinates":[[116.1909958,23.7950715],[116.191653,23.7935814],[116.1928247,23.7905655],[116.1933803,23.7887809],[116.1941266,23.7856405]]},"properties":{"key":"way:787449539@detail:464_95","osmType":"way","osmId":787449539,"sourceRegion":"guangdong","featureType":"infrastructure","railClass":"highspeed","mode":"rail","name":"梅汕线","nameEn":"Meizhou-Shantou High-Speed Railway","ref":"3080","usage":"main","highspeed":"yes","bridge":"yes","status":"operational","color":"#E54848","dataOrigin":"datum-2026-08-01","sourceKey":"way:787449539"}},{"type":"Feature","geometry":{"type":"LineString","coordinates":[[116.1941266,23.7856405],[116.1942601,23.7849276],[116.1946192,23.782368]]},"properties":{"key":"way:787449540@detail:464_95","osmType":"way","osmId":787449540,"sourceRegion":"guangdong","featureType":"infrastructure","railClass":"highspeed","mode":"rail","name":"梅汕线","nameEn":"Meizhou-Shantou High-Speed Railway","ref":"3080","usage":"main","highspeed":"yes","status":"operational","color":"#E54848","dataOrigin":"datum-2026-08-01","sourceKey":"way:787449540"}},{"type":"Feature","geometry":{"type":"LineString","coordinates":[[116.1950304,23.7733461],[116.1950486,23.7728972]]},"properties":{"key":"way:787449542@detail:464_95","osmType":"way","osmId":787449542,"sourceRegion":"guangdong","featureType":"infrastructure","railClass":"highspeed","mode":"rail","name":"梅汕线","nameEn":"Meizhou-Shantou High-Speed Railway","ref":"3080","usage":"main","highspeed":"yes","bridge":"yes","status":"operational","color":"#E54848","dataOrigin":"datum-2026-08-01","sourceKey":"way:787449542"}},{"type":"Feature","geometry":{"type":"LineString","coordinates":[[116.1953519,23.7689055],[116.1956955,23.7669892],[116.1961081,23.7650844],[116.1965892,23.7631931],[116.1971383,23.7613173]]},"properties":{"key":"way:787449543@detail:464_95","osmType":"way","osmId":787449543,"sourceRegion":"guangdong","featureType":"infrastructure","railClass":"highspeed","mode":"rail","name":"梅汕线","nameEn":"Meizhou-Shantou High-Speed Railway","ref":"3080","usage":"main","highspeed":"yes","tunnel":"yes","status":"operational","color":"#E54848","dataOrigin":"datum-2026-08-01","sourceKey":"way:787449543"}},{"type":"Feature","geometry":{"type":"LineString","coordinates":[[116.1950486,23.7728972],[116.195279,23.7695305]]},"properties":{"key":"way:787449544@detail:464_95","osmType":"way","osmId":787449544,"sourceRegion":"guangdong","featureType":"infrastructure","railClass":"highspeed","mode":"rail","name":"梅汕线","nameEn":"Meizhou-Shantou High-Speed Railway","ref":"3080","usage":"main","highspeed":"yes","bridge":"yes","status":"operational","color":"#E54848","dataOrigin":"datum-2026-08-01","sourceKey":"way:787449544"}},{"type":"Feature","geometry":{"type":"LineString","coordinates":[[116.1974311,23.7605653],[116.197864,23.7594473]]},"properties":{"key":"way:787449546@detail:464_95","osmType":"way","osmId":787449546,"sourceRegion":"guangdong","featureType":"infrastructure","railClass":"highspeed","mode":"rail","name":"梅汕线","nameEn":"Meizhou-Shantou High-Speed Railway","ref":"3080","usage":"main","highspeed":"yes","bridge":"yes","status":"operational","color":"#E54848","dataOrigin":"datum-2026-08-01","sourceKey":"way:787449546"}},{"type":"Feature","geometry":{"type":"LineString","coordinates":[[116.1654235,23.7820056],[116.1669953,23.7799894],[116.1670784,23.7798977]]},"properties":{"key":"way:787449549@detail:464_95","osmType":"way","osmId":787449549,"sourceRegion":"guangdong","featureType":"infrastructure","railClass":"national","mode":"rail","name":"畲龙线","ref":"0716","usage":"main","status":"operational","color":"#E54848","dataOrigin":"datum-2026-08-01","sourceKey":"way:787449549"}},{"type":"Feature","geometry":{"type":"LineString","coordinates":[[116.1670784,23.7798977],[116.1671628,23.7798046]]},"properties":{"key":"way:787449550@detail:464_95","osmType":"way","osmId":787449550,"sourceRegion":"guangdong","featureType":"infrastructure","railClass":"national","mode":"rail","name":"畲龙线","ref":"0716","usage":"main","bridge":"yes","status":"operational","color":"#E54848","dataOrigin":"datum-2026-08-01","sourceKey":"way:787449550"}},{"type":"Feature","geometry":{"type":"LineString","coordinates":[[116.1811445,23.81518],[116.1840018,23.8092542],[116.1889171,23.7994421],[116.1909958,23.7950715]]},"properties":{"key":"way:787464768@detail:464_95","osmType":"way","osmId":787464768,"sourceRegion":"guangdong","featureType":"infrastructure","railClass":"highspeed","mode":"rail","name":"梅汕线","nameEn":"Meizhou-Shantou High-Speed Railway","ref":"3080","usage":"main","highspeed":"yes","status":"operational","color":"#E54848","dataOrigin":"datum-2026-08-01","sourceKey":"way:787464768"}},{"type":"Feature","geometry":{"type":"LineString","coordinates":[[116.1671628,23.7798046],[116.1672393,23.7797201],[116.1688971,23.7779534],[116.1710933,23.7754971],[116.1715885,23.7750176],[116.172055,23.7745973],[116.1725215,23.7742952],[116.1731315,23.7739734],[116.1749472,23.773218],[116.1756721,23.7728896],[116.1763324,23.7725021],[116.1772151,23.7718388],[116.1796409,23.7700129],[116.1802151,23.7695465],[116.1806816,23.7690736],[116.1807337,23.7690168]]},"properties":{"key":"way:787467922@detail:464_95","osmType":"way","osmId":787467922,"sourceRegion":"guangdong","featureType":"infrastructure","railClass":"national","mode":"rail","name":"畲龙线","ref":"0716","usage":"main","status":"operational","color":"#E54848","dataOrigin":"datum-2026-08-01","sourceKey":"way:787467922"}},{"type":"Feature","geometry":{"type":"LineString","coordinates":[[116.1807337,23.7690168],[116.1808049,23.7689393]]},"properties":{"key":"way:787467923@detail:464_95","osmType":"way","osmId":787467923,"sourceRegion":"guangdong","featureType":"infrastructure","railClass":"national","mode":"rail","name":"畲龙线","ref":"0716","usage":"main","bridge":"yes","status":"operational","color":"#E54848","dataOrigin":"datum-2026-08-01","sourceKey":"way:787467923"}},{"type":"Feature","geometry":{"type":"LineString","coordinates":[[116.0377537,23.9409431],[116.0374508,23.9417072],[116.0371029,23.9422712],[116.0351458,23.944677],[116.0340012,23.9461391],[116.032903,23.9471177],[116.0314439,23.9478693]]},"properties":{"key":"way:863617867@detail:464_95","osmType":"way","osmId":863617867,"sourceRegion":"guangdong","featureType":"infrastructure","railClass":"national","mode":"rail","name":"畲龙线","ref":"0716","usage":"main","status":"operational","color":"#E54848","dataOrigin":"datum-2026-08-01","sourceKey":"way:863617867"}},{"type":"Feature","geometry":{"type":"LineString","coordinates":[[116.0379844,23.9393087],[116.0379458,23.9402976],[116.0379056,23.9404966],[116.0377537,23.9409431]]},"properties":{"key":"way:863617868@detail:464_95","osmType":"way","osmId":863617868,"sourceRegion":"guangdong","featureType":"infrastructure","railClass":"national","mode":"rail","name":"畲龙线","ref":"0716","usage":"main","bridge":"yes","status":"operational","color":"#E54848","dataOrigin":"datum-2026-08-01","sourceKey":"way:863617868"}},{"type":"Feature","geometry":{"type":"LineString","coordinates":[[116.038049,23.9383446],[116.0380241,23.9387177],[116.0379844,23.9393087]]},"properties":{"key":"way:863617869@detail:464_95","osmType":"way","osmId":863617869,"sourceRegion":"guangdong","featureType":"infrastructure","railClass":"national","mode":"rail","name":"畲龙线","ref":"0716","usage":"main","status":"operational","color":"#E54848","dataOrigin":"datum-2026-08-01","sourceKey":"way:863617869"}},{"type":"Feature","geometry":{"type":"LineString","coordinates":[[116.0381937,23.9373527],[116.0381119,23.9377225],[116.0380769,23.9380837],[116.038049,23.9383446]]},"properties":{"key":"way:863617870@detail:464_95","osmType":"way","osmId":863617870,"sourceRegion":"guangdong","featureType":"infrastructure","railClass":"national","mode":"rail","name":"畲龙线","ref":"0716","usage":"main","bridge":"yes","status":"operational","color":"#E54848","dataOrigin":"datum-2026-08-01","sourceKey":"way:863617870"}},{"type":"Feature","geometry":{"type":"LineString","coordinates":[[116.1071084,23.8580005],[116.1073062,23.8577895],[116.1075897,23.8573813],[116.1078574,23.8568388],[116.1082197,23.855864]]},"properties":{"key":"way:864721727@detail:464_95","osmType":"way","osmId":864721727,"sourceRegion":"guangdong","featureType":"infrastructure","railClass":"national","mode":"rail","name":"畲龙线","ref":"0716","usage":"main","status":"operational","color":"#E54848","dataOrigin":"datum-2026-08-01","sourceKey":"way:864721727"}},{"type":"Feature","geometry":{"type":"LineString","coordinates":[[116.095854,23.8658906],[116.096242,23.865411],[116.0965437,23.8649708],[116.0968759,23.8643337]]},"properties":{"key":"way:903468727@detail:464_95","osmType":"way","osmId":903468727,"sourceRegion":"guangdong","featureType":"infrastructure","railClass":"national","mode":"rail","name":"畲龙线","ref":"0716","usage":"main","bridge":"yes","status":"operational","color":"#E54848","dataOrigin":"datum-2026-08-01","sourceKey":"way:903468727"}},{"type":"Feature","geometry":{"type":"LineString","coordinates":[[116.1038393,23.8594598],[116.1042716,23.8594652],[116.1047756,23.8593548],[116.1053111,23.8591915]]},"properties":{"key":"way:903468728@detail:464_95","osmType":"way","osmId":903468728,"sourceRegion":"guangdong","featureType":"infrastructure","railClass":"national","mode":"rail","name":"畲龙线","ref":"0716","usage":"main","bridge":"yes","status":"operational","color":"#E54848","dataOrigin":"datum-2026-08-01","sourceKey":"way:903468728"}},{"type":"Feature","geometry":{"type":"LineString","coordinates":[[116.1061774,23.8587978],[116.1066079,23.8585241],[116.1071084,23.8580005]]},"properties":{"key":"way:903468729@detail:464_95","osmType":"way","osmId":903468729,"sourceRegion":"guangdong","featureType":"infrastructure","railClass":"national","mode":"rail","name":"畲龙线","ref":"0716","usage":"main","bridge":"yes","status":"operational","color":"#E54848","dataOrigin":"datum-2026-08-01","sourceKey":"way:903468729"}},{"type":"Feature","geometry":{"type":"LineString","coordinates":[[116.1053111,23.8591915],[116.1057626,23.8590283],[116.1061774,23.8587978]]},"properties":{"key":"way:903468730@detail:464_95","osmType":"way","osmId":903468730,"sourceRegion":"guangdong","featureType":"infrastructure","railClass":"national","mode":"rail","name":"畲龙线","ref":"0716","usage":"main","status":"operational","color":"#E54848","dataOrigin":"datum-2026-08-01","sourceKey":"way:903468730"}},{"type":"Feature","geometry":{"type":"LineString","coordinates":[[116.128541,23.8385619],[116.128663,23.8385633],[116.1289008,23.8385663],[116.1293548,23.8384854]]},"properties":{"key":"way:903468743@detail:464_95","osmType":"way","osmId":903468743,"sourceRegion":"guangdong","featureType":"infrastructure","railClass":"national","mode":"rail","name":"畲龙线","ref":"0716","usage":"main","bridge":"yes","status":"operational","color":"#E54848","dataOrigin":"datum-2026-08-01","sourceKey":"way:903468743"}},{"type":"Feature","geometry":{"type":"LineString","coordinates":[[116.130589,23.8204814],[116.130648,23.8200266],[116.1306435,23.8195889],[116.1306145,23.8192517],[116.1304554,23.8186453]]},"properties":{"key":"way:903468821@detail:464_95","osmType":"way","osmId":903468821,"sourceRegion":"guangdong","featureType":"infrastructure","railClass":"national","mode":"rail","name":"畲龙线","ref":"0716","usage":"main","bridge":"yes","status":"operational","color":"#E54848","dataOrigin":"datum-2026-08-01","sourceKey":"way:903468821"}},{"type":"Feature","geometry":{"type":"LineString","coordinates":[[116.1989217,23.7572341],[116.199708,23.7558668],[116.2004781,23.7544994],[116.2022424,23.7519608],[116.2029686,23.7511124]]},"properties":{"key":"way:907012163@detail:464_95","osmType":"way","osmId":907012163,"sourceRegion":"guangdong","featureType":"infrastructure","railClass":"highspeed","mode":"rail","name":"梅汕线","nameEn":"Meizhou-Shantou High-Speed Railway","ref":"3080","usage":"main","highspeed":"yes","bridge":"yes","status":"operational","color":"#E54848","dataOrigin":"datum-2026-08-01","sourceKey":"way:907012163"}},{"type":"Feature","geometry":{"type":"LineString","coordinates":[[116.2029686,23.7511124],[116.20392065652335,23.75]]},"properties":{"key":"way:907012164@detail:464_95","osmType":"way","osmId":907012164,"sourceRegion":"guangdong","featureType":"infrastructure","railClass":"highspeed","mode":"rail","name":"梅汕线","nameEn":"Meizhou-Shantou High-Speed Railway","ref":"3080","usage":"main","highspeed":"yes","status":"operational","color":"#E54848","dataOrigin":"datum-2026-08-01","sourceKey":"way:907012164"}},{"type":"Feature","geometry":{"type":"LineString","coordinates":[[116.197864,23.7594473],[116.198232,23.7586519],[116.1989217,23.7572341]]},"properties":{"key":"way:907012165@detail:464_95","osmType":"way","osmId":907012165,"sourceRegion":"guangdong","featureType":"infrastructure","railClass":"highspeed","mode":"rail","name":"梅汕线","nameEn":"Meizhou-Shantou High-Speed Railway","ref":"3080","usage":"main","highspeed":"yes","status":"operational","color":"#E54848","dataOrigin":"datum-2026-08-01","sourceKey":"way:907012165"}},{"type":"Feature","geometry":{"type":"LineString","coordinates":[[116.1971383,23.7613173],[116.1974311,23.7605653]]},"properties":{"key":"way:907012166@detail:464_95","osmType":"way","osmId":907012166,"sourceRegion":"guangdong","featureType":"infrastructure","railClass":"highspeed","mode":"rail","name":"梅汕线","nameEn":"Meizhou-Shantou High-Speed Railway","ref":"3080","usage":"main","highspeed":"yes","status":"operational","color":"#E54848","dataOrigin":"datum-2026-08-01","sourceKey":"way:907012166"}},{"type":"Feature","geometry":{"type":"LineString","coordinates":[[116.195279,23.7695305],[116.1953519,23.7689055]]},"properties":{"key":"way:907012167@detail:464_95","osmType":"way","osmId":907012167,"sourceRegion":"guangdong","featureType":"infrastructure","railClass":"highspeed","mode":"rail","name":"梅汕线","nameEn":"Meizhou-Shantou High-Speed Railway","ref":"3080","usage":"main","highspeed":"yes","status":"operational","color":"#E54848","dataOrigin":"datum-2026-08-01","sourceKey":"way:907012167"}},{"type":"Feature","geometry":{"type":"LineString","coordinates":[[116.1948687,23.777433],[116.1950304,23.7733461]]},"properties":{"key":"way:907012168@detail:464_95","osmType":"way","osmId":907012168,"sourceRegion":"guangdong","featureType":"infrastructure","railClass":"highspeed","mode":"rail","name":"梅汕线","nameEn":"Meizhou-Shantou High-Speed Railway","ref":"3080","usage":"main","highspeed":"yes","bridge":"yes","status":"operational","color":"#E54848","dataOrigin":"datum-2026-08-01","sourceKey":"way:907012168"}},{"type":"Feature","geometry":{"type":"LineString","coordinates":[[116.1947291,23.7806251],[116.1948687,23.777433]]},"properties":{"key":"way:907012176@detail:464_95","osmType":"way","osmId":907012176,"sourceRegion":"guangdong","featureType":"infrastructure","railClass":"highspeed","mode":"rail","name":"梅汕线","nameEn":"Meizhou-Shantou High-Speed Railway","ref":"3080","usage":"main","highspeed":"yes","status":"operational","color":"#E54848","dataOrigin":"datum-2026-08-01","sourceKey":"way:907012176"}},{"type":"Feature","geometry":{"type":"LineString","coordinates":[[116.1946192,23.782368],[116.1946486,23.7818578],[116.1947291,23.7806251]]},"properties":{"key":"way:907012177@detail:464_95","osmType":"way","osmId":907012177,"sourceRegion":"guangdong","featureType":"infrastructure","railClass":"highspeed","mode":"rail","name":"梅汕线","nameEn":"Meizhou-Shantou High-Speed Railway","ref":"3080","usage":"main","highspeed":"yes","bridge":"yes","status":"operational","color":"#E54848","dataOrigin":"datum-2026-08-01","sourceKey":"way:907012177"}},{"type":"Feature","geometry":{"type":"LineString","coordinates":[[116.1946898,23.7806232],[116.1948293,23.7774316]]},"properties":{"key":"way:1090905167@detail:464_95","osmType":"way","osmId":1090905167,"sourceRegion":"guangdong","featureType":"infrastructure","railClass":"highspeed","mode":"rail","name":"梅汕线","nameEn":"Meizhou-Shantou High-Speed Railway","ref":"3080","usage":"main","highspeed":"yes","status":"operational","color":"#E54848","dataOrigin":"datum-2026-08-01","sourceKey":"way:1090905167"}},{"type":"Feature","geometry":{"type":"LineString","coordinates":[[116.1945799,23.7823651],[116.1946093,23.7818557],[116.1946898,23.7806232]]},"properties":{"key":"way:1090905168@detail:464_95","osmType":"way","osmId":1090905168,"sourceRegion":"guangdong","featureType":"infrastructure","railClass":"highspeed","mode":"rail","name":"梅汕线","nameEn":"Meizhou-Shantou High-Speed Railway","ref":"3080","usage":"main","highspeed":"yes","bridge":"yes","status":"operational","color":"#E54848","dataOrigin":"datum-2026-08-01","sourceKey":"way:1090905168"}},{"type":"Feature","geometry":{"type":"LineString","coordinates":[[116.1988862,23.7572183],[116.199673,23.7558501],[116.2004439,23.7544814],[116.2022102,23.7519399],[116.2029376,23.7510902]]},"properties":{"key":"way:1090905172@detail:464_95","osmType":"way","osmId":1090905172,"sourceRegion":"guangdong","featureType":"infrastructure","railClass":"highspeed","mode":"rail","name":"梅汕线","nameEn":"Meizhou-Shantou High-Speed Railway","ref":"3080","usage":"main","highspeed":"yes","bridge":"yes","status":"operational","color":"#E54848","dataOrigin":"datum-2026-08-01","sourceKey":"way:1090905172"}},{"type":"Feature","geometry":{"type":"LineString","coordinates":[[116.2029376,23.7510902],[116.20387057122984,23.75]]},"properties":{"key":"way:1090905173@detail:464_95","osmType":"way","osmId":1090905173,"sourceRegion":"guangdong","featureType":"infrastructure","railClass":"highspeed","mode":"rail","name":"梅汕线","nameEn":"Meizhou-Shantou High-Speed Railway","ref":"3080","usage":"main","highspeed":"yes","status":"operational","color":"#E54848","dataOrigin":"datum-2026-08-01","sourceKey":"way:1090905173"}},{"type":"Feature","geometry":{"type":"LineString","coordinates":[[116.1978272,23.7594342],[116.1981958,23.7586375],[116.1988862,23.7572183]]},"properties":{"key":"way:1090905174@detail:464_95","osmType":"way","osmId":1090905174,"sourceRegion":"guangdong","featureType":"infrastructure","railClass":"highspeed","mode":"rail","name":"梅汕线","nameEn":"Meizhou-Shantou High-Speed Railway","ref":"3080","usage":"main","highspeed":"yes","status":"operational","color":"#E54848","dataOrigin":"datum-2026-08-01","sourceKey":"way:1090905174"}},{"type":"Feature","geometry":{"type":"LineString","coordinates":[[116.1970978,23.7613065],[116.1973941,23.760553]]},"properties":{"key":"way:1090905175@detail:464_95","osmType":"way","osmId":1090905175,"sourceRegion":"guangdong","featureType":"infrastructure","railClass":"highspeed","mode":"rail","name":"梅汕线","nameEn":"Meizhou-Shantou High-Speed Railway","ref":"3080","usage":"main","highspeed":"yes","status":"operational","color":"#E54848","dataOrigin":"datum-2026-08-01","sourceKey":"way:1090905175"}},{"type":"Feature","geometry":{"type":"LineString","coordinates":[[116.1952398,23.7695267],[116.1953103,23.7689]]},"properties":{"key":"way:1090905176@detail:464_95","osmType":"way","osmId":1090905176,"sourceRegion":"guangdong","featureType":"infrastructure","railClass":"highspeed","mode":"rail","name":"梅汕线","nameEn":"Meizhou-Shantou High-Speed Railway","ref":"3080","usage":"main","highspeed":"yes","status":"operational","color":"#E54848","dataOrigin":"datum-2026-08-01","sourceKey":"way:1090905176"}},{"type":"Feature","geometry":{"type":"LineString","coordinates":[[116.1948293,23.7774316],[116.194991,23.7733448]]},"properties":{"key":"way:1090905177@detail:464_95","osmType":"way","osmId":1090905177,"sourceRegion":"guangdong","featureType":"infrastructure","railClass":"highspeed","mode":"rail","name":"梅汕线","nameEn":"Meizhou-Shantou High-Speed Railway","ref":"3080","usage":"main","highspeed":"yes","bridge":"yes","status":"operational","color":"#E54848","dataOrigin":"datum-2026-08-01","sourceKey":"way:1090905177"}},{"type":"Feature","geometry":{"type":"LineString","coordinates":[[116.1100478,23.9271053],[116.1799985,23.8174671],[116.1811084,23.8151654]]},"properties":{"key":"way:1090905227@detail:464_95","osmType":"way","osmId":1090905227,"sourceRegion":"guangdong","featureType":"infrastructure","railClass":"highspeed","mode":"rail","name":"梅汕线","nameEn":"Meizhou-Shantou High-Speed Railway","ref":"3080","usage":"main","highspeed":"yes","tunnel":"yes","status":"operational","color":"#E54848","dataOrigin":"datum-2026-08-01","sourceKey":"way:1090905227"}},{"type":"Feature","geometry":{"type":"LineString","coordinates":[[116.1811084,23.8151654],[116.1839657,23.8092396],[116.1888813,23.799427],[116.1909595,23.7950574]]},"properties":{"key":"way:1090905228@detail:464_95","osmType":"way","osmId":1090905228,"sourceRegion":"guangdong","featureType":"infrastructure","railClass":"highspeed","mode":"rail","name":"梅汕线","nameEn":"Meizhou-Shantou High-Speed Railway","ref":"3080","usage":"main","highspeed":"yes","status":"operational","color":"#E54848","dataOrigin":"datum-2026-08-01","sourceKey":"way:1090905228"}},{"type":"Feature","geometry":{"type":"LineString","coordinates":[[116.05349365271346,24.0],[116.0573717,23.9951261]]},"properties":{"key":"way:1090905308@detail:464_95","osmType":"way","osmId":1090905308,"sourceRegion":"guangdong","featureType":"infrastructure","railClass":"highspeed","mode":"rail","name":"梅汕线","nameEn":"Meizhou-Shantou High-Speed Railway","ref":"3080","usage":"main","highspeed":"yes","tunnel":"yes","status":"operational","color":"#E54848","dataOrigin":"datum-2026-08-01","sourceKey":"way:1090905308"}},{"type":"Feature","geometry":{"type":"LineString","coordinates":[[116.0573717,23.9951261],[116.0583801,23.9938202]]},"properties":{"key":"way:1090905309@detail:464_95","osmType":"way","osmId":1090905309,"sourceRegion":"guangdong","featureType":"infrastructure","railClass":"highspeed","mode":"rail","name":"梅汕线","nameEn":"Meizhou-Shantou High-Speed Railway","ref":"3080","usage":"main","highspeed":"yes","status":"operational","color":"#E54848","dataOrigin":"datum-2026-08-01","sourceKey":"way:1090905309"}},{"type":"Feature","geometry":{"type":"LineString","coordinates":[[116.0583801,23.9938202],[116.1049498,23.9344123]]},"properties":{"key":"way:1090905310@detail:464_95","osmType":"way","osmId":1090905310,"sourceRegion":"guangdong","featureType":"infrastructure","railClass":"highspeed","mode":"rail","name":"梅汕线","nameEn":"Meizhou-Shantou High-Speed Railway","ref":"3080","usage":"main","highspeed":"yes","tunnel":"yes","status":"operational","color":"#E54848","dataOrigin":"datum-2026-08-01","sourceKey":"way:1090905310"}},{"type":"Feature","geometry":{"type":"LineString","coordinates":[[116.1049498,23.9344123],[116.1100478,23.9271053]]},"properties":{"key":"way:1090905311@detail:464_95","osmType":"way","osmId":1090905311,"sourceRegion":"guangdong","featureType":"infrastructure","railClass":"highspeed","mode":"rail","name":"梅汕线","nameEn":"Meizhou-Shantou High-Speed Railway","ref":"3080","usage":"main","highspeed":"yes","bridge":"viaduct","status":"operational","color":"#E54848","dataOrigin":"datum-2026-08-01","sourceKey":"way:1090905311"}},{"type":"Feature","geometry":{"type":"LineString","coordinates":[[116.1909595,23.7950574],[116.1916161,23.7935687],[116.1927871,23.7905546],[116.193342,23.7887723],[116.1940882,23.785632]]},"properties":{"key":"way:1090905315@detail:464_95","osmType":"way","osmId":1090905315,"sourceRegion":"guangdong","featureType":"infrastructure","railClass":"highspeed","mode":"rail","name":"梅汕线","nameEn":"Meizhou-Shantou High-Speed Railway","ref":"3080","usage":"main","highspeed":"yes","bridge":"yes","status":"operational","color":"#E54848","dataOrigin":"datum-2026-08-01","sourceKey":"way:1090905315"}},{"type":"Feature","geometry":{"type":"LineString","coordinates":[[116.1940882,23.785632],[116.1942213,23.7849208],[116.1945799,23.7823651]]},"properties":{"key":"way:1090905317@detail:464_95","osmType":"way","osmId":1090905317,"sourceRegion":"guangdong","featureType":"infrastructure","railClass":"highspeed","mode":"rail","name":"梅汕线","nameEn":"Meizhou-Shantou High-Speed Railway","ref":"3080","usage":"main","highspeed":"yes","status":"operational","color":"#E54848","dataOrigin":"datum-2026-08-01","sourceKey":"way:1090905317"}},{"type":"Feature","geometry":{"type":"LineString","coordinates":[[116.194991,23.7733448],[116.1950092,23.7728954]]},"properties":{"key":"way:1090905321@detail:464_95","osmType":"way","osmId":1090905321,"sourceRegion":"guangdong","featureType":"infrastructure","railClass":"highspeed","mode":"rail","name":"梅汕线","nameEn":"Meizhou-Shantou High-Speed Railway","ref":"3080","usage":"main","highspeed":"yes","bridge":"yes","status":"operational","color":"#E54848","dataOrigin":"datum-2026-08-01","sourceKey":"way:1090905321"}},{"type":"Feature","geometry":{"type":"LineString","coordinates":[[116.1953103,23.7689],[116.1956513,23.7669819],[116.1960632,23.7650755],[116.1965455,23.763183],[116.1970978,23.7613065]]},"properties":{"key":"way:1090905323@detail:464_95","osmType":"way","osmId":1090905323,"sourceRegion":"guangdong","featureType":"infrastructure","railClass":"highspeed","mode":"rail","name":"梅汕线","nameEn":"Meizhou-Shantou High-Speed Railway","ref":"3080","usage":"main","highspeed":"yes","tunnel":"yes","status":"operational","color":"#E54848","dataOrigin":"datum-2026-08-01","sourceKey":"way:1090905323"}},{"type":"Feature","geometry":{"type":"LineString","coordinates":[[116.1950092,23.7728954],[116.1952398,23.7695267]]},"properties":{"key":"way:1090905325@detail:464_95","osmType":"way","osmId":1090905325,"sourceRegion":"guangdong","featureType":"infrastructure","railClass":"highspeed","mode":"rail","name":"梅汕线","nameEn":"Meizhou-Shantou High-Speed Railway","ref":"3080","usage":"main","highspeed":"yes","bridge":"yes","status":"operational","color":"#E54848","dataOrigin":"datum-2026-08-01","sourceKey":"way:1090905325"}},{"type":"Feature","geometry":{"type":"LineString","coordinates":[[116.1973941,23.760553],[116.1978272,23.7594342]]},"properties":{"key":"way:1090905328@detail:464_95","osmType":"way","osmId":1090905328,"sourceRegion":"guangdong","featureType":"infrastructure","railClass":"highspeed","mode":"rail","name":"梅汕线","nameEn":"Meizhou-Shantou High-Speed Railway","ref":"3080","usage":"main","highspeed":"yes","bridge":"yes","status":"operational","color":"#E54848","dataOrigin":"datum-2026-08-01","sourceKey":"way:1090905328"}}]}