{"type":"FeatureCollection","features":[{"type":"Feature","geometry":{"type":"Point","coordinates":[116.1683615,24.2902084]},"properties":{"key":"node:7113585381","osmType":"node","osmId":7113585381,"sourceRegion":"guangdong","featureType":"station","railClass":"minor","mode":"station","name":"梅州东","nameEn":"Meizhoudong","status":"operational","color":"#52636F","dataOrigin":"datum-2026-08-01","sourceKey":"node:7113585381","stationGroup":"梅州东","hasOperationalRail":true,"hasConstructionRail":false}},{"type":"Feature","geometry":{"type":"Point","coordinates":[116.1262438,24.2610667]},"properties":{"key":"node:12407447265","osmType":"node","osmId":12407447265,"sourceRegion":"guangdong","featureType":"station","railClass":"minor","mode":"station","name":"梅州","nameEn":"Meizhou","status":"operational","color":"#52636F","dataOrigin":"datum-2026-08-01","sourceKey":"node:12407447265","stationGroup":"梅州","hasOperationalRail":true,"hasConstructionRail":false}},{"type":"Feature","geometry":{"type":"Point","coordinates":[116.043042,24.2529231]},"properties":{"key":"node:13061379938","osmType":"node","osmId":13061379938,"sourceRegion":"guangdong","featureType":"station","railClass":"minor","mode":"station","name":"梅州西","nameEn":"Meizhouxi","status":"operational","color":"#52636F","dataOrigin":"datum-2026-08-01","sourceKey":"node:13061379938","stationGroup":"梅州西","hasOperationalRail":true,"hasConstructionRail":false}},{"type":"Feature","geometry":{"type":"LineString","coordinates":[[116.127549,24.2615904],[116.127775,24.261771],[116.130026,24.263524],[116.1303256,24.2637344]]},"properties":{"key":"way:148968986@detail:464_97","osmType":"way","osmId":148968986,"sourceRegion":"guangdong","featureType":"infrastructure","railClass":"national","mode":"rail","name":"漳龙线","ref":"0067","usage":"main","status":"operational","color":"#E54848","dataOrigin":"datum-2026-08-01","sourceKey":"way:148968986"}},{"type":"Feature","geometry":{"type":"LineString","coordinates":[[116.1548858,24.2834372],[116.155303,24.284468],[116.155628,24.286063],[116.155975,24.289044],[116.156058,24.2895],[116.1561593,24.2899004]]},"properties":{"key":"way:148969008@detail:464_97","osmType":"way","osmId":148969008,"sourceRegion":"guangdong","featureType":"infrastructure","railClass":"national","mode":"rail","name":"漳龙线","ref":"0067","usage":"main","status":"operational","color":"#E54848","dataOrigin":"datum-2026-08-01","sourceKey":"way:148969008"}},{"type":"Feature","geometry":{"type":"LineString","coordinates":[[116.1879769,24.295443],[116.1885718,24.2958473]]},"properties":{"key":"way:149020355@detail:464_97","osmType":"way","osmId":149020355,"sourceRegion":"guangdong","featureType":"infrastructure","railClass":"national","mode":"rail","name":"漳龙线","ref":"0067","usage":"main","status":"operational","color":"#E54848","dataOrigin":"datum-2026-08-01","sourceKey":"way:149020355"}},{"type":"Feature","geometry":{"type":"LineString","coordinates":[[116.1810354,24.2889296],[116.1825448,24.289903],[116.1839194,24.2910943]]},"properties":{"key":"way:149020356@detail:464_97","osmType":"way","osmId":149020356,"sourceRegion":"guangdong","featureType":"infrastructure","railClass":"national","mode":"rail","name":"漳龙线","ref":"0067","usage":"main","tunnel":"yes","status":"operational","color":"#E54848","dataOrigin":"datum-2026-08-01","sourceKey":"way:149020356"}},{"type":"Feature","geometry":{"type":"LineString","coordinates":[[116.1885718,24.2958473],[116.1893521,24.2963448]]},"properties":{"key":"way:149020358@detail:464_97","osmType":"way","osmId":149020358,"sourceRegion":"guangdong","featureType":"infrastructure","railClass":"national","mode":"rail","name":"漳龙线","ref":"0067","usage":"main","bridge":"yes","status":"operational","color":"#E54848","dataOrigin":"datum-2026-08-01","sourceKey":"way:149020358"}},{"type":"Feature","geometry":{"type":"LineString","coordinates":[[116.1807175,24.2888039],[116.1810354,24.2889296]]},"properties":{"key":"way:149020361@detail:464_97","osmType":"way","osmId":149020361,"sourceRegion":"guangdong","featureType":"infrastructure","railClass":"national","mode":"rail","name":"漳龙线","ref":"0067","usage":"main","status":"operational","color":"#E54848","dataOrigin":"datum-2026-08-01","sourceKey":"way:149020361"}},{"type":"Feature","geometry":{"type":"LineString","coordinates":[[116.1893521,24.2963448],[116.191048,24.297355],[116.1918361,24.2979884]]},"properties":{"key":"way:149020362@detail:464_97","osmType":"way","osmId":149020362,"sourceRegion":"guangdong","featureType":"infrastructure","railClass":"national","mode":"rail","name":"漳龙线","ref":"0067","usage":"main","status":"operational","color":"#E54848","dataOrigin":"datum-2026-08-01","sourceKey":"way:149020362"}},{"type":"Feature","geometry":{"type":"LineString","coordinates":[[116.1869598,24.2943893],[116.1874091,24.2949175],[116.1879769,24.295443]]},"properties":{"key":"way:149020363@detail:464_97","osmType":"way","osmId":149020363,"sourceRegion":"guangdong","featureType":"infrastructure","railClass":"national","mode":"rail","name":"漳龙线","ref":"0067","usage":"main","tunnel":"yes","status":"operational","color":"#E54848","dataOrigin":"datum-2026-08-01","sourceKey":"way:149020363"}},{"type":"Feature","geometry":{"type":"LineString","coordinates":[[116.1918361,24.2979884],[116.192188,24.298385],[116.1925711,24.2989998],[116.1928593,24.2996434]]},"properties":{"key":"way:149020367@detail:464_97","osmType":"way","osmId":149020367,"sourceRegion":"guangdong","featureType":"infrastructure","railClass":"national","mode":"rail","name":"漳龙线","ref":"0067","usage":"main","tunnel":"yes","status":"operational","color":"#E54848","dataOrigin":"datum-2026-08-01","sourceKey":"way:149020367"}},{"type":"Feature","geometry":{"type":"LineString","coordinates":[[116.1839194,24.2910943],[116.1847222,24.2918881],[116.1869598,24.2943893]]},"properties":{"key":"way:149020368@detail:464_97","osmType":"way","osmId":149020368,"sourceRegion":"guangdong","featureType":"infrastructure","railClass":"national","mode":"rail","name":"漳龙线","ref":"0067","usage":"main","status":"operational","color":"#E54848","dataOrigin":"datum-2026-08-01","sourceKey":"way:149020368"}},{"type":"Feature","geometry":{"type":"LineString","coordinates":[[116.1928593,24.2996434],[116.1930506,24.3004516],[116.193329,24.302766],[116.19361,24.303935],[116.193774,24.304298],[116.194104,24.30481],[116.194373,24.30512],[116.194841,24.305549],[116.196351,24.30669],[116.197508,24.307246],[116.202602,24.3087604]]},"properties":{"key":"way:149020371@detail:464_97","osmType":"way","osmId":149020371,"sourceRegion":"guangdong","featureType":"infrastructure","railClass":"national","mode":"rail","name":"漳龙线","ref":"0067","usage":"main","status":"operational","color":"#E54848","dataOrigin":"datum-2026-08-01","sourceKey":"way:149020371"}},{"type":"Feature","geometry":{"type":"LineString","coordinates":[[116.1753401,24.2887258],[116.177166,24.288438],[116.178206,24.28835],[116.179066,24.288359],[116.179755,24.288473],[116.1807175,24.2888039]]},"properties":{"key":"way:149020373@detail:464_97","osmType":"way","osmId":149020373,"sourceRegion":"guangdong","featureType":"infrastructure","railClass":"national","mode":"rail","name":"漳龙线","ref":"0067","usage":"main","bridge":"yes","status":"operational","color":"#E54848","dataOrigin":"datum-2026-08-01","sourceKey":"way:149020373"}},{"type":"Feature","geometry":{"type":"LineString","coordinates":[[116.2127947,24.3169739],[116.2138172,24.3179108]]},"properties":{"key":"way:253208799@detail:464_97","osmType":"way","osmId":253208799,"sourceRegion":"guangdong","featureType":"infrastructure","railClass":"national","mode":"rail","name":"漳龙线","ref":"0067","usage":"main","tunnel":"yes","status":"operational","color":"#E54848","dataOrigin":"datum-2026-08-01","sourceKey":"way:253208799"}},{"type":"Feature","geometry":{"type":"LineString","coordinates":[[116.2352695,24.3379144],[116.236309,24.338435],[116.237281,24.338875],[116.238879,24.33942],[116.240096,24.339708],[116.240921,24.339841],[116.2422959,24.3400068]]},"properties":{"key":"way:253208802@detail:464_97","osmType":"way","osmId":253208802,"sourceRegion":"guangdong","featureType":"infrastructure","railClass":"national","mode":"rail","name":"漳龙线","ref":"0067","usage":"main","status":"operational","color":"#E54848","dataOrigin":"datum-2026-08-01","sourceKey":"way:253208802"}},{"type":"Feature","geometry":{"type":"LineString","coordinates":[[116.055459,24.2528864],[116.0538859,24.2529934],[116.0524667,24.2530901],[116.0491065,24.2533188],[116.0484841,24.2533612],[116.0480737,24.2533891],[116.0472832,24.253443],[116.0452871,24.2535788],[116.0404613,24.2539074],[116.0393352,24.2539745],[116.0380144,24.2540532],[116.0377838,24.2540701],[116.0342677,24.254329],[116.0274104,24.2547811]]},"properties":{"key":"way:531635625@detail:464_97","osmType":"way","osmId":531635625,"sourceRegion":"guangdong","featureType":"infrastructure","railClass":"highspeed","mode":"rail","name":"梅汕线","nameEn":"Meizhou-Shantou High-Speed Railway","ref":"3080","usage":"main","highspeed":"yes","status":"operational","color":"#E54848","dataOrigin":"datum-2026-08-01","sourceKey":"way:531635625"}},{"type":"Feature","geometry":{"type":"LineString","coordinates":[[116.150504,24.2762914],[116.1513899,24.2775082]]},"properties":{"key":"way:707733842@detail:464_97","osmType":"way","osmId":707733842,"sourceRegion":"guangdong","featureType":"infrastructure","railClass":"national","mode":"rail","name":"漳龙线","ref":"0067","usage":"main","bridge":"yes","status":"operational","color":"#E54848","dataOrigin":"datum-2026-08-01","sourceKey":"way:707733842"}},{"type":"Feature","geometry":{"type":"LineString","coordinates":[[116.1513899,24.2775082],[116.152276,24.27877],[116.1528143,24.2795418]]},"properties":{"key":"way:707733843@detail:464_97","osmType":"way","osmId":707733843,"sourceRegion":"guangdong","featureType":"infrastructure","railClass":"national","mode":"rail","name":"漳龙线","ref":"0067","usage":"main","status":"operational","color":"#E54848","dataOrigin":"datum-2026-08-01","sourceKey":"way:707733843"}},{"type":"Feature","geometry":{"type":"LineString","coordinates":[[116.1303256,24.2637344],[116.1305471,24.2639025]]},"properties":{"key":"way:707733844@detail:464_97","osmType":"way","osmId":707733844,"sourceRegion":"guangdong","featureType":"infrastructure","railClass":"national","mode":"rail","name":"漳龙线","ref":"0067","usage":"main","bridge":"yes","status":"operational","color":"#E54848","dataOrigin":"datum-2026-08-01","sourceKey":"way:707733844"}},{"type":"Feature","geometry":{"type":"LineString","coordinates":[[116.1305471,24.2639025],[116.131963,24.264931],[116.132603,24.265233],[116.133206,24.265411],[116.139418,24.2665905],[116.1403242,24.2667626],[116.1405608,24.2668075],[116.141548,24.266981],[116.1429494,24.2674957]]},"properties":{"key":"way:707733845@detail:464_97","osmType":"way","osmId":707733845,"sourceRegion":"guangdong","featureType":"infrastructure","railClass":"national","mode":"rail","name":"漳龙线","ref":"0067","usage":"main","status":"operational","color":"#E54848","dataOrigin":"datum-2026-08-01","sourceKey":"way:707733845"}},{"type":"Feature","geometry":{"type":"LineString","coordinates":[[116.1429494,24.2674957],[116.1432896,24.2676773],[116.1439314,24.2680856]]},"properties":{"key":"way:707733846@detail:464_97","osmType":"way","osmId":707733846,"sourceRegion":"guangdong","featureType":"infrastructure","railClass":"national","mode":"rail","name":"漳龙线","ref":"0067","usage":"main","tunnel":"yes","status":"operational","color":"#E54848","dataOrigin":"datum-2026-08-01","sourceKey":"way:707733846"}},{"type":"Feature","geometry":{"type":"LineString","coordinates":[[116.1439314,24.2680856],[116.144778,24.268691],[116.14578,24.269828],[116.148785,24.274028],[116.150504,24.2762914]]},"properties":{"key":"way:707733847@detail:464_97","osmType":"way","osmId":707733847,"sourceRegion":"guangdong","featureType":"infrastructure","railClass":"national","mode":"rail","name":"漳龙线","ref":"0067","usage":"main","status":"operational","color":"#E54848","dataOrigin":"datum-2026-08-01","sourceKey":"way:707733847"}},{"type":"Feature","geometry":{"type":"LineString","coordinates":[[116.11498040925268,24.25],[116.11532,24.25055],[116.116283,24.252424],[116.116618,24.252893],[116.117031,24.253326],[116.119874,24.255595],[116.1202547,24.2558845]]},"properties":{"key":"way:721899420@detail:464_97","osmType":"way","osmId":721899420,"sourceRegion":"guangdong","featureType":"infrastructure","railClass":"national","mode":"rail","name":"漳龙线","ref":"0067","usage":"main","status":"operational","color":"#E54848","dataOrigin":"datum-2026-08-01","sourceKey":"way:721899420"}},{"type":"Feature","geometry":{"type":"LineString","coordinates":[[116.1202547,24.2558845],[116.1203961,24.255992]]},"properties":{"key":"way:721899423@detail:464_97","osmType":"way","osmId":721899423,"sourceRegion":"guangdong","featureType":"infrastructure","railClass":"national","mode":"rail","name":"漳龙线","ref":"0067","usage":"main","bridge":"yes","status":"operational","color":"#E54848","dataOrigin":"datum-2026-08-01","sourceKey":"way:721899423"}},{"type":"Feature","geometry":{"type":"LineString","coordinates":[[116.1203961,24.255992],[116.122019,24.257226],[116.123189,24.258214],[116.1252744,24.259815],[116.125924,24.260321],[116.126246,24.2605615],[116.127549,24.2615904]]},"properties":{"key":"way:721899424@detail:464_97","osmType":"way","osmId":721899424,"sourceRegion":"guangdong","featureType":"infrastructure","railClass":"national","mode":"rail","name":"漳龙线","ref":"0067","usage":"main","status":"operational","color":"#E54848","dataOrigin":"datum-2026-08-01","sourceKey":"way:721899424"}},{"type":"Feature","geometry":{"type":"LineString","coordinates":[[116.029054,24.2580145],[116.0298559,24.2566157],[116.0302234,24.2560973],[116.0303526,24.2559673]]},"properties":{"key":"way:761383051@detail:464_97","osmType":"way","osmId":761383051,"sourceRegion":"guangdong","featureType":"infrastructure","railClass":"minor","mode":"rail","name":"未命名","service":"yard","status":"operational","color":"#52636F","dataOrigin":"datum-2026-08-01","sourceKey":"way:761383051"}},{"type":"Feature","geometry":{"type":"LineString","coordinates":[[116.0289663,24.2580163],[116.0297346,24.2567486],[116.0298559,24.2566157]]},"properties":{"key":"way:761383052@detail:464_97","osmType":"way","osmId":761383052,"sourceRegion":"guangdong","featureType":"infrastructure","railClass":"minor","mode":"rail","name":"未命名","service":"yard","status":"operational","color":"#52636F","dataOrigin":"datum-2026-08-01","sourceKey":"way:761383052"}},{"type":"Feature","geometry":{"type":"LineString","coordinates":[[116.0289429,24.2579754],[116.0298048,24.2565447],[116.0302234,24.2560973]]},"properties":{"key":"way:761383053@detail:464_97","osmType":"way","osmId":761383053,"sourceRegion":"guangdong","featureType":"infrastructure","railClass":"minor","mode":"rail","name":"未命名","service":"yard","status":"operational","color":"#52636F","dataOrigin":"datum-2026-08-01","sourceKey":"way:761383053"}},{"type":"Feature","geometry":{"type":"LineString","coordinates":[[116.1607688,24.2931701],[116.1614204,24.2932321],[116.1622417,24.2931757],[116.1629166,24.29303],[116.1636084,24.2927763]]},"properties":{"key":"way:761383073@detail:464_97","osmType":"way","osmId":761383073,"sourceRegion":"guangdong","featureType":"infrastructure","railClass":"national","mode":"rail","name":"漳龙线","ref":"0067","usage":"main","tunnel":"yes","status":"operational","color":"#E54848","dataOrigin":"datum-2026-08-01","sourceKey":"way:761383073"}},{"type":"Feature","geometry":{"type":"LineString","coordinates":[[116.1636084,24.2927763],[116.1648372,24.2919463],[116.1664974,24.2908512],[116.1675467,24.290243],[116.168383,24.289865],[116.169476,24.289569],[116.1753401,24.2887258]]},"properties":{"key":"way:761383074@detail:464_97","osmType":"way","osmId":761383074,"sourceRegion":"guangdong","featureType":"infrastructure","railClass":"national","mode":"rail","name":"漳龙线","ref":"0067","usage":"main","status":"operational","color":"#E54848","dataOrigin":"datum-2026-08-01","sourceKey":"way:761383074"}},{"type":"Feature","geometry":{"type":"LineString","coordinates":[[116.0713016,24.2501061],[116.0699483,24.2506611],[116.0686221,24.2511723]]},"properties":{"key":"way:909745995@detail:464_97","osmType":"way","osmId":909745995,"sourceRegion":"guangdong","featureType":"infrastructure","railClass":"highspeed","mode":"rail","name":"梅汕线","nameEn":"Meizhou-Shantou High-Speed Railway","ref":"3080","usage":"main","highspeed":"yes","tunnel":"yes","status":"operational","color":"#E54848","dataOrigin":"datum-2026-08-01","sourceKey":"way:909745995"}},{"type":"Feature","geometry":{"type":"LineString","coordinates":[[116.0577065,24.2527211],[116.055459,24.2528864]]},"properties":{"key":"way:909745996@detail:464_97","osmType":"way","osmId":909745996,"sourceRegion":"guangdong","featureType":"infrastructure","railClass":"highspeed","mode":"rail","name":"梅汕线","nameEn":"Meizhou-Shantou High-Speed Railway","ref":"3080","usage":"main","highspeed":"yes","bridge":"yes","status":"operational","color":"#E54848","dataOrigin":"datum-2026-08-01","sourceKey":"way:909745996"}},{"type":"Feature","geometry":{"type":"LineString","coordinates":[[116.0618519,24.2524482],[116.0611408,24.2524943],[116.0591799,24.2526217]]},"properties":{"key":"way:909745997@detail:464_97","osmType":"way","osmId":909745997,"sourceRegion":"guangdong","featureType":"infrastructure","railClass":"highspeed","mode":"rail","name":"梅汕线","nameEn":"Meizhou-Shantou High-Speed Railway","ref":"3080","usage":"main","highspeed":"yes","bridge":"yes","status":"operational","color":"#E54848","dataOrigin":"datum-2026-08-01","sourceKey":"way:909745997"}},{"type":"Feature","geometry":{"type":"LineString","coordinates":[[116.0591799,24.2526217],[116.0577065,24.2527211]]},"properties":{"key":"way:909745998@detail:464_97","osmType":"way","osmId":909745998,"sourceRegion":"guangdong","featureType":"infrastructure","railClass":"highspeed","mode":"rail","name":"梅汕线","nameEn":"Meizhou-Shantou High-Speed Railway","ref":"3080","usage":"main","highspeed":"yes","status":"operational","color":"#E54848","dataOrigin":"datum-2026-08-01","sourceKey":"way:909745998"}},{"type":"Feature","geometry":{"type":"LineString","coordinates":[[116.0658924,24.2519128],[116.0652137,24.2520325],[116.0638744,24.252218],[116.0628602,24.2523314],[116.0618519,24.2524482]]},"properties":{"key":"way:909745999@detail:464_97","osmType":"way","osmId":909745999,"sourceRegion":"guangdong","featureType":"infrastructure","railClass":"highspeed","mode":"rail","name":"梅汕线","nameEn":"Meizhou-Shantou High-Speed Railway","ref":"3080","usage":"main","highspeed":"yes","tunnel":"yes","status":"operational","color":"#E54848","dataOrigin":"datum-2026-08-01","sourceKey":"way:909745999"}},{"type":"Feature","geometry":{"type":"LineString","coordinates":[[116.0686221,24.2511723],[116.0671957,24.2515955],[116.0658924,24.2519128]]},"properties":{"key":"way:909746008@detail:464_97","osmType":"way","osmId":909746008,"sourceRegion":"guangdong","featureType":"infrastructure","railClass":"highspeed","mode":"rail","name":"梅汕线","nameEn":"Meizhou-Shantou High-Speed Railway","ref":"3080","usage":"main","highspeed":"yes","bridge":"yes","status":"operational","color":"#E54848","dataOrigin":"datum-2026-08-01","sourceKey":"way:909746008"}},{"type":"Feature","geometry":{"type":"LineString","coordinates":[[116.07151223592959,24.25],[116.0713016,24.2501061]]},"properties":{"key":"way:909746009@detail:464_97","osmType":"way","osmId":909746009,"sourceRegion":"guangdong","featureType":"infrastructure","railClass":"highspeed","mode":"rail","name":"梅汕线","nameEn":"Meizhou-Shantou High-Speed Railway","ref":"3080","usage":"main","highspeed":"yes","status":"operational","color":"#E54848","dataOrigin":"datum-2026-08-01","sourceKey":"way:909746009"}},{"type":"Feature","geometry":{"type":"LineString","coordinates":[[116.0554556,24.2528505],[116.0538829,24.2529576],[116.0524638,24.2530542],[116.0520547,24.2530821],[116.0491036,24.253283],[116.0484812,24.2533254],[116.0481607,24.2533472],[116.0472803,24.2534071],[116.0452842,24.253543],[116.0404584,24.2538715],[116.0380115,24.2540173],[116.037185,24.2540782],[116.0342648,24.2542932],[116.0321132,24.254435],[116.0274075,24.2547453]]},"properties":{"key":"way:1090905232@detail:464_97","osmType":"way","osmId":1090905232,"sourceRegion":"guangdong","featureType":"infrastructure","railClass":"highspeed","mode":"rail","name":"梅汕线","nameEn":"Meizhou-Shantou High-Speed Railway","ref":"3080","usage":"main","highspeed":"yes","status":"operational","color":"#E54848","dataOrigin":"datum-2026-08-01","sourceKey":"way:1090905232"}},{"type":"Feature","geometry":{"type":"LineString","coordinates":[[116.0591775,24.2525858],[116.0577033,24.2526853]]},"properties":{"key":"way:1090905271@detail:464_97","osmType":"way","osmId":1090905271,"sourceRegion":"guangdong","featureType":"infrastructure","railClass":"highspeed","mode":"rail","name":"梅汕线","nameEn":"Meizhou-Shantou High-Speed Railway","ref":"3080","usage":"main","highspeed":"yes","status":"operational","color":"#E54848","dataOrigin":"datum-2026-08-01","sourceKey":"way:1090905271"}},{"type":"Feature","geometry":{"type":"LineString","coordinates":[[116.0658831,24.2518778],[116.0652065,24.2519972],[116.063869,24.2521824],[116.0628557,24.2522957],[116.0618478,24.2524124]]},"properties":{"key":"way:1090905272@detail:464_97","osmType":"way","osmId":1090905272,"sourceRegion":"guangdong","featureType":"infrastructure","railClass":"highspeed","mode":"rail","name":"梅汕线","nameEn":"Meizhou-Shantou High-Speed Railway","ref":"3080","usage":"main","highspeed":"yes","tunnel":"yes","status":"operational","color":"#E54848","dataOrigin":"datum-2026-08-01","sourceKey":"way:1090905272"}},{"type":"Feature","geometry":{"type":"LineString","coordinates":[[116.0577033,24.2526853],[116.0554556,24.2528505]]},"properties":{"key":"way:1090905273@detail:464_97","osmType":"way","osmId":1090905273,"sourceRegion":"guangdong","featureType":"infrastructure","railClass":"highspeed","mode":"rail","name":"梅汕线","nameEn":"Meizhou-Shantou High-Speed Railway","ref":"3080","usage":"main","highspeed":"yes","bridge":"yes","status":"operational","color":"#E54848","dataOrigin":"datum-2026-08-01","sourceKey":"way:1090905273"}},{"type":"Feature","geometry":{"type":"LineString","coordinates":[[116.0618478,24.2524124],[116.0611377,24.2524585],[116.0591775,24.2525858]]},"properties":{"key":"way:1090905274@detail:464_97","osmType":"way","osmId":1090905274,"sourceRegion":"guangdong","featureType":"infrastructure","railClass":"highspeed","mode":"rail","name":"梅汕线","nameEn":"Meizhou-Shantou High-Speed Railway","ref":"3080","usage":"main","highspeed":"yes","bridge":"yes","status":"operational","color":"#E54848","dataOrigin":"datum-2026-08-01","sourceKey":"way:1090905274"}},{"type":"Feature","geometry":{"type":"LineString","coordinates":[[116.0712843,24.2500738],[116.0699315,24.2506285],[116.0686088,24.2511385]]},"properties":{"key":"way:1090905275@detail:464_97","osmType":"way","osmId":1090905275,"sourceRegion":"guangdong","featureType":"infrastructure","railClass":"highspeed","mode":"rail","name":"梅汕线","nameEn":"Meizhou-Shantou High-Speed Railway","ref":"3080","usage":"main","highspeed":"yes","tunnel":"yes","status":"operational","color":"#E54848","dataOrigin":"datum-2026-08-01","sourceKey":"way:1090905275"}},{"type":"Feature","geometry":{"type":"LineString","coordinates":[[116.0686088,24.2511385],[116.0671849,24.2515609],[116.0658831,24.2518778]]},"properties":{"key":"way:1090905276@detail:464_97","osmType":"way","osmId":1090905276,"sourceRegion":"guangdong","featureType":"infrastructure","railClass":"highspeed","mode":"rail","name":"梅汕线","nameEn":"Meizhou-Shantou High-Speed Railway","ref":"3080","usage":"main","highspeed":"yes","bridge":"yes","status":"operational","color":"#E54848","dataOrigin":"datum-2026-08-01","sourceKey":"way:1090905276"}},{"type":"Feature","geometry":{"type":"LineString","coordinates":[[116.07143074509588,24.25],[116.0712843,24.2500738]]},"properties":{"key":"way:1090905277@detail:464_97","osmType":"way","osmId":1090905277,"sourceRegion":"guangdong","featureType":"infrastructure","railClass":"highspeed","mode":"rail","name":"梅汕线","nameEn":"Meizhou-Shantou High-Speed Railway","ref":"3080","usage":"main","highspeed":"yes","status":"operational","color":"#E54848","dataOrigin":"datum-2026-08-01","sourceKey":"way:1090905277"}},{"type":"Feature","geometry":{"type":"LineString","coordinates":[[116.0389039,24.2540554],[116.0352105,24.2543941],[116.0332525,24.2544821],[116.0324676,24.2545679],[116.0318649,24.2547377],[116.0313338,24.2549724],[116.0308028,24.2553881],[116.0303526,24.2559673],[116.03032,24.2560093],[116.0288179,24.2587139]]},"properties":{"key":"way:1090905336@detail:464_97","osmType":"way","osmId":1090905336,"sourceRegion":"guangdong","featureType":"infrastructure","railClass":"minor","mode":"rail","name":"未命名","service":"yard","status":"operational","color":"#52636F","dataOrigin":"datum-2026-08-01","sourceKey":"way:1090905336"}},{"type":"Feature","geometry":{"type":"LineString","coordinates":[[116.0321132,24.254435],[116.0341175,24.2542339],[116.0355377,24.2540872],[116.0374783,24.2538255],[116.0397193,24.2536225],[116.0415123,24.253378],[116.044967,24.2531542],[116.0475835,24.2530955]]},"properties":{"key":"way:1090908103@detail:464_97","osmType":"way","osmId":1090908103,"sourceRegion":"guangdong","featureType":"infrastructure","railClass":"minor","mode":"rail","name":"未命名","service":"siding","status":"operational","color":"#52636F","dataOrigin":"datum-2026-08-01","sourceKey":"way:1090908103"}},{"type":"Feature","geometry":{"type":"LineString","coordinates":[[116.0392421,24.2538233],[116.0404153,24.2536286],[116.0455182,24.2532643],[116.0475835,24.2530955],[116.0485679,24.2530405],[116.0501879,24.2530356],[116.051399,24.2530772],[116.0520547,24.2530821]]},"properties":{"key":"way:1090908104@detail:464_97","osmType":"way","osmId":1090908104,"sourceRegion":"guangdong","featureType":"infrastructure","railClass":"minor","mode":"rail","name":"未命名","service":"siding","status":"operational","color":"#52636F","dataOrigin":"datum-2026-08-01","sourceKey":"way:1090908104"}},{"type":"Feature","geometry":{"type":"LineString","coordinates":[[116.0382172,24.2539551],[116.0392421,24.2538233],[116.0406795,24.2536384],[116.0411476,24.2536005],[116.045195,24.2533401],[116.0470015,24.2533645]]},"properties":{"key":"way:1090908105@detail:464_97","osmType":"way","osmId":1090908105,"sourceRegion":"guangdong","featureType":"infrastructure","railClass":"minor","mode":"rail","name":"未命名","service":"siding","status":"operational","color":"#52636F","dataOrigin":"datum-2026-08-01","sourceKey":"way:1090908105"}},{"type":"Feature","geometry":{"type":"LineString","coordinates":[[116.0481607,24.2533472],[116.0470015,24.2533645],[116.0382172,24.2539551],[116.037185,24.2540782]]},"properties":{"key":"way:1090908106@detail:464_97","osmType":"way","osmId":1090908106,"sourceRegion":"guangdong","featureType":"infrastructure","railClass":"minor","mode":"rail","name":"未命名","service":"siding","status":"operational","color":"#52636F","dataOrigin":"datum-2026-08-01","sourceKey":"way:1090908106"}},{"type":"Feature","geometry":{"type":"LineString","coordinates":[[116.0377838,24.2540701],[116.0389039,24.2540554],[116.0415258,24.254037],[116.0448866,24.253812],[116.0468768,24.253532]]},"properties":{"key":"way:1090908107@detail:464_97","osmType":"way","osmId":1090908107,"sourceRegion":"guangdong","featureType":"infrastructure","railClass":"minor","mode":"rail","name":"未命名","service":"siding","status":"operational","color":"#52636F","dataOrigin":"datum-2026-08-01","sourceKey":"way:1090908107"}},{"type":"Feature","geometry":{"type":"LineString","coordinates":[[116.0480737,24.2533891],[116.0468768,24.253532],[116.0401981,24.2539661],[116.0393352,24.2539745]]},"properties":{"key":"way:1090908108@detail:464_97","osmType":"way","osmId":1090908108,"sourceRegion":"guangdong","featureType":"infrastructure","railClass":"minor","mode":"rail","name":"未命名","service":"siding","status":"operational","color":"#52636F","dataOrigin":"datum-2026-08-01","sourceKey":"way:1090908108"}},{"type":"Feature","geometry":{"type":"LineString","coordinates":[[116.2439267,24.3402036],[116.245605,24.340406],[116.246798,24.340645],[116.247553,24.340906],[116.248238,24.341299],[116.249885,24.342724],[116.25,24.342843999999996]]},"properties":{"key":"way:1131089059@detail:464_97","osmType":"way","osmId":1131089059,"sourceRegion":"guangdong","featureType":"infrastructure","railClass":"national","mode":"rail","name":"漳龙线","ref":"0067","usage":"main","status":"operational","color":"#E54848","dataOrigin":"datum-2026-08-01","sourceKey":"way:1131089059"}},{"type":"Feature","geometry":{"type":"LineString","coordinates":[[116.2422959,24.3400068],[116.2439267,24.3402036]]},"properties":{"key":"way:1131089060@detail:464_97","osmType":"way","osmId":1131089060,"sourceRegion":"guangdong","featureType":"infrastructure","railClass":"national","mode":"rail","name":"漳龙线","ref":"0067","usage":"main","bridge":"yes","status":"operational","color":"#E54848","dataOrigin":"datum-2026-08-01","sourceKey":"way:1131089060"}},{"type":"Feature","geometry":{"type":"LineString","coordinates":[[116.1562641,24.2901394],[116.15638,24.29036],[116.156696,24.290866],[116.1579548,24.2918716],[116.159173,24.292585],[116.159873,24.292951],[116.1603684,24.2931234],[116.1607688,24.2931701]]},"properties":{"key":"way:1131089061@detail:464_97","osmType":"way","osmId":1131089061,"sourceRegion":"guangdong","featureType":"infrastructure","railClass":"national","mode":"rail","name":"漳龙线","ref":"0067","usage":"main","status":"operational","color":"#E54848","dataOrigin":"datum-2026-08-01","sourceKey":"way:1131089061"}},{"type":"Feature","geometry":{"type":"LineString","coordinates":[[116.1528143,24.2795418],[116.1546752,24.283023]]},"properties":{"key":"way:1131089065@detail:464_97","osmType":"way","osmId":1131089065,"sourceRegion":"guangdong","featureType":"infrastructure","railClass":"national","mode":"rail","name":"漳龙线","ref":"0067","usage":"main","status":"operational","color":"#E54848","dataOrigin":"datum-2026-08-01","sourceKey":"way:1131089065"}},{"type":"Feature","geometry":{"type":"LineString","coordinates":[[116.1546752,24.283023],[116.1548858,24.2834372]]},"properties":{"key":"way:1131089066@detail:464_97","osmType":"way","osmId":1131089066,"sourceRegion":"guangdong","featureType":"infrastructure","railClass":"national","mode":"rail","name":"漳龙线","ref":"0067","usage":"main","bridge":"yes","status":"operational","color":"#E54848","dataOrigin":"datum-2026-08-01","sourceKey":"way:1131089066"}},{"type":"Feature","geometry":{"type":"LineString","coordinates":[[116.00418158713168,24.25],[116.0044447,24.2501379],[116.0054091,24.2505845],[116.0064834,24.2510307],[116.012142,24.2531749],[116.0131633,24.2535489],[116.0143903,24.2539744],[116.0156272,24.2543189],[116.016673,24.2545778],[116.0180869,24.2548459]]},"properties":{"key":"way:1168194555@detail:464_97","osmType":"way","osmId":1168194555,"sourceRegion":"guangdong","featureType":"infrastructure","railClass":"highspeed","mode":"rail","name":"龙龙高速线","usage":"main","highspeed":"yes","bridge":"yes","status":"operational","color":"#E54848","dataOrigin":"datum-2026-08-01","sourceKey":"way:1168194555"}},{"type":"Feature","geometry":{"type":"LineString","coordinates":[[116.1561593,24.2899004],[116.1562641,24.2901394]]},"properties":{"key":"way:1233844656@detail:464_97","osmType":"way","osmId":1233844656,"sourceRegion":"guangdong","featureType":"infrastructure","railClass":"national","mode":"rail","name":"漳龙线","ref":"0067","usage":"main","bridge":"yes","status":"operational","color":"#E54848","dataOrigin":"datum-2026-08-01","sourceKey":"way:1233844656"}},{"type":"Feature","geometry":{"type":"LineString","coordinates":[[116.2138172,24.3179108],[116.2147881,24.3188202],[116.216733,24.320331],[116.217334,24.320855],[116.218738,24.322481],[116.220179,24.323854],[116.2204646,24.3241806]]},"properties":{"key":"way:1243785425@detail:464_97","osmType":"way","osmId":1243785425,"sourceRegion":"guangdong","featureType":"infrastructure","railClass":"national","mode":"rail","name":"漳龙线","ref":"0067","usage":"main","status":"operational","color":"#E54848","dataOrigin":"datum-2026-08-01","sourceKey":"way:1243785425"}},{"type":"Feature","geometry":{"type":"LineString","coordinates":[[116.2204646,24.3241806],[116.220569,24.3243],[116.220995,24.324955],[116.2210899,24.3251874]]},"properties":{"key":"way:1243785426@detail:464_97","osmType":"way","osmId":1243785426,"sourceRegion":"guangdong","featureType":"infrastructure","railClass":"national","mode":"rail","name":"漳龙线","ref":"0067","usage":"main","bridge":"yes","status":"operational","color":"#E54848","dataOrigin":"datum-2026-08-01","sourceKey":"way:1243785426"}},{"type":"Feature","geometry":{"type":"LineString","coordinates":[[116.2037438,24.3091077],[116.206288,24.3099],[116.206889,24.310166],[116.207456,24.310491],[116.207971,24.310881],[116.208438,24.311323],[116.208848,24.311803],[116.2092,24.312316],[116.2107331,24.3146906],[116.2112562,24.3153771],[116.2119143,24.3161076],[116.2127947,24.3169739]]},"properties":{"key":"way:1252083208@detail:464_97","osmType":"way","osmId":1252083208,"sourceRegion":"guangdong","featureType":"infrastructure","railClass":"national","mode":"rail","name":"漳龙线","ref":"0067","usage":"main","status":"operational","color":"#E54848","dataOrigin":"datum-2026-08-01","sourceKey":"way:1252083208"}},{"type":"Feature","geometry":{"type":"LineString","coordinates":[[116.202602,24.3087604],[116.2037438,24.3091077]]},"properties":{"key":"way:1252083209@detail:464_97","osmType":"way","osmId":1252083209,"sourceRegion":"guangdong","featureType":"infrastructure","railClass":"national","mode":"rail","name":"漳龙线","ref":"0067","usage":"main","bridge":"yes","status":"operational","color":"#E54848","dataOrigin":"datum-2026-08-01","sourceKey":"way:1252083209"}},{"type":"Feature","geometry":{"type":"LineString","coordinates":[[116.2210899,24.3251874],[116.221361,24.325851],[116.222116,24.328809],[116.222536,24.329861],[116.222911,24.330504],[116.223489,24.331268],[116.223891,24.331696],[116.224199,24.3319673],[116.2243953,24.3321117]]},"properties":{"key":"way:1252083211@detail:464_97","osmType":"way","osmId":1252083211,"sourceRegion":"guangdong","featureType":"infrastructure","railClass":"national","mode":"rail","name":"漳龙线","ref":"0067","usage":"main","status":"operational","color":"#E54848","dataOrigin":"datum-2026-08-01","sourceKey":"way:1252083211"}},{"type":"Feature","geometry":{"type":"LineString","coordinates":[[116.2243953,24.3321117],[116.2248539,24.332489],[116.2265032,24.3333185]]},"properties":{"key":"way:1252083212@detail:464_97","osmType":"way","osmId":1252083212,"sourceRegion":"guangdong","featureType":"infrastructure","railClass":"national","mode":"rail","name":"漳龙线","ref":"0067","usage":"main","tunnel":"yes","status":"operational","color":"#E54848","dataOrigin":"datum-2026-08-01","sourceKey":"way:1252083212"}},{"type":"Feature","geometry":{"type":"LineString","coordinates":[[116.2273341,24.3336467],[116.2297098,24.3346725]]},"properties":{"key":"way:1252083213@detail:464_97","osmType":"way","osmId":1252083213,"sourceRegion":"guangdong","featureType":"infrastructure","railClass":"national","mode":"rail","name":"漳龙线","ref":"0067","usage":"main","bridge":"yes","status":"operational","color":"#E54848","dataOrigin":"datum-2026-08-01","sourceKey":"way:1252083213"}},{"type":"Feature","geometry":{"type":"LineString","coordinates":[[116.2265032,24.3333185],[116.2273341,24.3336467]]},"properties":{"key":"way:1252083214@detail:464_97","osmType":"way","osmId":1252083214,"sourceRegion":"guangdong","featureType":"infrastructure","railClass":"national","mode":"rail","name":"漳龙线","ref":"0067","usage":"main","status":"operational","color":"#E54848","dataOrigin":"datum-2026-08-01","sourceKey":"way:1252083214"}},{"type":"Feature","geometry":{"type":"LineString","coordinates":[[116.2297098,24.3346725],[116.230806,24.335194],[116.2349296,24.3376962]]},"properties":{"key":"way:1252083215@detail:464_97","osmType":"way","osmId":1252083215,"sourceRegion":"guangdong","featureType":"infrastructure","railClass":"national","mode":"rail","name":"漳龙线","ref":"0067","usage":"main","status":"operational","color":"#E54848","dataOrigin":"datum-2026-08-01","sourceKey":"way:1252083215"}},{"type":"Feature","geometry":{"type":"LineString","coordinates":[[116.2349296,24.3376962],[116.2352695,24.3379144]]},"properties":{"key":"way:1252083216@detail:464_97","osmType":"way","osmId":1252083216,"sourceRegion":"guangdong","featureType":"infrastructure","railClass":"national","mode":"rail","name":"漳龙线","ref":"0067","usage":"main","bridge":"yes","status":"operational","color":"#E54848","dataOrigin":"datum-2026-08-01","sourceKey":"way:1252083216"}},{"type":"Feature","geometry":{"type":"LineString","coordinates":[[116.1007758,24.3626885],[116.1117288,24.3603461]]},"properties":{"key":"way:1262286076@detail:464_97","osmType":"way","osmId":1262286076,"sourceRegion":"guangdong","featureType":"infrastructure","railClass":"construction","mode":"construction","name":"瑞梅铁路","usage":"main","bridge":"yes","status":"construction","color":"#E54848","dataOrigin":"datum-2026-08-01","sourceKey":"way:1262286076"}},{"type":"Feature","geometry":{"type":"LineString","coordinates":[[116.1554994,24.3188467],[116.1597893,24.3131672],[116.1603405,24.3123164],[116.1608149,24.3114806],[116.1612554,24.3105754],[116.161621,24.3096339]]},"properties":{"key":"way:1262286077@detail:464_97","osmType":"way","osmId":1262286077,"sourceRegion":"guangdong","featureType":"infrastructure","railClass":"construction","mode":"construction","name":"瑞梅铁路","usage":"main","tunnel":"yes","status":"construction","color":"#E54848","dataOrigin":"datum-2026-08-01","sourceKey":"way:1262286077"}},{"type":"Feature","geometry":{"type":"LineString","coordinates":[[116.0180869,24.2548459],[116.0194001,24.2550093]]},"properties":{"key":"way:1265163295@detail:464_97","osmType":"way","osmId":1265163295,"sourceRegion":"guangdong","featureType":"infrastructure","railClass":"highspeed","mode":"rail","name":"龙龙高速线","usage":"main","highspeed":"yes","status":"operational","color":"#E54848","dataOrigin":"datum-2026-08-01","sourceKey":"way:1265163295"}},{"type":"Feature","geometry":{"type":"LineString","coordinates":[[116.0230138,24.2550673],[116.0266743,24.254829]]},"properties":{"key":"way:1265163296@detail:464_97","osmType":"way","osmId":1265163296,"sourceRegion":"guangdong","featureType":"infrastructure","railClass":"highspeed","mode":"rail","name":"龙龙高速线","usage":"main","highspeed":"yes","status":"operational","color":"#E54848","dataOrigin":"datum-2026-08-01","sourceKey":"way:1265163296"}},{"type":"Feature","geometry":{"type":"LineString","coordinates":[[116.0194001,24.2550093],[116.020499,24.2550762],[116.0216022,24.2551165],[116.0230138,24.2550673]]},"properties":{"key":"way:1265163297@detail:464_97","osmType":"way","osmId":1265163297,"sourceRegion":"guangdong","featureType":"infrastructure","railClass":"highspeed","mode":"rail","name":"龙龙高速线","usage":"main","highspeed":"yes","bridge":"yes","status":"operational","color":"#E54848","dataOrigin":"datum-2026-08-01","sourceKey":"way:1265163297"}},{"type":"Feature","geometry":{"type":"LineString","coordinates":[[116.1603153,24.2921651],[116.160014,24.291104],[116.1596031,24.2900739],[116.1590707,24.2890353],[116.1584099,24.2879581],[116.1528143,24.2795418]]},"properties":{"key":"way:1265923618@detail:464_97","osmType":"way","osmId":1265923618,"sourceRegion":"guangdong","featureType":"infrastructure","railClass":"construction","mode":"construction","name":"瑞梅铁路","usage":"main","status":"construction","color":"#E54848","dataOrigin":"datum-2026-08-01","sourceKey":"way:1265923618"}},{"type":"Feature","geometry":{"type":"LineString","coordinates":[[116.0269504,24.254811],[116.0274104,24.2547811]]},"properties":{"key":"way:1302521062@detail:464_97","osmType":"way","osmId":1302521062,"sourceRegion":"guangdong","featureType":"infrastructure","railClass":"highspeed","mode":"rail","name":"龙龙高速线","usage":"main","highspeed":"yes","status":"operational","color":"#E54848","dataOrigin":"datum-2026-08-01","sourceKey":"way:1302521062"}},{"type":"Feature","geometry":{"type":"LineString","coordinates":[[116.0266743,24.254829],[116.0269504,24.254811]]},"properties":{"key":"way:1302521063@detail:464_97","osmType":"way","osmId":1302521063,"sourceRegion":"guangdong","featureType":"infrastructure","railClass":"highspeed","mode":"rail","name":"龙龙高速线","usage":"main","highspeed":"yes","bridge":"yes","status":"operational","color":"#E54848","dataOrigin":"datum-2026-08-01","sourceKey":"way:1302521063"}},{"type":"Feature","geometry":{"type":"LineString","coordinates":[[116.0269466,24.2547618],[116.0274066,24.2547319]]},"properties":{"key":"way:1311729225@detail:464_97","osmType":"way","osmId":1311729225,"sourceRegion":"guangdong","featureType":"infrastructure","railClass":"highspeed","mode":"rail","name":"龙龙高速线","usage":"main","highspeed":"yes","status":"operational","color":"#E54848","dataOrigin":"datum-2026-08-01","sourceKey":"way:1311729225"}},{"type":"Feature","geometry":{"type":"LineString","coordinates":[[116.0180961,24.2547972],[116.0194056,24.2549602]]},"properties":{"key":"way:1311729265@detail:464_97","osmType":"way","osmId":1311729265,"sourceRegion":"guangdong","featureType":"infrastructure","railClass":"highspeed","mode":"rail","name":"龙龙高速线","usage":"main","highspeed":"yes","status":"operational","color":"#E54848","dataOrigin":"datum-2026-08-01","sourceKey":"way:1311729265"}},{"type":"Feature","geometry":{"type":"LineString","coordinates":[[116.0266704,24.2547798],[116.0269466,24.2547618]]},"properties":{"key":"way:1311729273@detail:464_97","osmType":"way","osmId":1311729273,"sourceRegion":"guangdong","featureType":"infrastructure","railClass":"highspeed","mode":"rail","name":"龙龙高速线","usage":"main","highspeed":"yes","bridge":"yes","status":"operational","color":"#E54848","dataOrigin":"datum-2026-08-01","sourceKey":"way:1311729273"}},{"type":"Feature","geometry":{"type":"LineString","coordinates":[[116.0042902012036,24.25],[116.0044705,24.2500945],[116.0054326,24.25054],[116.006505,24.2509854],[116.0121625,24.2531292],[116.013183,24.2535029],[116.0144078,24.2539277],[116.0156422,24.2542715],[116.0166856,24.2545298],[116.0180961,24.2547972]]},"properties":{"key":"way:1311729289@detail:464_97","osmType":"way","osmId":1311729289,"sourceRegion":"guangdong","featureType":"infrastructure","railClass":"highspeed","mode":"rail","name":"龙龙高速线","usage":"main","highspeed":"yes","bridge":"yes","status":"operational","color":"#E54848","dataOrigin":"datum-2026-08-01","sourceKey":"way:1311729289"}},{"type":"Feature","geometry":{"type":"LineString","coordinates":[[116.0230108,24.255018],[116.0266704,24.2547798]]},"properties":{"key":"way:1311729312@detail:464_97","osmType":"way","osmId":1311729312,"sourceRegion":"guangdong","featureType":"infrastructure","railClass":"highspeed","mode":"rail","name":"龙龙高速线","usage":"main","highspeed":"yes","status":"operational","color":"#E54848","dataOrigin":"datum-2026-08-01","sourceKey":"way:1311729312"}},{"type":"Feature","geometry":{"type":"LineString","coordinates":[[116.0194056,24.2549602],[116.0205019,24.2550269],[116.0216022,24.2550671],[116.0230108,24.255018]]},"properties":{"key":"way:1311729359@detail:464_97","osmType":"way","osmId":1311729359,"sourceRegion":"guangdong","featureType":"infrastructure","railClass":"highspeed","mode":"rail","name":"龙龙高速线","usage":"main","highspeed":"yes","bridge":"yes","status":"operational","color":"#E54848","dataOrigin":"datum-2026-08-01","sourceKey":"way:1311729359"}},{"type":"Feature","geometry":{"type":"LineString","coordinates":[[116.142754,24.3302555],[116.154126,24.3202472]]},"properties":{"key":"way:1464136000@detail:464_97","osmType":"way","osmId":1464136000,"sourceRegion":"guangdong","featureType":"infrastructure","railClass":"construction","mode":"construction","name":"瑞梅铁路","usage":"main","tunnel":"yes","status":"construction","color":"#E54848","dataOrigin":"datum-2026-08-01","sourceKey":"way:1464136000"}},{"type":"Feature","geometry":{"type":"LineString","coordinates":[[116.154126,24.3202472],[116.1554994,24.3188467]]},"properties":{"key":"way:1464136001@detail:464_97","osmType":"way","osmId":1464136001,"sourceRegion":"guangdong","featureType":"infrastructure","railClass":"construction","mode":"construction","name":"瑞梅铁路","usage":"main","bridge":"yes","status":"construction","color":"#E54848","dataOrigin":"datum-2026-08-01","sourceKey":"way:1464136001"}},{"type":"Feature","geometry":{"type":"LineString","coordinates":[[116.1620875,24.3067005],[116.1621025,24.3056187],[116.1620233,24.3044861],[116.1614054,24.2997275]]},"properties":{"key":"way:1464136002@detail:464_97","osmType":"way","osmId":1464136002,"sourceRegion":"guangdong","featureType":"infrastructure","railClass":"construction","mode":"construction","name":"瑞梅铁路","usage":"main","status":"construction","color":"#E54848","dataOrigin":"datum-2026-08-01","sourceKey":"way:1464136002"}},{"type":"Feature","geometry":{"type":"LineString","coordinates":[[116.161621,24.3096339],[116.1618463,24.3088389]]},"properties":{"key":"way:1464136003@detail:464_97","osmType":"way","osmId":1464136003,"sourceRegion":"guangdong","featureType":"infrastructure","railClass":"construction","mode":"construction","name":"瑞梅铁路","usage":"main","status":"construction","color":"#E54848","dataOrigin":"datum-2026-08-01","sourceKey":"way:1464136003"}},{"type":"Feature","geometry":{"type":"LineString","coordinates":[[116.1618463,24.3088389],[116.1620875,24.3067005]]},"properties":{"key":"way:1464136004@detail:464_97","osmType":"way","osmId":1464136004,"sourceRegion":"guangdong","featureType":"infrastructure","railClass":"construction","mode":"construction","name":"瑞梅铁路","usage":"main","tunnel":"yes","status":"construction","color":"#E54848","dataOrigin":"datum-2026-08-01","sourceKey":"way:1464136004"}},{"type":"Feature","geometry":{"type":"LineString","coordinates":[[116.1614054,24.2997275],[116.1606536,24.2939469],[116.1605114,24.2930797],[116.1603153,24.2921651]]},"properties":{"key":"way:1464136005@detail:464_97","osmType":"way","osmId":1464136005,"sourceRegion":"guangdong","featureType":"infrastructure","railClass":"construction","mode":"construction","name":"瑞梅铁路","usage":"main","bridge":"yes","status":"construction","color":"#E54848","dataOrigin":"datum-2026-08-01","sourceKey":"way:1464136005"}},{"type":"Feature","geometry":{"type":"LineString","coordinates":[[116.1423845,24.3305975],[116.142754,24.3302555]]},"properties":{"key":"way:1464136006@detail:464_97","osmType":"way","osmId":1464136006,"sourceRegion":"guangdong","featureType":"infrastructure","railClass":"construction","mode":"construction","name":"瑞梅铁路","usage":"main","status":"construction","color":"#E54848","dataOrigin":"datum-2026-08-01","sourceKey":"way:1464136006"}},{"type":"Feature","geometry":{"type":"LineString","coordinates":[[116.1358606,24.3412395],[116.1389294,24.3353874],[116.1394814,24.3343918],[116.1400979,24.3334089],[116.1407845,24.3324321],[116.1415588,24.3314763],[116.1423845,24.3305975]]},"properties":{"key":"way:1464136007@detail:464_97","osmType":"way","osmId":1464136007,"sourceRegion":"guangdong","featureType":"infrastructure","railClass":"construction","mode":"construction","name":"瑞梅铁路","usage":"main","tunnel":"yes","status":"construction","color":"#E54848","dataOrigin":"datum-2026-08-01","sourceKey":"way:1464136007"}},{"type":"Feature","geometry":{"type":"LineString","coordinates":[[116.1353152,24.3422888],[116.1358606,24.3412395]]},"properties":{"key":"way:1464136008@detail:464_97","osmType":"way","osmId":1464136008,"sourceRegion":"guangdong","featureType":"infrastructure","railClass":"construction","mode":"construction","name":"瑞梅铁路","usage":"main","status":"construction","color":"#E54848","dataOrigin":"datum-2026-08-01","sourceKey":"way:1464136008"}},{"type":"Feature","geometry":{"type":"LineString","coordinates":[[116.132424,24.3478513],[116.1353152,24.3422888]]},"properties":{"key":"way:1464136009@detail:464_97","osmType":"way","osmId":1464136009,"sourceRegion":"guangdong","featureType":"infrastructure","railClass":"construction","mode":"construction","name":"瑞梅铁路","usage":"main","bridge":"yes","status":"construction","color":"#E54848","dataOrigin":"datum-2026-08-01","sourceKey":"way:1464136009"}},{"type":"Feature","geometry":{"type":"LineString","coordinates":[[116.1316624,24.3493502],[116.132424,24.3478513]]},"properties":{"key":"way:1464136010@detail:464_97","osmType":"way","osmId":1464136010,"sourceRegion":"guangdong","featureType":"infrastructure","railClass":"construction","mode":"construction","name":"瑞梅铁路","usage":"main","status":"construction","color":"#E54848","dataOrigin":"datum-2026-08-01","sourceKey":"way:1464136010"}},{"type":"Feature","geometry":{"type":"LineString","coordinates":[[116.1290694,24.3528968],[116.1298726,24.3520212],[116.1306073,24.3510746],[116.131211,24.3501752],[116.1316624,24.3493502]]},"properties":{"key":"way:1464136011@detail:464_97","osmType":"way","osmId":1464136011,"sourceRegion":"guangdong","featureType":"infrastructure","railClass":"construction","mode":"construction","name":"瑞梅铁路","usage":"main","tunnel":"yes","status":"construction","color":"#E54848","dataOrigin":"datum-2026-08-01","sourceKey":"way:1464136011"}},{"type":"Feature","geometry":{"type":"LineString","coordinates":[[116.125545,24.3556364],[116.1265225,24.3550141],[116.127362,24.3544129],[116.1282948,24.3536499],[116.1290694,24.3528968]]},"properties":{"key":"way:1464136012@detail:464_97","osmType":"way","osmId":1464136012,"sourceRegion":"guangdong","featureType":"infrastructure","railClass":"construction","mode":"construction","name":"瑞梅铁路","usage":"main","bridge":"yes","status":"construction","color":"#E54848","dataOrigin":"datum-2026-08-01","sourceKey":"way:1464136012"}},{"type":"Feature","geometry":{"type":"LineString","coordinates":[[116.1233183,24.3567312],[116.125545,24.3556364]]},"properties":{"key":"way:1464136013@detail:464_97","osmType":"way","osmId":1464136013,"sourceRegion":"guangdong","featureType":"infrastructure","railClass":"construction","mode":"construction","name":"瑞梅铁路","usage":"main","status":"construction","color":"#E54848","dataOrigin":"datum-2026-08-01","sourceKey":"way:1464136013"}},{"type":"Feature","geometry":{"type":"LineString","coordinates":[[116.120643,24.3576848],[116.1233183,24.3567312]]},"properties":{"key":"way:1464136014@detail:464_97","osmType":"way","osmId":1464136014,"sourceRegion":"guangdong","featureType":"infrastructure","railClass":"construction","mode":"construction","name":"瑞梅铁路","usage":"main","bridge":"yes","status":"construction","color":"#E54848","dataOrigin":"datum-2026-08-01","sourceKey":"way:1464136014"}},{"type":"Feature","geometry":{"type":"LineString","coordinates":[[116.0849139,24.3663192],[116.0859385,24.3659674],[116.0871169,24.3656627],[116.1007758,24.3626885]]},"properties":{"key":"way:1464136015@detail:464_97","osmType":"way","osmId":1464136015,"sourceRegion":"guangdong","featureType":"infrastructure","railClass":"construction","mode":"construction","name":"瑞梅铁路","usage":"main","status":"construction","color":"#E54848","dataOrigin":"datum-2026-08-01","sourceKey":"way:1464136015"}},{"type":"Feature","geometry":{"type":"LineString","coordinates":[[116.1117288,24.3603461],[116.1129449,24.3600533],[116.1141235,24.3597344],[116.120643,24.3576848]]},"properties":{"key":"way:1464136016@detail:464_97","osmType":"way","osmId":1464136016,"sourceRegion":"guangdong","featureType":"infrastructure","railClass":"construction","mode":"construction","name":"瑞梅铁路","usage":"main","status":"construction","color":"#E54848","dataOrigin":"datum-2026-08-01","sourceKey":"way:1464136016"}},{"type":"Feature","geometry":{"type":"LineString","coordinates":[[116.0830739,24.3672672],[116.0839322,24.3667688],[116.0849139,24.3663192]]},"properties":{"key":"way:1464136017@detail:464_97","osmType":"way","osmId":1464136017,"sourceRegion":"guangdong","featureType":"infrastructure","railClass":"construction","mode":"construction","name":"瑞梅铁路","usage":"main","tunnel":"yes","status":"construction","color":"#E54848","dataOrigin":"datum-2026-08-01","sourceKey":"way:1464136017"}},{"type":"Feature","geometry":{"type":"LineString","coordinates":[[116.0806277,24.3693782],[116.0823765,24.3677852]]},"properties":{"key":"way:1464136018@detail:464_97","osmType":"way","osmId":1464136018,"sourceRegion":"guangdong","featureType":"infrastructure","railClass":"construction","mode":"construction","name":"瑞梅铁路","usage":"main","tunnel":"yes","status":"construction","color":"#E54848","dataOrigin":"datum-2026-08-01","sourceKey":"way:1464136018"}},{"type":"Feature","geometry":{"type":"LineString","coordinates":[[116.0703065,24.3881408],[116.0710114,24.3871102],[116.0716101,24.3861322],[116.0721704,24.3850876],[116.072626,24.3841163],[116.0760694,24.3760891],[116.0764617,24.3752625],[116.0769155,24.3744014]]},"properties":{"key":"way:1464136019@detail:464_97","osmType":"way","osmId":1464136019,"sourceRegion":"guangdong","featureType":"infrastructure","railClass":"construction","mode":"construction","name":"瑞梅铁路","usage":"main","tunnel":"yes","status":"construction","color":"#E54848","dataOrigin":"datum-2026-08-01","sourceKey":"way:1464136019"}},{"type":"Feature","geometry":{"type":"LineString","coordinates":[[116.0823765,24.3677852],[116.0830739,24.3672672]]},"properties":{"key":"way:1464136020@detail:464_97","osmType":"way","osmId":1464136020,"sourceRegion":"guangdong","featureType":"infrastructure","railClass":"construction","mode":"construction","name":"瑞梅铁路","usage":"main","status":"construction","color":"#E54848","dataOrigin":"datum-2026-08-01","sourceKey":"way:1464136020"}},{"type":"Feature","geometry":{"type":"LineString","coordinates":[[116.0797908,24.3702773],[116.0806277,24.3693782]]},"properties":{"key":"way:1464136021@detail:464_97","osmType":"way","osmId":1464136021,"sourceRegion":"guangdong","featureType":"infrastructure","railClass":"construction","mode":"construction","name":"瑞梅铁路","usage":"main","bridge":"yes","status":"construction","color":"#E54848","dataOrigin":"datum-2026-08-01","sourceKey":"way:1464136021"}},{"type":"Feature","geometry":{"type":"LineString","coordinates":[[116.07836,24.372109],[116.0797908,24.3702773]]},"properties":{"key":"way:1464136022@detail:464_97","osmType":"way","osmId":1464136022,"sourceRegion":"guangdong","featureType":"infrastructure","railClass":"construction","mode":"construction","name":"瑞梅铁路","usage":"main","status":"construction","color":"#E54848","dataOrigin":"datum-2026-08-01","sourceKey":"way:1464136022"}},{"type":"Feature","geometry":{"type":"LineString","coordinates":[[116.0655011,24.3944152],[116.0669241,24.3925596]]},"properties":{"key":"way:1464136023@detail:464_97","osmType":"way","osmId":1464136023,"sourceRegion":"guangdong","featureType":"infrastructure","railClass":"construction","mode":"construction","name":"瑞梅铁路","usage":"main","tunnel":"yes","status":"construction","color":"#E54848","dataOrigin":"datum-2026-08-01","sourceKey":"way:1464136023"}},{"type":"Feature","geometry":{"type":"LineString","coordinates":[[116.0769155,24.3744014],[116.077359,24.3736418],[116.0778882,24.3728041],[116.07836,24.372109]]},"properties":{"key":"way:1464136024@detail:464_97","osmType":"way","osmId":1464136024,"sourceRegion":"guangdong","featureType":"infrastructure","railClass":"construction","mode":"construction","name":"瑞梅铁路","usage":"main","bridge":"yes","status":"construction","color":"#E54848","dataOrigin":"datum-2026-08-01","sourceKey":"way:1464136024"}},{"type":"Feature","geometry":{"type":"LineString","coordinates":[[116.0692337,24.3895479],[116.0703065,24.3881408]]},"properties":{"key":"way:1464136025@detail:464_97","osmType":"way","osmId":1464136025,"sourceRegion":"guangdong","featureType":"infrastructure","railClass":"construction","mode":"construction","name":"瑞梅铁路","usage":"main","status":"construction","color":"#E54848","dataOrigin":"datum-2026-08-01","sourceKey":"way:1464136025"}},{"type":"Feature","geometry":{"type":"LineString","coordinates":[[116.0,24.461787820919362],[116.0620312,24.3986149]]},"properties":{"key":"way:1464136026@detail:464_97","osmType":"way","osmId":1464136026,"sourceRegion":"guangdong","featureType":"infrastructure","railClass":"construction","mode":"construction","name":"瑞梅铁路","usage":"main","tunnel":"yes","status":"construction","color":"#E54848","dataOrigin":"datum-2026-08-01","sourceKey":"way:1464136026"}},{"type":"Feature","geometry":{"type":"LineString","coordinates":[[116.0636257,24.3968607],[116.0640418,24.3963181]]},"properties":{"key":"way:1464136027@detail:464_97","osmType":"way","osmId":1464136027,"sourceRegion":"guangdong","featureType":"infrastructure","railClass":"construction","mode":"construction","name":"瑞梅铁路","usage":"main","bridge":"yes","status":"construction","color":"#E54848","dataOrigin":"datum-2026-08-01","sourceKey":"way:1464136027"}},{"type":"Feature","geometry":{"type":"LineString","coordinates":[[116.0640418,24.3963181],[116.0655011,24.3944152]]},"properties":{"key":"way:1464136028@detail:464_97","osmType":"way","osmId":1464136028,"sourceRegion":"guangdong","featureType":"infrastructure","railClass":"construction","mode":"construction","name":"瑞梅铁路","usage":"main","status":"construction","color":"#E54848","dataOrigin":"datum-2026-08-01","sourceKey":"way:1464136028"}},{"type":"Feature","geometry":{"type":"LineString","coordinates":[[116.0681645,24.3909422],[116.0692337,24.3895479]]},"properties":{"key":"way:1464136029@detail:464_97","osmType":"way","osmId":1464136029,"sourceRegion":"guangdong","featureType":"infrastructure","railClass":"construction","mode":"construction","name":"瑞梅铁路","usage":"main","tunnel":"yes","status":"construction","color":"#E54848","dataOrigin":"datum-2026-08-01","sourceKey":"way:1464136029"}},{"type":"Feature","geometry":{"type":"LineString","coordinates":[[116.0669241,24.3925596],[116.0681645,24.3909422]]},"properties":{"key":"way:1464136030@detail:464_97","osmType":"way","osmId":1464136030,"sourceRegion":"guangdong","featureType":"infrastructure","railClass":"construction","mode":"construction","name":"瑞梅铁路","usage":"main","bridge":"yes","status":"construction","color":"#E54848","dataOrigin":"datum-2026-08-01","sourceKey":"way:1464136030"}},{"type":"Feature","geometry":{"type":"LineString","coordinates":[[116.0620312,24.3986149],[116.0626199,24.3980186],[116.0631517,24.3974297],[116.0636257,24.3968607]]},"properties":{"key":"way:1464136032@detail:464_97","osmType":"way","osmId":1464136032,"sourceRegion":"guangdong","featureType":"infrastructure","railClass":"construction","mode":"construction","name":"瑞梅铁路","usage":"main","status":"construction","color":"#E54848","dataOrigin":"datum-2026-08-01","sourceKey":"way:1464136032"}},{"type":"Feature","geometry":{"type":"LineString","coordinates":[[116.11566213957555,24.25],[116.1178065,24.2526615],[116.1186893,24.2536737],[116.1195807,24.2546254],[116.120496,24.255511],[116.1214954,24.2563711],[116.1298324,24.2628781],[116.1305971,24.2634002],[116.1314111,24.2638841],[116.1322818,24.2643488],[116.1331666,24.2647682],[116.1340868,24.265136],[116.1350636,24.2654458],[116.1359484,24.2656781],[116.1368403,24.2658846],[116.1402096,24.2665751],[116.1411156,24.2667816],[116.1418801,24.2669881],[116.1426445,24.2672591],[116.1433524,24.2675624],[116.1439611,24.2679689],[116.1445239,24.2683851],[116.1450795,24.2688852],[116.1455467,24.269395],[116.1460011,24.2699287],[116.1528409,24.2793773],[116.1533117,24.2800562],[116.1584649,24.2879253],[116.1591287,24.2890101],[116.1596705,24.2900565],[116.1600782,24.291093],[116.1603839,24.2921492]]},"properties":{"key":"way:1464139561@detail:464_97","osmType":"way","osmId":1464139561,"sourceRegion":"guangdong","featureType":"infrastructure","railClass":"construction","mode":"construction","name":"龙龙高速线","usage":"main","highspeed":"yes","status":"construction","color":"#E54848","dataOrigin":"datum-2026-08-01","sourceKey":"way:1464139561"}},{"type":"Feature","geometry":{"type":"LineString","coordinates":[[116.1603839,24.2921492],[116.1605824,24.2930781],[116.1607273,24.2939534],[116.1614734,24.2997173]]},"properties":{"key":"way:1464139562@detail:464_97","osmType":"way","osmId":1464139562,"sourceRegion":"guangdong","featureType":"infrastructure","railClass":"construction","mode":"construction","name":"龙龙高速线","usage":"main","highspeed":"yes","bridge":"yes","status":"construction","color":"#E54848","dataOrigin":"datum-2026-08-01","sourceKey":"way:1464139562"}},{"type":"Feature","geometry":{"type":"LineString","coordinates":[[116.1624518,24.3059868],[116.1626951,24.3068698],[116.1630041,24.3078331],[116.1633862,24.3088187],[116.1637928,24.3097597],[116.1642806,24.3107304],[116.1647847,24.3116345],[116.165362,24.3125607],[116.1659475,24.3134202],[116.1665573,24.3142575],[116.1671671,24.3150355],[116.1678094,24.3158062],[116.1685006,24.3165619],[116.169273,24.3173251],[116.1701024,24.3180883],[116.170948,24.3187996],[116.1719237,24.319548],[116.1729573,24.3202197],[116.1740052,24.3208274],[116.207039,24.338096]]},"properties":{"key":"way:1464139563@detail:464_97","osmType":"way","osmId":1464139563,"sourceRegion":"guangdong","featureType":"infrastructure","railClass":"construction","mode":"construction","name":"龙龙高速线","usage":"main","highspeed":"yes","tunnel":"yes","status":"construction","color":"#E54848","dataOrigin":"datum-2026-08-01","sourceKey":"way:1464139563"}},{"type":"Feature","geometry":{"type":"LineString","coordinates":[[116.1614734,24.2997173],[116.1619776,24.3035741],[116.162105,24.3043676],[116.1622395,24.3050965],[116.1624518,24.3059868]]},"properties":{"key":"way:1464139564@detail:464_97","osmType":"way","osmId":1464139564,"sourceRegion":"guangdong","featureType":"infrastructure","railClass":"construction","mode":"construction","name":"龙龙高速线","usage":"main","highspeed":"yes","status":"construction","color":"#E54848","dataOrigin":"datum-2026-08-01","sourceKey":"way:1464139564"}},{"type":"Feature","geometry":{"type":"LineString","coordinates":[[116.2173525,24.3441958],[116.2450113,24.3629247]]},"properties":{"key":"way:1464139565@detail:464_97","osmType":"way","osmId":1464139565,"sourceRegion":"guangdong","featureType":"infrastructure","railClass":"construction","mode":"construction","name":"龙龙高速线","usage":"main","highspeed":"yes","tunnel":"yes","status":"construction","color":"#E54848","dataOrigin":"datum-2026-08-01","sourceKey":"way:1464139565"}},{"type":"Feature","geometry":{"type":"LineString","coordinates":[[116.207039,24.338096],[116.2092123,24.3393321]]},"properties":{"key":"way:1464139566@detail:464_97","osmType":"way","osmId":1464139566,"sourceRegion":"guangdong","featureType":"infrastructure","railClass":"construction","mode":"construction","name":"龙龙高速线","usage":"main","highspeed":"yes","status":"construction","color":"#E54848","dataOrigin":"datum-2026-08-01","sourceKey":"way:1464139566"}},{"type":"Feature","geometry":{"type":"LineString","coordinates":[[116.2092123,24.3393321],[116.2154168,24.3429708]]},"properties":{"key":"way:1464139567@detail:464_97","osmType":"way","osmId":1464139567,"sourceRegion":"guangdong","featureType":"infrastructure","railClass":"construction","mode":"construction","name":"龙龙高速线","usage":"main","highspeed":"yes","tunnel":"yes","status":"construction","color":"#E54848","dataOrigin":"datum-2026-08-01","sourceKey":"way:1464139567"}},{"type":"Feature","geometry":{"type":"LineString","coordinates":[[116.2154168,24.3429708],[116.2173525,24.3441958]]},"properties":{"key":"way:1464139568@detail:464_97","osmType":"way","osmId":1464139568,"sourceRegion":"guangdong","featureType":"infrastructure","railClass":"construction","mode":"construction","name":"龙龙高速线","usage":"main","highspeed":"yes","status":"construction","color":"#E54848","dataOrigin":"datum-2026-08-01","sourceKey":"way:1464139568"}}]}