{"type":"FeatureCollection","features":[{"type":"Feature","geometry":{"type":"LineString","coordinates":[[116.1898253,23.7484242],[116.1893875,23.7489366],[116.1890646,23.7491533],[116.1886843,23.7494161],[116.18806915041945,23.75]]},"properties":{"key":"way:148846641@detail:464_94","osmType":"way","osmId":148846641,"sourceRegion":"guangdong","featureType":"infrastructure","railClass":"national","mode":"rail","name":"未命名","status":"operational","color":"#E54848","dataOrigin":"datum-2026-08-01","sourceKey":"way:148846641"}},{"type":"Feature","geometry":{"type":"LineString","coordinates":[[116.1889278,23.7499585],[116.1888960390668,23.75]]},"properties":{"key":"way:148846651@detail:464_94","osmType":"way","osmId":148846651,"sourceRegion":"guangdong","featureType":"infrastructure","railClass":"national","mode":"rail","name":"未命名","status":"operational","color":"#E54848","dataOrigin":"datum-2026-08-01","sourceKey":"way:148846651"}},{"type":"Feature","geometry":{"type":"LineString","coordinates":[[116.246638,23.6946443],[116.2467887,23.6944669]]},"properties":{"key":"way:148853542@detail:464_94","osmType":"way","osmId":148853542,"sourceRegion":"guangdong","featureType":"infrastructure","railClass":"national","mode":"rail","name":"畲龙线","ref":"0716","usage":"main","bridge":"yes","status":"operational","color":"#E54848","dataOrigin":"datum-2026-08-01","sourceKey":"way:148853542"}},{"type":"Feature","geometry":{"type":"LineString","coordinates":[[116.2159984,23.719098],[116.2162377,23.7187463]]},"properties":{"key":"way:148853543@detail:464_94","osmType":"way","osmId":148853543,"sourceRegion":"guangdong","featureType":"infrastructure","railClass":"national","mode":"rail","name":"畲龙线","ref":"0716","usage":"main","bridge":"yes","status":"operational","color":"#E54848","dataOrigin":"datum-2026-08-01","sourceKey":"way:148853543"}},{"type":"Feature","geometry":{"type":"LineString","coordinates":[[116.2162377,23.7187463],[116.2163261,23.7186657],[116.2166155,23.718336],[116.217168,23.717863],[116.2177779,23.7174491],[116.218395,23.7170681],[116.2217819,23.7152352],[116.2223488,23.714887],[116.2226379,23.7147472],[116.2228726,23.7144731],[116.2232816,23.7140395],[116.2236475,23.7135533],[116.223992,23.7130409],[116.2242718,23.712443],[116.2244584,23.7118123],[116.2249033,23.7100056],[116.2251329,23.7093355],[116.2254342,23.7087705],[116.2257787,23.7082449],[116.2261877,23.7077587],[116.226611,23.7073382],[116.2271707,23.7069243],[116.2277017,23.7066484],[116.2295794,23.7057646],[116.2340951,23.7036393],[116.2346333,23.703383],[116.2355948,23.7029165],[116.236255,23.7025223],[116.2369295,23.7020295],[116.2396993,23.6999402],[116.2403594,23.6995525],[116.241018,23.6992124],[116.2429139,23.6983567],[116.2435669,23.6980216],[116.2442127,23.6975354],[116.2447078,23.6970689],[116.2451455,23.6965629],[116.246638,23.6946443]]},"properties":{"key":"way:148853544@detail:464_94","osmType":"way","osmId":148853544,"sourceRegion":"guangdong","featureType":"infrastructure","railClass":"national","mode":"rail","name":"畲龙线","ref":"0716","usage":"main","status":"operational","color":"#E54848","dataOrigin":"datum-2026-08-01","sourceKey":"way:148853544"}},{"type":"Feature","geometry":{"type":"LineString","coordinates":[[116.2007556,23.7402689],[116.2039363,23.7373729],[116.2048189,23.7365321],[116.2052135,23.7360986],[116.2054718,23.7356848],[116.206297,23.7341937],[116.2066343,23.7337142],[116.2070433,23.7332741],[116.2075528,23.7328077],[116.2082201,23.7323545],[116.2095404,23.7314677],[116.210179,23.7309816],[116.2107459,23.7304232],[116.2112338,23.7298189],[116.2115639,23.729254],[116.2119011,23.7285051],[116.2153956,23.7202345],[116.2156755,23.7196433],[116.2159984,23.719098]]},"properties":{"key":"way:148853545@detail:464_94","osmType":"way","osmId":148853545,"sourceRegion":"guangdong","featureType":"infrastructure","railClass":"national","mode":"rail","name":"畲龙线","ref":"0716","usage":"main","status":"operational","color":"#E54848","dataOrigin":"datum-2026-08-01","sourceKey":"way:148853545"}},{"type":"Feature","geometry":{"type":"LineString","coordinates":[[116.18890618233044,23.75],[116.1889278,23.7499585],[116.1890359,23.7497511],[116.1898253,23.7484242],[116.1911457,23.7464405],[116.1915691,23.7459348],[116.192179,23.7453896],[116.1922312,23.7453424]]},"properties":{"key":"way:787449533@detail:464_94","osmType":"way","osmId":787449533,"sourceRegion":"guangdong","featureType":"infrastructure","railClass":"national","mode":"rail","name":"畲龙线","ref":"0716","usage":"main","status":"operational","color":"#E54848","dataOrigin":"datum-2026-08-01","sourceKey":"way:787449533"}},{"type":"Feature","geometry":{"type":"LineString","coordinates":[[116.1922312,23.7453424],[116.1924178,23.7452196]]},"properties":{"key":"way:787449534@detail:464_94","osmType":"way","osmId":787449534,"sourceRegion":"guangdong","featureType":"infrastructure","railClass":"national","mode":"rail","name":"畲龙线","ref":"0716","usage":"main","bridge":"yes","status":"operational","color":"#E54848","dataOrigin":"datum-2026-08-01","sourceKey":"way:787449534"}},{"type":"Feature","geometry":{"type":"LineString","coordinates":[[116.204358,23.749489],[116.2051098,23.7487393],[116.2072167,23.7467683],[116.2099993,23.7442224],[116.2147681,23.7401024]]},"properties":{"key":"way:787449545@detail:464_94","osmType":"way","osmId":787449545,"sourceRegion":"guangdong","featureType":"infrastructure","railClass":"highspeed","mode":"rail","name":"梅汕线","nameEn":"Meizhou-Shantou High-Speed Railway","ref":"3080","usage":"main","highspeed":"yes","bridge":"yes","status":"operational","color":"#E54848","dataOrigin":"datum-2026-08-01","sourceKey":"way:787449545"}},{"type":"Feature","geometry":{"type":"LineString","coordinates":[[116.1952358,23.7436549],[116.1953166,23.7436189]]},"properties":{"key":"way:787470827@detail:464_94","osmType":"way","osmId":787470827,"sourceRegion":"guangdong","featureType":"infrastructure","railClass":"national","mode":"rail","name":"畲龙线","ref":"0716","usage":"main","bridge":"yes","status":"operational","color":"#E54848","dataOrigin":"datum-2026-08-01","sourceKey":"way:787470827"}},{"type":"Feature","geometry":{"type":"LineString","coordinates":[[116.1924178,23.7452196],[116.1926957,23.7450217],[116.1934564,23.7446013],[116.1952358,23.7436549]]},"properties":{"key":"way:787470828@detail:464_94","osmType":"way","osmId":787470828,"sourceRegion":"guangdong","featureType":"infrastructure","railClass":"national","mode":"rail","name":"畲龙线","ref":"0716","usage":"main","status":"operational","color":"#E54848","dataOrigin":"datum-2026-08-01","sourceKey":"way:787470828"}},{"type":"Feature","geometry":{"type":"LineString","coordinates":[[116.1957196,23.7434196],[116.1958411,23.7433462]]},"properties":{"key":"way:787470841@detail:464_94","osmType":"way","osmId":787470841,"sourceRegion":"guangdong","featureType":"infrastructure","railClass":"national","mode":"rail","name":"畲龙线","ref":"0716","usage":"main","bridge":"yes","status":"operational","color":"#E54848","dataOrigin":"datum-2026-08-01","sourceKey":"way:787470841"}},{"type":"Feature","geometry":{"type":"LineString","coordinates":[[116.1953166,23.7436189],[116.1957196,23.7434196]]},"properties":{"key":"way:787470842@detail:464_94","osmType":"way","osmId":787470842,"sourceRegion":"guangdong","featureType":"infrastructure","railClass":"national","mode":"rail","name":"畲龙线","ref":"0716","usage":"main","status":"operational","color":"#E54848","dataOrigin":"datum-2026-08-01","sourceKey":"way:787470842"}},{"type":"Feature","geometry":{"type":"LineString","coordinates":[[116.2485803,23.7106414],[116.2488371,23.7104281],[116.25,23.70946212803303]]},"properties":{"key":"way:907012153@detail:464_94","osmType":"way","osmId":907012153,"sourceRegion":"guangdong","featureType":"infrastructure","railClass":"highspeed","mode":"rail","name":"梅汕线","nameEn":"Meizhou-Shantou High-Speed Railway","ref":"3080","usage":"main","highspeed":"yes","tunnel":"yes","status":"operational","color":"#E54848","dataOrigin":"datum-2026-08-01","sourceKey":"way:907012153"}},{"type":"Feature","geometry":{"type":"LineString","coordinates":[[116.2466442,23.7123633],[116.2485803,23.7106414]]},"properties":{"key":"way:907012154@detail:464_94","osmType":"way","osmId":907012154,"sourceRegion":"guangdong","featureType":"infrastructure","railClass":"highspeed","mode":"rail","name":"梅汕线","nameEn":"Meizhou-Shantou High-Speed Railway","ref":"3080","usage":"main","highspeed":"yes","status":"operational","color":"#E54848","dataOrigin":"datum-2026-08-01","sourceKey":"way:907012154"}},{"type":"Feature","geometry":{"type":"LineString","coordinates":[[116.2465701,23.7124283],[116.2466442,23.7123633]]},"properties":{"key":"way:907012155@detail:464_94","osmType":"way","osmId":907012155,"sourceRegion":"guangdong","featureType":"infrastructure","railClass":"highspeed","mode":"rail","name":"梅汕线","nameEn":"Meizhou-Shantou High-Speed Railway","ref":"3080","usage":"main","highspeed":"yes","bridge":"yes","status":"operational","color":"#E54848","dataOrigin":"datum-2026-08-01","sourceKey":"way:907012155"}},{"type":"Feature","geometry":{"type":"LineString","coordinates":[[116.2430828,23.7154866],[116.2465701,23.7124283]]},"properties":{"key":"way:907012156@detail:464_94","osmType":"way","osmId":907012156,"sourceRegion":"guangdong","featureType":"infrastructure","railClass":"highspeed","mode":"rail","name":"梅汕线","nameEn":"Meizhou-Shantou High-Speed Railway","ref":"3080","usage":"main","highspeed":"yes","status":"operational","color":"#E54848","dataOrigin":"datum-2026-08-01","sourceKey":"way:907012156"}},{"type":"Feature","geometry":{"type":"LineString","coordinates":[[116.2416709,23.7167248],[116.2430828,23.7154866]]},"properties":{"key":"way:907012157@detail:464_94","osmType":"way","osmId":907012157,"sourceRegion":"guangdong","featureType":"infrastructure","railClass":"highspeed","mode":"rail","name":"梅汕线","nameEn":"Meizhou-Shantou High-Speed Railway","ref":"3080","usage":"main","highspeed":"yes","bridge":"yes","status":"operational","color":"#E54848","dataOrigin":"datum-2026-08-01","sourceKey":"way:907012157"}},{"type":"Feature","geometry":{"type":"LineString","coordinates":[[116.2407477,23.7175027],[116.2416709,23.7167248]]},"properties":{"key":"way:907012158@detail:464_94","osmType":"way","osmId":907012158,"sourceRegion":"guangdong","featureType":"infrastructure","railClass":"highspeed","mode":"rail","name":"梅汕线","nameEn":"Meizhou-Shantou High-Speed Railway","ref":"3080","usage":"main","highspeed":"yes","status":"operational","color":"#E54848","dataOrigin":"datum-2026-08-01","sourceKey":"way:907012158"}},{"type":"Feature","geometry":{"type":"LineString","coordinates":[[116.2192098,23.7361889],[116.2407477,23.7175027]]},"properties":{"key":"way:907012159@detail:464_94","osmType":"way","osmId":907012159,"sourceRegion":"guangdong","featureType":"infrastructure","railClass":"highspeed","mode":"rail","name":"梅汕线","nameEn":"Meizhou-Shantou High-Speed Railway","ref":"3080","usage":"main","highspeed":"yes","tunnel":"yes","status":"operational","color":"#E54848","dataOrigin":"datum-2026-08-01","sourceKey":"way:907012159"}},{"type":"Feature","geometry":{"type":"LineString","coordinates":[[116.2170768,23.7380917],[116.2192098,23.7361889]]},"properties":{"key":"way:907012160@detail:464_94","osmType":"way","osmId":907012160,"sourceRegion":"guangdong","featureType":"infrastructure","railClass":"highspeed","mode":"rail","name":"梅汕线","nameEn":"Meizhou-Shantou High-Speed Railway","ref":"3080","usage":"main","highspeed":"yes","status":"operational","color":"#E54848","dataOrigin":"datum-2026-08-01","sourceKey":"way:907012160"}},{"type":"Feature","geometry":{"type":"LineString","coordinates":[[116.216237,23.7388212],[116.2170768,23.7380917]]},"properties":{"key":"way:907012161@detail:464_94","osmType":"way","osmId":907012161,"sourceRegion":"guangdong","featureType":"infrastructure","railClass":"highspeed","mode":"rail","name":"梅汕线","nameEn":"Meizhou-Shantou High-Speed Railway","ref":"3080","usage":"main","highspeed":"yes","bridge":"yes","status":"operational","color":"#E54848","dataOrigin":"datum-2026-08-01","sourceKey":"way:907012161"}},{"type":"Feature","geometry":{"type":"LineString","coordinates":[[116.2147681,23.7401024],[116.216237,23.7388212]]},"properties":{"key":"way:907012162@detail:464_94","osmType":"way","osmId":907012162,"sourceRegion":"guangdong","featureType":"infrastructure","railClass":"highspeed","mode":"rail","name":"梅汕线","nameEn":"Meizhou-Shantou High-Speed Railway","ref":"3080","usage":"main","highspeed":"yes","status":"operational","color":"#E54848","dataOrigin":"datum-2026-08-01","sourceKey":"way:907012162"}},{"type":"Feature","geometry":{"type":"LineString","coordinates":[[116.20392065652335,23.75],[116.204358,23.749489]]},"properties":{"key":"way:907012164@detail:464_94","osmType":"way","osmId":907012164,"sourceRegion":"guangdong","featureType":"infrastructure","railClass":"highspeed","mode":"rail","name":"梅汕线","nameEn":"Meizhou-Shantou High-Speed Railway","ref":"3080","usage":"main","highspeed":"yes","status":"operational","color":"#E54848","dataOrigin":"datum-2026-08-01","sourceKey":"way:907012164"}},{"type":"Feature","geometry":{"type":"LineString","coordinates":[[116.2170495,23.7380657],[116.2191825,23.7361629]]},"properties":{"key":"way:1090905169@detail:464_94","osmType":"way","osmId":1090905169,"sourceRegion":"guangdong","featureType":"infrastructure","railClass":"highspeed","mode":"rail","name":"梅汕线","nameEn":"Meizhou-Shantou High-Speed Railway","ref":"3080","usage":"main","highspeed":"yes","status":"operational","color":"#E54848","dataOrigin":"datum-2026-08-01","sourceKey":"way:1090905169"}},{"type":"Feature","geometry":{"type":"LineString","coordinates":[[116.2162098,23.7387951],[116.2170495,23.7380657]]},"properties":{"key":"way:1090905170@detail:464_94","osmType":"way","osmId":1090905170,"sourceRegion":"guangdong","featureType":"infrastructure","railClass":"highspeed","mode":"rail","name":"梅汕线","nameEn":"Meizhou-Shantou High-Speed Railway","ref":"3080","usage":"main","highspeed":"yes","bridge":"yes","status":"operational","color":"#E54848","dataOrigin":"datum-2026-08-01","sourceKey":"way:1090905170"}},{"type":"Feature","geometry":{"type":"LineString","coordinates":[[116.214741,23.7400762],[116.2162098,23.7387951]]},"properties":{"key":"way:1090905171@detail:464_94","osmType":"way","osmId":1090905171,"sourceRegion":"guangdong","featureType":"infrastructure","railClass":"highspeed","mode":"rail","name":"梅汕线","nameEn":"Meizhou-Shantou High-Speed Railway","ref":"3080","usage":"main","highspeed":"yes","status":"operational","color":"#E54848","dataOrigin":"datum-2026-08-01","sourceKey":"way:1090905171"}},{"type":"Feature","geometry":{"type":"LineString","coordinates":[[116.20387057122984,23.75],[116.2043279,23.7494656]]},"properties":{"key":"way:1090905173@detail:464_94","osmType":"way","osmId":1090905173,"sourceRegion":"guangdong","featureType":"infrastructure","railClass":"highspeed","mode":"rail","name":"梅汕线","nameEn":"Meizhou-Shantou High-Speed Railway","ref":"3080","usage":"main","highspeed":"yes","status":"operational","color":"#E54848","dataOrigin":"datum-2026-08-01","sourceKey":"way:1090905173"}},{"type":"Feature","geometry":{"type":"LineString","coordinates":[[116.2485533,23.7106151],[116.2488106,23.7104014],[116.25,23.709413407188663]]},"properties":{"key":"way:1090905185@detail:464_94","osmType":"way","osmId":1090905185,"sourceRegion":"guangdong","featureType":"infrastructure","railClass":"highspeed","mode":"rail","name":"梅汕线","nameEn":"Meizhou-Shantou High-Speed Railway","ref":"3080","usage":"main","highspeed":"yes","tunnel":"yes","status":"operational","color":"#E54848","dataOrigin":"datum-2026-08-01","sourceKey":"way:1090905185"}},{"type":"Feature","geometry":{"type":"LineString","coordinates":[[116.2466168,23.7123373],[116.2485533,23.7106151]]},"properties":{"key":"way:1090905186@detail:464_94","osmType":"way","osmId":1090905186,"sourceRegion":"guangdong","featureType":"infrastructure","railClass":"highspeed","mode":"rail","name":"梅汕线","nameEn":"Meizhou-Shantou High-Speed Railway","ref":"3080","usage":"main","highspeed":"yes","status":"operational","color":"#E54848","dataOrigin":"datum-2026-08-01","sourceKey":"way:1090905186"}},{"type":"Feature","geometry":{"type":"LineString","coordinates":[[116.2465428,23.7124022],[116.2466168,23.7123373]]},"properties":{"key":"way:1090905187@detail:464_94","osmType":"way","osmId":1090905187,"sourceRegion":"guangdong","featureType":"infrastructure","railClass":"highspeed","mode":"rail","name":"梅汕线","nameEn":"Meizhou-Shantou High-Speed Railway","ref":"3080","usage":"main","highspeed":"yes","bridge":"yes","status":"operational","color":"#E54848","dataOrigin":"datum-2026-08-01","sourceKey":"way:1090905187"}},{"type":"Feature","geometry":{"type":"LineString","coordinates":[[116.2430555,23.7154605],[116.2465428,23.7124022]]},"properties":{"key":"way:1090905188@detail:464_94","osmType":"way","osmId":1090905188,"sourceRegion":"guangdong","featureType":"infrastructure","railClass":"highspeed","mode":"rail","name":"梅汕线","nameEn":"Meizhou-Shantou High-Speed Railway","ref":"3080","usage":"main","highspeed":"yes","status":"operational","color":"#E54848","dataOrigin":"datum-2026-08-01","sourceKey":"way:1090905188"}},{"type":"Feature","geometry":{"type":"LineString","coordinates":[[116.2416439,23.7166985],[116.2430555,23.7154605]]},"properties":{"key":"way:1090905189@detail:464_94","osmType":"way","osmId":1090905189,"sourceRegion":"guangdong","featureType":"infrastructure","railClass":"highspeed","mode":"rail","name":"梅汕线","nameEn":"Meizhou-Shantou High-Speed Railway","ref":"3080","usage":"main","highspeed":"yes","bridge":"yes","status":"operational","color":"#E54848","dataOrigin":"datum-2026-08-01","sourceKey":"way:1090905189"}},{"type":"Feature","geometry":{"type":"LineString","coordinates":[[116.2407208,23.7174763],[116.2416439,23.7166985]]},"properties":{"key":"way:1090905190@detail:464_94","osmType":"way","osmId":1090905190,"sourceRegion":"guangdong","featureType":"infrastructure","railClass":"highspeed","mode":"rail","name":"梅汕线","nameEn":"Meizhou-Shantou High-Speed Railway","ref":"3080","usage":"main","highspeed":"yes","status":"operational","color":"#E54848","dataOrigin":"datum-2026-08-01","sourceKey":"way:1090905190"}},{"type":"Feature","geometry":{"type":"LineString","coordinates":[[116.2191825,23.7361629],[116.2407208,23.7174763]]},"properties":{"key":"way:1090905191@detail:464_94","osmType":"way","osmId":1090905191,"sourceRegion":"guangdong","featureType":"infrastructure","railClass":"highspeed","mode":"rail","name":"梅汕线","nameEn":"Meizhou-Shantou High-Speed Railway","ref":"3080","usage":"main","highspeed":"yes","tunnel":"yes","status":"operational","color":"#E54848","dataOrigin":"datum-2026-08-01","sourceKey":"way:1090905191"}},{"type":"Feature","geometry":{"type":"LineString","coordinates":[[116.2043279,23.7494656],[116.2050812,23.7487145],[116.2071887,23.7467429],[116.2099718,23.7441965],[116.214741,23.7400762]]},"properties":{"key":"way:1090905326@detail:464_94","osmType":"way","osmId":1090905326,"sourceRegion":"guangdong","featureType":"infrastructure","railClass":"highspeed","mode":"rail","name":"梅汕线","nameEn":"Meizhou-Shantou High-Speed Railway","ref":"3080","usage":"main","highspeed":"yes","bridge":"yes","status":"operational","color":"#E54848","dataOrigin":"datum-2026-08-01","sourceKey":"way:1090905326"}},{"type":"Feature","geometry":{"type":"LineString","coordinates":[[116.1958411,23.7433462],[116.1987842,23.7417672],[116.1995377,23.7413008],[116.2001332,23.7408673],[116.2006714,23.7403484],[116.2007069,23.740311]]},"properties":{"key":"way:1253847464@detail:464_94","osmType":"way","osmId":1253847464,"sourceRegion":"guangdong","featureType":"infrastructure","railClass":"national","mode":"rail","name":"畲龙线","ref":"0716","usage":"main","status":"operational","color":"#E54848","dataOrigin":"datum-2026-08-01","sourceKey":"way:1253847464"}},{"type":"Feature","geometry":{"type":"LineString","coordinates":[[116.2007069,23.740311],[116.2007556,23.7402689]]},"properties":{"key":"way:1253847465@detail:464_94","osmType":"way","osmId":1253847465,"sourceRegion":"guangdong","featureType":"infrastructure","railClass":"national","mode":"rail","name":"畲龙线","ref":"0716","usage":"main","bridge":"yes","status":"operational","color":"#E54848","dataOrigin":"datum-2026-08-01","sourceKey":"way:1253847465"}},{"type":"Feature","geometry":{"type":"LineString","coordinates":[[116.25,23.572176463854543],[116.2482162,23.5719995]]},"properties":{"key":"way:1458519994@detail:464_94","osmType":"way","osmId":1458519994,"sourceRegion":"guangdong","featureType":"infrastructure","railClass":"construction","mode":"construction","name":"揭惠铁路","usage":"main","status":"construction","color":"#E54848","dataOrigin":"datum-2026-08-01","sourceKey":"way:1458519994"}},{"type":"Feature","geometry":{"type":"LineString","coordinates":[[116.2482162,23.5719995],[116.2472938,23.571908]]},"properties":{"key":"way:1458519995@detail:464_94","osmType":"way","osmId":1458519995,"sourceRegion":"guangdong","featureType":"infrastructure","railClass":"construction","mode":"construction","name":"揭惠铁路","usage":"main","bridge":"yes","status":"construction","color":"#E54848","dataOrigin":"datum-2026-08-01","sourceKey":"way:1458519995"}},{"type":"Feature","geometry":{"type":"LineString","coordinates":[[116.2472938,23.571908],[116.2437803,23.5715594],[116.2428454,23.5714565],[116.242076,23.5713555],[116.2413764,23.5712298],[116.2406965,23.5710736],[116.23992,23.5708644],[116.2392175,23.5706341],[116.2385095,23.5703743],[116.2378078,23.5700768],[116.2370202,23.569681]]},"properties":{"key":"way:1458519996@detail:464_94","osmType":"way","osmId":1458519996,"sourceRegion":"guangdong","featureType":"infrastructure","railClass":"construction","mode":"construction","name":"揭惠铁路","usage":"main","status":"construction","color":"#E54848","dataOrigin":"datum-2026-08-01","sourceKey":"way:1458519996"}},{"type":"Feature","geometry":{"type":"LineString","coordinates":[[116.2370202,23.569681],[116.2363769,23.5693277],[116.2356445,23.5688759],[116.2348985,23.5683537],[116.2341356,23.5677656],[116.2335228,23.5672316],[116.2329358,23.5666519],[116.2323927,23.5660364],[116.2258014,23.5580273],[116.2252595,23.5574306],[116.2247566,23.5568961],[116.2242598,23.5564013],[116.2237153,23.5559062],[116.2231916,23.5554844],[116.2226618,23.5550626],[116.222028,23.5546219],[116.2213854,23.5542086],[116.2205906,23.5537404],[116.2116307,23.5487261]]},"properties":{"key":"way:1458519997@detail:464_94","osmType":"way","osmId":1458519997,"sourceRegion":"guangdong","featureType":"infrastructure","railClass":"construction","mode":"construction","name":"揭惠铁路","usage":"main","bridge":"yes","status":"construction","color":"#E54848","dataOrigin":"datum-2026-08-01","sourceKey":"way:1458519997"}},{"type":"Feature","geometry":{"type":"LineString","coordinates":[[116.2116307,23.5487261],[116.1936781,23.5386837]]},"properties":{"key":"way:1458519998@detail:464_94","osmType":"way","osmId":1458519998,"sourceRegion":"guangdong","featureType":"infrastructure","railClass":"construction","mode":"construction","name":"揭惠铁路","usage":"main","status":"construction","color":"#E54848","dataOrigin":"datum-2026-08-01","sourceKey":"way:1458519998"}},{"type":"Feature","geometry":{"type":"LineString","coordinates":[[116.1936781,23.5386837],[116.1891211,23.5361119]]},"properties":{"key":"way:1458519999@detail:464_94","osmType":"way","osmId":1458519999,"sourceRegion":"guangdong","featureType":"infrastructure","railClass":"construction","mode":"construction","name":"揭惠铁路","usage":"main","bridge":"yes","status":"construction","color":"#E54848","dataOrigin":"datum-2026-08-01","sourceKey":"way:1458519999"}},{"type":"Feature","geometry":{"type":"LineString","coordinates":[[116.1891211,23.5361119],[116.1871578,23.5350039]]},"properties":{"key":"way:1458520000@detail:464_94","osmType":"way","osmId":1458520000,"sourceRegion":"guangdong","featureType":"infrastructure","railClass":"construction","mode":"construction","name":"揭惠铁路","usage":"main","status":"construction","color":"#E54848","dataOrigin":"datum-2026-08-01","sourceKey":"way:1458520000"}},{"type":"Feature","geometry":{"type":"LineString","coordinates":[[116.1871578,23.5350039],[116.1836481,23.5330414]]},"properties":{"key":"way:1458520001@detail:464_94","osmType":"way","osmId":1458520001,"sourceRegion":"guangdong","featureType":"infrastructure","railClass":"construction","mode":"construction","name":"揭惠铁路","usage":"main","bridge":"yes","status":"construction","color":"#E54848","dataOrigin":"datum-2026-08-01","sourceKey":"way:1458520001"}},{"type":"Feature","geometry":{"type":"LineString","coordinates":[[116.1836481,23.5330414],[116.1818143,23.5319943]]},"properties":{"key":"way:1458520002@detail:464_94","osmType":"way","osmId":1458520002,"sourceRegion":"guangdong","featureType":"infrastructure","railClass":"construction","mode":"construction","name":"揭惠铁路","usage":"main","status":"construction","color":"#E54848","dataOrigin":"datum-2026-08-01","sourceKey":"way:1458520002"}},{"type":"Feature","geometry":{"type":"LineString","coordinates":[[116.1818143,23.5319943],[116.1810899,23.5315807]]},"properties":{"key":"way:1458520003@detail:464_94","osmType":"way","osmId":1458520003,"sourceRegion":"guangdong","featureType":"infrastructure","railClass":"construction","mode":"construction","name":"揭惠铁路","usage":"main","bridge":"yes","status":"construction","color":"#E54848","dataOrigin":"datum-2026-08-01","sourceKey":"way:1458520003"}},{"type":"Feature","geometry":{"type":"LineString","coordinates":[[116.1810899,23.5315807],[116.1801139,23.5309799],[116.1792427,23.5303939],[116.1784707,23.5298163],[116.1777359,23.5291933],[116.1770906,23.5285777],[116.1765002,23.5279267],[116.1759315,23.5271847],[116.1753952,23.5264277],[116.1749136,23.5256186],[116.1745407,23.5248604],[116.1741678,23.5240128],[116.1738684,23.5231821],[116.1736576,23.5224529],[116.1734468,23.5215298],[116.1732888,23.5204664]]},"properties":{"key":"way:1458520004@detail:464_94","osmType":"way","osmId":1458520004,"sourceRegion":"guangdong","featureType":"infrastructure","railClass":"construction","mode":"construction","name":"揭惠铁路","usage":"main","status":"construction","color":"#E54848","dataOrigin":"datum-2026-08-01","sourceKey":"way:1458520004"}},{"type":"Feature","geometry":{"type":"LineString","coordinates":[[116.1732888,23.5204664],[116.1731973,23.51969],[116.1731791,23.5188987],[116.1732231,23.5181379],[116.1733125,23.5173804],[116.1749393,23.5067315]]},"properties":{"key":"way:1458520005@detail:464_94","osmType":"way","osmId":1458520005,"sourceRegion":"guangdong","featureType":"infrastructure","railClass":"construction","mode":"construction","name":"揭惠铁路","usage":"main","bridge":"yes","status":"construction","color":"#E54848","dataOrigin":"datum-2026-08-01","sourceKey":"way:1458520005"}},{"type":"Feature","geometry":{"type":"LineString","coordinates":[[116.1749393,23.5067315],[116.1754941,23.5029821]]},"properties":{"key":"way:1458520006@detail:464_94","osmType":"way","osmId":1458520006,"sourceRegion":"guangdong","featureType":"infrastructure","railClass":"construction","mode":"construction","name":"揭惠铁路","usage":"main","status":"construction","color":"#E54848","dataOrigin":"datum-2026-08-01","sourceKey":"way:1458520006"}},{"type":"Feature","geometry":{"type":"LineString","coordinates":[[116.1754941,23.5029821],[116.17594881337284,23.5]]},"properties":{"key":"way:1458520007@detail:464_94","osmType":"way","osmId":1458520007,"sourceRegion":"guangdong","featureType":"infrastructure","railClass":"construction","mode":"construction","name":"揭惠铁路","usage":"main","tunnel":"yes","status":"construction","color":"#E54848","dataOrigin":"datum-2026-08-01","sourceKey":"way:1458520007"}},{"type":"Feature","geometry":{"type":"LineString","coordinates":[[116.2467887,23.6944669],[116.2477287,23.6932645],[116.2479287,23.6930058],[116.25,23.690373520165142]]},"properties":{"key":"way:1496057941@detail:464_94","osmType":"way","osmId":1496057941,"sourceRegion":"guangdong","featureType":"infrastructure","railClass":"national","mode":"rail","name":"畲龙线","ref":"0716","usage":"main","status":"operational","color":"#E54848","dataOrigin":"datum-2026-08-01","sourceKey":"way:1496057941"}}]}