{"type":"FeatureCollection","features":[{"type":"Feature","geometry":{"type":"Point","coordinates":[116.4173818,23.3833607]},"properties":{"key":"node:2832361211","osmType":"node","osmId":2832361211,"sourceRegion":"guangdong","featureType":"station","railClass":"minor","mode":"station","name":"潮阳","nameEn":"Chaoyang","status":"operational","color":"#52636F","dataOrigin":"datum-2026-08-01","sourceKey":"node:2832361211","stationGroup":"潮阳","hasOperationalRail":true,"hasConstructionRail":false}},{"type":"Feature","geometry":{"type":"LineString","coordinates":[[116.3143835,23.336493],[116.3364879,23.3428109],[116.3405496,23.344096],[116.3444557,23.3456414],[116.3492218,23.3480939],[116.3502098,23.3486482],[116.360968,23.3552218]]},"properties":{"key":"way:180311682@detail:465_93","osmType":"way","osmId":180311682,"sourceRegion":"guangdong","featureType":"infrastructure","railClass":"highspeed","mode":"rail","name":"杭深线","nameEn":"Hangzhou-Shenzhen Line","ref":"3009","usage":"main","highspeed":"yes","bridge":"viaduct","status":"operational","color":"#E54848","dataOrigin":"datum-2026-08-01","sourceKey":"way:180311682"}},{"type":"Feature","geometry":{"type":"LineString","coordinates":[[116.4882179,23.4098315],[116.4929067,23.4116363],[116.4976085,23.4141019],[116.5,23.415768411690465]]},"properties":{"key":"way:180311689@detail:465_93","osmType":"way","osmId":180311689,"sourceRegion":"guangdong","featureType":"infrastructure","railClass":"highspeed","mode":"rail","name":"杭深线","nameEn":"Hangzhou-Shenzhen Line","ref":"3009","usage":"main","highspeed":"yes","bridge":"viaduct","status":"operational","color":"#E54848","dataOrigin":"datum-2026-08-01","sourceKey":"way:180311689"}},{"type":"Feature","geometry":{"type":"LineString","coordinates":[[116.4618055,23.4008623],[116.463196,23.4013013]]},"properties":{"key":"way:180311704@detail:465_93","osmType":"way","osmId":180311704,"sourceRegion":"guangdong","featureType":"infrastructure","railClass":"highspeed","mode":"rail","name":"杭深线","nameEn":"Hangzhou-Shenzhen Line","ref":"3009","usage":"main","highspeed":"yes","status":"operational","color":"#E54848","dataOrigin":"datum-2026-08-01","sourceKey":"way:180311704"}},{"type":"Feature","geometry":{"type":"LineString","coordinates":[[116.3791573,23.3660675],[116.3848381,23.3687633]]},"properties":{"key":"way:180311709@detail:465_93","osmType":"way","osmId":180311709,"sourceRegion":"guangdong","featureType":"infrastructure","railClass":"highspeed","mode":"rail","name":"杭深线","nameEn":"Hangzhou-Shenzhen Line","ref":"3009","usage":"main","highspeed":"yes","tunnel":"yes","status":"operational","color":"#E54848","dataOrigin":"datum-2026-08-01","sourceKey":"way:180311709"}},{"type":"Feature","geometry":{"type":"LineString","coordinates":[[116.4591313,23.3999385],[116.4618055,23.4008623]]},"properties":{"key":"way:180311719@detail:465_93","osmType":"way","osmId":180311719,"sourceRegion":"guangdong","featureType":"infrastructure","railClass":"highspeed","mode":"rail","name":"杭深线","nameEn":"Hangzhou-Shenzhen Line","ref":"3009","usage":"main","highspeed":"yes","tunnel":"yes","status":"operational","color":"#E54848","dataOrigin":"datum-2026-08-01","sourceKey":"way:180311719"}},{"type":"Feature","geometry":{"type":"LineString","coordinates":[[116.4358699,23.3918536],[116.4494904,23.3966748]]},"properties":{"key":"way:180311726@detail:465_93","osmType":"way","osmId":180311726,"sourceRegion":"guangdong","featureType":"infrastructure","railClass":"highspeed","mode":"rail","name":"杭深线","nameEn":"Hangzhou-Shenzhen Line","ref":"3009","usage":"main","highspeed":"yes","tunnel":"yes","status":"operational","color":"#E54848","dataOrigin":"datum-2026-08-01","sourceKey":"way:180311726"}},{"type":"Feature","geometry":{"type":"LineString","coordinates":[[116.2687087,23.3221569],[116.2763869,23.3254243]]},"properties":{"key":"way:180311727@detail:465_93","osmType":"way","osmId":180311727,"sourceRegion":"guangdong","featureType":"infrastructure","railClass":"highspeed","mode":"rail","name":"杭深线","nameEn":"Hangzhou-Shenzhen Line","ref":"3009","usage":"main","highspeed":"yes","tunnel":"yes","status":"operational","color":"#E54848","dataOrigin":"datum-2026-08-01","sourceKey":"way:180311727"}},{"type":"Feature","geometry":{"type":"LineString","coordinates":[[116.4550668,23.3985344],[116.4582956,23.3996526],[116.4583622,23.3996754]]},"properties":{"key":"way:180311730@detail:465_93","osmType":"way","osmId":180311730,"sourceRegion":"guangdong","featureType":"infrastructure","railClass":"highspeed","mode":"rail","name":"杭深线","nameEn":"Hangzhou-Shenzhen Line","ref":"3009","usage":"main","highspeed":"yes","bridge":"yes","status":"operational","color":"#E54848","dataOrigin":"datum-2026-08-01","sourceKey":"way:180311730"}},{"type":"Feature","geometry":{"type":"LineString","coordinates":[[116.3848381,23.3687633],[116.3913727,23.371721]]},"properties":{"key":"way:180311734@detail:465_93","osmType":"way","osmId":180311734,"sourceRegion":"guangdong","featureType":"infrastructure","railClass":"highspeed","mode":"rail","name":"杭深线","nameEn":"Hangzhou-Shenzhen Line","ref":"3009","usage":"main","highspeed":"yes","status":"operational","color":"#E54848","dataOrigin":"datum-2026-08-01","sourceKey":"way:180311734"}},{"type":"Feature","geometry":{"type":"LineString","coordinates":[[116.265656,23.3205207],[116.2661448,23.320802],[116.2687087,23.3221569]]},"properties":{"key":"way:180311744@detail:465_93","osmType":"way","osmId":180311744,"sourceRegion":"guangdong","featureType":"infrastructure","railClass":"highspeed","mode":"rail","name":"杭深线","nameEn":"Hangzhou-Shenzhen Line","ref":"3009","usage":"main","highspeed":"yes","status":"operational","color":"#E54848","dataOrigin":"datum-2026-08-01","sourceKey":"way:180311744"}},{"type":"Feature","geometry":{"type":"LineString","coordinates":[[116.25,23.311196092631366],[116.2525025,23.3126942],[116.2552582,23.3143531],[116.2579606,23.3159657],[116.263128,23.3190551],[116.2637781,23.31944]]},"properties":{"key":"way:191990172@detail:465_93","osmType":"way","osmId":191990172,"sourceRegion":"guangdong","featureType":"infrastructure","railClass":"highspeed","mode":"rail","name":"杭深线","nameEn":"Hangzhou-Shenzhen Line","ref":"3009","usage":"main","highspeed":"yes","bridge":"viaduct","status":"operational","color":"#E54848","dataOrigin":"datum-2026-08-01","sourceKey":"way:191990172"}},{"type":"Feature","geometry":{"type":"LineString","coordinates":[[116.2638318,23.3193625],[116.2631824,23.318978],[116.2580152,23.3158887],[116.2553129,23.3142762],[116.2525572,23.3126173],[116.25,23.311086409284904]]},"properties":{"key":"way:631441150@detail:465_93","osmType":"way","osmId":631441150,"sourceRegion":"guangdong","featureType":"infrastructure","railClass":"highspeed","mode":"rail","name":"杭深线","nameEn":"Hangzhou-Shenzhen Line","ref":"3009","usage":"main","highspeed":"yes","bridge":"viaduct","status":"operational","color":"#E54848","dataOrigin":"datum-2026-08-01","sourceKey":"way:631441150"}},{"type":"Feature","geometry":{"type":"LineString","coordinates":[[116.2687548,23.3220752],[116.2661963,23.3207232],[116.2657384,23.3204597]]},"properties":{"key":"way:631441151@detail:465_93","osmType":"way","osmId":631441151,"sourceRegion":"guangdong","featureType":"infrastructure","railClass":"highspeed","mode":"rail","name":"杭深线","nameEn":"Hangzhou-Shenzhen Line","ref":"3009","usage":"main","highspeed":"yes","status":"operational","color":"#E54848","dataOrigin":"datum-2026-08-01","sourceKey":"way:631441151"}},{"type":"Feature","geometry":{"type":"LineString","coordinates":[[116.276425,23.3253392],[116.2687548,23.3220752]]},"properties":{"key":"way:631441152@detail:465_93","osmType":"way","osmId":631441152,"sourceRegion":"guangdong","featureType":"infrastructure","railClass":"highspeed","mode":"rail","name":"杭深线","nameEn":"Hangzhou-Shenzhen Line","ref":"3009","usage":"main","highspeed":"yes","tunnel":"yes","status":"operational","color":"#E54848","dataOrigin":"datum-2026-08-01","sourceKey":"way:631441152"}},{"type":"Feature","geometry":{"type":"LineString","coordinates":[[116.3610222,23.3551446],[116.3502636,23.3485707],[116.3492724,23.3480146],[116.3445001,23.3455589],[116.3405857,23.3440103],[116.3365191,23.3427236],[116.314399,23.3364013]]},"properties":{"key":"way:631441153@detail:465_93","osmType":"way","osmId":631441153,"sourceRegion":"guangdong","featureType":"infrastructure","railClass":"highspeed","mode":"rail","name":"杭深线","nameEn":"Hangzhou-Shenzhen Line","ref":"3009","usage":"main","highspeed":"yes","bridge":"viaduct","status":"operational","color":"#E54848","dataOrigin":"datum-2026-08-01","sourceKey":"way:631441153"}},{"type":"Feature","geometry":{"type":"LineString","coordinates":[[116.3848832,23.3686813],[116.3792032,23.3659859]]},"properties":{"key":"way:631441154@detail:465_93","osmType":"way","osmId":631441154,"sourceRegion":"guangdong","featureType":"infrastructure","railClass":"highspeed","mode":"rail","name":"杭深线","nameEn":"Hangzhou-Shenzhen Line","ref":"3009","usage":"main","highspeed":"yes","tunnel":"yes","status":"operational","color":"#E54848","dataOrigin":"datum-2026-08-01","sourceKey":"way:631441154"}},{"type":"Feature","geometry":{"type":"LineString","coordinates":[[116.424616,23.3867346],[116.4118726,23.3810482],[116.4100709,23.3800813]]},"properties":{"key":"way:631441155@detail:465_93","osmType":"way","osmId":631441155,"sourceRegion":"guangdong","featureType":"infrastructure","railClass":"highspeed","mode":"rail","name":"杭深线","nameEn":"Hangzhou-Shenzhen Line","ref":"3009","usage":"main","highspeed":"yes","status":"operational","color":"#E54848","dataOrigin":"datum-2026-08-01","sourceKey":"way:631441155"}},{"type":"Feature","geometry":{"type":"LineString","coordinates":[[116.4495255,23.3965888],[116.4359101,23.3917694]]},"properties":{"key":"way:631441156@detail:465_93","osmType":"way","osmId":631441156,"sourceRegion":"guangdong","featureType":"infrastructure","railClass":"highspeed","mode":"rail","name":"杭深线","nameEn":"Hangzhou-Shenzhen Line","ref":"3009","usage":"main","highspeed":"yes","tunnel":"yes","status":"operational","color":"#E54848","dataOrigin":"datum-2026-08-01","sourceKey":"way:631441156"}},{"type":"Feature","geometry":{"type":"LineString","coordinates":[[116.4583921,23.3995851],[116.4551015,23.3984483]]},"properties":{"key":"way:631441157@detail:465_93","osmType":"way","osmId":631441157,"sourceRegion":"guangdong","featureType":"infrastructure","railClass":"highspeed","mode":"rail","name":"杭深线","nameEn":"Hangzhou-Shenzhen Line","ref":"3009","usage":"main","highspeed":"yes","bridge":"yes","status":"operational","color":"#E54848","dataOrigin":"datum-2026-08-01","sourceKey":"way:631441157"}},{"type":"Feature","geometry":{"type":"LineString","coordinates":[[116.4618394,23.4007759],[116.4591665,23.3998526]]},"properties":{"key":"way:631441158@detail:465_93","osmType":"way","osmId":631441158,"sourceRegion":"guangdong","featureType":"infrastructure","railClass":"highspeed","mode":"rail","name":"杭深线","nameEn":"Hangzhou-Shenzhen Line","ref":"3009","usage":"main","highspeed":"yes","tunnel":"yes","status":"operational","color":"#E54848","dataOrigin":"datum-2026-08-01","sourceKey":"way:631441158"}},{"type":"Feature","geometry":{"type":"LineString","coordinates":[[116.4632285,23.4012145],[116.4618394,23.4007759]]},"properties":{"key":"way:631441159@detail:465_93","osmType":"way","osmId":631441159,"sourceRegion":"guangdong","featureType":"infrastructure","railClass":"highspeed","mode":"rail","name":"杭深线","nameEn":"Hangzhou-Shenzhen Line","ref":"3009","usage":"main","highspeed":"yes","status":"operational","color":"#E54848","dataOrigin":"datum-2026-08-01","sourceKey":"way:631441159"}},{"type":"Feature","geometry":{"type":"LineString","coordinates":[[116.5,23.415653153985872],[116.4976638,23.4140252],[116.492951,23.4115538],[116.488256,23.4097466]]},"properties":{"key":"way:631441160@detail:465_93","osmType":"way","osmId":631441160,"sourceRegion":"guangdong","featureType":"infrastructure","railClass":"highspeed","mode":"rail","name":"杭深线","nameEn":"Hangzhou-Shenzhen Line","ref":"3009","usage":"main","highspeed":"yes","bridge":"viaduct","status":"operational","color":"#E54848","dataOrigin":"datum-2026-08-01","sourceKey":"way:631441160"}},{"type":"Feature","geometry":{"type":"LineString","coordinates":[[116.3620715,23.355896],[116.3648806,23.3576124]]},"properties":{"key":"way:685437580@detail:465_93","osmType":"way","osmId":685437580,"sourceRegion":"guangdong","featureType":"infrastructure","railClass":"highspeed","mode":"rail","name":"杭深线","nameEn":"Hangzhou-Shenzhen Line","ref":"3009","usage":"main","highspeed":"yes","tunnel":"yes","status":"operational","color":"#E54848","dataOrigin":"datum-2026-08-01","sourceKey":"way:685437580"}},{"type":"Feature","geometry":{"type":"LineString","coordinates":[[116.3649361,23.357536],[116.3621258,23.3558189]]},"properties":{"key":"way:685437589@detail:465_93","osmType":"way","osmId":685437589,"sourceRegion":"guangdong","featureType":"infrastructure","railClass":"highspeed","mode":"rail","name":"杭深线","nameEn":"Hangzhou-Shenzhen Line","ref":"3009","usage":"main","highspeed":"yes","tunnel":"yes","status":"operational","color":"#E54848","dataOrigin":"datum-2026-08-01","sourceKey":"way:685437589"}},{"type":"Feature","geometry":{"type":"LineString","coordinates":[[116.3621258,23.3558189],[116.3610222,23.3551446]]},"properties":{"key":"way:685437595@detail:465_93","osmType":"way","osmId":685437595,"sourceRegion":"guangdong","featureType":"infrastructure","railClass":"highspeed","mode":"rail","name":"杭深线","nameEn":"Hangzhou-Shenzhen Line","ref":"3009","usage":"main","highspeed":"yes","status":"operational","color":"#E54848","dataOrigin":"datum-2026-08-01","sourceKey":"way:685437595"}},{"type":"Feature","geometry":{"type":"LineString","coordinates":[[116.360968,23.3552218],[116.3620715,23.355896]]},"properties":{"key":"way:685437601@detail:465_93","osmType":"way","osmId":685437601,"sourceRegion":"guangdong","featureType":"infrastructure","railClass":"highspeed","mode":"rail","name":"杭深线","nameEn":"Hangzhou-Shenzhen Line","ref":"3009","usage":"main","highspeed":"yes","status":"operational","color":"#E54848","dataOrigin":"datum-2026-08-01","sourceKey":"way:685437601"}},{"type":"Feature","geometry":{"type":"LineString","coordinates":[[116.3657247,23.35813],[116.3723146,23.3621709],[116.3765913,23.3648541],[116.3779192,23.365482]]},"properties":{"key":"way:685437606@detail:465_93","osmType":"way","osmId":685437606,"sourceRegion":"guangdong","featureType":"infrastructure","railClass":"highspeed","mode":"rail","name":"杭深线","nameEn":"Hangzhou-Shenzhen Line","ref":"3009","usage":"main","highspeed":"yes","bridge":"yes","status":"operational","color":"#E54848","dataOrigin":"datum-2026-08-01","sourceKey":"way:685437606"}},{"type":"Feature","geometry":{"type":"LineString","coordinates":[[116.3779597,23.3653979],[116.3766426,23.3647751],[116.3723706,23.3620948],[116.3657803,23.3580536]]},"properties":{"key":"way:685437611@detail:465_93","osmType":"way","osmId":685437611,"sourceRegion":"guangdong","featureType":"infrastructure","railClass":"highspeed","mode":"rail","name":"杭深线","nameEn":"Hangzhou-Shenzhen Line","ref":"3009","usage":"main","highspeed":"yes","bridge":"yes","status":"operational","color":"#E54848","dataOrigin":"datum-2026-08-01","sourceKey":"way:685437611"}},{"type":"Feature","geometry":{"type":"LineString","coordinates":[[116.2763869,23.3254243],[116.2799446,23.3266004],[116.2801705,23.3266659]]},"properties":{"key":"way:685437636@detail:465_93","osmType":"way","osmId":685437636,"sourceRegion":"guangdong","featureType":"infrastructure","railClass":"highspeed","mode":"rail","name":"杭深线","nameEn":"Hangzhou-Shenzhen Line","ref":"3009","usage":"main","highspeed":"yes","status":"operational","color":"#E54848","dataOrigin":"datum-2026-08-01","sourceKey":"way:685437636"}},{"type":"Feature","geometry":{"type":"LineString","coordinates":[[116.314399,23.3364013],[116.3118913,23.3356845],[116.3032146,23.3332169]]},"properties":{"key":"way:685437644@detail:465_93","osmType":"way","osmId":685437644,"sourceRegion":"guangdong","featureType":"infrastructure","railClass":"highspeed","mode":"rail","name":"杭深线","nameEn":"Hangzhou-Shenzhen Line","ref":"3009","usage":"main","highspeed":"yes","status":"operational","color":"#E54848","dataOrigin":"datum-2026-08-01","sourceKey":"way:685437644"}},{"type":"Feature","geometry":{"type":"LineString","coordinates":[[116.4009007,23.3760334],[116.4100267,23.3801637]]},"properties":{"key":"way:904365510@detail:465_93","osmType":"way","osmId":904365510,"sourceRegion":"guangdong","featureType":"infrastructure","railClass":"highspeed","mode":"rail","name":"杭深线","nameEn":"Hangzhou-Shenzhen Line","ref":"3009","usage":"main","highspeed":"yes","bridge":"yes","status":"operational","color":"#E54848","dataOrigin":"datum-2026-08-01","sourceKey":"way:904365510"}},{"type":"Feature","geometry":{"type":"LineString","coordinates":[[116.4009349,23.3759464],[116.394387,23.3729828]]},"properties":{"key":"way:904365511@detail:465_93","osmType":"way","osmId":904365511,"sourceRegion":"guangdong","featureType":"infrastructure","railClass":"highspeed","mode":"rail","name":"杭深线","nameEn":"Hangzhou-Shenzhen Line","ref":"3009","usage":"main","highspeed":"yes","status":"operational","color":"#E54848","dataOrigin":"datum-2026-08-01","sourceKey":"way:904365511"}},{"type":"Feature","geometry":{"type":"LineString","coordinates":[[116.4100267,23.3801637],[116.4118401,23.3811079],[116.4245727,23.386829]]},"properties":{"key":"way:904365512@detail:465_93","osmType":"way","osmId":904365512,"sourceRegion":"guangdong","featureType":"infrastructure","railClass":"highspeed","mode":"rail","name":"杭深线","nameEn":"Hangzhou-Shenzhen Line","ref":"3009","usage":"main","highspeed":"yes","status":"operational","color":"#E54848","dataOrigin":"datum-2026-08-01","sourceKey":"way:904365512"}},{"type":"Feature","geometry":{"type":"LineString","coordinates":[[116.4100709,23.3800813],[116.4009349,23.3759464]]},"properties":{"key":"way:904365513@detail:465_93","osmType":"way","osmId":904365513,"sourceRegion":"guangdong","featureType":"infrastructure","railClass":"highspeed","mode":"rail","name":"杭深线","nameEn":"Hangzhou-Shenzhen Line","ref":"3009","usage":"main","highspeed":"yes","bridge":"yes","status":"operational","color":"#E54848","dataOrigin":"datum-2026-08-01","sourceKey":"way:904365513"}},{"type":"Feature","geometry":{"type":"LineString","coordinates":[[116.4287611,23.3886533],[116.424616,23.3867346]]},"properties":{"key":"way:904365538@detail:465_93","osmType":"way","osmId":904365538,"sourceRegion":"guangdong","featureType":"infrastructure","railClass":"highspeed","mode":"rail","name":"杭深线","nameEn":"Hangzhou-Shenzhen Line","ref":"3009","usage":"main","highspeed":"yes","bridge":"yes","status":"operational","color":"#E54848","dataOrigin":"datum-2026-08-01","sourceKey":"way:904365538"}},{"type":"Feature","geometry":{"type":"LineString","coordinates":[[116.4287293,23.3887264],[116.4358699,23.3918536]]},"properties":{"key":"way:904365539@detail:465_93","osmType":"way","osmId":904365539,"sourceRegion":"guangdong","featureType":"infrastructure","railClass":"highspeed","mode":"rail","name":"杭深线","nameEn":"Hangzhou-Shenzhen Line","ref":"3009","usage":"main","highspeed":"yes","status":"operational","color":"#E54848","dataOrigin":"datum-2026-08-01","sourceKey":"way:904365539"}},{"type":"Feature","geometry":{"type":"LineString","coordinates":[[116.4359101,23.3917694],[116.4287611,23.3886533]]},"properties":{"key":"way:904365540@detail:465_93","osmType":"way","osmId":904365540,"sourceRegion":"guangdong","featureType":"infrastructure","railClass":"highspeed","mode":"rail","name":"杭深线","nameEn":"Hangzhou-Shenzhen Line","ref":"3009","usage":"main","highspeed":"yes","status":"operational","color":"#E54848","dataOrigin":"datum-2026-08-01","sourceKey":"way:904365540"}},{"type":"Feature","geometry":{"type":"LineString","coordinates":[[116.4245727,23.386829],[116.4287293,23.3887264]]},"properties":{"key":"way:904365541@detail:465_93","osmType":"way","osmId":904365541,"sourceRegion":"guangdong","featureType":"infrastructure","railClass":"highspeed","mode":"rail","name":"杭深线","nameEn":"Hangzhou-Shenzhen Line","ref":"3009","usage":"main","highspeed":"yes","bridge":"yes","status":"operational","color":"#E54848","dataOrigin":"datum-2026-08-01","sourceKey":"way:904365541"}},{"type":"Feature","geometry":{"type":"LineString","coordinates":[[116.478097,23.4063377],[116.4795569,23.4068532],[116.4797105,23.4069039]]},"properties":{"key":"way:1121076102@detail:465_93","osmType":"way","osmId":1121076102,"sourceRegion":"guangdong","featureType":"infrastructure","railClass":"highspeed","mode":"rail","name":"杭深线","nameEn":"Hangzhou-Shenzhen Line","ref":"3009","usage":"main","highspeed":"yes","bridge":"yes","status":"operational","color":"#E54848","dataOrigin":"datum-2026-08-01","sourceKey":"way:1121076102"}},{"type":"Feature","geometry":{"type":"LineString","coordinates":[[116.4871548,23.4093227],[116.4860675,23.4089042],[116.4853453,23.4086659]]},"properties":{"key":"way:1121076103@detail:465_93","osmType":"way","osmId":1121076103,"sourceRegion":"guangdong","featureType":"infrastructure","railClass":"highspeed","mode":"rail","name":"杭深线","nameEn":"Hangzhou-Shenzhen Line","ref":"3009","usage":"main","highspeed":"yes","status":"operational","color":"#E54848","dataOrigin":"datum-2026-08-01","sourceKey":"way:1121076103"}},{"type":"Feature","geometry":{"type":"LineString","coordinates":[[116.2651684,23.3202401],[116.265656,23.3205207]]},"properties":{"key":"way:1340562378@detail:465_93","osmType":"way","osmId":1340562378,"sourceRegion":"guangdong","featureType":"infrastructure","railClass":"highspeed","mode":"rail","name":"杭深线","nameEn":"Hangzhou-Shenzhen Line","ref":"3009","usage":"main","highspeed":"yes","bridge":"yes","status":"operational","color":"#E54848","dataOrigin":"datum-2026-08-01","sourceKey":"way:1340562378"}},{"type":"Feature","geometry":{"type":"LineString","coordinates":[[116.2657384,23.3204597],[116.2652811,23.3201966]]},"properties":{"key":"way:1340562379@detail:465_93","osmType":"way","osmId":1340562379,"sourceRegion":"guangdong","featureType":"infrastructure","railClass":"highspeed","mode":"rail","name":"杭深线","nameEn":"Hangzhou-Shenzhen Line","ref":"3009","usage":"main","highspeed":"yes","bridge":"yes","status":"operational","color":"#E54848","dataOrigin":"datum-2026-08-01","sourceKey":"way:1340562379"}},{"type":"Feature","geometry":{"type":"LineString","coordinates":[[116.2652811,23.3201966],[116.2638318,23.3193625]]},"properties":{"key":"way:1340562380@detail:465_93","osmType":"way","osmId":1340562380,"sourceRegion":"guangdong","featureType":"infrastructure","railClass":"highspeed","mode":"rail","name":"杭深线","nameEn":"Hangzhou-Shenzhen Line","ref":"3009","usage":"main","highspeed":"yes","status":"operational","color":"#E54848","dataOrigin":"datum-2026-08-01","sourceKey":"way:1340562380"}},{"type":"Feature","geometry":{"type":"LineString","coordinates":[[116.2637781,23.31944],[116.2651684,23.3202401]]},"properties":{"key":"way:1340562381@detail:465_93","osmType":"way","osmId":1340562381,"sourceRegion":"guangdong","featureType":"infrastructure","railClass":"highspeed","mode":"rail","name":"杭深线","nameEn":"Hangzhou-Shenzhen Line","ref":"3009","usage":"main","highspeed":"yes","status":"operational","color":"#E54848","dataOrigin":"datum-2026-08-01","sourceKey":"way:1340562381"}},{"type":"Feature","geometry":{"type":"LineString","coordinates":[[116.394387,23.3729828],[116.3914155,23.3716379]]},"properties":{"key":"way:1340565706@detail:465_93","osmType":"way","osmId":1340565706,"sourceRegion":"guangdong","featureType":"infrastructure","railClass":"highspeed","mode":"rail","name":"杭深线","nameEn":"Hangzhou-Shenzhen Line","ref":"3009","usage":"main","highspeed":"yes","bridge":"yes","status":"operational","color":"#E54848","dataOrigin":"datum-2026-08-01","sourceKey":"way:1340565706"}},{"type":"Feature","geometry":{"type":"LineString","coordinates":[[116.3943444,23.373066],[116.4009007,23.3760334]]},"properties":{"key":"way:1340565707@detail:465_93","osmType":"way","osmId":1340565707,"sourceRegion":"guangdong","featureType":"infrastructure","railClass":"highspeed","mode":"rail","name":"杭深线","nameEn":"Hangzhou-Shenzhen Line","ref":"3009","usage":"main","highspeed":"yes","status":"operational","color":"#E54848","dataOrigin":"datum-2026-08-01","sourceKey":"way:1340565707"}},{"type":"Feature","geometry":{"type":"LineString","coordinates":[[116.3913727,23.371721],[116.3943444,23.373066]]},"properties":{"key":"way:1340565708@detail:465_93","osmType":"way","osmId":1340565708,"sourceRegion":"guangdong","featureType":"infrastructure","railClass":"highspeed","mode":"rail","name":"杭深线","nameEn":"Hangzhou-Shenzhen Line","ref":"3009","usage":"main","highspeed":"yes","bridge":"yes","status":"operational","color":"#E54848","dataOrigin":"datum-2026-08-01","sourceKey":"way:1340565708"}},{"type":"Feature","geometry":{"type":"LineString","coordinates":[[116.3914155,23.3716379],[116.3848832,23.3686813]]},"properties":{"key":"way:1340565709@detail:465_93","osmType":"way","osmId":1340565709,"sourceRegion":"guangdong","featureType":"infrastructure","railClass":"highspeed","mode":"rail","name":"杭深线","nameEn":"Hangzhou-Shenzhen Line","ref":"3009","usage":"main","highspeed":"yes","status":"operational","color":"#E54848","dataOrigin":"datum-2026-08-01","sourceKey":"way:1340565709"}},{"type":"Feature","geometry":{"type":"LineString","coordinates":[[116.3657803,23.3580536],[116.3649361,23.357536]]},"properties":{"key":"way:1340565710@detail:465_93","osmType":"way","osmId":1340565710,"sourceRegion":"guangdong","featureType":"infrastructure","railClass":"highspeed","mode":"rail","name":"杭深线","nameEn":"Hangzhou-Shenzhen Line","ref":"3009","usage":"main","highspeed":"yes","status":"operational","color":"#E54848","dataOrigin":"datum-2026-08-01","sourceKey":"way:1340565710"}},{"type":"Feature","geometry":{"type":"LineString","coordinates":[[116.3648806,23.3576124],[116.3657247,23.35813]]},"properties":{"key":"way:1340565711@detail:465_93","osmType":"way","osmId":1340565711,"sourceRegion":"guangdong","featureType":"infrastructure","railClass":"highspeed","mode":"rail","name":"杭深线","nameEn":"Hangzhou-Shenzhen Line","ref":"3009","usage":"main","highspeed":"yes","status":"operational","color":"#E54848","dataOrigin":"datum-2026-08-01","sourceKey":"way:1340565711"}},{"type":"Feature","geometry":{"type":"LineString","coordinates":[[116.3792032,23.3659859],[116.3779597,23.3653979]]},"properties":{"key":"way:1340565712@detail:465_93","osmType":"way","osmId":1340565712,"sourceRegion":"guangdong","featureType":"infrastructure","railClass":"highspeed","mode":"rail","name":"杭深线","nameEn":"Hangzhou-Shenzhen Line","ref":"3009","usage":"main","highspeed":"yes","status":"operational","color":"#E54848","dataOrigin":"datum-2026-08-01","sourceKey":"way:1340565712"}},{"type":"Feature","geometry":{"type":"LineString","coordinates":[[116.3779192,23.365482],[116.3791573,23.3660675]]},"properties":{"key":"way:1340565713@detail:465_93","osmType":"way","osmId":1340565713,"sourceRegion":"guangdong","featureType":"infrastructure","railClass":"highspeed","mode":"rail","name":"杭深线","nameEn":"Hangzhou-Shenzhen Line","ref":"3009","usage":"main","highspeed":"yes","status":"operational","color":"#E54848","dataOrigin":"datum-2026-08-01","sourceKey":"way:1340565713"}},{"type":"Feature","geometry":{"type":"LineString","coordinates":[[116.3032146,23.3332169],[116.3024589,23.333002]]},"properties":{"key":"way:1340565714@detail:465_93","osmType":"way","osmId":1340565714,"sourceRegion":"guangdong","featureType":"infrastructure","railClass":"highspeed","mode":"rail","name":"杭深线","nameEn":"Hangzhou-Shenzhen Line","ref":"3009","usage":"main","highspeed":"yes","bridge":"yes","status":"operational","color":"#E54848","dataOrigin":"datum-2026-08-01","sourceKey":"way:1340565714"}},{"type":"Feature","geometry":{"type":"LineString","coordinates":[[116.3024385,23.3330924],[116.3031905,23.3333063]]},"properties":{"key":"way:1340565715@detail:465_93","osmType":"way","osmId":1340565715,"sourceRegion":"guangdong","featureType":"infrastructure","railClass":"highspeed","mode":"rail","name":"杭深线","nameEn":"Hangzhou-Shenzhen Line","ref":"3009","usage":"main","highspeed":"yes","bridge":"yes","status":"operational","color":"#E54848","dataOrigin":"datum-2026-08-01","sourceKey":"way:1340565715"}},{"type":"Feature","geometry":{"type":"LineString","coordinates":[[116.3024589,23.333002],[116.297581,23.3316148],[116.2921226,23.3300331]]},"properties":{"key":"way:1340565716@detail:465_93","osmType":"way","osmId":1340565716,"sourceRegion":"guangdong","featureType":"infrastructure","railClass":"highspeed","mode":"rail","name":"杭深线","nameEn":"Hangzhou-Shenzhen Line","ref":"3009","usage":"main","highspeed":"yes","status":"operational","color":"#E54848","dataOrigin":"datum-2026-08-01","sourceKey":"way:1340565716"}},{"type":"Feature","geometry":{"type":"LineString","coordinates":[[116.2920796,23.330117],[116.2975511,23.3317025],[116.3024385,23.3330924]]},"properties":{"key":"way:1340565717@detail:465_93","osmType":"way","osmId":1340565717,"sourceRegion":"guangdong","featureType":"infrastructure","railClass":"highspeed","mode":"rail","name":"杭深线","nameEn":"Hangzhou-Shenzhen Line","ref":"3009","usage":"main","highspeed":"yes","status":"operational","color":"#E54848","dataOrigin":"datum-2026-08-01","sourceKey":"way:1340565717"}},{"type":"Feature","geometry":{"type":"LineString","coordinates":[[116.2801705,23.3266659],[116.2920796,23.330117]]},"properties":{"key":"way:1340565718@detail:465_93","osmType":"way","osmId":1340565718,"sourceRegion":"guangdong","featureType":"infrastructure","railClass":"highspeed","mode":"rail","name":"杭深线","nameEn":"Hangzhou-Shenzhen Line","ref":"3009","usage":"main","highspeed":"yes","bridge":"yes","status":"operational","color":"#E54848","dataOrigin":"datum-2026-08-01","sourceKey":"way:1340565718"}},{"type":"Feature","geometry":{"type":"LineString","coordinates":[[116.2921226,23.3300331],[116.2801996,23.3265779]]},"properties":{"key":"way:1340565719@detail:465_93","osmType":"way","osmId":1340565719,"sourceRegion":"guangdong","featureType":"infrastructure","railClass":"highspeed","mode":"rail","name":"杭深线","nameEn":"Hangzhou-Shenzhen Line","ref":"3009","usage":"main","highspeed":"yes","bridge":"yes","status":"operational","color":"#E54848","dataOrigin":"datum-2026-08-01","sourceKey":"way:1340565719"}},{"type":"Feature","geometry":{"type":"LineString","coordinates":[[116.2801996,23.3265779],[116.2799766,23.3265133],[116.276425,23.3253392]]},"properties":{"key":"way:1340565720@detail:465_93","osmType":"way","osmId":1340565720,"sourceRegion":"guangdong","featureType":"infrastructure","railClass":"highspeed","mode":"rail","name":"杭深线","nameEn":"Hangzhou-Shenzhen Line","ref":"3009","usage":"main","highspeed":"yes","status":"operational","color":"#E54848","dataOrigin":"datum-2026-08-01","sourceKey":"way:1340565720"}},{"type":"Feature","geometry":{"type":"LineString","coordinates":[[116.3031905,23.3333063],[116.3118616,23.3357722],[116.3143835,23.336493]]},"properties":{"key":"way:1340565721@detail:465_93","osmType":"way","osmId":1340565721,"sourceRegion":"guangdong","featureType":"infrastructure","railClass":"highspeed","mode":"rail","name":"杭深线","nameEn":"Hangzhou-Shenzhen Line","ref":"3009","usage":"main","highspeed":"yes","status":"operational","color":"#E54848","dataOrigin":"datum-2026-08-01","sourceKey":"way:1340565721"}},{"type":"Feature","geometry":{"type":"LineString","coordinates":[[116.4551015,23.3984483],[116.4495255,23.3965888]]},"properties":{"key":"way:1340566379@detail:465_93","osmType":"way","osmId":1340566379,"sourceRegion":"guangdong","featureType":"infrastructure","railClass":"highspeed","mode":"rail","name":"杭深线","nameEn":"Hangzhou-Shenzhen Line","ref":"3009","usage":"main","highspeed":"yes","status":"operational","color":"#E54848","dataOrigin":"datum-2026-08-01","sourceKey":"way:1340566379"}},{"type":"Feature","geometry":{"type":"LineString","coordinates":[[116.4494904,23.3966748],[116.4550668,23.3985344]]},"properties":{"key":"way:1340566380@detail:465_93","osmType":"way","osmId":1340566380,"sourceRegion":"guangdong","featureType":"infrastructure","railClass":"highspeed","mode":"rail","name":"杭深线","nameEn":"Hangzhou-Shenzhen Line","ref":"3009","usage":"main","highspeed":"yes","status":"operational","color":"#E54848","dataOrigin":"datum-2026-08-01","sourceKey":"way:1340566380"}},{"type":"Feature","geometry":{"type":"LineString","coordinates":[[116.4591665,23.3998526],[116.4583921,23.3995851]]},"properties":{"key":"way:1340566381@detail:465_93","osmType":"way","osmId":1340566381,"sourceRegion":"guangdong","featureType":"infrastructure","railClass":"highspeed","mode":"rail","name":"杭深线","nameEn":"Hangzhou-Shenzhen Line","ref":"3009","usage":"main","highspeed":"yes","status":"operational","color":"#E54848","dataOrigin":"datum-2026-08-01","sourceKey":"way:1340566381"}},{"type":"Feature","geometry":{"type":"LineString","coordinates":[[116.4583622,23.3996754],[116.4591313,23.3999385]]},"properties":{"key":"way:1340566382@detail:465_93","osmType":"way","osmId":1340566382,"sourceRegion":"guangdong","featureType":"infrastructure","railClass":"highspeed","mode":"rail","name":"杭深线","nameEn":"Hangzhou-Shenzhen Line","ref":"3009","usage":"main","highspeed":"yes","status":"operational","color":"#E54848","dataOrigin":"datum-2026-08-01","sourceKey":"way:1340566382"}},{"type":"Feature","geometry":{"type":"LineString","coordinates":[[116.488256,23.4097466],[116.4871548,23.4093227]]},"properties":{"key":"way:1340568358@detail:465_93","osmType":"way","osmId":1340568358,"sourceRegion":"guangdong","featureType":"infrastructure","railClass":"highspeed","mode":"rail","name":"杭深线","nameEn":"Hangzhou-Shenzhen Line","ref":"3009","usage":"main","highspeed":"yes","tunnel":"yes","status":"operational","color":"#E54848","dataOrigin":"datum-2026-08-01","sourceKey":"way:1340568358"}},{"type":"Feature","geometry":{"type":"LineString","coordinates":[[116.4871115,23.4094056],[116.4882179,23.4098315]]},"properties":{"key":"way:1340568359@detail:465_93","osmType":"way","osmId":1340568359,"sourceRegion":"guangdong","featureType":"infrastructure","railClass":"highspeed","mode":"rail","name":"杭深线","nameEn":"Hangzhou-Shenzhen Line","ref":"3009","usage":"main","highspeed":"yes","tunnel":"yes","status":"operational","color":"#E54848","dataOrigin":"datum-2026-08-01","sourceKey":"way:1340568359"}},{"type":"Feature","geometry":{"type":"LineString","coordinates":[[116.4853453,23.4086659],[116.4837833,23.4081504]]},"properties":{"key":"way:1340568360@detail:465_93","osmType":"way","osmId":1340568360,"sourceRegion":"guangdong","featureType":"infrastructure","railClass":"highspeed","mode":"rail","name":"杭深线","nameEn":"Hangzhou-Shenzhen Line","ref":"3009","usage":"main","highspeed":"yes","bridge":"viaduct","status":"operational","color":"#E54848","dataOrigin":"datum-2026-08-01","sourceKey":"way:1340568360"}},{"type":"Feature","geometry":{"type":"LineString","coordinates":[[116.4837531,23.408238],[116.485315,23.4087534]]},"properties":{"key":"way:1340568361@detail:465_93","osmType":"way","osmId":1340568361,"sourceRegion":"guangdong","featureType":"infrastructure","railClass":"highspeed","mode":"rail","name":"杭深线","nameEn":"Hangzhou-Shenzhen Line","ref":"3009","usage":"main","highspeed":"yes","bridge":"viaduct","status":"operational","color":"#E54848","dataOrigin":"datum-2026-08-01","sourceKey":"way:1340568361"}},{"type":"Feature","geometry":{"type":"LineString","coordinates":[[116.4781308,23.4062512],[116.4766707,23.4057356]]},"properties":{"key":"way:1340568362@detail:465_93","osmType":"way","osmId":1340568362,"sourceRegion":"guangdong","featureType":"infrastructure","railClass":"highspeed","mode":"rail","name":"杭深线","nameEn":"Hangzhou-Shenzhen Line","ref":"3009","usage":"main","highspeed":"yes","status":"operational","color":"#E54848","dataOrigin":"datum-2026-08-01","sourceKey":"way:1340568362"}},{"type":"Feature","geometry":{"type":"LineString","coordinates":[[116.4766427,23.4058241],[116.478097,23.4063377]]},"properties":{"key":"way:1340568363@detail:465_93","osmType":"way","osmId":1340568363,"sourceRegion":"guangdong","featureType":"infrastructure","railClass":"highspeed","mode":"rail","name":"杭深线","nameEn":"Hangzhou-Shenzhen Line","ref":"3009","usage":"main","highspeed":"yes","status":"operational","color":"#E54848","dataOrigin":"datum-2026-08-01","sourceKey":"way:1340568363"}},{"type":"Feature","geometry":{"type":"LineString","coordinates":[[116.4837833,23.4081504],[116.4797435,23.4068172]]},"properties":{"key":"way:1340568364@detail:465_93","osmType":"way","osmId":1340568364,"sourceRegion":"guangdong","featureType":"infrastructure","railClass":"highspeed","mode":"rail","name":"杭深线","nameEn":"Hangzhou-Shenzhen Line","ref":"3009","usage":"main","highspeed":"yes","status":"operational","color":"#E54848","dataOrigin":"datum-2026-08-01","sourceKey":"way:1340568364"}},{"type":"Feature","geometry":{"type":"LineString","coordinates":[[116.4797105,23.4069039],[116.4837531,23.408238]]},"properties":{"key":"way:1340568365@detail:465_93","osmType":"way","osmId":1340568365,"sourceRegion":"guangdong","featureType":"infrastructure","railClass":"highspeed","mode":"rail","name":"杭深线","nameEn":"Hangzhou-Shenzhen Line","ref":"3009","usage":"main","highspeed":"yes","status":"operational","color":"#E54848","dataOrigin":"datum-2026-08-01","sourceKey":"way:1340568365"}},{"type":"Feature","geometry":{"type":"LineString","coordinates":[[116.4797435,23.4068172],[116.4795918,23.4067671],[116.4781308,23.4062512]]},"properties":{"key":"way:1340568366@detail:465_93","osmType":"way","osmId":1340568366,"sourceRegion":"guangdong","featureType":"infrastructure","railClass":"highspeed","mode":"rail","name":"杭深线","nameEn":"Hangzhou-Shenzhen Line","ref":"3009","usage":"main","highspeed":"yes","bridge":"yes","status":"operational","color":"#E54848","dataOrigin":"datum-2026-08-01","sourceKey":"way:1340568366"}},{"type":"Feature","geometry":{"type":"LineString","coordinates":[[116.485315,23.4087534],[116.4860312,23.4089898],[116.4871115,23.4094056]]},"properties":{"key":"way:1340568367@detail:465_93","osmType":"way","osmId":1340568367,"sourceRegion":"guangdong","featureType":"infrastructure","railClass":"highspeed","mode":"rail","name":"杭深线","nameEn":"Hangzhou-Shenzhen Line","ref":"3009","usage":"main","highspeed":"yes","status":"operational","color":"#E54848","dataOrigin":"datum-2026-08-01","sourceKey":"way:1340568367"}},{"type":"Feature","geometry":{"type":"LineString","coordinates":[[116.4723285,23.4042023],[116.4714947,23.4039079]]},"properties":{"key":"way:1340568368@detail:465_93","osmType":"way","osmId":1340568368,"sourceRegion":"guangdong","featureType":"infrastructure","railClass":"highspeed","mode":"rail","name":"杭深线","nameEn":"Hangzhou-Shenzhen Line","ref":"3009","usage":"main","highspeed":"yes","status":"operational","color":"#E54848","dataOrigin":"datum-2026-08-01","sourceKey":"way:1340568368"}},{"type":"Feature","geometry":{"type":"LineString","coordinates":[[116.47144,23.403987],[116.4722926,23.4042881]]},"properties":{"key":"way:1340568369@detail:465_93","osmType":"way","osmId":1340568369,"sourceRegion":"guangdong","featureType":"infrastructure","railClass":"highspeed","mode":"rail","name":"杭深线","nameEn":"Hangzhou-Shenzhen Line","ref":"3009","usage":"main","highspeed":"yes","status":"operational","color":"#E54848","dataOrigin":"datum-2026-08-01","sourceKey":"way:1340568369"}},{"type":"Feature","geometry":{"type":"LineString","coordinates":[[116.4766707,23.4057356],[116.4723285,23.4042023]]},"properties":{"key":"way:1340568370@detail:465_93","osmType":"way","osmId":1340568370,"sourceRegion":"guangdong","featureType":"infrastructure","railClass":"highspeed","mode":"rail","name":"杭深线","nameEn":"Hangzhou-Shenzhen Line","ref":"3009","usage":"main","highspeed":"yes","tunnel":"yes","status":"operational","color":"#E54848","dataOrigin":"datum-2026-08-01","sourceKey":"way:1340568370"}},{"type":"Feature","geometry":{"type":"LineString","coordinates":[[116.4722926,23.4042881],[116.4766427,23.4058241]]},"properties":{"key":"way:1340568371@detail:465_93","osmType":"way","osmId":1340568371,"sourceRegion":"guangdong","featureType":"infrastructure","railClass":"highspeed","mode":"rail","name":"杭深线","nameEn":"Hangzhou-Shenzhen Line","ref":"3009","usage":"main","highspeed":"yes","tunnel":"yes","status":"operational","color":"#E54848","dataOrigin":"datum-2026-08-01","sourceKey":"way:1340568371"}},{"type":"Feature","geometry":{"type":"LineString","coordinates":[[116.4714947,23.4039079],[116.4692577,23.403118],[116.4632285,23.4012145]]},"properties":{"key":"way:1340568372@detail:465_93","osmType":"way","osmId":1340568372,"sourceRegion":"guangdong","featureType":"infrastructure","railClass":"highspeed","mode":"rail","name":"杭深线","nameEn":"Hangzhou-Shenzhen Line","ref":"3009","usage":"main","highspeed":"yes","bridge":"viaduct","status":"operational","color":"#E54848","dataOrigin":"datum-2026-08-01","sourceKey":"way:1340568372"}},{"type":"Feature","geometry":{"type":"LineString","coordinates":[[116.463196,23.4013013],[116.4692234,23.4032043],[116.47144,23.403987]]},"properties":{"key":"way:1340568373@detail:465_93","osmType":"way","osmId":1340568373,"sourceRegion":"guangdong","featureType":"infrastructure","railClass":"highspeed","mode":"rail","name":"杭深线","nameEn":"Hangzhou-Shenzhen Line","ref":"3009","usage":"main","highspeed":"yes","bridge":"viaduct","status":"operational","color":"#E54848","dataOrigin":"datum-2026-08-01","sourceKey":"way:1340568373"}}]}