{"type":"FeatureCollection","features":[{"type":"Feature","geometry":{"type":"Point","coordinates":[116.2820213,22.996869]},"properties":{"key":"node:10554312395","osmType":"node","osmId":10554312395,"sourceRegion":"guangdong","featureType":"station","railClass":"minor","mode":"station","name":"惠来","status":"operational","color":"#52636F","dataOrigin":"datum-2026-08-01","sourceKey":"node:10554312395","stationGroup":"惠来","hasOperationalRail":true,"hasConstructionRail":false}},{"type":"Feature","geometry":{"type":"LineString","coordinates":[[116.25,22.990469802891237],[116.251552,22.990951],[116.254985,22.991997],[116.2569068,22.9924889],[116.258644,22.992886],[116.2617071,22.9935059],[116.2756676,22.9955871],[116.27978,22.9962002],[116.2884092,22.9974258],[116.3065346028769,23.0]]},"properties":{"key":"way:818797814@detail:465_91","osmType":"way","osmId":818797814,"sourceRegion":"guangdong","featureType":"infrastructure","railClass":"highspeed","mode":"rail","name":"甬广高速线","nameEn":"Ningbo–Guangzhou Highspeed-Railway","ref":"汕汕高速线","usage":"main","highspeed":"yes","bridge":"viaduct","status":"operational","color":"#E54848","dataOrigin":"datum-2026-08-01","sourceKey":"way:818797814"}},{"type":"Feature","geometry":{"type":"LineString","coordinates":[[116.25,22.99075109659998],[116.2527275,22.991604],[116.2552953,22.9923359],[116.2617105,22.9935618],[116.2638791,22.9939346],[116.2647892,22.9940822]]},"properties":{"key":"way:1283321183@detail:465_91","osmType":"way","osmId":1283321183,"sourceRegion":"guangdong","featureType":"infrastructure","railClass":"highspeed","mode":"rail","name":"甬广高速线","nameEn":"Ningbo–Guangzhou Highspeed-Railway","ref":"汕汕高速线","usage":"main","highspeed":"yes","bridge":"viaduct","status":"operational","color":"#E54848","dataOrigin":"datum-2026-08-01","sourceKey":"way:1283321183"}},{"type":"Feature","geometry":{"type":"LineString","coordinates":[[116.2645192,22.9907508],[116.2650177,22.9905436],[116.2655063,22.9903993],[116.2660137,22.9903237],[116.2666189,22.9902784],[116.2672101,22.9902977],[116.267749,22.9903514],[116.2683289,22.9904997],[116.2689111,22.9907284],[116.2694226,22.9909891],[116.2698469,22.9912591],[116.2702526,22.9916022],[116.2723332,22.9934946],[116.2727889,22.9938919],[116.2732816,22.9942383],[116.2738323,22.9945406],[116.2743768,22.9947693],[116.2749727,22.9949467],[116.2756179,22.9950683],[116.2841287,22.9962554]]},"properties":{"key":"way:1313681324@detail:465_91","osmType":"way","osmId":1313681324,"sourceRegion":"guangdong","featureType":"infrastructure","railClass":"construction","mode":"construction","name":"揭惠铁路","usage":"main","bridge":"yes","status":"construction","color":"#E54848","dataOrigin":"datum-2026-08-01","sourceKey":"way:1313681324"}},{"type":"Feature","geometry":{"type":"LineString","coordinates":[[116.26120870754913,23.0],[116.2616627,22.9961307],[116.2618563,22.9944807],[116.2619473,22.9938994]]},"properties":{"key":"way:1458777761@detail:465_91","osmType":"way","osmId":1458777761,"sourceRegion":"guangdong","featureType":"infrastructure","railClass":"construction","mode":"construction","name":"揭惠铁路","usage":"main","status":"construction","color":"#E54848","dataOrigin":"datum-2026-08-01","sourceKey":"way:1458777761"}},{"type":"Feature","geometry":{"type":"LineString","coordinates":[[116.2619473,22.9938994],[116.2621684,22.9931827]]},"properties":{"key":"way:1458777762@detail:465_91","osmType":"way","osmId":1458777762,"sourceRegion":"guangdong","featureType":"infrastructure","railClass":"construction","mode":"construction","name":"揭惠铁路","usage":"main","bridge":"yes","status":"construction","color":"#E54848","dataOrigin":"datum-2026-08-01","sourceKey":"way:1458777762"}},{"type":"Feature","geometry":{"type":"LineString","coordinates":[[116.2621684,22.9931827],[116.2623853,22.9927506],[116.2626398,22.9923251],[116.2629064,22.99197],[116.2632226,22.9916399],[116.2635763,22.9913357],[116.2640301,22.9910182],[116.2645192,22.9907508]]},"properties":{"key":"way:1458777763@detail:465_91","osmType":"way","osmId":1458777763,"sourceRegion":"guangdong","featureType":"infrastructure","railClass":"construction","mode":"construction","name":"揭惠铁路","usage":"main","status":"construction","color":"#E54848","dataOrigin":"datum-2026-08-01","sourceKey":"way:1458777763"}},{"type":"Feature","geometry":{"type":"LineString","coordinates":[[116.2616627,22.9961307],[116.2617981,22.9944765],[116.2618303,22.9938889]]},"properties":{"key":"way:1458777764@detail:465_91","osmType":"way","osmId":1458777764,"sourceRegion":"guangdong","featureType":"infrastructure","railClass":"construction","mode":"construction","name":"大南海支线","usage":"branch","status":"construction","color":"#E54848","dataOrigin":"datum-2026-08-01","sourceKey":"way:1458777764"}},{"type":"Feature","geometry":{"type":"LineString","coordinates":[[116.2618303,22.9938889],[116.2618678,22.993158]]},"properties":{"key":"way:1458777765@detail:465_91","osmType":"way","osmId":1458777765,"sourceRegion":"guangdong","featureType":"infrastructure","railClass":"construction","mode":"construction","name":"大南海支线","usage":"branch","bridge":"yes","status":"construction","color":"#E54848","dataOrigin":"datum-2026-08-01","sourceKey":"way:1458777765"}},{"type":"Feature","geometry":{"type":"LineString","coordinates":[[116.2618678,22.993158],[116.2618893,22.9926543],[116.261866,22.9921463],[116.2617988,22.9916576],[116.2616705,22.9911906],[116.2614993,22.9907433],[116.261264,22.9903434],[116.2609286,22.9898883],[116.2605825,22.9894677],[116.256306,22.9847857],[116.2558431,22.984307],[116.255415,22.9839139],[116.2549141,22.9835196],[116.2544038,22.9832027],[116.2537661,22.9829018],[116.2531552,22.9826602],[116.2525152,22.9824595],[116.25,22.981838050049653]]},"properties":{"key":"way:1458777766@detail:465_91","osmType":"way","osmId":1458777766,"sourceRegion":"guangdong","featureType":"infrastructure","railClass":"construction","mode":"construction","name":"大南海支线","usage":"branch","status":"construction","color":"#E54848","dataOrigin":"datum-2026-08-01","sourceKey":"way:1458777766"}},{"type":"Feature","geometry":{"type":"LineString","coordinates":[[116.2756023,22.99564],[116.276789,22.995869]]},"properties":{"key":"way:1478717246@detail:465_91","osmType":"way","osmId":1478717246,"sourceRegion":"guangdong","featureType":"infrastructure","railClass":"minor","mode":"rail","name":"未命名","service":"crossover","bridge":"yes","status":"operational","color":"#52636F","dataOrigin":"datum-2026-08-01","sourceKey":"way:1478717246"}},{"type":"Feature","geometry":{"type":"LineString","coordinates":[[116.2780443,22.9958937],[116.279313,22.9959925],[116.2802491,22.9960517],[116.2809491,22.9961455],[116.2832692,22.9964715],[116.2840283,22.99659],[116.2847176,22.9967628],[116.2859894,22.9970241]]},"properties":{"key":"way:1478717248@detail:465_91","osmType":"way","osmId":1478717248,"sourceRegion":"guangdong","featureType":"infrastructure","railClass":"minor","mode":"rail","name":"未命名","service":"yard","bridge":"yes","status":"operational","color":"#52636F","dataOrigin":"datum-2026-08-01","sourceKey":"way:1478717248"}},{"type":"Feature","geometry":{"type":"LineString","coordinates":[[116.2884092,22.9974258],[116.2865308,22.9971109],[116.2859894,22.9970241],[116.2852219,22.9969011],[116.2780443,22.9958937],[116.2764966,22.9956715],[116.2756676,22.9955871]]},"properties":{"key":"way:1478717249@detail:465_91","osmType":"way","osmId":1478717249,"sourceRegion":"guangdong","featureType":"infrastructure","railClass":"minor","mode":"rail","name":"未命名","service":"yard","bridge":"yes","status":"operational","color":"#52636F","dataOrigin":"datum-2026-08-01","sourceKey":"way:1478717249"}},{"type":"Feature","geometry":{"type":"LineString","coordinates":[[116.2710625,22.9952937],[116.2722695,22.9954295],[116.2727576,22.9954591],[116.2734282,22.9954863],[116.2743428,22.9955406],[116.2748927,22.9956048],[116.2757376,22.9957283],[116.276789,22.995869],[116.2781596,22.9960739],[116.2852889,22.9970986]]},"properties":{"key":"way:1478717250@detail:465_91","osmType":"way","osmId":1478717250,"sourceRegion":"guangdong","featureType":"infrastructure","railClass":"minor","mode":"rail","name":"未命名","service":"yard","bridge":"yes","status":"operational","color":"#52636F","dataOrigin":"datum-2026-08-01","sourceKey":"way:1478717250"}},{"type":"Feature","geometry":{"type":"LineString","coordinates":[[116.2867234,22.9972489],[116.2852889,22.9970986],[116.2844467,22.9970369],[116.2840873,22.9970319],[116.2835374,22.9969801],[116.2801981,22.9964961],[116.2796643,22.9963801],[116.2781596,22.9960739]]},"properties":{"key":"way:1478717251@detail:465_91","osmType":"way","osmId":1478717251,"sourceRegion":"guangdong","featureType":"infrastructure","railClass":"minor","mode":"rail","name":"未命名","service":"yard","bridge":"yes","status":"operational","color":"#52636F","dataOrigin":"datum-2026-08-01","sourceKey":"way:1478717251"}},{"type":"Feature","geometry":{"type":"LineString","coordinates":[[116.2647892,22.9940822],[116.2756023,22.99564],[116.2797691,22.9962403],[116.2867234,22.9972489],[116.30569248140621,23.0]]},"properties":{"key":"way:1478717252@detail:465_91","osmType":"way","osmId":1478717252,"sourceRegion":"guangdong","featureType":"infrastructure","railClass":"highspeed","mode":"rail","name":"甬广高速线","nameEn":"Ningbo–Guangzhou Highspeed-Railway","ref":"汕汕高速线","usage":"main","highspeed":"yes","bridge":"viaduct","status":"operational","color":"#E54848","dataOrigin":"datum-2026-08-01","sourceKey":"way:1478717252"}}]}