{"type":"FeatureCollection","features":[{"type":"Feature","geometry":{"type":"LineString","coordinates":[[116.3065346028769,23.0],[116.3233595,23.0023895],[116.329336,23.003217],[116.333027,23.00377],[116.337136,23.004668],[116.341428,23.005952],[116.345311,23.007108],[116.348948,23.008609],[116.352339,23.010209],[116.356158,23.012223],[116.359441,23.014257],[116.362531,23.01639],[116.365471,23.018602],[116.36826,23.02115],[116.3854806,23.036583]]},"properties":{"key":"way:818797814@detail:465_92","osmType":"way","osmId":818797814,"sourceRegion":"guangdong","featureType":"infrastructure","railClass":"highspeed","mode":"rail","name":"甬广高速线","nameEn":"Ningbo–Guangzhou Highspeed-Railway","ref":"汕汕高速线","usage":"main","highspeed":"yes","bridge":"viaduct","status":"operational","color":"#E54848","dataOrigin":"datum-2026-08-01","sourceKey":"way:818797814"}},{"type":"Feature","geometry":{"type":"LineString","coordinates":[[116.3854806,23.036583],[116.3875339,23.0383552],[116.3894693,23.0399035],[116.3907941,23.0408982],[116.4351124,23.0736685],[116.437112,23.0751331],[116.4391697,23.0765278],[116.4412827,23.0778507],[116.443448,23.0791]]},"properties":{"key":"way:906025266@detail:465_92","osmType":"way","osmId":906025266,"sourceRegion":"guangdong","featureType":"infrastructure","railClass":"highspeed","mode":"rail","name":"甬广高速线","nameEn":"Ningbo–Guangzhou Highspeed-Railway","ref":"汕汕高速线","usage":"main","highspeed":"yes","tunnel":"yes","status":"operational","color":"#E54848","dataOrigin":"datum-2026-08-01","sourceKey":"way:906025266"}},{"type":"Feature","geometry":{"type":"LineString","coordinates":[[116.4617427,23.0892736],[116.496806,23.1094435],[116.4989346,23.1107636],[116.5,23.11147924539842]]},"properties":{"key":"way:906025267@detail:465_92","osmType":"way","osmId":906025267,"sourceRegion":"guangdong","featureType":"infrastructure","railClass":"highspeed","mode":"rail","name":"甬广高速线","nameEn":"Ningbo–Guangzhou Highspeed-Railway","ref":"汕汕高速线","usage":"main","highspeed":"yes","tunnel":"yes","status":"operational","color":"#E54848","dataOrigin":"datum-2026-08-01","sourceKey":"way:906025267"}},{"type":"Feature","geometry":{"type":"LineString","coordinates":[[116.443448,23.0791],[116.4470473,23.08107],[116.4617427,23.0892736]]},"properties":{"key":"way:906025268@detail:465_92","osmType":"way","osmId":906025268,"sourceRegion":"guangdong","featureType":"infrastructure","railClass":"highspeed","mode":"rail","name":"甬广高速线","nameEn":"Ningbo–Guangzhou Highspeed-Railway","ref":"汕汕高速线","usage":"main","highspeed":"yes","bridge":"viaduct","status":"operational","color":"#E54848","dataOrigin":"datum-2026-08-01","sourceKey":"way:906025268"}},{"type":"Feature","geometry":{"type":"LineString","coordinates":[[116.25,23.032219481907465],[116.2501087,23.0320059],[116.2506486,23.0308919],[116.2511464,23.0297857],[116.2516045,23.0286985]]},"properties":{"key":"way:1458777758@detail:465_92","osmType":"way","osmId":1458777758,"sourceRegion":"guangdong","featureType":"infrastructure","railClass":"construction","mode":"construction","name":"揭惠铁路","usage":"main","tunnel":"yes","status":"construction","color":"#E54848","dataOrigin":"datum-2026-08-01","sourceKey":"way:1458777758"}},{"type":"Feature","geometry":{"type":"LineString","coordinates":[[116.2516045,23.0286985],[116.2518382,23.028104]]},"properties":{"key":"way:1458777759@detail:465_92","osmType":"way","osmId":1458777759,"sourceRegion":"guangdong","featureType":"infrastructure","railClass":"construction","mode":"construction","name":"揭惠铁路","usage":"main","status":"construction","color":"#E54848","dataOrigin":"datum-2026-08-01","sourceKey":"way:1458777759"}},{"type":"Feature","geometry":{"type":"LineString","coordinates":[[116.2518382,23.028104],[116.2528406,23.0255546],[116.2533399,23.0243714],[116.2537748,23.0234165],[116.2590069,23.0127195],[116.2593148,23.0120042],[116.2595719,23.0113052],[116.259829,23.0104687]]},"properties":{"key":"way:1458777760@detail:465_92","osmType":"way","osmId":1458777760,"sourceRegion":"guangdong","featureType":"infrastructure","railClass":"construction","mode":"construction","name":"揭惠铁路","usage":"main","bridge":"yes","status":"construction","color":"#E54848","dataOrigin":"datum-2026-08-01","sourceKey":"way:1458777760"}},{"type":"Feature","geometry":{"type":"LineString","coordinates":[[116.259829,23.0104687],[116.2600168,23.0096731],[116.2601458,23.0089236],[116.2602544,23.0081334],[116.26120870754913,23.0]]},"properties":{"key":"way:1458777761@detail:465_92","osmType":"way","osmId":1458777761,"sourceRegion":"guangdong","featureType":"infrastructure","railClass":"construction","mode":"construction","name":"揭惠铁路","usage":"main","status":"construction","color":"#E54848","dataOrigin":"datum-2026-08-01","sourceKey":"way:1458777761"}},{"type":"Feature","geometry":{"type":"LineString","coordinates":[[116.30569248140621,23.0],[116.3233315,23.0025582],[116.3293073,23.0033856],[116.3329906,23.0039375],[116.3370858,23.0048325],[116.3413708,23.0061143],[116.3452443,23.0072675],[116.3488677,23.0087629],[116.3522506,23.0103591],[116.35606,23.012368],[116.3593335,23.0143961],[116.3624167,23.0165244],[116.3653467,23.0187289],[116.36813,23.0212717],[116.3854303,23.0366274]]},"properties":{"key":"way:1478717252@detail:465_92","osmType":"way","osmId":1478717252,"sourceRegion":"guangdong","featureType":"infrastructure","railClass":"highspeed","mode":"rail","name":"甬广高速线","nameEn":"Ningbo–Guangzhou Highspeed-Railway","ref":"汕汕高速线","usage":"main","highspeed":"yes","bridge":"viaduct","status":"operational","color":"#E54848","dataOrigin":"datum-2026-08-01","sourceKey":"way:1478717252"}},{"type":"Feature","geometry":{"type":"LineString","coordinates":[[116.3854303,23.0366274],[116.3874096,23.0384819],[116.3893498,23.040034],[116.3906774,23.0410308],[116.4349966,23.0738017],[116.4369992,23.0752685],[116.4390625,23.076667],[116.4411812,23.0779935],[116.4433513,23.0792456]]},"properties":{"key":"way:1478717253@detail:465_92","osmType":"way","osmId":1478717253,"sourceRegion":"guangdong","featureType":"infrastructure","railClass":"highspeed","mode":"rail","name":"甬广高速线","nameEn":"Ningbo–Guangzhou Highspeed-Railway","ref":"汕汕高速线","usage":"main","highspeed":"yes","tunnel":"yes","status":"operational","color":"#E54848","dataOrigin":"datum-2026-08-01","sourceKey":"way:1478717253"}},{"type":"Feature","geometry":{"type":"LineString","coordinates":[[116.4433513,23.0792456],[116.4469518,23.0812162],[116.4616454,23.0894188]]},"properties":{"key":"way:1478717254@detail:465_92","osmType":"way","osmId":1478717254,"sourceRegion":"guangdong","featureType":"infrastructure","railClass":"highspeed","mode":"rail","name":"甬广高速线","nameEn":"Ningbo–Guangzhou Highspeed-Railway","ref":"汕汕高速线","usage":"main","highspeed":"yes","bridge":"viaduct","status":"operational","color":"#E54848","dataOrigin":"datum-2026-08-01","sourceKey":"way:1478717254"}},{"type":"Feature","geometry":{"type":"LineString","coordinates":[[116.4616454,23.0894188],[116.496705,23.1095865],[116.4988281,23.1109032],[116.5,23.111690399380894]]},"properties":{"key":"way:1478717255@detail:465_92","osmType":"way","osmId":1478717255,"sourceRegion":"guangdong","featureType":"infrastructure","railClass":"highspeed","mode":"rail","name":"甬广高速线","nameEn":"Ningbo–Guangzhou Highspeed-Railway","ref":"汕汕高速线","usage":"main","highspeed":"yes","tunnel":"yes","status":"operational","color":"#E54848","dataOrigin":"datum-2026-08-01","sourceKey":"way:1478717255"}}]}