{"type":"FeatureCollection","features":[{"type":"Feature","geometry":{"type":"Point","coordinates":[116.3054815,24.4095887]},"properties":{"key":"node:1620226847","osmType":"node","osmId":1620226847,"sourceRegion":"guangdong","featureType":"station","railClass":"minor","mode":"station","name":"雁洋","nameEn":"Yanyang","status":"operational","color":"#52636F","dataOrigin":"datum-2026-08-01","sourceKey":"node:1620226847","stationGroup":"雁洋","hasOperationalRail":true,"hasConstructionRail":false}},{"type":"Feature","geometry":{"type":"Point","coordinates":[116.2547761,24.3736467]},"properties":{"key":"node:9980091035","osmType":"node","osmId":9980091035,"sourceRegion":"guangdong","featureType":"station","railClass":"minor","mode":"station","name":"丙村","status":"operational","color":"#52636F","dataOrigin":"datum-2026-08-01","sourceKey":"node:9980091035","stationGroup":"丙村","hasOperationalRail":true,"hasConstructionRail":false}},{"type":"Feature","geometry":{"type":"LineString","coordinates":[[116.2892918,24.4028873],[116.2963549,24.4060393],[116.2972942,24.4063449],[116.298121,24.40654]]},"properties":{"key":"way:50250463@detail:465_97","osmType":"way","osmId":50250463,"sourceRegion":"guangdong","featureType":"infrastructure","railClass":"national","mode":"rail","name":"漳龙线","ref":"0067","usage":"main","status":"operational","color":"#E54848","dataOrigin":"datum-2026-08-01","sourceKey":"way:50250463"}},{"type":"Feature","geometry":{"type":"LineString","coordinates":[[116.2989466,24.4067063],[116.300391,24.406983],[116.301276,24.407258],[116.30193,24.407516],[116.307901,24.410533],[116.308668,24.411019],[116.309356,24.411595],[116.309986,24.412231],[116.310634,24.413121],[116.312861,24.417093],[116.313494,24.417948],[116.3140867,24.4185981]]},"properties":{"key":"way:148968982@detail:465_97","osmType":"way","osmId":148968982,"sourceRegion":"guangdong","featureType":"infrastructure","railClass":"national","mode":"rail","name":"漳龙线","ref":"0067","usage":"main","status":"operational","color":"#E54848","dataOrigin":"datum-2026-08-01","sourceKey":"way:148968982"}},{"type":"Feature","geometry":{"type":"LineString","coordinates":[[116.3618952,24.4828896],[116.362428,24.484005],[116.363023,24.485165],[116.36327,24.485516],[116.363715,24.486014],[116.364063,24.486309],[116.364626,24.486686],[116.365463,24.487076],[116.3659665,24.4872259],[116.3664864,24.4873155],[116.3674274,24.4873623],[116.372529,24.487318],[116.3811888,24.4872873]]},"properties":{"key":"way:148968984@detail:465_97","osmType":"way","osmId":148968984,"sourceRegion":"guangdong","featureType":"infrastructure","railClass":"national","mode":"rail","name":"漳龙线","ref":"0067","usage":"main","status":"operational","color":"#E54848","dataOrigin":"datum-2026-08-01","sourceKey":"way:148968984"}},{"type":"Feature","geometry":{"type":"LineString","coordinates":[[116.4364493,24.4568985],[116.4369887,24.456762]]},"properties":{"key":"way:148968991@detail:465_97","osmType":"way","osmId":148968991,"sourceRegion":"guangdong","featureType":"infrastructure","railClass":"national","mode":"rail","name":"漳龙线","ref":"0067","usage":"main","status":"operational","color":"#E54848","dataOrigin":"datum-2026-08-01","sourceKey":"way:148968991"}},{"type":"Feature","geometry":{"type":"LineString","coordinates":[[116.298121,24.40654],[116.2989466,24.4067063]]},"properties":{"key":"way:148968992@detail:465_97","osmType":"way","osmId":148968992,"sourceRegion":"guangdong","featureType":"infrastructure","railClass":"national","mode":"rail","name":"漳龙线","ref":"0067","usage":"main","bridge":"yes","status":"operational","color":"#E54848","dataOrigin":"datum-2026-08-01","sourceKey":"way:148968992"}},{"type":"Feature","geometry":{"type":"LineString","coordinates":[[116.4369887,24.456762],[116.4399719,24.4562911],[116.4428687,24.4560372],[116.4451647,24.4556075],[116.4469564,24.4552266],[116.4479255,24.4548766]]},"properties":{"key":"way:148968993@detail:465_97","osmType":"way","osmId":148968993,"sourceRegion":"guangdong","featureType":"infrastructure","railClass":"national","mode":"rail","name":"漳龙线","ref":"0067","usage":"main","tunnel":"yes","status":"operational","color":"#E54848","dataOrigin":"datum-2026-08-01","sourceKey":"way:148968993"}},{"type":"Feature","geometry":{"type":"LineString","coordinates":[[116.3811888,24.4872873],[116.3815491,24.4872827]]},"properties":{"key":"way:148968994@detail:465_97","osmType":"way","osmId":148968994,"sourceRegion":"guangdong","featureType":"infrastructure","railClass":"national","mode":"rail","name":"漳龙线","ref":"0067","usage":"main","bridge":"yes","status":"operational","color":"#E54848","dataOrigin":"datum-2026-08-01","sourceKey":"way:148968994"}},{"type":"Feature","geometry":{"type":"LineString","coordinates":[[116.3981844,24.4817074],[116.4002272,24.4809451]]},"properties":{"key":"way:148968995@detail:465_97","osmType":"way","osmId":148968995,"sourceRegion":"guangdong","featureType":"infrastructure","railClass":"national","mode":"rail","name":"漳龙线","ref":"0067","usage":"main","bridge":"yes","status":"operational","color":"#E54848","dataOrigin":"datum-2026-08-01","sourceKey":"way:148968995"}},{"type":"Feature","geometry":{"type":"LineString","coordinates":[[116.405075,24.4782422],[116.4313453,24.4590367]]},"properties":{"key":"way:148968996@detail:465_97","osmType":"way","osmId":148968996,"sourceRegion":"guangdong","featureType":"infrastructure","railClass":"national","mode":"rail","name":"漳龙线","ref":"0067","usage":"main","tunnel":"yes","status":"operational","color":"#E54848","dataOrigin":"datum-2026-08-01","sourceKey":"way:148968996"}},{"type":"Feature","geometry":{"type":"LineString","coordinates":[[116.4339455,24.4577261],[116.4351328,24.4572635],[116.4364493,24.4568985]]},"properties":{"key":"way:148968997@detail:465_97","osmType":"way","osmId":148968997,"sourceRegion":"guangdong","featureType":"infrastructure","railClass":"national","mode":"rail","name":"漳龙线","ref":"0067","usage":"main","bridge":"yes","status":"operational","color":"#E54848","dataOrigin":"datum-2026-08-01","sourceKey":"way:148968997"}},{"type":"Feature","geometry":{"type":"LineString","coordinates":[[116.3140867,24.4185981],[116.3144097,24.4189866],[116.316459,24.4214635]]},"properties":{"key":"way:148968998@detail:465_97","osmType":"way","osmId":148968998,"sourceRegion":"guangdong","featureType":"infrastructure","railClass":"national","mode":"rail","name":"漳龙线","ref":"0067","usage":"main","tunnel":"yes","status":"operational","color":"#E54848","dataOrigin":"datum-2026-08-01","sourceKey":"way:148968998"}},{"type":"Feature","geometry":{"type":"LineString","coordinates":[[116.3815491,24.4872827],[116.384653,24.48727],[116.385833,24.487148]]},"properties":{"key":"way:148968999@detail:465_97","osmType":"way","osmId":148968999,"sourceRegion":"guangdong","featureType":"infrastructure","railClass":"national","mode":"rail","name":"漳龙线","ref":"0067","usage":"main","status":"operational","color":"#E54848","dataOrigin":"datum-2026-08-01","sourceKey":"way:148968999"}},{"type":"Feature","geometry":{"type":"LineString","coordinates":[[116.2527917,24.3601448],[116.253316,24.361613],[116.253578,24.362686],[116.253651,24.363343],[116.253766,24.367523],[116.253871,24.369016],[116.2542654,24.3716488]]},"properties":{"key":"way:148969000@detail:465_97","osmType":"way","osmId":148969000,"sourceRegion":"guangdong","featureType":"infrastructure","railClass":"national","mode":"rail","name":"漳龙线","ref":"0067","usage":"main","status":"operational","color":"#E54848","dataOrigin":"datum-2026-08-01","sourceKey":"way:148969000"}},{"type":"Feature","geometry":{"type":"LineString","coordinates":[[116.4313453,24.4590367],[116.432599,24.458324],[116.4333863,24.4579789],[116.4339455,24.4577261]]},"properties":{"key":"way:148969001@detail:465_97","osmType":"way","osmId":148969001,"sourceRegion":"guangdong","featureType":"infrastructure","railClass":"national","mode":"rail","name":"漳龙线","ref":"0067","usage":"main","status":"operational","color":"#E54848","dataOrigin":"datum-2026-08-01","sourceKey":"way:148969001"}},{"type":"Feature","geometry":{"type":"LineString","coordinates":[[116.3607963,24.4800574],[116.360978,24.480665],[116.3610582,24.4809261],[116.3618952,24.4828896]]},"properties":{"key":"way:148969002@detail:465_97","osmType":"way","osmId":148969002,"sourceRegion":"guangdong","featureType":"infrastructure","railClass":"national","mode":"rail","name":"漳龙线","ref":"0067","usage":"main","bridge":"yes","status":"operational","color":"#E54848","dataOrigin":"datum-2026-08-01","sourceKey":"way:148969002"}},{"type":"Feature","geometry":{"type":"LineString","coordinates":[[116.385833,24.487148],[116.3868315,24.486814],[116.3877172,24.4863524],[116.3906909,24.4846942]]},"properties":{"key":"way:148969003@detail:465_97","osmType":"way","osmId":148969003,"sourceRegion":"guangdong","featureType":"infrastructure","railClass":"national","mode":"rail","name":"漳龙线","ref":"0067","usage":"main","bridge":"yes","status":"operational","color":"#E54848","dataOrigin":"datum-2026-08-01","sourceKey":"way:148969003"}},{"type":"Feature","geometry":{"type":"LineString","coordinates":[[116.3472823,24.4671627],[116.3487577,24.4678843],[116.3506056,24.4685637],[116.352456,24.468898],[116.354843,24.469249],[116.355415,24.469381],[116.356311,24.469708],[116.356951,24.470066],[116.358939,24.471393],[116.359333,24.471781],[116.35979,24.47235],[116.360146,24.472979],[116.360279,24.473315],[116.360433,24.473839],[116.360573,24.474563],[116.360683,24.479248],[116.3607963,24.4800574]]},"properties":{"key":"way:148969004@detail:465_97","osmType":"way","osmId":148969004,"sourceRegion":"guangdong","featureType":"infrastructure","railClass":"national","mode":"rail","name":"漳龙线","ref":"0067","usage":"main","status":"operational","color":"#E54848","dataOrigin":"datum-2026-08-01","sourceKey":"way:148969004"}},{"type":"Feature","geometry":{"type":"LineString","coordinates":[[116.3906909,24.4846942],[116.391131,24.484511],[116.39191,24.484106],[116.394343,24.483141],[116.3981844,24.4817074]]},"properties":{"key":"way:148969005@detail:465_97","osmType":"way","osmId":148969005,"sourceRegion":"guangdong","featureType":"infrastructure","railClass":"national","mode":"rail","name":"漳龙线","ref":"0067","usage":"main","status":"operational","color":"#E54848","dataOrigin":"datum-2026-08-01","sourceKey":"way:148969005"}},{"type":"Feature","geometry":{"type":"LineString","coordinates":[[116.4002272,24.4809451],[116.401176,24.480591],[116.40232,24.480066],[116.40352,24.479379],[116.405075,24.4782422]]},"properties":{"key":"way:148969006@detail:465_97","osmType":"way","osmId":148969006,"sourceRegion":"guangdong","featureType":"infrastructure","railClass":"national","mode":"rail","name":"漳龙线","ref":"0067","usage":"main","status":"operational","color":"#E54848","dataOrigin":"datum-2026-08-01","sourceKey":"way:148969006"}},{"type":"Feature","geometry":{"type":"LineString","coordinates":[[116.4686526,24.4443363],[116.47045,24.443851],[116.471098,24.443626],[116.471701,24.443354],[116.472245,24.443],[116.472718,24.442585],[116.473099,24.4421],[116.473383,24.441463],[116.473673,24.440394],[116.474253,24.436821],[116.474304,24.435358],[116.474235,24.430153],[116.47416,24.428898],[116.473986,24.427669],[116.473214,24.424803],[116.4731804,24.4239876],[116.4731911,24.423592]]},"properties":{"key":"way:148969007@detail:465_97","osmType":"way","osmId":148969007,"sourceRegion":"guangdong","featureType":"infrastructure","railClass":"national","mode":"rail","name":"漳龙线","ref":"0067","usage":"main","status":"operational","color":"#E54848","dataOrigin":"datum-2026-08-01","sourceKey":"way:148969007"}},{"type":"Feature","geometry":{"type":"LineString","coordinates":[[116.2551059,24.37726],[116.255609,24.380618],[116.255876,24.381719],[116.256218,24.382586],[116.256679,24.383401],[116.257246,24.384154],[116.259358,24.386679],[116.259918,24.38726],[116.260731,24.387918],[116.262031,24.388653],[116.263039,24.389048],[116.265373,24.389731],[116.270188,24.391104],[116.2707974,24.3912637]]},"properties":{"key":"way:253208796@detail:465_97","osmType":"way","osmId":253208796,"sourceRegion":"guangdong","featureType":"infrastructure","railClass":"national","mode":"rail","name":"漳龙线","ref":"0067","usage":"main","status":"operational","color":"#E54848","dataOrigin":"datum-2026-08-01","sourceKey":"way:253208796"}},{"type":"Feature","geometry":{"type":"LineString","coordinates":[[116.2743695,24.3922785],[116.2747772,24.392454],[116.2754068,24.3927989],[116.2759753,24.3931871],[116.2764912,24.3936262],[116.2769559,24.3941653],[116.2783529,24.3960643],[116.2790462,24.3967364],[116.281766,24.399025],[116.283228,24.399985],[116.284786,24.400848],[116.285508,24.401203],[116.287929,24.402223],[116.2892918,24.4028873]]},"properties":{"key":"way:253208797@detail:465_97","osmType":"way","osmId":253208797,"sourceRegion":"guangdong","featureType":"infrastructure","railClass":"national","mode":"rail","name":"漳龙线","ref":"0067","usage":"main","status":"operational","color":"#E54848","dataOrigin":"datum-2026-08-01","sourceKey":"way:253208797"}},{"type":"Feature","geometry":{"type":"LineString","coordinates":[[116.2542654,24.3716488],[116.2543199,24.3720129]]},"properties":{"key":"way:253208800@detail:465_97","osmType":"way","osmId":253208800,"sourceRegion":"guangdong","featureType":"infrastructure","railClass":"national","mode":"rail","name":"漳龙线","ref":"0067","usage":"main","bridge":"yes","status":"operational","color":"#E54848","dataOrigin":"datum-2026-08-01","sourceKey":"way:253208800"}},{"type":"Feature","geometry":{"type":"LineString","coordinates":[[116.2707974,24.3912637],[116.2734133,24.39198],[116.2743695,24.3922785]]},"properties":{"key":"way:253208801@detail:465_97","osmType":"way","osmId":253208801,"sourceRegion":"guangdong","featureType":"infrastructure","railClass":"national","mode":"rail","name":"漳龙线","ref":"0067","usage":"main","bridge":"yes","status":"operational","color":"#E54848","dataOrigin":"datum-2026-08-01","sourceKey":"way:253208801"}},{"type":"Feature","geometry":{"type":"LineString","coordinates":[[116.3245533,24.4315271],[116.3321204,24.4395356]]},"properties":{"key":"way:550298471@detail:465_97","osmType":"way","osmId":550298471,"sourceRegion":"guangdong","featureType":"infrastructure","railClass":"national","mode":"rail","name":"漳龙线","ref":"0067","usage":"main","tunnel":"yes","status":"operational","color":"#E54848","dataOrigin":"datum-2026-08-01","sourceKey":"way:550298471"}},{"type":"Feature","geometry":{"type":"LineString","coordinates":[[116.3321204,24.4395356],[116.333198,24.440818],[116.333398,24.441158],[116.333664,24.441886],[116.334379,24.446516],[116.334635,24.447695],[116.3350927,24.4493227]]},"properties":{"key":"way:550298472@detail:465_97","osmType":"way","osmId":550298472,"sourceRegion":"guangdong","featureType":"infrastructure","railClass":"national","mode":"rail","name":"漳龙线","ref":"0067","usage":"main","status":"operational","color":"#E54848","dataOrigin":"datum-2026-08-01","sourceKey":"way:550298472"}},{"type":"Feature","geometry":{"type":"LineString","coordinates":[[116.3350927,24.4493227],[116.3365632,24.4529192]]},"properties":{"key":"way:550298473@detail:465_97","osmType":"way","osmId":550298473,"sourceRegion":"guangdong","featureType":"infrastructure","railClass":"national","mode":"rail","name":"漳龙线","ref":"0067","usage":"main","tunnel":"yes","status":"operational","color":"#E54848","dataOrigin":"datum-2026-08-01","sourceKey":"way:550298473"}},{"type":"Feature","geometry":{"type":"LineString","coordinates":[[116.316459,24.4214635],[116.3167692,24.4221796],[116.317096,24.423324],[116.317723,24.425096],[116.318119,24.425838],[116.318626,24.426524],[116.320139,24.428126],[116.320638,24.428564],[116.321153,24.428968],[116.32332,24.430388],[116.323983,24.43092],[116.3245533,24.4315271]]},"properties":{"key":"way:550298474@detail:465_97","osmType":"way","osmId":550298474,"sourceRegion":"guangdong","featureType":"infrastructure","railClass":"national","mode":"rail","name":"漳龙线","ref":"0067","usage":"main","status":"operational","color":"#E54848","dataOrigin":"datum-2026-08-01","sourceKey":"way:550298474"}},{"type":"Feature","geometry":{"type":"LineString","coordinates":[[116.449234,24.45395],[116.4498968,24.4533912]]},"properties":{"key":"way:550298475@detail:465_97","osmType":"way","osmId":550298475,"sourceRegion":"guangdong","featureType":"infrastructure","railClass":"national","mode":"rail","name":"漳龙线","ref":"0067","usage":"main","status":"operational","color":"#E54848","dataOrigin":"datum-2026-08-01","sourceKey":"way:550298475"}},{"type":"Feature","geometry":{"type":"LineString","coordinates":[[116.4498968,24.4533912],[116.4508939,24.4527264],[116.4521813,24.4515446],[116.4529195,24.4507791]]},"properties":{"key":"way:550298476@detail:465_97","osmType":"way","osmId":550298476,"sourceRegion":"guangdong","featureType":"infrastructure","railClass":"national","mode":"rail","name":"漳龙线","ref":"0067","usage":"main","tunnel":"yes","status":"operational","color":"#E54848","dataOrigin":"datum-2026-08-01","sourceKey":"way:550298476"}},{"type":"Feature","geometry":{"type":"LineString","coordinates":[[116.4559962,24.4486306],[116.4564041,24.4484476]]},"properties":{"key":"way:550298477@detail:465_97","osmType":"way","osmId":550298477,"sourceRegion":"guangdong","featureType":"infrastructure","railClass":"national","mode":"rail","name":"漳龙线","ref":"0067","usage":"main","status":"operational","color":"#E54848","dataOrigin":"datum-2026-08-01","sourceKey":"way:550298477"}},{"type":"Feature","geometry":{"type":"LineString","coordinates":[[116.4546061,24.4493252],[116.4547404,24.4492522]]},"properties":{"key":"way:550298478@detail:465_97","osmType":"way","osmId":550298478,"sourceRegion":"guangdong","featureType":"infrastructure","railClass":"national","mode":"rail","name":"漳龙线","ref":"0067","usage":"main","status":"operational","color":"#E54848","dataOrigin":"datum-2026-08-01","sourceKey":"way:550298478"}},{"type":"Feature","geometry":{"type":"LineString","coordinates":[[116.4547404,24.4492522],[116.4553585,24.4489165],[116.4559962,24.4486306]]},"properties":{"key":"way:550298479@detail:465_97","osmType":"way","osmId":550298479,"sourceRegion":"guangdong","featureType":"infrastructure","railClass":"national","mode":"rail","name":"漳龙线","ref":"0067","usage":"main","bridge":"yes","status":"operational","color":"#E54848","dataOrigin":"datum-2026-08-01","sourceKey":"way:550298479"}},{"type":"Feature","geometry":{"type":"LineString","coordinates":[[116.4564041,24.4484476],[116.4574564,24.4479522]]},"properties":{"key":"way:550298480@detail:465_97","osmType":"way","osmId":550298480,"sourceRegion":"guangdong","featureType":"infrastructure","railClass":"national","mode":"rail","name":"漳龙线","ref":"0067","usage":"main","bridge":"yes","status":"operational","color":"#E54848","dataOrigin":"datum-2026-08-01","sourceKey":"way:550298480"}},{"type":"Feature","geometry":{"type":"LineString","coordinates":[[116.4574564,24.4479522],[116.4591265,24.4473004]]},"properties":{"key":"way:550298481@detail:465_97","osmType":"way","osmId":550298481,"sourceRegion":"guangdong","featureType":"infrastructure","railClass":"national","mode":"rail","name":"漳龙线","ref":"0067","usage":"main","status":"operational","color":"#E54848","dataOrigin":"datum-2026-08-01","sourceKey":"way:550298481"}},{"type":"Feature","geometry":{"type":"LineString","coordinates":[[116.4600747,24.4469349],[116.4629106,24.4458418]]},"properties":{"key":"way:550298482@detail:465_97","osmType":"way","osmId":550298482,"sourceRegion":"guangdong","featureType":"infrastructure","railClass":"national","mode":"rail","name":"漳龙线","ref":"0067","usage":"main","status":"operational","color":"#E54848","dataOrigin":"datum-2026-08-01","sourceKey":"way:550298482"}},{"type":"Feature","geometry":{"type":"LineString","coordinates":[[116.4591265,24.4473004],[116.4600747,24.4469349]]},"properties":{"key":"way:550298483@detail:465_97","osmType":"way","osmId":550298483,"sourceRegion":"guangdong","featureType":"infrastructure","railClass":"national","mode":"rail","name":"漳龙线","ref":"0067","usage":"main","bridge":"yes","status":"operational","color":"#E54848","dataOrigin":"datum-2026-08-01","sourceKey":"way:550298483"}},{"type":"Feature","geometry":{"type":"LineString","coordinates":[[116.4629106,24.4458418],[116.4634957,24.4456424]]},"properties":{"key":"way:550298484@detail:465_97","osmType":"way","osmId":550298484,"sourceRegion":"guangdong","featureType":"infrastructure","railClass":"national","mode":"rail","name":"漳龙线","ref":"0067","usage":"main","bridge":"yes","status":"operational","color":"#E54848","dataOrigin":"datum-2026-08-01","sourceKey":"way:550298484"}},{"type":"Feature","geometry":{"type":"LineString","coordinates":[[116.4634957,24.4456424],[116.4648976,24.4452735]]},"properties":{"key":"way:550298485@detail:465_97","osmType":"way","osmId":550298485,"sourceRegion":"guangdong","featureType":"infrastructure","railClass":"national","mode":"rail","name":"漳龙线","ref":"0067","usage":"main","status":"operational","color":"#E54848","dataOrigin":"datum-2026-08-01","sourceKey":"way:550298485"}},{"type":"Feature","geometry":{"type":"LineString","coordinates":[[116.4653615,24.4451719],[116.467186,24.4447724]]},"properties":{"key":"way:550298486@detail:465_97","osmType":"way","osmId":550298486,"sourceRegion":"guangdong","featureType":"infrastructure","railClass":"national","mode":"rail","name":"漳龙线","ref":"0067","usage":"main","status":"operational","color":"#E54848","dataOrigin":"datum-2026-08-01","sourceKey":"way:550298486"}},{"type":"Feature","geometry":{"type":"LineString","coordinates":[[116.4648976,24.4452735],[116.4653615,24.4451719]]},"properties":{"key":"way:550298487@detail:465_97","osmType":"way","osmId":550298487,"sourceRegion":"guangdong","featureType":"infrastructure","railClass":"national","mode":"rail","name":"漳龙线","ref":"0067","usage":"main","bridge":"yes","status":"operational","color":"#E54848","dataOrigin":"datum-2026-08-01","sourceKey":"way:550298487"}},{"type":"Feature","geometry":{"type":"LineString","coordinates":[[116.467186,24.4447724],[116.4686526,24.4443363]]},"properties":{"key":"way:550298488@detail:465_97","osmType":"way","osmId":550298488,"sourceRegion":"guangdong","featureType":"infrastructure","railClass":"national","mode":"rail","name":"漳龙线","ref":"0067","usage":"main","bridge":"yes","status":"operational","color":"#E54848","dataOrigin":"datum-2026-08-01","sourceKey":"way:550298488"}},{"type":"Feature","geometry":{"type":"LineString","coordinates":[[116.4479255,24.4548766],[116.448309,24.4546155],[116.449234,24.45395]]},"properties":{"key":"way:550298489@detail:465_97","osmType":"way","osmId":550298489,"sourceRegion":"guangdong","featureType":"infrastructure","railClass":"national","mode":"rail","name":"漳龙线","ref":"0067","usage":"main","bridge":"yes","status":"operational","color":"#E54848","dataOrigin":"datum-2026-08-01","sourceKey":"way:550298489"}},{"type":"Feature","geometry":{"type":"LineString","coordinates":[[116.4737087,24.4220046],[116.4740869,24.4214746],[116.4745617,24.421035],[116.4750311,24.4206589],[116.4755029,24.420414]]},"properties":{"key":"way:550298490@detail:465_97","osmType":"way","osmId":550298490,"sourceRegion":"guangdong","featureType":"infrastructure","railClass":"national","mode":"rail","name":"漳龙线","ref":"0067","usage":"main","status":"operational","color":"#E54848","dataOrigin":"datum-2026-08-01","sourceKey":"way:550298490"}},{"type":"Feature","geometry":{"type":"LineString","coordinates":[[116.4731911,24.423592],[116.4732689,24.4231256],[116.4733547,24.422769],[116.473529,24.4223489],[116.4737087,24.4220046]]},"properties":{"key":"way:550298491@detail:465_97","osmType":"way","osmId":550298491,"sourceRegion":"guangdong","featureType":"infrastructure","railClass":"national","mode":"rail","name":"漳龙线","ref":"0067","usage":"main","bridge":"yes","status":"operational","color":"#E54848","dataOrigin":"datum-2026-08-01","sourceKey":"way:550298491"}},{"type":"Feature","geometry":{"type":"LineString","coordinates":[[116.4755029,24.420414],[116.4759806,24.4202217],[116.4766783,24.4200258]]},"properties":{"key":"way:550298492@detail:465_97","osmType":"way","osmId":550298492,"sourceRegion":"guangdong","featureType":"infrastructure","railClass":"national","mode":"rail","name":"漳龙线","ref":"0067","usage":"main","bridge":"yes","status":"operational","color":"#E54848","dataOrigin":"datum-2026-08-01","sourceKey":"way:550298492"}},{"type":"Feature","geometry":{"type":"LineString","coordinates":[[116.4766783,24.4200258],[116.4778264,24.4197225],[116.4791005,24.4195033],[116.4803359,24.4195409],[116.4822824,24.4197181],[116.4831485,24.4198298],[116.4839221,24.4200002]]},"properties":{"key":"way:550298493@detail:465_97","osmType":"way","osmId":550298493,"sourceRegion":"guangdong","featureType":"infrastructure","railClass":"national","mode":"rail","name":"漳龙线","ref":"0067","usage":"main","status":"operational","color":"#E54848","dataOrigin":"datum-2026-08-01","sourceKey":"way:550298493"}},{"type":"Feature","geometry":{"type":"LineString","coordinates":[[116.4849609,24.4201442],[116.4853576,24.4201998]]},"properties":{"key":"way:550298494@detail:465_97","osmType":"way","osmId":550298494,"sourceRegion":"guangdong","featureType":"infrastructure","railClass":"national","mode":"rail","name":"漳龙线","ref":"0067","usage":"main","bridge":"yes","status":"operational","color":"#E54848","dataOrigin":"datum-2026-08-01","sourceKey":"way:550298494"}},{"type":"Feature","geometry":{"type":"LineString","coordinates":[[116.4844902,24.4200782],[116.4849609,24.4201442]]},"properties":{"key":"way:550298495@detail:465_97","osmType":"way","osmId":550298495,"sourceRegion":"guangdong","featureType":"infrastructure","railClass":"national","mode":"rail","name":"漳龙线","ref":"0067","usage":"main","status":"operational","color":"#E54848","dataOrigin":"datum-2026-08-01","sourceKey":"way:550298495"}},{"type":"Feature","geometry":{"type":"LineString","coordinates":[[116.4839221,24.4200002],[116.4844902,24.4200782]]},"properties":{"key":"way:550298496@detail:465_97","osmType":"way","osmId":550298496,"sourceRegion":"guangdong","featureType":"infrastructure","railClass":"national","mode":"rail","name":"漳龙线","ref":"0067","usage":"main","bridge":"yes","status":"operational","color":"#E54848","dataOrigin":"datum-2026-08-01","sourceKey":"way:550298496"}},{"type":"Feature","geometry":{"type":"LineString","coordinates":[[116.4853576,24.4201998],[116.485986,24.4202697],[116.4865351,24.4202706],[116.4869428,24.4202388],[116.4873639,24.4201802],[116.4878359,24.4200581],[116.4882356,24.4199213],[116.4886862,24.4197138],[116.4891234,24.4194842],[116.4894909,24.4192351],[116.489963,24.418863],[116.491163,24.417891],[116.491984,24.417393],[116.492726,24.417054],[116.494725,24.416258],[116.495398,24.415823],[116.496276,24.41539],[116.4968326,24.4150509]]},"properties":{"key":"way:550298497@detail:465_97","osmType":"way","osmId":550298497,"sourceRegion":"guangdong","featureType":"infrastructure","railClass":"national","mode":"rail","name":"漳龙线","ref":"0067","usage":"main","status":"operational","color":"#E54848","dataOrigin":"datum-2026-08-01","sourceKey":"way:550298497"}},{"type":"Feature","geometry":{"type":"LineString","coordinates":[[116.4968326,24.4150509],[116.497446,24.414749],[116.497957,24.4145651]]},"properties":{"key":"way:550298498@detail:465_97","osmType":"way","osmId":550298498,"sourceRegion":"guangdong","featureType":"infrastructure","railClass":"national","mode":"rail","name":"漳龙线","ref":"0067","usage":"main","bridge":"yes","status":"operational","color":"#E54848","dataOrigin":"datum-2026-08-01","sourceKey":"way:550298498"}},{"type":"Feature","geometry":{"type":"LineString","coordinates":[[116.497957,24.4145651],[116.498306,24.414463],[116.4989743,24.4143926]]},"properties":{"key":"way:550298499@detail:465_97","osmType":"way","osmId":550298499,"sourceRegion":"guangdong","featureType":"infrastructure","railClass":"national","mode":"rail","name":"漳龙线","ref":"0067","usage":"main","status":"operational","color":"#E54848","dataOrigin":"datum-2026-08-01","sourceKey":"way:550298499"}},{"type":"Feature","geometry":{"type":"LineString","coordinates":[[116.4989743,24.4143926],[116.499713,24.4143959]]},"properties":{"key":"way:550298500@detail:465_97","osmType":"way","osmId":550298500,"sourceRegion":"guangdong","featureType":"infrastructure","railClass":"national","mode":"rail","name":"漳龙线","ref":"0067","usage":"main","bridge":"yes","status":"operational","color":"#E54848","dataOrigin":"datum-2026-08-01","sourceKey":"way:550298500"}},{"type":"Feature","geometry":{"type":"LineString","coordinates":[[116.499713,24.4143959],[116.5,24.4143985019397]]},"properties":{"key":"way:550298501@detail:465_97","osmType":"way","osmId":550298501,"sourceRegion":"guangdong","featureType":"infrastructure","railClass":"national","mode":"rail","name":"漳龙线","ref":"0067","usage":"main","status":"operational","color":"#E54848","dataOrigin":"datum-2026-08-01","sourceKey":"way:550298501"}},{"type":"Feature","geometry":{"type":"LineString","coordinates":[[116.4533707,24.4503112],[116.4546061,24.4493252]]},"properties":{"key":"way:1115807129@detail:465_97","osmType":"way","osmId":1115807129,"sourceRegion":"guangdong","featureType":"infrastructure","railClass":"national","mode":"rail","name":"漳龙线","ref":"0067","usage":"main","tunnel":"yes","status":"operational","color":"#E54848","dataOrigin":"datum-2026-08-01","sourceKey":"way:1115807129"}},{"type":"Feature","geometry":{"type":"LineString","coordinates":[[116.4529195,24.4507791],[116.4533707,24.4503112]]},"properties":{"key":"way:1115807130@detail:465_97","osmType":"way","osmId":1115807130,"sourceRegion":"guangdong","featureType":"infrastructure","railClass":"national","mode":"rail","name":"漳龙线","ref":"0067","usage":"main","status":"operational","color":"#E54848","dataOrigin":"datum-2026-08-01","sourceKey":"way:1115807130"}},{"type":"Feature","geometry":{"type":"LineString","coordinates":[[116.3366979,24.4532362],[116.337091,24.4541608]]},"properties":{"key":"way:1126626118@detail:465_97","osmType":"way","osmId":1126626118,"sourceRegion":"guangdong","featureType":"infrastructure","railClass":"national","mode":"rail","name":"漳龙线","ref":"0067","usage":"main","bridge":"yes","status":"operational","color":"#E54848","dataOrigin":"datum-2026-08-01","sourceKey":"way:1126626118"}},{"type":"Feature","geometry":{"type":"LineString","coordinates":[[116.3365632,24.4529192],[116.3366979,24.4532362]]},"properties":{"key":"way:1126626119@detail:465_97","osmType":"way","osmId":1126626119,"sourceRegion":"guangdong","featureType":"infrastructure","railClass":"national","mode":"rail","name":"漳龙线","ref":"0067","usage":"main","status":"operational","color":"#E54848","dataOrigin":"datum-2026-08-01","sourceKey":"way:1126626119"}},{"type":"Feature","geometry":{"type":"LineString","coordinates":[[116.337091,24.4541608],[116.337313,24.454605],[116.340648,24.461084],[116.3407292,24.4612187],[116.340978,24.461616],[116.341488,24.46229],[116.342386,24.463234],[116.34324,24.46394],[116.3461102,24.4662908]]},"properties":{"key":"way:1126736350@detail:465_97","osmType":"way","osmId":1126736350,"sourceRegion":"guangdong","featureType":"infrastructure","railClass":"national","mode":"rail","name":"漳龙线","ref":"0067","usage":"main","status":"operational","color":"#E54848","dataOrigin":"datum-2026-08-01","sourceKey":"way:1126736350"}},{"type":"Feature","geometry":{"type":"LineString","coordinates":[[116.3461102,24.4662908],[116.3472823,24.4671627]]},"properties":{"key":"way:1126736351@detail:465_97","osmType":"way","osmId":1126736351,"sourceRegion":"guangdong","featureType":"infrastructure","railClass":"national","mode":"rail","name":"漳龙线","ref":"0067","usage":"main","bridge":"yes","status":"operational","color":"#E54848","dataOrigin":"datum-2026-08-01","sourceKey":"way:1126736351"}},{"type":"Feature","geometry":{"type":"LineString","coordinates":[[116.2544713,24.3733188],[116.2551059,24.37726]]},"properties":{"key":"way:1131089055@detail:465_97","osmType":"way","osmId":1131089055,"sourceRegion":"guangdong","featureType":"infrastructure","railClass":"national","mode":"rail","name":"漳龙线","ref":"0067","usage":"main","bridge":"yes","status":"operational","color":"#E54848","dataOrigin":"datum-2026-08-01","sourceKey":"way:1131089055"}},{"type":"Feature","geometry":{"type":"LineString","coordinates":[[116.2543199,24.3720129],[116.2544713,24.3733188]]},"properties":{"key":"way:1131089056@detail:465_97","osmType":"way","osmId":1131089056,"sourceRegion":"guangdong","featureType":"infrastructure","railClass":"national","mode":"rail","name":"漳龙线","ref":"0067","usage":"main","status":"operational","color":"#E54848","dataOrigin":"datum-2026-08-01","sourceKey":"way:1131089056"}},{"type":"Feature","geometry":{"type":"LineString","coordinates":[[116.25196,24.351638],[116.251656,24.354651],[116.251646,24.35546],[116.251708,24.356071],[116.25193,24.357723],[116.2521675,24.3585521]]},"properties":{"key":"way:1131089057@detail:465_97","osmType":"way","osmId":1131089057,"sourceRegion":"guangdong","featureType":"infrastructure","railClass":"national","mode":"rail","name":"漳龙线","ref":"0067","usage":"main","status":"operational","color":"#E54848","dataOrigin":"datum-2026-08-01","sourceKey":"way:1131089057"}},{"type":"Feature","geometry":{"type":"LineString","coordinates":[[116.2521675,24.3585521],[116.2527917,24.3601448]]},"properties":{"key":"way:1131089058@detail:465_97","osmType":"way","osmId":1131089058,"sourceRegion":"guangdong","featureType":"infrastructure","railClass":"national","mode":"rail","name":"漳龙线","ref":"0067","usage":"main","bridge":"yes","status":"operational","color":"#E54848","dataOrigin":"datum-2026-08-01","sourceKey":"way:1131089058"}},{"type":"Feature","geometry":{"type":"LineString","coordinates":[[116.25,24.342843999999996],[116.250299,24.343156],[116.250753,24.343803],[116.251099,24.344518],[116.2513219,24.3454253],[116.251978,24.350626],[116.25196,24.351638]]},"properties":{"key":"way:1131089059@detail:465_97","osmType":"way","osmId":1131089059,"sourceRegion":"guangdong","featureType":"infrastructure","railClass":"national","mode":"rail","name":"漳龙线","ref":"0067","usage":"main","status":"operational","color":"#E54848","dataOrigin":"datum-2026-08-01","sourceKey":"way:1131089059"}},{"type":"Feature","geometry":{"type":"LineString","coordinates":[[116.2629484,24.3897819],[116.25957,24.3877163],[116.2592129,24.387471],[116.2588903,24.3871857],[116.2587117,24.3869917],[116.2585551,24.3867863],[116.2584079,24.3865523],[116.2565535,24.3834227],[116.2561996,24.3828321],[116.2559208,24.3823129],[116.2556608,24.3815197],[116.2555831,24.3809815],[116.255609,24.380618]]},"properties":{"key":"way:1281850266@detail:465_97","osmType":"way","osmId":1281850266,"sourceRegion":"guangdong","featureType":"infrastructure","railClass":"national","mode":"rail","name":"未命名","status":"operational","color":"#E54848","dataOrigin":"datum-2026-08-01","sourceKey":"way:1281850266"}}]}