{"type":"FeatureCollection","features":[{"type":"Feature","geometry":{"type":"Point","coordinates":[116.6164827,24.6299413]},"properties":{"key":"node:9980091036","osmType":"node","osmId":9980091036,"sourceRegion":"guangdong","featureType":"station","railClass":"minor","mode":"station","name":"琥市","status":"operational","color":"#52636F","dataOrigin":"datum-2026-08-01","sourceKey":"node:9980091036","stationGroup":"琥市","hasOperationalRail":true,"hasConstructionRail":false}},{"type":"Feature","geometry":{"type":"LineString","coordinates":[[116.6469419,24.5380917],[116.6464468,24.5385404],[116.6456487,24.5391863],[116.644794,24.5396993],[116.6441609,24.540105]]},"properties":{"key":"way:50654440@detail:466_98","osmType":"way","osmId":50654440,"sourceRegion":"guangdong","featureType":"infrastructure","railClass":"national","mode":"rail","name":"漳龙线","ref":"0067","usage":"main","bridge":"yes","status":"operational","color":"#E54848","dataOrigin":"datum-2026-08-01","sourceKey":"way:50654440"}},{"type":"Feature","geometry":{"type":"LineString","coordinates":[[116.621507,24.6671383],[116.6222884,24.6684109],[116.6246584,24.6718546],[116.6251917,24.6728505]]},"properties":{"key":"way:550298411@detail:466_98","osmType":"way","osmId":550298411,"sourceRegion":"guangdong","featureType":"infrastructure","railClass":"national","mode":"rail","name":"漳龙线","ref":"0067","usage":"main","tunnel":"yes","status":"operational","color":"#E54848","dataOrigin":"datum-2026-08-01","sourceKey":"way:550298411"}},{"type":"Feature","geometry":{"type":"LineString","coordinates":[[116.6213838,24.6669051],[116.621507,24.6671383]]},"properties":{"key":"way:550298412@detail:466_98","osmType":"way","osmId":550298412,"sourceRegion":"guangdong","featureType":"infrastructure","railClass":"national","mode":"rail","name":"漳龙线","ref":"0067","usage":"main","status":"operational","color":"#E54848","dataOrigin":"datum-2026-08-01","sourceKey":"way:550298412"}},{"type":"Feature","geometry":{"type":"LineString","coordinates":[[116.6212693,24.6665555],[116.6213838,24.6669051]]},"properties":{"key":"way:550298413@detail:466_98","osmType":"way","osmId":550298413,"sourceRegion":"guangdong","featureType":"infrastructure","railClass":"national","mode":"rail","name":"漳龙线","ref":"0067","usage":"main","bridge":"yes","status":"operational","color":"#E54848","dataOrigin":"datum-2026-08-01","sourceKey":"way:550298413"}},{"type":"Feature","geometry":{"type":"LineString","coordinates":[[116.6228986,24.6575287],[116.6227706,24.6583489],[116.62251,24.659038],[116.6213,24.661446],[116.621111,24.661981],[116.620981,24.66255],[116.620913,24.663433],[116.620968,24.664573],[116.621073,24.665733],[116.6212693,24.6665555]]},"properties":{"key":"way:550298414@detail:466_98","osmType":"way","osmId":550298414,"sourceRegion":"guangdong","featureType":"infrastructure","railClass":"national","mode":"rail","name":"漳龙线","ref":"0067","usage":"main","status":"operational","color":"#E54848","dataOrigin":"datum-2026-08-01","sourceKey":"way:550298414"}},{"type":"Feature","geometry":{"type":"LineString","coordinates":[[116.6203678,24.6348905],[116.6214216,24.638554],[116.6225767,24.6435067],[116.6232633,24.6473292],[116.6233491,24.6527509],[116.6228986,24.6575287]]},"properties":{"key":"way:550298415@detail:466_98","osmType":"way","osmId":550298415,"sourceRegion":"guangdong","featureType":"infrastructure","railClass":"national","mode":"rail","name":"漳龙线","ref":"0067","usage":"main","tunnel":"yes","status":"operational","color":"#E54848","dataOrigin":"datum-2026-08-01","sourceKey":"way:550298415"}},{"type":"Feature","geometry":{"type":"LineString","coordinates":[[116.6147958,24.6283931],[116.6152353,24.628717],[116.6165976,24.6299102],[116.617845,24.631225],[116.61964,24.633458],[116.620061,24.634144],[116.6203678,24.6348905]]},"properties":{"key":"way:550298416@detail:466_98","osmType":"way","osmId":550298416,"sourceRegion":"guangdong","featureType":"infrastructure","railClass":"national","mode":"rail","name":"漳龙线","ref":"0067","usage":"main","status":"operational","color":"#E54848","dataOrigin":"datum-2026-08-01","sourceKey":"way:550298416"}},{"type":"Feature","geometry":{"type":"LineString","coordinates":[[116.6131684,24.6271238],[116.6142306,24.6279765]]},"properties":{"key":"way:550298417@detail:466_98","osmType":"way","osmId":550298417,"sourceRegion":"guangdong","featureType":"infrastructure","railClass":"national","mode":"rail","name":"漳龙线","ref":"0067","usage":"main","tunnel":"yes","status":"operational","color":"#E54848","dataOrigin":"datum-2026-08-01","sourceKey":"way:550298417"}},{"type":"Feature","geometry":{"type":"LineString","coordinates":[[116.6118675,24.6261397],[116.6131684,24.6271238]]},"properties":{"key":"way:550298418@detail:466_98","osmType":"way","osmId":550298418,"sourceRegion":"guangdong","featureType":"infrastructure","railClass":"national","mode":"rail","name":"漳龙线","ref":"0067","usage":"main","status":"operational","color":"#E54848","dataOrigin":"datum-2026-08-01","sourceKey":"way:550298418"}},{"type":"Feature","geometry":{"type":"LineString","coordinates":[[116.6107661,24.625199],[116.611205,24.625613],[116.6118675,24.6261397]]},"properties":{"key":"way:550298419@detail:466_98","osmType":"way","osmId":550298419,"sourceRegion":"guangdong","featureType":"infrastructure","railClass":"national","mode":"rail","name":"漳龙线","ref":"0067","usage":"main","bridge":"yes","status":"operational","color":"#E54848","dataOrigin":"datum-2026-08-01","sourceKey":"way:550298419"}},{"type":"Feature","geometry":{"type":"LineString","coordinates":[[116.6102401,24.6244616],[116.6107661,24.625199]]},"properties":{"key":"way:550298420@detail:466_98","osmType":"way","osmId":550298420,"sourceRegion":"guangdong","featureType":"infrastructure","railClass":"national","mode":"rail","name":"漳龙线","ref":"0067","usage":"main","tunnel":"yes","status":"operational","color":"#E54848","dataOrigin":"datum-2026-08-01","sourceKey":"way:550298420"}},{"type":"Feature","geometry":{"type":"LineString","coordinates":[[116.6089029,24.6212956],[116.6096841,24.6231787],[116.6100017,24.6240071],[116.6102401,24.6244616]]},"properties":{"key":"way:550298421@detail:466_98","osmType":"way","osmId":550298421,"sourceRegion":"guangdong","featureType":"infrastructure","railClass":"national","mode":"rail","name":"漳龙线","ref":"0067","usage":"main","bridge":"yes","status":"operational","color":"#E54848","dataOrigin":"datum-2026-08-01","sourceKey":"way:550298421"}},{"type":"Feature","geometry":{"type":"LineString","coordinates":[[116.6086701,24.6207739],[116.6089029,24.6212956]]},"properties":{"key":"way:550298422@detail:466_98","osmType":"way","osmId":550298422,"sourceRegion":"guangdong","featureType":"infrastructure","railClass":"national","mode":"rail","name":"漳龙线","ref":"0067","usage":"main","status":"operational","color":"#E54848","dataOrigin":"datum-2026-08-01","sourceKey":"way:550298422"}},{"type":"Feature","geometry":{"type":"LineString","coordinates":[[116.6083997,24.6196431],[116.6085737,24.6204261],[116.6086701,24.6207739]]},"properties":{"key":"way:550298423@detail:466_98","osmType":"way","osmId":550298423,"sourceRegion":"guangdong","featureType":"infrastructure","railClass":"national","mode":"rail","name":"漳龙线","ref":"0067","usage":"main","bridge":"yes","status":"operational","color":"#E54848","dataOrigin":"datum-2026-08-01","sourceKey":"way:550298423"}},{"type":"Feature","geometry":{"type":"LineString","coordinates":[[116.6084362,24.6171823],[116.6081908,24.6179081],[116.608197,24.6185392],[116.6083005,24.61916],[116.6083997,24.6196431]]},"properties":{"key":"way:550298424@detail:466_98","osmType":"way","osmId":550298424,"sourceRegion":"guangdong","featureType":"infrastructure","railClass":"national","mode":"rail","name":"漳龙线","ref":"0067","usage":"main","status":"operational","color":"#E54848","dataOrigin":"datum-2026-08-01","sourceKey":"way:550298424"}},{"type":"Feature","geometry":{"type":"LineString","coordinates":[[116.6092466,24.6138254],[116.6089112,24.615349],[116.608669,24.6164143],[116.6084362,24.6171823]]},"properties":{"key":"way:550298425@detail:466_98","osmType":"way","osmId":550298425,"sourceRegion":"guangdong","featureType":"infrastructure","railClass":"national","mode":"rail","name":"漳龙线","ref":"0067","usage":"main","tunnel":"yes","status":"operational","color":"#E54848","dataOrigin":"datum-2026-08-01","sourceKey":"way:550298425"}},{"type":"Feature","geometry":{"type":"LineString","coordinates":[[116.6096287,24.6131309],[116.6092466,24.6138254]]},"properties":{"key":"way:550298426@detail:466_98","osmType":"way","osmId":550298426,"sourceRegion":"guangdong","featureType":"infrastructure","railClass":"national","mode":"rail","name":"漳龙线","ref":"0067","usage":"main","status":"operational","color":"#E54848","dataOrigin":"datum-2026-08-01","sourceKey":"way:550298426"}},{"type":"Feature","geometry":{"type":"LineString","coordinates":[[116.6099787,24.6123818],[116.6096287,24.6131309]]},"properties":{"key":"way:550298427@detail:466_98","osmType":"way","osmId":550298427,"sourceRegion":"guangdong","featureType":"infrastructure","railClass":"national","mode":"rail","name":"漳龙线","ref":"0067","usage":"main","tunnel":"yes","status":"operational","color":"#E54848","dataOrigin":"datum-2026-08-01","sourceKey":"way:550298427"}},{"type":"Feature","geometry":{"type":"LineString","coordinates":[[116.6105327,24.6111403],[116.6099787,24.6123818]]},"properties":{"key":"way:550298428@detail:466_98","osmType":"way","osmId":550298428,"sourceRegion":"guangdong","featureType":"infrastructure","railClass":"national","mode":"rail","name":"漳龙线","ref":"0067","usage":"main","bridge":"yes","status":"operational","color":"#E54848","dataOrigin":"datum-2026-08-01","sourceKey":"way:550298428"}},{"type":"Feature","geometry":{"type":"LineString","coordinates":[[116.6113183,24.6100761],[116.6109246,24.6105509],[116.6105327,24.6111403]]},"properties":{"key":"way:550298429@detail:466_98","osmType":"way","osmId":550298429,"sourceRegion":"guangdong","featureType":"infrastructure","railClass":"national","mode":"rail","name":"漳龙线","ref":"0067","usage":"main","status":"operational","color":"#E54848","dataOrigin":"datum-2026-08-01","sourceKey":"way:550298429"}},{"type":"Feature","geometry":{"type":"LineString","coordinates":[[116.6228293,24.6015811],[116.6217613,24.602582],[116.6192937,24.604611],[116.6144228,24.607869],[116.6125989,24.6092151],[116.6113183,24.6100761]]},"properties":{"key":"way:550298430@detail:466_98","osmType":"way","osmId":550298430,"sourceRegion":"guangdong","featureType":"infrastructure","railClass":"national","mode":"rail","name":"漳龙线","ref":"0067","usage":"main","tunnel":"yes","status":"operational","color":"#E54848","dataOrigin":"datum-2026-08-01","sourceKey":"way:550298430"}},{"type":"Feature","geometry":{"type":"LineString","coordinates":[[116.6235575,24.6007518],[116.6228293,24.6015811]]},"properties":{"key":"way:550298431@detail:466_98","osmType":"way","osmId":550298431,"sourceRegion":"guangdong","featureType":"infrastructure","railClass":"national","mode":"rail","name":"漳龙线","ref":"0067","usage":"main","status":"operational","color":"#E54848","dataOrigin":"datum-2026-08-01","sourceKey":"way:550298431"}},{"type":"Feature","geometry":{"type":"LineString","coordinates":[[116.6244215,24.5997676],[116.6235575,24.6007518]]},"properties":{"key":"way:550298432@detail:466_98","osmType":"way","osmId":550298432,"sourceRegion":"guangdong","featureType":"infrastructure","railClass":"national","mode":"rail","name":"漳龙线","ref":"0067","usage":"main","bridge":"yes","status":"operational","color":"#E54848","dataOrigin":"datum-2026-08-01","sourceKey":"way:550298432"}},{"type":"Feature","geometry":{"type":"LineString","coordinates":[[116.625454,24.5969696],[116.625444,24.5974655],[116.6253823,24.5979727],[116.6252536,24.5983825],[116.6251355,24.598719],[116.624668,24.59948],[116.6244215,24.5997676]]},"properties":{"key":"way:550298433@detail:466_98","osmType":"way","osmId":550298433,"sourceRegion":"guangdong","featureType":"infrastructure","railClass":"national","mode":"rail","name":"漳龙线","ref":"0067","usage":"main","status":"operational","color":"#E54848","dataOrigin":"datum-2026-08-01","sourceKey":"way:550298433"}},{"type":"Feature","geometry":{"type":"LineString","coordinates":[[116.6247387,24.5944375],[116.625205,24.595518],[116.6254203,24.5965964],[116.625454,24.5969696]]},"properties":{"key":"way:550298434@detail:466_98","osmType":"way","osmId":550298434,"sourceRegion":"guangdong","featureType":"infrastructure","railClass":"national","mode":"rail","name":"漳龙线","ref":"0067","usage":"main","bridge":"yes","status":"operational","color":"#E54848","dataOrigin":"datum-2026-08-01","sourceKey":"way:550298434"}},{"type":"Feature","geometry":{"type":"LineString","coordinates":[[116.6244861,24.5938521],[116.6247387,24.5944375]]},"properties":{"key":"way:550298435@detail:466_98","osmType":"way","osmId":550298435,"sourceRegion":"guangdong","featureType":"infrastructure","railClass":"national","mode":"rail","name":"漳龙线","ref":"0067","usage":"main","status":"operational","color":"#E54848","dataOrigin":"datum-2026-08-01","sourceKey":"way:550298435"}},{"type":"Feature","geometry":{"type":"LineString","coordinates":[[116.6231614,24.591261],[116.6244861,24.5938521]]},"properties":{"key":"way:550298436@detail:466_98","osmType":"way","osmId":550298436,"sourceRegion":"guangdong","featureType":"infrastructure","railClass":"national","mode":"rail","name":"漳龙线","ref":"0067","usage":"main","tunnel":"yes","status":"operational","color":"#E54848","dataOrigin":"datum-2026-08-01","sourceKey":"way:550298436"}},{"type":"Feature","geometry":{"type":"LineString","coordinates":[[116.6226172,24.5896117],[116.6227537,24.5902659],[116.6229093,24.5907147],[116.6231614,24.591261]]},"properties":{"key":"way:550298437@detail:466_98","osmType":"way","osmId":550298437,"sourceRegion":"guangdong","featureType":"infrastructure","railClass":"national","mode":"rail","name":"漳龙线","ref":"0067","usage":"main","status":"operational","color":"#E54848","dataOrigin":"datum-2026-08-01","sourceKey":"way:550298437"}},{"type":"Feature","geometry":{"type":"LineString","coordinates":[[116.6221583,24.5872903],[116.6226172,24.5896117]]},"properties":{"key":"way:550298438@detail:466_98","osmType":"way","osmId":550298438,"sourceRegion":"guangdong","featureType":"infrastructure","railClass":"national","mode":"rail","name":"漳龙线","ref":"0067","usage":"main","tunnel":"yes","status":"operational","color":"#E54848","dataOrigin":"datum-2026-08-01","sourceKey":"way:550298438"}},{"type":"Feature","geometry":{"type":"LineString","coordinates":[[116.6225058,24.5827615],[116.6222656,24.5832805],[116.6220993,24.5837635],[116.6219866,24.5842513],[116.6219062,24.5847098],[116.6219276,24.5852074],[116.6219437,24.5858562],[116.6220242,24.5865245],[116.6221583,24.5872903]]},"properties":{"key":"way:550298439@detail:466_98","osmType":"way","osmId":550298439,"sourceRegion":"guangdong","featureType":"infrastructure","railClass":"national","mode":"rail","name":"漳龙线","ref":"0067","usage":"main","status":"operational","color":"#E54848","dataOrigin":"datum-2026-08-01","sourceKey":"way:550298439"}},{"type":"Feature","geometry":{"type":"LineString","coordinates":[[116.6230496,24.5818077],[116.6225058,24.5827615]]},"properties":{"key":"way:550298440@detail:466_98","osmType":"way","osmId":550298440,"sourceRegion":"guangdong","featureType":"infrastructure","railClass":"national","mode":"rail","name":"漳龙线","ref":"0067","usage":"main","bridge":"yes","status":"operational","color":"#E54848","dataOrigin":"datum-2026-08-01","sourceKey":"way:550298440"}},{"type":"Feature","geometry":{"type":"LineString","coordinates":[[116.6233427,24.5812978],[116.6230496,24.5818077]]},"properties":{"key":"way:550298441@detail:466_98","osmType":"way","osmId":550298441,"sourceRegion":"guangdong","featureType":"infrastructure","railClass":"national","mode":"rail","name":"漳龙线","ref":"0067","usage":"main","status":"operational","color":"#E54848","dataOrigin":"datum-2026-08-01","sourceKey":"way:550298441"}},{"type":"Feature","geometry":{"type":"LineString","coordinates":[[116.6238453,24.5802048],[116.6236281,24.5807488],[116.6233427,24.5812978]]},"properties":{"key":"way:550298442@detail:466_98","osmType":"way","osmId":550298442,"sourceRegion":"guangdong","featureType":"infrastructure","railClass":"national","mode":"rail","name":"漳龙线","ref":"0067","usage":"main","bridge":"yes","status":"operational","color":"#E54848","dataOrigin":"datum-2026-08-01","sourceKey":"way:550298442"}},{"type":"Feature","geometry":{"type":"LineString","coordinates":[[116.6242504,24.5785145],[116.6238453,24.5802048]]},"properties":{"key":"way:550298443@detail:466_98","osmType":"way","osmId":550298443,"sourceRegion":"guangdong","featureType":"infrastructure","railClass":"national","mode":"rail","name":"漳龙线","ref":"0067","usage":"main","status":"operational","color":"#E54848","dataOrigin":"datum-2026-08-01","sourceKey":"way:550298443"}},{"type":"Feature","geometry":{"type":"LineString","coordinates":[[116.6245633,24.5766388],[116.6245079,24.5773437],[116.6242504,24.5785145]]},"properties":{"key":"way:550298444@detail:466_98","osmType":"way","osmId":550298444,"sourceRegion":"guangdong","featureType":"infrastructure","railClass":"national","mode":"rail","name":"漳龙线","ref":"0067","usage":"main","tunnel":"yes","status":"operational","color":"#E54848","dataOrigin":"datum-2026-08-01","sourceKey":"way:550298444"}},{"type":"Feature","geometry":{"type":"LineString","coordinates":[[116.6244934,24.5754609],[116.6245633,24.5766388]]},"properties":{"key":"way:550298445@detail:466_98","osmType":"way","osmId":550298445,"sourceRegion":"guangdong","featureType":"infrastructure","railClass":"national","mode":"rail","name":"漳龙线","ref":"0067","usage":"main","status":"operational","color":"#E54848","dataOrigin":"datum-2026-08-01","sourceKey":"way:550298445"}},{"type":"Feature","geometry":{"type":"LineString","coordinates":[[116.6234618,24.5714964],[116.6242289,24.5741532],[116.6244934,24.5754609]]},"properties":{"key":"way:550298446@detail:466_98","osmType":"way","osmId":550298446,"sourceRegion":"guangdong","featureType":"infrastructure","railClass":"national","mode":"rail","name":"漳龙线","ref":"0067","usage":"main","tunnel":"yes","status":"operational","color":"#E54848","dataOrigin":"datum-2026-08-01","sourceKey":"way:550298446"}},{"type":"Feature","geometry":{"type":"LineString","coordinates":[[116.6224641,24.5677497],[116.6229078,24.5697554],[116.6234618,24.5714964]]},"properties":{"key":"way:550298447@detail:466_98","osmType":"way","osmId":550298447,"sourceRegion":"guangdong","featureType":"infrastructure","railClass":"national","mode":"rail","name":"漳龙线","ref":"0067","usage":"main","status":"operational","color":"#E54848","dataOrigin":"datum-2026-08-01","sourceKey":"way:550298447"}},{"type":"Feature","geometry":{"type":"LineString","coordinates":[[116.6222134,24.5634514],[116.6221629,24.5644751],[116.622192,24.565766],[116.6224641,24.5677497]]},"properties":{"key":"way:550298448@detail:466_98","osmType":"way","osmId":550298448,"sourceRegion":"guangdong","featureType":"infrastructure","railClass":"national","mode":"rail","name":"漳龙线","ref":"0067","usage":"main","tunnel":"yes","status":"operational","color":"#E54848","dataOrigin":"datum-2026-08-01","sourceKey":"way:550298448"}},{"type":"Feature","geometry":{"type":"LineString","coordinates":[[116.6224499,24.562481],[116.6222857,24.5629272],[116.6222134,24.5634514]]},"properties":{"key":"way:550298449@detail:466_98","osmType":"way","osmId":550298449,"sourceRegion":"guangdong","featureType":"infrastructure","railClass":"national","mode":"rail","name":"漳龙线","ref":"0067","usage":"main","status":"operational","color":"#E54848","dataOrigin":"datum-2026-08-01","sourceKey":"way:550298449"}},{"type":"Feature","geometry":{"type":"LineString","coordinates":[[116.6238085,24.5596132],[116.623156,24.5610195],[116.6224499,24.562481]]},"properties":{"key":"way:550298450@detail:466_98","osmType":"way","osmId":550298450,"sourceRegion":"guangdong","featureType":"infrastructure","railClass":"national","mode":"rail","name":"漳龙线","ref":"0067","usage":"main","tunnel":"yes","status":"operational","color":"#E54848","dataOrigin":"datum-2026-08-01","sourceKey":"way:550298450"}},{"type":"Feature","geometry":{"type":"LineString","coordinates":[[116.6255262,24.5463044],[116.6254254,24.546581],[116.6255015,24.5483543],[116.6256592,24.549029],[116.6256819,24.549503],[116.625862,24.5503917],[116.6260245,24.5514527],[116.6261793,24.553249],[116.6261179,24.5537585],[116.6259118,24.5548369],[116.6257968,24.5552321],[116.6254934,24.5562386],[116.6238085,24.5596132]]},"properties":{"key":"way:550298451@detail:466_98","osmType":"way","osmId":550298451,"sourceRegion":"guangdong","featureType":"infrastructure","railClass":"national","mode":"rail","name":"漳龙线","ref":"0067","usage":"main","status":"operational","color":"#E54848","dataOrigin":"datum-2026-08-01","sourceKey":"way:550298451"}},{"type":"Feature","geometry":{"type":"LineString","coordinates":[[116.6258069,24.5454258],[116.6255262,24.5463044]]},"properties":{"key":"way:550298452@detail:466_98","osmType":"way","osmId":550298452,"sourceRegion":"guangdong","featureType":"infrastructure","railClass":"national","mode":"rail","name":"漳龙线","ref":"0067","usage":"main","tunnel":"yes","status":"operational","color":"#E54848","dataOrigin":"datum-2026-08-01","sourceKey":"way:550298452"}},{"type":"Feature","geometry":{"type":"LineString","coordinates":[[116.6263042,24.5444575],[116.6259808,24.5448514],[116.6258069,24.5454258]]},"properties":{"key":"way:550298453@detail:466_98","osmType":"way","osmId":550298453,"sourceRegion":"guangdong","featureType":"infrastructure","railClass":"national","mode":"rail","name":"漳龙线","ref":"0067","usage":"main","status":"operational","color":"#E54848","dataOrigin":"datum-2026-08-01","sourceKey":"way:550298453"}},{"type":"Feature","geometry":{"type":"LineString","coordinates":[[116.6286403,24.5427811],[116.6278416,24.5431849]]},"properties":{"key":"way:550298454@detail:466_98","osmType":"way","osmId":550298454,"sourceRegion":"guangdong","featureType":"infrastructure","railClass":"national","mode":"rail","name":"漳龙线","ref":"0067","usage":"main","tunnel":"yes","status":"operational","color":"#E54848","dataOrigin":"datum-2026-08-01","sourceKey":"way:550298454"}},{"type":"Feature","geometry":{"type":"LineString","coordinates":[[116.6294005,24.542481],[116.6286403,24.5427811]]},"properties":{"key":"way:550298455@detail:466_98","osmType":"way","osmId":550298455,"sourceRegion":"guangdong","featureType":"infrastructure","railClass":"national","mode":"rail","name":"漳龙线","ref":"0067","usage":"main","status":"operational","color":"#E54848","dataOrigin":"datum-2026-08-01","sourceKey":"way:550298455"}},{"type":"Feature","geometry":{"type":"LineString","coordinates":[[116.6316531,24.5417706],[116.6309746,24.5418925],[116.6298792,24.5422846],[116.6294005,24.542481]]},"properties":{"key":"way:550298456@detail:466_98","osmType":"way","osmId":550298456,"sourceRegion":"guangdong","featureType":"infrastructure","railClass":"national","mode":"rail","name":"漳龙线","ref":"0067","usage":"main","bridge":"yes","status":"operational","color":"#E54848","dataOrigin":"datum-2026-08-01","sourceKey":"way:550298456"}},{"type":"Feature","geometry":{"type":"LineString","coordinates":[[116.633588,24.5412812],[116.6316531,24.5417706]]},"properties":{"key":"way:550298457@detail:466_98","osmType":"way","osmId":550298457,"sourceRegion":"guangdong","featureType":"infrastructure","railClass":"national","mode":"rail","name":"漳龙线","ref":"0067","usage":"main","tunnel":"yes","status":"operational","color":"#E54848","dataOrigin":"datum-2026-08-01","sourceKey":"way:550298457"}},{"type":"Feature","geometry":{"type":"LineString","coordinates":[[116.6360199,24.541048],[116.6348398,24.5411114],[116.6341368,24.5411701],[116.633588,24.5412812]]},"properties":{"key":"way:550298458@detail:466_98","osmType":"way","osmId":550298458,"sourceRegion":"guangdong","featureType":"infrastructure","railClass":"national","mode":"rail","name":"漳龙线","ref":"0067","usage":"main","status":"operational","color":"#E54848","dataOrigin":"datum-2026-08-01","sourceKey":"way:550298458"}},{"type":"Feature","geometry":{"type":"LineString","coordinates":[[116.638875,24.5408728],[116.6374432,24.5409521],[116.6360199,24.541048]]},"properties":{"key":"way:550298459@detail:466_98","osmType":"way","osmId":550298459,"sourceRegion":"guangdong","featureType":"infrastructure","railClass":"national","mode":"rail","name":"漳龙线","ref":"0067","usage":"main","bridge":"yes","status":"operational","color":"#E54848","dataOrigin":"datum-2026-08-01","sourceKey":"way:550298459"}},{"type":"Feature","geometry":{"type":"LineString","coordinates":[[116.6441609,24.540105],[116.6436559,24.5402947],[116.6427207,24.5404788],[116.638875,24.5408728]]},"properties":{"key":"way:550298460@detail:466_98","osmType":"way","osmId":550298460,"sourceRegion":"guangdong","featureType":"infrastructure","railClass":"national","mode":"rail","name":"漳龙线","ref":"0067","usage":"main","status":"operational","color":"#E54848","dataOrigin":"datum-2026-08-01","sourceKey":"way:550298460"}},{"type":"Feature","geometry":{"type":"LineString","coordinates":[[116.6571444,24.5237982],[116.6570914,24.5244116],[116.6568339,24.5253877],[116.656394,24.5265101],[116.6554927,24.52815],[116.6535615,24.5313124],[116.6512441,24.5342014],[116.6469419,24.5380917]]},"properties":{"key":"way:550298461@detail:466_98","osmType":"way","osmId":550298461,"sourceRegion":"guangdong","featureType":"infrastructure","railClass":"national","mode":"rail","name":"漳龙线","ref":"0067","usage":"main","tunnel":"yes","status":"operational","color":"#E54848","dataOrigin":"datum-2026-08-01","sourceKey":"way:550298461"}},{"type":"Feature","geometry":{"type":"LineString","coordinates":[[116.6563996,24.520885],[116.6568111,24.5217832]]},"properties":{"key":"way:550298462@detail:466_98","osmType":"way","osmId":550298462,"sourceRegion":"guangdong","featureType":"infrastructure","railClass":"national","mode":"rail","name":"漳龙线","ref":"0067","usage":"main","tunnel":"yes","status":"operational","color":"#E54848","dataOrigin":"datum-2026-08-01","sourceKey":"way:550298462"}},{"type":"Feature","geometry":{"type":"LineString","coordinates":[[116.6568111,24.5217832],[116.657048,24.522453],[116.657115,24.522963],[116.6571444,24.5237982]]},"properties":{"key":"way:550298463@detail:466_98","osmType":"way","osmId":550298463,"sourceRegion":"guangdong","featureType":"infrastructure","railClass":"national","mode":"rail","name":"漳龙线","ref":"0067","usage":"main","status":"operational","color":"#E54848","dataOrigin":"datum-2026-08-01","sourceKey":"way:550298463"}},{"type":"Feature","geometry":{"type":"LineString","coordinates":[[116.6529987,24.5073897],[116.6533148,24.5080414],[116.6534972,24.5085735],[116.6535179,24.5090831]]},"properties":{"key":"way:550298464@detail:466_98","osmType":"way","osmId":550298464,"sourceRegion":"guangdong","featureType":"infrastructure","railClass":"national","mode":"rail","name":"漳龙线","ref":"0067","usage":"main","tunnel":"yes","status":"operational","color":"#E54848","dataOrigin":"datum-2026-08-01","sourceKey":"way:550298464"}},{"type":"Feature","geometry":{"type":"LineString","coordinates":[[116.6527665,24.5070377],[116.6529987,24.5073897]]},"properties":{"key":"way:550298465@detail:466_98","osmType":"way","osmId":550298465,"sourceRegion":"guangdong","featureType":"infrastructure","railClass":"national","mode":"rail","name":"漳龙线","ref":"0067","usage":"main","status":"operational","color":"#E54848","dataOrigin":"datum-2026-08-01","sourceKey":"way:550298465"}},{"type":"Feature","geometry":{"type":"LineString","coordinates":[[116.6516514,24.5057578],[116.6527665,24.5070377]]},"properties":{"key":"way:550298466@detail:466_98","osmType":"way","osmId":550298466,"sourceRegion":"guangdong","featureType":"infrastructure","railClass":"national","mode":"rail","name":"漳龙线","ref":"0067","usage":"main","bridge":"yes","status":"operational","color":"#E54848","dataOrigin":"datum-2026-08-01","sourceKey":"way:550298466"}},{"type":"Feature","geometry":{"type":"LineString","coordinates":[[116.6495007,24.5024573],[116.6498394,24.5032551],[116.6500851,24.5038284],[116.6504414,24.5043897],[116.6508344,24.5049149],[116.6511791,24.5052916],[116.6516514,24.5057578]]},"properties":{"key":"way:550298467@detail:466_98","osmType":"way","osmId":550298467,"sourceRegion":"guangdong","featureType":"infrastructure","railClass":"national","mode":"rail","name":"漳龙线","ref":"0067","usage":"main","status":"operational","color":"#E54848","dataOrigin":"datum-2026-08-01","sourceKey":"way:550298467"}},{"type":"Feature","geometry":{"type":"LineString","coordinates":[[116.6488316,24.5011803],[116.6492029,24.5017938],[116.6495007,24.5024573]]},"properties":{"key":"way:550298468@detail:466_98","osmType":"way","osmId":550298468,"sourceRegion":"guangdong","featureType":"infrastructure","railClass":"national","mode":"rail","name":"漳龙线","ref":"0067","usage":"main","tunnel":"yes","status":"operational","color":"#E54848","dataOrigin":"datum-2026-08-01","sourceKey":"way:550298468"}},{"type":"Feature","geometry":{"type":"LineString","coordinates":[[116.64801099051002,24.5],[116.6488316,24.5011803]]},"properties":{"key":"way:550298469@detail:466_98","osmType":"way","osmId":550298469,"sourceRegion":"guangdong","featureType":"infrastructure","railClass":"national","mode":"rail","name":"漳龙线","ref":"0067","usage":"main","bridge":"yes","status":"operational","color":"#E54848","dataOrigin":"datum-2026-08-01","sourceKey":"way:550298469"}},{"type":"Feature","geometry":{"type":"LineString","coordinates":[[116.6535179,24.5090831],[116.653553,24.510776],[116.653526,24.512866],[116.653589,24.513504],[116.653746,24.514274],[116.654171,24.515516],[116.656026,24.519973],[116.6563996,24.520885]]},"properties":{"key":"way:550298470@detail:466_98","osmType":"way","osmId":550298470,"sourceRegion":"guangdong","featureType":"infrastructure","railClass":"national","mode":"rail","name":"漳龙线","ref":"0067","usage":"main","status":"operational","color":"#E54848","dataOrigin":"datum-2026-08-01","sourceKey":"way:550298470"}},{"type":"Feature","geometry":{"type":"LineString","coordinates":[[116.6278416,24.5431849],[116.6272991,24.5434826],[116.626928,24.5438071]]},"properties":{"key":"way:1130829938@detail:466_98","osmType":"way","osmId":1130829938,"sourceRegion":"guangdong","featureType":"infrastructure","railClass":"national","mode":"rail","name":"漳龙线","ref":"0067","usage":"main","status":"operational","color":"#E54848","dataOrigin":"datum-2026-08-01","sourceKey":"way:1130829938"}},{"type":"Feature","geometry":{"type":"LineString","coordinates":[[116.626928,24.5438071],[116.6263042,24.5444575]]},"properties":{"key":"way:1130829939@detail:466_98","osmType":"way","osmId":1130829939,"sourceRegion":"guangdong","featureType":"infrastructure","railClass":"national","mode":"rail","name":"漳龙线","ref":"0067","usage":"main","bridge":"yes","status":"operational","color":"#E54848","dataOrigin":"datum-2026-08-01","sourceKey":"way:1130829939"}},{"type":"Feature","geometry":{"type":"LineString","coordinates":[[116.6142306,24.6279765],[116.6147958,24.6283931]]},"properties":{"key":"way:1363837573@detail:466_98","osmType":"way","osmId":1363837573,"sourceRegion":"guangdong","featureType":"infrastructure","railClass":"national","mode":"rail","name":"漳龙线","ref":"0067","usage":"main","bridge":"yes","status":"operational","color":"#E54848","dataOrigin":"datum-2026-08-01","sourceKey":"way:1363837573"}}]}