{"type":"FeatureCollection","features":[{"type":"Feature","geometry":{"type":"Point","coordinates":[116.5827193,23.5427011]},"properties":{"key":"node:5563673766","osmType":"node","osmId":5563673766,"sourceRegion":"guangdong","featureType":"station","railClass":"minor","mode":"stop","name":"未命名","status":"operational","color":"#52636F","dataOrigin":"datum-2026-08-01","sourceKey":"node:5563673766","stationGroup":"","hasOperationalRail":true,"hasConstructionRail":false}},{"type":"Feature","geometry":{"type":"Point","coordinates":[116.5827347,23.5426666]},"properties":{"key":"node:5563673771","osmType":"node","osmId":5563673771,"sourceRegion":"guangdong","featureType":"station","railClass":"minor","mode":"stop","name":"未命名","status":"operational","color":"#52636F","dataOrigin":"datum-2026-08-01","sourceKey":"node:5563673771","stationGroup":"","hasOperationalRail":true,"hasConstructionRail":false}},{"type":"Feature","geometry":{"type":"Point","coordinates":[116.5828021,23.5425281]},"properties":{"key":"node:5563673772","osmType":"node","osmId":5563673772,"sourceRegion":"guangdong","featureType":"station","railClass":"minor","mode":"stop","name":"未命名","status":"operational","color":"#52636F","dataOrigin":"datum-2026-08-01","sourceKey":"node:5563673772","stationGroup":"","hasOperationalRail":true,"hasConstructionRail":false}},{"type":"Feature","geometry":{"type":"Point","coordinates":[116.5828992,23.5423001]},"properties":{"key":"node:5563673773","osmType":"node","osmId":5563673773,"sourceRegion":"guangdong","featureType":"station","railClass":"minor","mode":"stop","name":"未命名","status":"operational","color":"#52636F","dataOrigin":"datum-2026-08-01","sourceKey":"node:5563673773","stationGroup":"","hasOperationalRail":true,"hasConstructionRail":false}},{"type":"Feature","geometry":{"type":"Point","coordinates":[116.5829515,23.5421705]},"properties":{"key":"node:5563673774","osmType":"node","osmId":5563673774,"sourceRegion":"guangdong","featureType":"station","railClass":"minor","mode":"stop","name":"未命名","status":"operational","color":"#52636F","dataOrigin":"datum-2026-08-01","sourceKey":"node:5563673774","stationGroup":"","hasOperationalRail":true,"hasConstructionRail":false}},{"type":"Feature","geometry":{"type":"Point","coordinates":[116.5829733,23.5421263]},"properties":{"key":"node:5563673775","osmType":"node","osmId":5563673775,"sourceRegion":"guangdong","featureType":"station","railClass":"minor","mode":"stop","name":"未命名","status":"operational","color":"#52636F","dataOrigin":"datum-2026-08-01","sourceKey":"node:5563673775","stationGroup":"","hasOperationalRail":true,"hasConstructionRail":false}},{"type":"Feature","geometry":{"type":"Point","coordinates":[116.6469777,23.5364532]},"properties":{"key":"node:5564278234","osmType":"node","osmId":5564278234,"sourceRegion":"guangdong","featureType":"station","railClass":"minor","mode":"station","name":"龙湖","nameEn":"Longhu","status":"operational","color":"#52636F","dataOrigin":"datum-2026-08-01","sourceKey":"node:5564278234","stationGroup":"龙湖","hasOperationalRail":true,"hasConstructionRail":false}},{"type":"Feature","geometry":{"type":"Point","coordinates":[116.5789967,23.6414455]},"properties":{"key":"node:5610619438","osmType":"node","osmId":5610619438,"sourceRegion":"guangdong","featureType":"station","railClass":"minor","mode":"stop","name":"潮州","ref":"1","status":"operational","color":"#00AB39","dataOrigin":"datum-2026-08-01","sourceKey":"node:5610619438","stationGroup":"潮州","hasOperationalRail":true,"hasConstructionRail":false}},{"type":"Feature","geometry":{"type":"Point","coordinates":[116.5793376,23.6417484]},"properties":{"key":"node:5610619680","osmType":"node","osmId":5610619680,"sourceRegion":"guangdong","featureType":"station","railClass":"minor","mode":"station","name":"潮州","nameEn":"Chaozhou","status":"operational","color":"#52636F","dataOrigin":"datum-2026-08-01","sourceKey":"node:5610619680","stationGroup":"潮州","hasOperationalRail":true,"hasConstructionRail":false}},{"type":"Feature","geometry":{"type":"Point","coordinates":[116.5828304,23.5424042]},"properties":{"key":"node:5951170198","osmType":"node","osmId":5951170198,"sourceRegion":"guangdong","featureType":"station","railClass":"minor","mode":"station","name":"潮汕","nameEn":"Chaoshan","status":"operational","color":"#52636F","dataOrigin":"datum-2026-08-01","sourceKey":"node:5951170198","stationGroup":"潮汕","hasOperationalRail":true,"hasConstructionRail":false}},{"type":"Feature","geometry":{"type":"Point","coordinates":[116.5122816,23.5477424]},"properties":{"key":"node:9202090143","osmType":"node","osmId":9202090143,"sourceRegion":"guangdong","featureType":"station","railClass":"minor","mode":"station","name":"揭阳机场","status":"operational","color":"#52636F","dataOrigin":"datum-2026-08-01","sourceKey":"node:9202090143","stationGroup":"揭阳机场","hasOperationalRail":true,"hasConstructionRail":false}},{"type":"Feature","geometry":{"type":"LineString","coordinates":[[116.6031805,23.6405702],[116.6029009,23.6410168],[116.6025065,23.6414831],[116.6019473,23.6420085],[116.6014383,23.6423763],[116.5976456,23.6447801],[116.5968283,23.6453055],[116.5948382,23.6465928],[116.5944652,23.646816],[116.5940854,23.6469898],[116.5936454,23.6471636]]},"properties":{"key":"way:148874583@detail:466_94","osmType":"way","osmId":148874583,"sourceRegion":"guangdong","featureType":"infrastructure","railClass":"national","mode":"rail","name":"畲龙线","ref":"0716","usage":"main","bridge":"viaduct","status":"operational","color":"#E54848","dataOrigin":"datum-2026-08-01","sourceKey":"way:148874583"}},{"type":"Feature","geometry":{"type":"LineString","coordinates":[[116.5782815,23.6438352],[116.5799153,23.6434469],[116.5803046,23.6433677],[116.5804949,23.6433583],[116.5806992,23.6433618],[116.5809107,23.6433838],[116.5811736,23.6434272],[116.5814926,23.643506],[116.5827472,23.6442153],[116.5830555,23.6443729],[116.5833925,23.6445108],[116.5845181,23.6447932],[116.5850057,23.6449574],[116.5859417,23.6453389]]},"properties":{"key":"way:148874585@detail:466_94","osmType":"way","osmId":148874585,"sourceRegion":"guangdong","featureType":"infrastructure","railClass":"minor","mode":"rail","name":"未命名","service":"spur","status":"operational","color":"#52636F","dataOrigin":"datum-2026-08-01","sourceKey":"way:148874585"}},{"type":"Feature","geometry":{"type":"LineString","coordinates":[[116.562698,23.6354438],[116.5620941,23.6355661],[116.5619152,23.6355945],[116.5616222,23.6356793],[116.5601532,23.6361202],[116.5594794,23.6363106],[116.5587482,23.636442],[116.5580386,23.6365274],[116.5573217,23.6365011],[116.5565905,23.636396],[116.5559669,23.6362384],[116.5556515,23.6361399],[116.5540314,23.6356211],[116.5532501,23.6354569],[116.552483,23.6353978],[116.5518307,23.6354307],[116.5514741,23.6354619],[116.5511247,23.635519],[116.5502324,23.635716]]},"properties":{"key":"way:148874588@detail:466_94","osmType":"way","osmId":148874588,"sourceRegion":"guangdong","featureType":"infrastructure","railClass":"national","mode":"rail","name":"畲龙线","ref":"0716","usage":"main","status":"operational","color":"#E54848","dataOrigin":"datum-2026-08-01","sourceKey":"way:148874588"}},{"type":"Feature","geometry":{"type":"LineString","coordinates":[[116.5502324,23.635716],[116.5493019,23.635973]]},"properties":{"key":"way:148874593@detail:466_94","osmType":"way","osmId":148874593,"sourceRegion":"guangdong","featureType":"infrastructure","railClass":"national","mode":"rail","name":"畲龙线","ref":"0716","usage":"main","bridge":"yes","status":"operational","color":"#E54848","dataOrigin":"datum-2026-08-01","sourceKey":"way:148874593"}},{"type":"Feature","geometry":{"type":"LineString","coordinates":[[116.5634435,23.6353716],[116.562698,23.6354438]]},"properties":{"key":"way:148874595@detail:466_94","osmType":"way","osmId":148874595,"sourceRegion":"guangdong","featureType":"infrastructure","railClass":"national","mode":"rail","name":"畲龙线","ref":"0716","usage":"main","bridge":"yes","status":"operational","color":"#E54848","dataOrigin":"datum-2026-08-01","sourceKey":"way:148874595"}},{"type":"Feature","geometry":{"type":"LineString","coordinates":[[116.6598835,23.5178905],[116.6596616,23.5181924]]},"properties":{"key":"way:148874599@detail:466_94","osmType":"way","osmId":148874599,"sourceRegion":"guangdong","featureType":"infrastructure","railClass":"minor","mode":"abandoned","name":"广梅汕铁路畲汕线废弃段","bridge":"yes","status":"operational","color":"#52636F","dataOrigin":"datum-2026-08-01","sourceKey":"way:148874599"}},{"type":"Feature","geometry":{"type":"LineString","coordinates":[[116.5936454,23.6471636],[116.5933114,23.6472689],[116.5927948,23.6474103],[116.5924671,23.6474611],[116.5920473,23.6475086],[116.5915586,23.6475057],[116.5907772,23.6474794],[116.5900387,23.6473546],[116.5893647,23.6471576],[116.5887553,23.6468949],[116.5869558,23.6459229],[116.586669,23.6457521],[116.5864037,23.6455945],[116.5859417,23.6453389],[116.5830914,23.6437621],[116.5825725,23.6434756],[116.5752969,23.6394582],[116.5748777,23.6392267],[116.5719714,23.6376138]]},"properties":{"key":"way:148874610@detail:466_94","osmType":"way","osmId":148874610,"sourceRegion":"guangdong","featureType":"infrastructure","railClass":"national","mode":"rail","name":"畲龙线","ref":"0716","usage":"main","status":"operational","color":"#E54848","dataOrigin":"datum-2026-08-01","sourceKey":"way:148874610"}},{"type":"Feature","geometry":{"type":"LineString","coordinates":[[116.5248907,23.6168286],[116.5248489,23.6167723],[116.5244259,23.6162928],[116.5240532,23.6159447],[116.5235514,23.6155572],[116.5231356,23.6152813],[116.522512,23.614966],[116.521788,23.6147165],[116.5210496,23.6145326],[116.520469,23.6144669],[116.5155873,23.6143355],[116.5152074,23.6143289],[116.5050318,23.6141352],[116.5015614,23.6140695],[116.5005145,23.6139972],[116.5,23.613925581454673]]},"properties":{"key":"way:148874621@detail:466_94","osmType":"way","osmId":148874621,"sourceRegion":"guangdong","featureType":"infrastructure","railClass":"national","mode":"rail","name":"畲龙线","ref":"0716","usage":"main","status":"operational","color":"#E54848","dataOrigin":"datum-2026-08-01","sourceKey":"way:148874621"}},{"type":"Feature","geometry":{"type":"LineString","coordinates":[[116.5780614,23.6434776],[116.579693,23.6431119],[116.580073,23.6430725],[116.5803956,23.6430922],[116.5808186,23.6431841],[116.5810911,23.6433024],[116.5814926,23.643506]]},"properties":{"key":"way:148874627@detail:466_94","osmType":"way","osmId":148874627,"sourceRegion":"guangdong","featureType":"infrastructure","railClass":"minor","mode":"rail","name":"未命名","service":"spur","status":"operational","color":"#52636F","dataOrigin":"datum-2026-08-01","sourceKey":"way:148874627"}},{"type":"Feature","geometry":{"type":"LineString","coordinates":[[116.67388818357897,23.5],[116.6711611,23.502923],[116.6698587,23.504307],[116.6692713,23.5050056],[116.6683164,23.5063135],[116.6653816,23.5103356]]},"properties":{"key":"way:148874633@detail:466_94","osmType":"way","osmId":148874633,"sourceRegion":"guangdong","featureType":"infrastructure","railClass":"minor","mode":"abandoned","name":"广梅汕铁路畲汕线废弃段","status":"operational","color":"#52636F","dataOrigin":"datum-2026-08-01","sourceKey":"way:148874633"}},{"type":"Feature","geometry":{"type":"LineString","coordinates":[[116.53773623426008,23.5],[116.5422281,23.5160118],[116.5423182,23.5162162]]},"properties":{"key":"way:180311702@detail:466_94","osmType":"way","osmId":180311702,"sourceRegion":"guangdong","featureType":"infrastructure","railClass":"highspeed","mode":"rail","name":"杭深线","nameEn":"Hangzhou-Shenzhen Line","ref":"3009","usage":"main","highspeed":"yes","tunnel":"yes","status":"operational","color":"#E54848","dataOrigin":"datum-2026-08-01","sourceKey":"way:180311702"}},{"type":"Feature","geometry":{"type":"LineString","coordinates":[[116.7149961,23.584551],[116.7157513,23.5848315],[116.7167947,23.5852248],[116.7179695,23.5857042],[116.7193106,23.5862695],[116.7209923,23.5870561],[116.7226124,23.5878575],[116.7259866,23.5895364],[116.7287761,23.5909104],[116.7335132,23.5932568]]},"properties":{"key":"way:180311753@detail:466_94","osmType":"way","osmId":180311753,"sourceRegion":"guangdong","featureType":"infrastructure","railClass":"highspeed","mode":"rail","name":"杭深线","nameEn":"Hangzhou-Shenzhen Line","ref":"3009","usage":"main","highspeed":"yes","bridge":"viaduct","status":"operational","color":"#E54848","dataOrigin":"datum-2026-08-01","sourceKey":"way:180311753"}},{"type":"Feature","geometry":{"type":"LineString","coordinates":[[116.7150137,23.5845118],[116.7143002,23.5842637],[116.7128974,23.5837868],[116.7111218,23.5832559],[116.7061329,23.5819014],[116.7013706,23.5808218],[116.7013693,23.5808215],[116.6995008,23.5803979]]},"properties":{"key":"way:383078914@detail:466_94","osmType":"way","osmId":383078914,"sourceRegion":"guangdong","featureType":"infrastructure","railClass":"highspeed","mode":"rail","name":"杭深线","nameEn":"Hangzhou-Shenzhen Line","ref":"3009","usage":"main","highspeed":"yes","bridge":"yes","status":"operational","color":"#E54848","dataOrigin":"datum-2026-08-01","sourceKey":"way:383078914"}},{"type":"Feature","geometry":{"type":"LineString","coordinates":[[116.6995008,23.5803979],[116.6892524,23.5779067],[116.681014,23.5758147],[116.6797319,23.5754534],[116.6773227,23.5746948],[116.6688201,23.5719303],[116.6571176,23.5681452],[116.6533068,23.5669115],[116.6476232,23.5650492],[116.6312558,23.5597263],[116.6207364,23.5563319],[116.6182823,23.5554648],[116.5973071,23.547719]]},"properties":{"key":"way:543243564@detail:466_94","osmType":"way","osmId":543243564,"sourceRegion":"guangdong","featureType":"infrastructure","railClass":"highspeed","mode":"rail","name":"杭深线","nameEn":"Hangzhou-Shenzhen Line","ref":"3009","usage":"main","highspeed":"yes","bridge":"yes","status":"operational","color":"#E54848","dataOrigin":"datum-2026-08-01","sourceKey":"way:543243564"}},{"type":"Feature","geometry":{"type":"LineString","coordinates":[[116.6994843,23.5804385],[116.7013264,23.5808599],[116.7013277,23.5808602],[116.7061034,23.5819526],[116.7111228,23.5833137],[116.7128786,23.5838384],[116.7142825,23.5842983],[116.7149961,23.584551]]},"properties":{"key":"way:543243565@detail:466_94","osmType":"way","osmId":543243565,"sourceRegion":"guangdong","featureType":"infrastructure","railClass":"highspeed","mode":"rail","name":"杭深线","nameEn":"Hangzhou-Shenzhen Line","ref":"3009","usage":"main","highspeed":"yes","bridge":"yes","status":"operational","color":"#E54848","dataOrigin":"datum-2026-08-01","sourceKey":"way:543243565"}},{"type":"Feature","geometry":{"type":"LineString","coordinates":[[116.5423182,23.5162162],[116.5426955,23.516916],[116.5433753,23.5180762],[116.5436948,23.5185357]]},"properties":{"key":"way:557124651@detail:466_94","osmType":"way","osmId":557124651,"sourceRegion":"guangdong","featureType":"infrastructure","railClass":"highspeed","mode":"rail","name":"杭深线","nameEn":"Hangzhou-Shenzhen Line","ref":"3009","usage":"main","highspeed":"yes","status":"operational","color":"#E54848","dataOrigin":"datum-2026-08-01","sourceKey":"way:557124651"}},{"type":"Feature","geometry":{"type":"LineString","coordinates":[[116.5711602,23.5381393],[116.5723086,23.5385664],[116.5735083,23.5390073],[116.5743022,23.5392945],[116.5762672,23.5400224],[116.5769193,23.5402722],[116.578143,23.5407432],[116.5828255,23.5424248],[116.5901711,23.5451226],[116.5910749,23.5454558],[116.5935526,23.546386],[116.5949661,23.5468984],[116.5972866,23.5477775]]},"properties":{"key":"way:557124652@detail:466_94","osmType":"way","osmId":557124652,"sourceRegion":"guangdong","featureType":"infrastructure","railClass":"highspeed","mode":"rail","name":"杭深线","nameEn":"Hangzhou-Shenzhen Line","ref":"3009","usage":"main","highspeed":"yes","status":"operational","color":"#E54848","dataOrigin":"datum-2026-08-01","sourceKey":"way:557124652"}},{"type":"Feature","geometry":{"type":"LineString","coordinates":[[116.5972866,23.5477775],[116.6181221,23.5554709],[116.6227428,23.5570454],[116.631244,23.5597621],[116.6456572,23.564479],[116.6475923,23.5650824],[116.654336,23.567375],[116.671405,23.5729159],[116.678557,23.5751504],[116.6797258,23.5755047],[116.6810008,23.5758603],[116.6892418,23.5779471],[116.6994843,23.5804385]]},"properties":{"key":"way:557124655@detail:466_94","osmType":"way","osmId":557124655,"sourceRegion":"guangdong","featureType":"infrastructure","railClass":"highspeed","mode":"rail","name":"杭深线","nameEn":"Hangzhou-Shenzhen Line","ref":"3009","usage":"main","highspeed":"yes","bridge":"yes","status":"operational","color":"#E54848","dataOrigin":"datum-2026-08-01","sourceKey":"way:557124655"}},{"type":"Feature","geometry":{"type":"LineString","coordinates":[[116.5872212,23.5437603],[116.5863803,23.5434161],[116.5859498,23.5432402],[116.5854741,23.5430426],[116.5829733,23.5421263],[116.5806321,23.5412685],[116.5801687,23.5411195],[116.5790566,23.540765],[116.5782787,23.5405575],[116.5771325,23.5402559]]},"properties":{"key":"way:571602673@detail:466_94","osmType":"way","osmId":571602673,"sourceRegion":"guangdong","featureType":"infrastructure","railClass":"minor","mode":"rail","name":"未命名","service":"siding","status":"operational","color":"#52636F","dataOrigin":"datum-2026-08-01","sourceKey":"way:571602673"}},{"type":"Feature","geometry":{"type":"LineString","coordinates":[[116.5879265,23.5441947],[116.5875272,23.5440235],[116.5873287,23.54394],[116.5871045,23.5438501],[116.5828992,23.5423001],[116.5797866,23.5411529],[116.5793593,23.5410116],[116.5786507,23.5407969]]},"properties":{"key":"way:571602683@detail:466_94","osmType":"way","osmId":571602683,"sourceRegion":"guangdong","featureType":"infrastructure","railClass":"minor","mode":"rail","name":"未命名","service":"siding","status":"operational","color":"#52636F","dataOrigin":"datum-2026-08-01","sourceKey":"way:571602683"}},{"type":"Feature","geometry":{"type":"LineString","coordinates":[[116.5879265,23.5441947],[116.5786507,23.5407969],[116.5781647,23.5406251],[116.5771325,23.5402559]]},"properties":{"key":"way:571602684@detail:466_94","osmType":"way","osmId":571602684,"sourceRegion":"guangdong","featureType":"infrastructure","railClass":"minor","mode":"rail","name":"未命名","service":"siding","status":"operational","color":"#52636F","dataOrigin":"datum-2026-08-01","sourceKey":"way:571602684"}},{"type":"Feature","geometry":{"type":"LineString","coordinates":[[116.5880527,23.544659],[116.5852766,23.5436558],[116.5827193,23.5427011],[116.5806715,23.5419462],[116.5799682,23.5416869],[116.5786877,23.5411956]]},"properties":{"key":"way:571602685@detail:466_94","osmType":"way","osmId":571602685,"sourceRegion":"guangdong","featureType":"infrastructure","railClass":"minor","mode":"rail","name":"未命名","service":"siding","status":"operational","color":"#52636F","dataOrigin":"datum-2026-08-01","sourceKey":"way:571602685"}},{"type":"Feature","geometry":{"type":"LineString","coordinates":[[116.5769193,23.5402722],[116.577758,23.5406392],[116.5784485,23.5409774],[116.5789455,23.5412138],[116.5797557,23.5415563],[116.580689,23.5419042],[116.5827347,23.5426666],[116.58529,23.5436042],[116.5867236,23.5441181],[116.5882096,23.5446099],[116.5901394,23.5451739]]},"properties":{"key":"way:571602687@detail:466_94","osmType":"way","osmId":571602687,"sourceRegion":"guangdong","featureType":"infrastructure","railClass":"minor","mode":"rail","name":"未命名","service":"siding","status":"operational","color":"#52636F","dataOrigin":"datum-2026-08-01","sourceKey":"way:571602687"}},{"type":"Feature","geometry":{"type":"LineString","coordinates":[[116.5973071,23.547719],[116.5946539,23.5467455],[116.5927707,23.5460575],[116.5918417,23.5456961],[116.5909975,23.5453913],[116.5891185,23.5446958],[116.5868022,23.5438439],[116.585076,23.5432083],[116.5761227,23.5399174],[116.575065,23.5395273],[116.5742555,23.5392319],[116.5732143,23.5388449],[116.5711806,23.538089]]},"properties":{"key":"way:571602691@detail:466_94","osmType":"way","osmId":571602691,"sourceRegion":"guangdong","featureType":"infrastructure","railClass":"highspeed","mode":"rail","name":"杭深线","nameEn":"Hangzhou-Shenzhen Line","ref":"3009","usage":"main","highspeed":"yes","status":"operational","color":"#E54848","dataOrigin":"datum-2026-08-01","sourceKey":"way:571602691"}},{"type":"Feature","geometry":{"type":"LineString","coordinates":[[116.577758,23.5406392],[116.5783495,23.5408834],[116.5788749,23.5410974],[116.5828021,23.5425281],[116.5856394,23.543587],[116.5864006,23.5438567],[116.5874303,23.5441693]]},"properties":{"key":"way:571602695@detail:466_94","osmType":"way","osmId":571602695,"sourceRegion":"guangdong","featureType":"infrastructure","railClass":"minor","mode":"rail","name":"未命名","service":"siding","status":"operational","color":"#52636F","dataOrigin":"datum-2026-08-01","sourceKey":"way:571602695"}},{"type":"Feature","geometry":{"type":"LineString","coordinates":[[116.578143,23.5407432],[116.5788866,23.5410461],[116.5793045,23.5411938],[116.5858729,23.5436041],[116.5874303,23.5441693],[116.5890857,23.5447879],[116.5901394,23.5451739],[116.5920003,23.5458561],[116.5931964,23.5462946],[116.5941621,23.5466486],[116.5945869,23.5468043],[116.5973023,23.5478593]]},"properties":{"key":"way:571602698@detail:466_94","osmType":"way","osmId":571602698,"sourceRegion":"guangdong","featureType":"infrastructure","railClass":"minor","mode":"rail","name":"未命名","service":"siding","status":"operational","color":"#52636F","dataOrigin":"datum-2026-08-01","sourceKey":"way:571602698"}},{"type":"Feature","geometry":{"type":"LineString","coordinates":[[116.6293251,23.5636577],[116.630221,23.5620719],[116.6305777,23.561413],[116.6307467,23.5609287],[116.6308486,23.5604615],[116.6308728,23.5600657],[116.6308245,23.5595395],[116.6307735,23.5592617],[116.630626,23.5588265],[116.6303417,23.5582487],[116.6299072,23.5576685],[116.6296175,23.557398],[116.629132,23.5570391],[116.6283408,23.5566727],[116.6276005,23.5564908],[116.6269702,23.5564465],[116.6264726,23.5564515],[116.6250041,23.5566334],[116.6239795,23.5567342],[116.6229629,23.5567047],[116.6223755,23.5566088],[116.6213536,23.5563187],[116.6194627,23.555677],[116.6175985,23.5550328],[116.6091201,23.5519126],[116.597368,23.5476687],[116.5930738,23.5461209],[116.5919405,23.5456955],[116.590741,23.5452536],[116.590004,23.5449799],[116.589092,23.5446443],[116.5879265,23.5441947]]},"properties":{"key":"way:571602701@detail:466_94","osmType":"way","osmId":571602701,"sourceRegion":"guangdong","featureType":"infrastructure","railClass":"minor","mode":"rail","name":"未命名","service":"siding","bridge":"yes","status":"operational","color":"#52636F","dataOrigin":"datum-2026-08-01","sourceKey":"way:571602701"}},{"type":"Feature","geometry":{"type":"LineString","coordinates":[[116.590004,23.5449799],[116.5909975,23.5453913]]},"properties":{"key":"way:571602704@detail:466_94","osmType":"way","osmId":571602704,"sourceRegion":"guangdong","featureType":"infrastructure","railClass":"minor","mode":"rail","name":"未命名","service":"siding","status":"operational","color":"#52636F","dataOrigin":"datum-2026-08-01","sourceKey":"way:571602704"}},{"type":"Feature","geometry":{"type":"LineString","coordinates":[[116.5890857,23.5447879],[116.5901711,23.5451226]]},"properties":{"key":"way:571602709@detail:466_94","osmType":"way","osmId":571602709,"sourceRegion":"guangdong","featureType":"infrastructure","railClass":"minor","mode":"rail","name":"未命名","service":"siding","status":"operational","color":"#52636F","dataOrigin":"datum-2026-08-01","sourceKey":"way:571602709"}},{"type":"Feature","geometry":{"type":"LineString","coordinates":[[116.575065,23.5395273],[116.5762672,23.5400224]]},"properties":{"key":"way:571602715@detail:466_94","osmType":"way","osmId":571602715,"sourceRegion":"guangdong","featureType":"infrastructure","railClass":"minor","mode":"rail","name":"未命名","service":"crossover","status":"operational","color":"#52636F","dataOrigin":"datum-2026-08-01","sourceKey":"way:571602715"}},{"type":"Feature","geometry":{"type":"LineString","coordinates":[[116.5735083,23.5390073],[116.5742555,23.5392319]]},"properties":{"key":"way:571602716@detail:466_94","osmType":"way","osmId":571602716,"sourceRegion":"guangdong","featureType":"infrastructure","railClass":"minor","mode":"rail","name":"未命名","service":"crossover","status":"operational","color":"#52636F","dataOrigin":"datum-2026-08-01","sourceKey":"way:571602716"}},{"type":"Feature","geometry":{"type":"LineString","coordinates":[[116.5436948,23.5185357],[116.5442958,23.5193998],[116.5453806,23.5208631],[116.5468271,23.5226333],[116.5483184,23.5243185],[116.5502251,23.5262175],[116.5518569,23.5277465],[116.553665,23.5292673],[116.5555253,23.5306419],[116.5562668,23.5311506],[116.5570677,23.5316917],[116.5584583,23.5325733],[116.559739,23.5333095],[116.5611844,23.5341],[116.5626806,23.5348362],[116.5644008,23.5356035],[116.5659183,23.5362258],[116.5693101,23.5374528],[116.5711602,23.5381393]]},"properties":{"key":"way:571602717@detail:466_94","osmType":"way","osmId":571602717,"sourceRegion":"guangdong","featureType":"infrastructure","railClass":"highspeed","mode":"rail","name":"杭深线","nameEn":"Hangzhou-Shenzhen Line","ref":"3009","usage":"main","highspeed":"yes","bridge":"yes","status":"operational","color":"#E54848","dataOrigin":"datum-2026-08-01","sourceKey":"way:571602717"}},{"type":"Feature","geometry":{"type":"LineString","coordinates":[[116.6365242,23.5525249],[116.6357088,23.5540395],[116.6350999,23.5549418],[116.6342459,23.5557607],[116.6332268,23.5565085],[116.6321703,23.5571413],[116.6306894,23.5576367],[116.6297221,23.5578259],[116.6289362,23.5579045],[116.6280377,23.5579021],[116.6274449,23.5578455],[116.6266456,23.5577103],[116.6260126,23.5575579],[116.6214126,23.5561245],[116.6196451,23.5555811],[116.6190293,23.5553927],[116.6175556,23.5549418],[116.6007355,23.5487924],[116.5973814,23.5476195]]},"properties":{"key":"way:571602718@detail:466_94","osmType":"way","osmId":571602718,"sourceRegion":"guangdong","featureType":"infrastructure","railClass":"national","mode":"rail","name":"梅汕线","ref":"3080","usage":"main","bridge":"yes","status":"operational","color":"#E54848","dataOrigin":"datum-2026-08-01","sourceKey":"way:571602718"}},{"type":"Feature","geometry":{"type":"LineString","coordinates":[[116.5972728,23.5479029],[116.5989867,23.548576],[116.6097109,23.552502],[116.6149645,23.5544493],[116.6174188,23.555345],[116.618202,23.5556745],[116.6190898,23.5560925],[116.6202539,23.556626],[116.6214944,23.5572665],[116.6226951,23.5578777],[116.6236282,23.5582915],[116.6245386,23.5585105],[116.6258624,23.5586879],[116.6266598,23.5586907],[116.627209,23.5586218],[116.6279449,23.5584931],[116.6292308,23.5581663],[116.6307042,23.557756],[116.6321971,23.5571758],[116.6332948,23.5566175],[116.6341789,23.555993],[116.6348031,23.5555133],[116.6353425,23.5549984],[116.6358242,23.5543406],[116.636659,23.5530126],[116.6377124,23.5511529],[116.638524,23.549753],[116.640019,23.547333]]},"properties":{"key":"way:571602719@detail:466_94","osmType":"way","osmId":571602719,"sourceRegion":"guangdong","featureType":"infrastructure","railClass":"national","mode":"rail","name":"梅汕线","ref":"3080","usage":"main","bridge":"yes","status":"operational","color":"#E54848","dataOrigin":"datum-2026-08-01","sourceKey":"way:571602719"}},{"type":"Feature","geometry":{"type":"LineString","coordinates":[[116.5910749,23.5454558],[116.5918417,23.5456961]]},"properties":{"key":"way:581489718@detail:466_94","osmType":"way","osmId":581489718,"sourceRegion":"guangdong","featureType":"infrastructure","railClass":"minor","mode":"rail","name":"未命名","service":"crossover","status":"operational","color":"#52636F","dataOrigin":"datum-2026-08-01","sourceKey":"way:581489718"}},{"type":"Feature","geometry":{"type":"LineString","coordinates":[[116.5927707,23.5460575],[116.5935526,23.546386]]},"properties":{"key":"way:581489719@detail:466_94","osmType":"way","osmId":581489719,"sourceRegion":"guangdong","featureType":"infrastructure","railClass":"minor","mode":"rail","name":"未命名","service":"crossover","status":"operational","color":"#52636F","dataOrigin":"datum-2026-08-01","sourceKey":"way:581489719"}},{"type":"Feature","geometry":{"type":"LineString","coordinates":[[116.6476232,23.5650492],[116.6457692,23.56437]]},"properties":{"key":"way:582468976@detail:466_94","osmType":"way","osmId":582468976,"sourceRegion":"guangdong","featureType":"infrastructure","railClass":"highspeed","mode":"rail","name":"龙湖联络线","ref":"6711","usage":"main","highspeed":"yes","bridge":"yes","status":"operational","color":"#E54848","dataOrigin":"datum-2026-08-01","sourceKey":"way:582468976"}},{"type":"Feature","geometry":{"type":"LineString","coordinates":[[116.5711806,23.538089],[116.5693233,23.5374084],[116.5659513,23.5361608],[116.5644292,23.5355308],[116.5634852,23.5351173],[116.5625869,23.5346898],[116.5613715,23.53408],[116.5603548,23.5335474],[116.5591317,23.5328536],[116.5579278,23.5321247],[116.5564524,23.5311785],[116.5556689,23.5306388],[116.5545184,23.5298048],[116.5539833,23.5294053],[116.5527698,23.5284393],[116.5515696,23.5274055],[116.5507364,23.5266416],[116.5497235,23.5256813],[116.5489438,23.5248998],[116.5480876,23.5240167],[116.5471283,23.5229338],[116.5461842,23.5217948],[116.5457179,23.5212096],[116.5452822,23.5206523],[116.5448732,23.5200776],[116.5444146,23.5194433],[116.5437618,23.5184997]]},"properties":{"key":"way:582468977@detail:466_94","osmType":"way","osmId":582468977,"sourceRegion":"guangdong","featureType":"infrastructure","railClass":"highspeed","mode":"rail","name":"杭深线","nameEn":"Hangzhou-Shenzhen Line","ref":"3009","usage":"main","highspeed":"yes","bridge":"yes","status":"operational","color":"#E54848","dataOrigin":"datum-2026-08-01","sourceKey":"way:582468977"}},{"type":"Feature","geometry":{"type":"LineString","coordinates":[[116.5437618,23.5184997],[116.5433405,23.5178907],[116.5430348,23.517393],[116.542664,23.5166746],[116.5424226,23.5161848]]},"properties":{"key":"way:582468980@detail:466_94","osmType":"way","osmId":582468980,"sourceRegion":"guangdong","featureType":"infrastructure","railClass":"highspeed","mode":"rail","name":"杭深线","nameEn":"Hangzhou-Shenzhen Line","ref":"3009","usage":"main","highspeed":"yes","status":"operational","color":"#E54848","dataOrigin":"datum-2026-08-01","sourceKey":"way:582468980"}},{"type":"Feature","geometry":{"type":"LineString","coordinates":[[116.5748777,23.6392267],[116.575802,23.6398436],[116.5816075,23.6431135],[116.5830914,23.6437621]]},"properties":{"key":"way:587359861@detail:466_94","osmType":"way","osmId":587359861,"sourceRegion":"guangdong","featureType":"infrastructure","railClass":"minor","mode":"rail","name":"未命名","service":"siding","status":"operational","color":"#52636F","dataOrigin":"datum-2026-08-01","sourceKey":"way:587359861"}},{"type":"Feature","geometry":{"type":"LineString","coordinates":[[116.5752969,23.6394582],[116.5757415,23.6396482],[116.5789967,23.6414455],[116.582066,23.64314],[116.5825725,23.6434756]]},"properties":{"key":"way:587359862@detail:466_94","osmType":"way","osmId":587359862,"sourceRegion":"guangdong","featureType":"infrastructure","railClass":"minor","mode":"rail","name":"未命名","service":"siding","status":"operational","color":"#52636F","dataOrigin":"datum-2026-08-01","sourceKey":"way:587359862"}},{"type":"Feature","geometry":{"type":"LineString","coordinates":[[116.5719714,23.6376138],[116.5717401,23.637484]]},"properties":{"key":"way:587359863@detail:466_94","osmType":"way","osmId":587359863,"sourceRegion":"guangdong","featureType":"infrastructure","railClass":"national","mode":"rail","name":"畲龙线","ref":"0716","usage":"main","bridge":"yes","status":"operational","color":"#E54848","dataOrigin":"datum-2026-08-01","sourceKey":"way:587359863"}},{"type":"Feature","geometry":{"type":"LineString","coordinates":[[116.5717401,23.637484],[116.5692618,23.6361564],[116.5686447,23.6358478],[116.5678919,23.6355916],[116.5672108,23.6354471],[116.5666014,23.635388],[116.5653933,23.6353256],[116.5643898,23.635319],[116.5634435,23.6353716]]},"properties":{"key":"way:587359864@detail:466_94","osmType":"way","osmId":587359864,"sourceRegion":"guangdong","featureType":"infrastructure","railClass":"national","mode":"rail","name":"畲龙线","ref":"0716","usage":"main","status":"operational","color":"#E54848","dataOrigin":"datum-2026-08-01","sourceKey":"way:587359864"}},{"type":"Feature","geometry":{"type":"LineString","coordinates":[[116.5771325,23.5402559],[116.5761227,23.5399174]]},"properties":{"key":"way:630204629@detail:466_94","osmType":"way","osmId":630204629,"sourceRegion":"guangdong","featureType":"infrastructure","railClass":"minor","mode":"rail","name":"未命名","service":"siding","status":"operational","color":"#52636F","dataOrigin":"datum-2026-08-01","sourceKey":"way:630204629"}},{"type":"Feature","geometry":{"type":"LineString","coordinates":[[116.5243782,23.5595912],[116.5246447,23.5596849],[116.5254095,23.5598738],[116.52572,23.5599399],[116.5260497,23.5599942],[116.5264289,23.560039],[116.5268337,23.5600778],[116.5271953,23.5601015],[116.5277353,23.5600843],[116.5281663,23.5600467],[116.5286357,23.5599916],[116.5292102,23.5598923],[116.5366307,23.5579881],[116.5381569,23.5575702],[116.5387713,23.5573475],[116.5392888,23.5570981],[116.5404221,23.5565418],[116.5414944,23.5558604],[116.5421294,23.5553432],[116.5426589,23.5548636],[116.544607,23.5529175],[116.5466637,23.5508841],[116.5470708,23.5504326],[116.5474265,23.549981],[116.5476737,23.5496622],[116.548008,23.5490988],[116.5482551,23.5485638],[116.5484728,23.5479681],[116.5488199,23.5467587],[116.5493039,23.545059],[116.5494174,23.5446176],[116.5499116,23.542759],[116.5501762,23.5418887],[116.550372,23.5414165],[116.550678,23.5407893],[116.5510087,23.5402532],[116.55138,23.5397671],[116.5516706,23.5394384],[116.5520567,23.5390355]]},"properties":{"key":"way:630204630@detail:466_94","osmType":"way","osmId":630204630,"sourceRegion":"guangdong","featureType":"infrastructure","railClass":"highspeed","mode":"rail","name":"梅汕线","nameEn":"Meizhou-Shantou High-Speed Railway","ref":"3080","usage":"main","highspeed":"yes","bridge":"yes","status":"operational","color":"#E54848","dataOrigin":"datum-2026-08-01","sourceKey":"way:630204630"}},{"type":"Feature","geometry":{"type":"LineString","coordinates":[[116.5973814,23.5476195],[116.593409,23.5461762],[116.5928717,23.545979],[116.5910836,23.5453229],[116.5900469,23.5449455],[116.5891001,23.5445804],[116.5880768,23.5441525],[116.5872212,23.5437603],[116.5861724,23.5432279],[116.5850741,23.5427239],[116.5806565,23.5411218],[116.5803078,23.5410259],[116.57942,23.5407665],[116.5782344,23.5404714],[116.5777512,23.5403362],[116.5772809,23.5402046],[116.5762657,23.5399096],[116.5753296,23.5395788],[116.5744471,23.539237],[116.5734413,23.5388485],[116.5721834,23.53836],[116.5712064,23.5379805]]},"properties":{"key":"way:630204632@detail:466_94","osmType":"way","osmId":630204632,"sourceRegion":"guangdong","featureType":"infrastructure","railClass":"highspeed","mode":"rail","name":"梅汕线","nameEn":"Meizhou-Shantou High-Speed Railway","ref":"3080","usage":"main","highspeed":"yes","status":"operational","color":"#E54848","dataOrigin":"datum-2026-08-01","sourceKey":"way:630204632"}},{"type":"Feature","geometry":{"type":"LineString","coordinates":[[116.6564688,23.5228608],[116.6558401,23.5236263],[116.6544923,23.5253232],[116.652706,23.5277259],[116.6495248,23.5321451],[116.6459522,23.5370042],[116.6454801,23.5376608],[116.6452199,23.5380247],[116.6448471,23.5385706],[116.644493,23.5391264],[116.6426557,23.5421583],[116.6416875,23.5437739],[116.64051,23.5455369],[116.639319,23.5473122],[116.6388872,23.5479588],[116.6383865,23.5485053],[116.6375353,23.5494342],[116.6363767,23.5502702],[116.635411,23.5510274],[116.6347888,23.5515045],[116.6338447,23.5524314],[116.6334075,23.5530387],[116.6330508,23.5536338],[116.6326404,23.5545484],[116.6324472,23.5551951],[116.6323507,23.555854],[116.632289,23.5563605]]},"properties":{"key":"way:630204633@detail:466_94","osmType":"way","osmId":630204633,"sourceRegion":"guangdong","featureType":"infrastructure","railClass":"national","mode":"rail","name":"龙湖联络线","ref":"6711","usage":"main","highspeed":"no","bridge":"yes","status":"operational","color":"#E54848","dataOrigin":"datum-2026-08-01","sourceKey":"way:630204633"}},{"type":"Feature","geometry":{"type":"LineString","coordinates":[[116.6457692,23.56437],[116.6427724,23.5633296],[116.640986,23.5626581],[116.6400301,23.5622205],[116.6395917,23.5620054],[116.6387252,23.5613791],[116.6380048,23.5606828],[116.6375423,23.560141],[116.6372345,23.5597344],[116.6367431,23.5588851],[116.6363605,23.5578559],[116.6361311,23.5568408],[116.6360863,23.556229],[116.6360747,23.5560593],[116.6361117,23.5550647],[116.6363294,23.5541167],[116.6367502,23.5530335],[116.6371062,23.5523503],[116.6400603,23.547358]]},"properties":{"key":"way:630204634@detail:466_94","osmType":"way","osmId":630204634,"sourceRegion":"guangdong","featureType":"infrastructure","railClass":"national","mode":"rail","name":"龙湖联络线","ref":"6711","usage":"main","bridge":"yes","status":"operational","color":"#E54848","dataOrigin":"datum-2026-08-01","sourceKey":"way:630204634"}},{"type":"Feature","geometry":{"type":"LineString","coordinates":[[116.7335422,23.5932228],[116.7287981,23.590873],[116.7260086,23.5894991],[116.7226345,23.5878202],[116.7210138,23.5870185],[116.7193308,23.5862313],[116.7179886,23.5856655],[116.7168129,23.5851858],[116.7157689,23.5847922],[116.7150137,23.5845118]]},"properties":{"key":"way:631440911@detail:466_94","osmType":"way","osmId":631440911,"sourceRegion":"guangdong","featureType":"infrastructure","railClass":"highspeed","mode":"rail","name":"杭深线","nameEn":"Hangzhou-Shenzhen Line","ref":"3009","usage":"main","highspeed":"yes","bridge":"viaduct","status":"operational","color":"#E54848","dataOrigin":"datum-2026-08-01","sourceKey":"way:631440911"}},{"type":"Feature","geometry":{"type":"LineString","coordinates":[[116.53783956093024,23.5],[116.542325,23.5159889],[116.5424226,23.5161848]]},"properties":{"key":"way:631441162@detail:466_94","osmType":"way","osmId":631441162,"sourceRegion":"guangdong","featureType":"infrastructure","railClass":"highspeed","mode":"rail","name":"杭深线","nameEn":"Hangzhou-Shenzhen Line","ref":"3009","usage":"main","highspeed":"yes","tunnel":"yes","status":"operational","color":"#E54848","dataOrigin":"datum-2026-08-01","sourceKey":"way:631441162"}},{"type":"Feature","geometry":{"type":"LineString","coordinates":[[116.6411832,23.5449124],[116.6398153,23.547263],[116.638332,23.5498177],[116.6360441,23.5537493],[116.6349792,23.5555958],[116.6324817,23.5598768],[116.6306781,23.5630283],[116.626196,23.5705792],[116.6234384,23.5753603],[116.6221105,23.5776365],[116.6216226,23.578545],[116.6213583,23.5792314],[116.6211831,23.5798149],[116.6210175,23.5805155],[116.6209265,23.5812286],[116.6208734,23.5817684],[116.6208223,23.5841429],[116.6207706,23.5847781],[116.6207017,23.5852641],[116.6205841,23.5857583],[116.6200376,23.5877028],[116.6186946,23.5925916],[116.6177135,23.595936],[116.6163038,23.6012163]]},"properties":{"key":"way:632550708@detail:466_94","osmType":"way","osmId":632550708,"sourceRegion":"guangdong","featureType":"infrastructure","railClass":"national","mode":"rail","name":"畲龙线","ref":"0716","usage":"main","status":"operational","color":"#E54848","dataOrigin":"datum-2026-08-01","sourceKey":"way:632550708"}},{"type":"Feature","geometry":{"type":"LineString","coordinates":[[116.6514538,23.529788],[116.6510148,23.5303843],[116.650638,23.5308823],[116.6499352,23.5317835],[116.649207,23.5327082],[116.6489119,23.5330893],[116.6485324,23.5335836],[116.6460005,23.5370325],[116.6455203,23.5377001],[116.6452614,23.5380653],[116.6449088,23.5386063],[116.6445722,23.5391595],[116.6428398,23.5421193],[116.6419678,23.5436152],[116.6416298,23.5441291],[116.6407675,23.5454041],[116.6390187,23.5482047],[116.6365242,23.5525249]]},"properties":{"key":"way:825457626@detail:466_94","osmType":"way","osmId":825457626,"sourceRegion":"guangdong","featureType":"infrastructure","railClass":"national","mode":"rail","name":"梅汕线","ref":"3080","usage":"main","bridge":"yes","status":"operational","color":"#E54848","dataOrigin":"datum-2026-08-01","sourceKey":"way:825457626"}},{"type":"Feature","geometry":{"type":"LineString","coordinates":[[116.6499352,23.5317835],[116.6491514,23.5328723],[116.6486424,23.5335258],[116.6484104,23.5338431],[116.6480483,23.5343324],[116.6460475,23.537054],[116.6455579,23.5377309],[116.6453084,23.5380887],[116.644953,23.5386272],[116.6446111,23.5391829],[116.643277,23.5414712],[116.641949,23.5437369],[116.6416687,23.5441623],[116.6411832,23.5449124]]},"properties":{"key":"way:825631053@detail:466_94","osmType":"way","osmId":825631053,"sourceRegion":"guangdong","featureType":"infrastructure","railClass":"national","mode":"rail","name":"畲龙线","usage":"main","bridge":"yes","status":"operational","color":"#E54848","dataOrigin":"datum-2026-08-01","sourceKey":"way:825631053"}},{"type":"Feature","geometry":{"type":"LineString","coordinates":[[116.5712064,23.5379805],[116.5699768,23.5374736],[116.5692754,23.5371173],[116.5686061,23.5367376],[116.5677912,23.5362087],[116.5668894,23.5356268],[116.5658125,23.5350711]]},"properties":{"key":"way:827905346@detail:466_94","osmType":"way","osmId":827905346,"sourceRegion":"guangdong","featureType":"infrastructure","railClass":"highspeed","mode":"rail","name":"梅汕线","nameEn":"Meizhou-Shantou High-Speed Railway","ref":"3080","usage":"main","highspeed":"yes","bridge":"yes","status":"operational","color":"#E54848","dataOrigin":"datum-2026-08-01","sourceKey":"way:827905346"}},{"type":"Feature","geometry":{"type":"LineString","coordinates":[[116.5520017,23.53902],[116.5516042,23.5394338],[116.5512508,23.5398409],[116.5508711,23.5403555],[116.5506654,23.5406955],[116.5505111,23.5410152],[116.5502953,23.5414523],[116.5501237,23.5418828],[116.5498656,23.5427473],[116.5493678,23.5446155],[116.5491064,23.5455798],[116.5487885,23.5466855],[116.5485719,23.547464],[116.5484189,23.5479515],[116.5482153,23.5485391],[116.5479603,23.5490593],[116.5476156,23.5496457],[116.5473697,23.5499586],[116.5470348,23.5503974],[116.546619,23.5508363],[116.5446105,23.5528553],[116.5427846,23.5546713],[116.5420465,23.5553572],[116.5414345,23.555795],[116.5403824,23.5564767],[116.539278,23.5570342],[116.5387476,23.5572766],[116.53813,23.5575013],[116.5366119,23.5579045],[116.5292207,23.5598223],[116.528626,23.5599369],[116.5281736,23.5600015],[116.5277595,23.5600427],[116.5271639,23.5600431],[116.5266034,23.5600112],[116.526089,23.5599445],[116.525799,23.5599061],[116.5252501,23.5597872],[116.5246832,23.5596236],[116.5244017,23.5595392]]},"properties":{"key":"way:827943224@detail:466_94","osmType":"way","osmId":827943224,"sourceRegion":"guangdong","featureType":"infrastructure","railClass":"highspeed","mode":"rail","name":"梅汕线","nameEn":"Meizhou-Shantou High-Speed Railway","ref":"3080","usage":"main","highspeed":"yes","bridge":"yes","status":"operational","color":"#E54848","dataOrigin":"datum-2026-08-01","sourceKey":"way:827943224"}},{"type":"Feature","geometry":{"type":"LineString","coordinates":[[116.5520567,23.5390355],[116.5523995,23.5387246],[116.5527791,23.5384138],[116.5530624,23.5382168],[116.5542793,23.5375511],[116.5564752,23.5365105],[116.5576012,23.535975],[116.5581278,23.5357614],[116.5586225,23.5355694],[116.559154,23.5354111],[116.5603656,23.5352583],[116.5613258,23.5352484],[116.5622753,23.5353222],[116.5631472,23.5354817],[116.5640687,23.5357762]]},"properties":{"key":"way:827943225@detail:466_94","osmType":"way","osmId":827943225,"sourceRegion":"guangdong","featureType":"infrastructure","railClass":"highspeed","mode":"rail","name":"梅汕线","nameEn":"Meizhou-Shantou High-Speed Railway","ref":"3080","usage":"main","highspeed":"yes","bridge":"yes","status":"operational","color":"#E54848","dataOrigin":"datum-2026-08-01","sourceKey":"way:827943225"}},{"type":"Feature","geometry":{"type":"LineString","coordinates":[[116.5707672,23.538128],[116.5713615,23.5383305],[116.5752378,23.5397114],[116.5760873,23.5400325],[116.5768732,23.5403485],[116.577809,23.5407854],[116.5786877,23.5411956],[116.5805787,23.5421017],[116.5852001,23.5437984],[116.5857017,23.5439742],[116.5872882,23.5444636],[116.5880527,23.544659],[116.5892918,23.5449843],[116.5904747,23.545377],[116.5913048,23.5456807],[116.5940689,23.5466938],[116.5966666,23.5476576],[116.5972728,23.5479029]]},"properties":{"key":"way:827943226@detail:466_94","osmType":"way","osmId":827943226,"sourceRegion":"guangdong","featureType":"infrastructure","railClass":"highspeed","mode":"rail","name":"梅汕线","nameEn":"Meizhou-Shantou High-Speed Railway","ref":"3080","usage":"main","highspeed":"yes","status":"operational","color":"#E54848","dataOrigin":"datum-2026-08-01","sourceKey":"way:827943226"}},{"type":"Feature","geometry":{"type":"LineString","coordinates":[[116.5658125,23.5350711],[116.5645989,23.5347378],[116.5641698,23.5346684],[116.5632462,23.5345527],[116.5626362,23.5345199],[116.5619748,23.5345208],[116.561513,23.534559],[116.5608932,23.5346511],[116.5603831,23.5347574],[116.5599243,23.5348975],[116.5589794,23.5352517],[116.55809,23.535656],[116.5566779,23.5363672],[116.5543239,23.5374707],[116.553628,23.5378463],[116.5530646,23.5381616],[116.5527658,23.5383557],[116.5523323,23.5387013],[116.5520017,23.53902]]},"properties":{"key":"way:827943227@detail:466_94","osmType":"way","osmId":827943227,"sourceRegion":"guangdong","featureType":"infrastructure","railClass":"highspeed","mode":"rail","name":"梅汕线","nameEn":"Meizhou-Shantou High-Speed Railway","ref":"3080","usage":"main","highspeed":"yes","bridge":"yes","status":"operational","color":"#E54848","dataOrigin":"datum-2026-08-01","sourceKey":"way:827943227"}},{"type":"Feature","geometry":{"type":"LineString","coordinates":[[116.7396846,23.5963082],[116.7407897,23.5968612],[116.7462615,23.5994115],[116.75,23.60135368744171]]},"properties":{"key":"way:827948540@detail:466_94","osmType":"way","osmId":827948540,"sourceRegion":"guangdong","featureType":"infrastructure","railClass":"highspeed","mode":"rail","name":"杭深线","nameEn":"Hangzhou-Shenzhen Line","ref":"3009","usage":"main","highspeed":"yes","bridge":"viaduct","status":"operational","color":"#E54848","dataOrigin":"datum-2026-08-01","sourceKey":"way:827948540"}},{"type":"Feature","geometry":{"type":"LineString","coordinates":[[116.75,23.60130494261548],[116.7462834,23.5993741],[116.7408113,23.5968236],[116.7397067,23.5962709]]},"properties":{"key":"way:827948541@detail:466_94","osmType":"way","osmId":827948541,"sourceRegion":"guangdong","featureType":"infrastructure","railClass":"highspeed","mode":"rail","name":"杭深线","nameEn":"Hangzhou-Shenzhen Line","ref":"3009","usage":"main","highspeed":"yes","bridge":"viaduct","status":"operational","color":"#E54848","dataOrigin":"datum-2026-08-01","sourceKey":"way:827948541"}},{"type":"Feature","geometry":{"type":"LineString","coordinates":[[116.7397067,23.5962709],[116.7364156,23.5946461],[116.7335422,23.5932228]]},"properties":{"key":"way:827948542@detail:466_94","osmType":"way","osmId":827948542,"sourceRegion":"guangdong","featureType":"infrastructure","railClass":"highspeed","mode":"rail","name":"杭深线","nameEn":"Hangzhou-Shenzhen Line","ref":"3009","usage":"main","highspeed":"yes","bridge":"viaduct","status":"operational","color":"#E54848","dataOrigin":"datum-2026-08-01","sourceKey":"way:827948542"}},{"type":"Feature","geometry":{"type":"LineString","coordinates":[[116.7335132,23.5932568],[116.7363936,23.5946835],[116.7396846,23.5963082]]},"properties":{"key":"way:827948543@detail:466_94","osmType":"way","osmId":827948543,"sourceRegion":"guangdong","featureType":"infrastructure","railClass":"highspeed","mode":"rail","name":"杭深线","nameEn":"Hangzhou-Shenzhen Line","ref":"3009","usage":"main","highspeed":"yes","bridge":"viaduct","status":"operational","color":"#E54848","dataOrigin":"datum-2026-08-01","sourceKey":"way:827948543"}},{"type":"Feature","geometry":{"type":"LineString","coordinates":[[116.5,23.536670222006475],[116.501534,23.5374124],[116.5031433,23.5383174],[116.505332,23.5397731],[116.5062002,23.5405527],[116.5067206,23.5410882],[116.5080453,23.5425485],[116.5096671,23.5443289]]},"properties":{"key":"way:840029039@detail:466_94","osmType":"way","osmId":840029039,"sourceRegion":"guangdong","featureType":"infrastructure","railClass":"highspeed","mode":"rail","name":"梅汕线","nameEn":"Meizhou-Shantou High-Speed Railway","ref":"3080","usage":"main","highspeed":"yes","tunnel":"yes","status":"operational","color":"#E54848","dataOrigin":"datum-2026-08-01","sourceKey":"way:840029039"}},{"type":"Feature","geometry":{"type":"LineString","coordinates":[[116.5096671,23.5443289],[116.5106401,23.5456574],[116.5139097,23.5493481],[116.5146339,23.5499849],[116.5164176,23.5519962],[116.5200251,23.5560827],[116.521318,23.5575529],[116.5220227,23.5582153],[116.5222872,23.5584313],[116.5225856,23.5586473]]},"properties":{"key":"way:907009311@detail:466_94","osmType":"way","osmId":907009311,"sourceRegion":"guangdong","featureType":"infrastructure","railClass":"highspeed","mode":"rail","name":"梅汕线","nameEn":"Meizhou-Shantou High-Speed Railway","ref":"3080","usage":"main","highspeed":"yes","tunnel":"yes","status":"operational","color":"#E54848","dataOrigin":"datum-2026-08-01","sourceKey":"way:907009311"}},{"type":"Feature","geometry":{"type":"LineString","coordinates":[[116.5226336,23.5586009],[116.5223375,23.5583992],[116.5220751,23.558182],[116.5213662,23.5575259],[116.5199581,23.5559032],[116.5164819,23.5519593],[116.5146956,23.5499407],[116.5141511,23.5491686],[116.5109271,23.5455221],[116.5097308,23.5442705]]},"properties":{"key":"way:907009312@detail:466_94","osmType":"way","osmId":907009312,"sourceRegion":"guangdong","featureType":"infrastructure","railClass":"highspeed","mode":"rail","name":"梅汕线","nameEn":"Meizhou-Shantou High-Speed Railway","ref":"3080","usage":"main","highspeed":"yes","tunnel":"yes","status":"operational","color":"#E54848","dataOrigin":"datum-2026-08-01","sourceKey":"way:907009312"}},{"type":"Feature","geometry":{"type":"LineString","coordinates":[[116.5225856,23.5586473],[116.5229768,23.5589197],[116.5232997,23.5591016],[116.5238912,23.5593887],[116.5243782,23.5595912]]},"properties":{"key":"way:907009313@detail:466_94","osmType":"way","osmId":907009313,"sourceRegion":"guangdong","featureType":"infrastructure","railClass":"highspeed","mode":"rail","name":"梅汕线","nameEn":"Meizhou-Shantou High-Speed Railway","ref":"3080","usage":"main","highspeed":"yes","status":"operational","color":"#E54848","dataOrigin":"datum-2026-08-01","sourceKey":"way:907009313"}},{"type":"Feature","geometry":{"type":"LineString","coordinates":[[116.5244017,23.5595392],[116.523853,23.5593174],[116.5232959,23.5590415],[116.5228697,23.5587847],[116.5226336,23.5586009]]},"properties":{"key":"way:907009314@detail:466_94","osmType":"way","osmId":907009314,"sourceRegion":"guangdong","featureType":"infrastructure","railClass":"highspeed","mode":"rail","name":"梅汕线","nameEn":"Meizhou-Shantou High-Speed Railway","ref":"3080","usage":"main","highspeed":"yes","status":"operational","color":"#E54848","dataOrigin":"datum-2026-08-01","sourceKey":"way:907009314"}},{"type":"Feature","geometry":{"type":"LineString","coordinates":[[116.5640687,23.5357762],[116.5650299,23.5361015],[116.5664043,23.5366334],[116.5689954,23.5375597],[116.5700456,23.5379165],[116.5707672,23.538128]]},"properties":{"key":"way:907009315@detail:466_94","osmType":"way","osmId":907009315,"sourceRegion":"guangdong","featureType":"infrastructure","railClass":"highspeed","mode":"rail","name":"梅汕线","nameEn":"Meizhou-Shantou High-Speed Railway","ref":"3080","usage":"main","highspeed":"yes","bridge":"yes","status":"operational","color":"#E54848","dataOrigin":"datum-2026-08-01","sourceKey":"way:907009315"}},{"type":"Feature","geometry":{"type":"LineString","coordinates":[[116.5493019,23.635973],[116.5488961,23.6360692],[116.5484577,23.6361454],[116.5480158,23.6362299],[116.5476127,23.6362839],[116.5472518,23.6363106],[116.5468559,23.6362975],[116.5460673,23.6361596],[116.5453792,23.6359954],[116.5447483,23.6357393],[116.5441534,23.6353847],[116.5433864,23.6348659],[116.536564,23.6290077],[116.5299743,23.6233861],[116.5295513,23.6229855],[116.5291858,23.6226177],[116.524952,23.6169113]]},"properties":{"key":"way:907022187@detail:466_94","osmType":"way","osmId":907022187,"sourceRegion":"guangdong","featureType":"infrastructure","railClass":"national","mode":"rail","name":"畲龙线","ref":"0716","usage":"main","status":"operational","color":"#E54848","dataOrigin":"datum-2026-08-01","sourceKey":"way:907022187"}},{"type":"Feature","geometry":{"type":"LineString","coordinates":[[116.524952,23.6169113],[116.5248907,23.6168286]]},"properties":{"key":"way:907022188@detail:466_94","osmType":"way","osmId":907022188,"sourceRegion":"guangdong","featureType":"infrastructure","railClass":"national","mode":"rail","name":"畲龙线","ref":"0716","usage":"main","bridge":"yes","status":"operational","color":"#E54848","dataOrigin":"datum-2026-08-01","sourceKey":"way:907022188"}},{"type":"Feature","geometry":{"type":"LineString","coordinates":[[116.67404375725822,23.5],[116.6703219,23.5039841],[116.6697791,23.5046174],[116.6693143,23.5052039],[116.660032,23.5179313],[116.6564688,23.5228608],[116.6514538,23.529788]]},"properties":{"key":"way:912388765@detail:466_94","osmType":"way","osmId":912388765,"sourceRegion":"guangdong","featureType":"infrastructure","railClass":"national","mode":"rail","name":"梅汕线","ref":"3080","usage":"main","bridge":"yes","status":"operational","color":"#E54848","dataOrigin":"datum-2026-08-01","sourceKey":"way:912388765"}},{"type":"Feature","geometry":{"type":"LineString","coordinates":[[116.6652223,23.5105637],[116.6631306,23.513439],[116.6598835,23.5178905]]},"properties":{"key":"way:912388778@detail:466_94","osmType":"way","osmId":912388778,"sourceRegion":"guangdong","featureType":"infrastructure","railClass":"minor","mode":"abandoned","name":"广梅汕铁路畲汕线废弃段","status":"operational","color":"#52636F","dataOrigin":"datum-2026-08-01","sourceKey":"way:912388778"}},{"type":"Feature","geometry":{"type":"LineString","coordinates":[[116.6653816,23.5103356],[116.6652223,23.5105637]]},"properties":{"key":"way:912388779@detail:466_94","osmType":"way","osmId":912388779,"sourceRegion":"guangdong","featureType":"infrastructure","railClass":"minor","mode":"abandoned","name":"广梅汕铁路畲汕线废弃段","bridge":"yes","status":"operational","color":"#52636F","dataOrigin":"datum-2026-08-01","sourceKey":"way:912388779"}},{"type":"Feature","geometry":{"type":"LineString","coordinates":[[116.6400603,23.547358],[116.6405032,23.5465825],[116.6406537,23.546319],[116.6419503,23.5440492],[116.6430017,23.5422309],[116.6447318,23.5392469],[116.6450831,23.538696],[116.6454358,23.5381636],[116.6456893,23.5377985],[116.6461748,23.5371321],[116.6482079,23.5343619],[116.6486639,23.5336488]]},"properties":{"key":"way:912388780@detail:466_94","osmType":"way","osmId":912388780,"sourceRegion":"guangdong","featureType":"infrastructure","railClass":"national","mode":"rail","name":"龙湖联络线","ref":"6711","usage":"main","status":"operational","color":"#E54848","dataOrigin":"datum-2026-08-01","sourceKey":"way:912388780"}},{"type":"Feature","geometry":{"type":"LineString","coordinates":[[116.6514906,23.5298118],[116.6565089,23.5228747],[116.6600646,23.5179513],[116.6693464,23.5052245],[116.6698104,23.5046391],[116.6703522,23.5040069],[116.67409532090579,23.5]]},"properties":{"key":"way:912388781@detail:466_94","osmType":"way","osmId":912388781,"sourceRegion":"guangdong","featureType":"infrastructure","railClass":"national","mode":"rail","name":"梅汕线","ref":"3080","usage":"main","bridge":"yes","status":"operational","color":"#E54848","dataOrigin":"datum-2026-08-01","sourceKey":"way:912388781"}},{"type":"Feature","geometry":{"type":"LineString","coordinates":[[116.6482079,23.5343619],[116.6488476,23.5334694]]},"properties":{"key":"way:912388782@detail:466_94","osmType":"way","osmId":912388782,"sourceRegion":"guangdong","featureType":"infrastructure","railClass":"minor","mode":"rail","name":"未命名","service":"yard","bridge":"yes","status":"operational","color":"#52636F","dataOrigin":"datum-2026-08-01","sourceKey":"way:912388782"}},{"type":"Feature","geometry":{"type":"LineString","coordinates":[[116.6596616,23.5181924],[116.6578249,23.5207025],[116.6570133,23.5218305],[116.6560287,23.5231664],[116.6553372,23.5241329]]},"properties":{"key":"way:912388784@detail:466_94","osmType":"way","osmId":912388784,"sourceRegion":"guangdong","featureType":"infrastructure","railClass":"minor","mode":"abandoned","name":"广梅汕铁路畲汕线废弃段","usage":"main","status":"operational","color":"#52636F","dataOrigin":"datum-2026-08-01","sourceKey":"way:912388784"}},{"type":"Feature","geometry":{"type":"LineString","coordinates":[[116.640019,23.547333],[116.6404591,23.5465611],[116.6406106,23.5462954],[116.6419101,23.5440283],[116.6430607,23.542028],[116.6434872,23.5413063],[116.6446956,23.539226],[116.6450416,23.5386715],[116.6453889,23.5381378],[116.6456477,23.5377764],[116.6461332,23.5371051],[116.648385,23.5340369],[116.6486639,23.5336488],[116.6490782,23.5330759],[116.6514906,23.5298118]]},"properties":{"key":"way:948548237@detail:466_94","osmType":"way","osmId":948548237,"sourceRegion":"guangdong","featureType":"infrastructure","railClass":"national","mode":"rail","name":"梅汕线","ref":"3080","usage":"main","bridge":"yes","status":"operational","color":"#E54848","dataOrigin":"datum-2026-08-01","sourceKey":"way:948548237"}},{"type":"Feature","geometry":{"type":"LineString","coordinates":[[116.50215590334656,23.5],[116.5021944,23.5002887],[116.5022251,23.5008855],[116.502208,23.5014565],[116.502141,23.5020204],[116.5020227,23.5025729],[116.5018469,23.5031324],[116.5006784,23.5064498],[116.5,23.50837580232241]]},"properties":{"key":"way:1023108979@detail:466_94","osmType":"way","osmId":1023108979,"sourceRegion":"guangdong","featureType":"infrastructure","railClass":"construction","mode":"construction","name":"粤东城际线","usage":"main","bridge":"yes","status":"construction","color":"#147D92","dataOrigin":"datum-2026-08-01","sourceKey":"way:1023108979"}},{"type":"Feature","geometry":{"type":"LineString","coordinates":[[116.5,23.536629730394083],[116.5000065,23.5366325],[116.5015535,23.537381],[116.5031652,23.5382873],[116.5053575,23.5397454],[116.5062287,23.5405277],[116.5067505,23.5410646],[116.5080755,23.5425253],[116.5097308,23.5442705]]},"properties":{"key":"way:1090905270@detail:466_94","osmType":"way","osmId":1090905270,"sourceRegion":"guangdong","featureType":"infrastructure","railClass":"highspeed","mode":"rail","name":"梅汕线","nameEn":"Meizhou-Shantou High-Speed Railway","ref":"3080","usage":"main","highspeed":"yes","tunnel":"yes","status":"operational","color":"#E54848","dataOrigin":"datum-2026-08-01","sourceKey":"way:1090905270"}},{"type":"Feature","geometry":{"type":"LineString","coordinates":[[116.5790566,23.540765],[116.5777512,23.5403362]]},"properties":{"key":"way:1091182046@detail:466_94","osmType":"way","osmId":1091182046,"sourceRegion":"guangdong","featureType":"infrastructure","railClass":"minor","mode":"rail","name":"未命名","service":"siding","status":"operational","color":"#52636F","dataOrigin":"datum-2026-08-01","sourceKey":"way:1091182046"}},{"type":"Feature","geometry":{"type":"LineString","coordinates":[[116.5789455,23.5412138],[116.577809,23.5407854]]},"properties":{"key":"way:1091182047@detail:466_94","osmType":"way","osmId":1091182047,"sourceRegion":"guangdong","featureType":"infrastructure","railClass":"minor","mode":"rail","name":"未命名","service":"siding","status":"operational","color":"#52636F","dataOrigin":"datum-2026-08-01","sourceKey":"way:1091182047"}},{"type":"Feature","geometry":{"type":"LineString","coordinates":[[116.5743022,23.5392945],[116.5752378,23.5397114]]},"properties":{"key":"way:1091182048@detail:466_94","osmType":"way","osmId":1091182048,"sourceRegion":"guangdong","featureType":"infrastructure","railClass":"minor","mode":"rail","name":"未命名","service":"siding","status":"operational","color":"#52636F","dataOrigin":"datum-2026-08-01","sourceKey":"way:1091182048"}},{"type":"Feature","geometry":{"type":"LineString","coordinates":[[116.5721834,23.53836],[116.5732143,23.5388449]]},"properties":{"key":"way:1091182049@detail:466_94","osmType":"way","osmId":1091182049,"sourceRegion":"guangdong","featureType":"infrastructure","railClass":"minor","mode":"rail","name":"未命名","service":"siding","status":"operational","color":"#52636F","dataOrigin":"datum-2026-08-01","sourceKey":"way:1091182049"}},{"type":"Feature","geometry":{"type":"LineString","coordinates":[[116.5713615,23.5383305],[116.5723086,23.5385664]]},"properties":{"key":"way:1091182050@detail:466_94","osmType":"way","osmId":1091182050,"sourceRegion":"guangdong","featureType":"infrastructure","railClass":"minor","mode":"rail","name":"未命名","service":"siding","status":"operational","color":"#52636F","dataOrigin":"datum-2026-08-01","sourceKey":"way:1091182050"}},{"type":"Feature","geometry":{"type":"LineString","coordinates":[[116.5931964,23.5462946],[116.5940689,23.5466938]]},"properties":{"key":"way:1091185209@detail:466_94","osmType":"way","osmId":1091185209,"sourceRegion":"guangdong","featureType":"infrastructure","railClass":"minor","mode":"rail","name":"未命名","service":"siding","status":"operational","color":"#52636F","dataOrigin":"datum-2026-08-01","sourceKey":"way:1091185209"}},{"type":"Feature","geometry":{"type":"LineString","coordinates":[[116.5920003,23.5458561],[116.5913048,23.5456807]]},"properties":{"key":"way:1091185210@detail:466_94","osmType":"way","osmId":1091185210,"sourceRegion":"guangdong","featureType":"infrastructure","railClass":"minor","mode":"rail","name":"未命名","service":"siding","status":"operational","color":"#52636F","dataOrigin":"datum-2026-08-01","sourceKey":"way:1091185210"}},{"type":"Feature","geometry":{"type":"LineString","coordinates":[[116.5872882,23.5444636],[116.5885261,23.5448889]]},"properties":{"key":"way:1091185211@detail:466_94","osmType":"way","osmId":1091185211,"sourceRegion":"guangdong","featureType":"infrastructure","railClass":"minor","mode":"rail","name":"未命名","service":"siding","status":"operational","color":"#52636F","dataOrigin":"datum-2026-08-01","sourceKey":"way:1091185211"}},{"type":"Feature","geometry":{"type":"LineString","coordinates":[[116.5930738,23.5461209],[116.5936464,23.5463729]]},"properties":{"key":"way:1091186365@detail:466_94","osmType":"way","osmId":1091186365,"sourceRegion":"guangdong","featureType":"infrastructure","railClass":"minor","mode":"rail","name":"未命名","service":"siding","status":"operational","color":"#52636F","dataOrigin":"datum-2026-08-01","sourceKey":"way:1091186365"}},{"type":"Feature","geometry":{"type":"LineString","coordinates":[[116.5941621,23.5466486],[116.5949661,23.5468984]]},"properties":{"key":"way:1091186366@detail:466_94","osmType":"way","osmId":1091186366,"sourceRegion":"guangdong","featureType":"infrastructure","railClass":"minor","mode":"rail","name":"未命名","service":"siding","status":"operational","color":"#52636F","dataOrigin":"datum-2026-08-01","sourceKey":"way:1091186366"}},{"type":"Feature","geometry":{"type":"LineString","coordinates":[[116.5919405,23.5456955],[116.5928717,23.545979]]},"properties":{"key":"way:1091187282@detail:466_94","osmType":"way","osmId":1091187282,"sourceRegion":"guangdong","featureType":"infrastructure","railClass":"minor","mode":"rail","name":"未命名","service":"siding","status":"operational","color":"#52636F","dataOrigin":"datum-2026-08-01","sourceKey":"way:1091187282"}},{"type":"Feature","geometry":{"type":"LineString","coordinates":[[116.590741,23.5452536],[116.5900469,23.544943]]},"properties":{"key":"way:1091187283@detail:466_94","osmType":"way","osmId":1091187283,"sourceRegion":"guangdong","featureType":"infrastructure","railClass":"minor","mode":"rail","name":"未命名","service":"siding","status":"operational","color":"#52636F","dataOrigin":"datum-2026-08-01","sourceKey":"way:1091187283"}},{"type":"Feature","geometry":{"type":"LineString","coordinates":[[116.589092,23.5446443],[116.5872118,23.5438292],[116.5863319,23.5434563],[116.5858847,23.5432625],[116.585466,23.5430911],[116.5829515,23.5421705],[116.580437,23.5412499],[116.5800386,23.5411269],[116.5795954,23.5410076],[116.5781647,23.5406251]]},"properties":{"key":"way:1091187284@detail:466_94","osmType":"way","osmId":1091187284,"sourceRegion":"guangdong","featureType":"infrastructure","railClass":"minor","mode":"rail","name":"未命名","service":"siding","status":"operational","color":"#52636F","dataOrigin":"datum-2026-08-01","sourceKey":"way:1091187284"}},{"type":"Feature","geometry":{"type":"LineString","coordinates":[[116.6292715,23.5636515],[116.6294754,23.563166],[116.62958,23.562689],[116.6296309,23.5622342],[116.6295961,23.5616638],[116.6294914,23.5611229],[116.6293171,23.5606926],[116.628947,23.5600608],[116.6286948,23.5597682],[116.6283596,23.5594215],[116.6279465,23.559124],[116.6274235,23.5588388],[116.6266859,23.5585512],[116.6249022,23.5579242],[116.6179861,23.5554778],[116.5973023,23.5478593]]},"properties":{"key":"way:1091187651@detail:466_94","osmType":"way","osmId":1091187651,"sourceRegion":"guangdong","featureType":"infrastructure","railClass":"minor","mode":"rail","name":"未命名","service":"siding","bridge":"yes","status":"operational","color":"#52636F","dataOrigin":"datum-2026-08-01","sourceKey":"way:1091187651"}},{"type":"Feature","geometry":{"type":"LineString","coordinates":[[116.6412176,23.56402],[116.6417176,23.5640461],[116.6425222,23.5640996]]},"properties":{"key":"way:1092242936@detail:466_94","osmType":"way","osmId":1092242936,"sourceRegion":"guangdong","featureType":"infrastructure","railClass":"minor","mode":"rail","name":"未命名","service":"yard","bridge":"yes","status":"operational","color":"#52636F","dataOrigin":"datum-2026-08-01","sourceKey":"way:1092242936"}},{"type":"Feature","geometry":{"type":"LineString","coordinates":[[116.6478581,23.5346678],[116.648385,23.5340369]]},"properties":{"key":"way:1092242937@detail:466_94","osmType":"way","osmId":1092242937,"sourceRegion":"guangdong","featureType":"infrastructure","railClass":"minor","mode":"rail","name":"未命名","service":"siding","status":"operational","color":"#52636F","dataOrigin":"datum-2026-08-01","sourceKey":"way:1092242937"}},{"type":"Feature","geometry":{"type":"LineString","coordinates":[[116.6475668,23.5350714],[116.6480483,23.5343324]]},"properties":{"key":"way:1092242938@detail:466_94","osmType":"way","osmId":1092242938,"sourceRegion":"guangdong","featureType":"infrastructure","railClass":"minor","mode":"rail","name":"未命名","service":"siding","status":"operational","color":"#52636F","dataOrigin":"datum-2026-08-01","sourceKey":"way:1092242938"}},{"type":"Feature","geometry":{"type":"LineString","coordinates":[[116.6428398,23.5421193],[116.643277,23.5414712]]},"properties":{"key":"way:1092242939@detail:466_94","osmType":"way","osmId":1092242939,"sourceRegion":"guangdong","featureType":"infrastructure","railClass":"minor","mode":"rail","name":"未命名","service":"siding","status":"operational","color":"#52636F","dataOrigin":"datum-2026-08-01","sourceKey":"way:1092242939"}},{"type":"Feature","geometry":{"type":"LineString","coordinates":[[116.6430017,23.5422309],[116.6434872,23.5413063]]},"properties":{"key":"way:1092242941@detail:466_94","osmType":"way","osmId":1092242941,"sourceRegion":"guangdong","featureType":"infrastructure","railClass":"minor","mode":"rail","name":"未命名","service":"siding","status":"operational","color":"#52636F","dataOrigin":"datum-2026-08-01","sourceKey":"way:1092242941"}},{"type":"Feature","geometry":{"type":"LineString","coordinates":[[116.6423956,23.5430447],[116.6426718,23.5425997],[116.6446513,23.5392063],[116.6449973,23.5386469],[116.6453527,23.5381108],[116.6456008,23.5377579],[116.646089,23.5370768],[116.6475668,23.5350714],[116.6478581,23.5346678]]},"properties":{"key":"way:1092242942@detail:466_94","osmType":"way","osmId":1092242942,"sourceRegion":"guangdong","featureType":"infrastructure","railClass":"minor","mode":"rail","name":"未命名","service":"siding","status":"operational","color":"#52636F","dataOrigin":"datum-2026-08-01","sourceKey":"way:1092242942"}},{"type":"Feature","geometry":{"type":"LineString","coordinates":[[116.641949,23.5437369],[116.6423956,23.5430447],[116.6430607,23.542028]]},"properties":{"key":"way:1092242943@detail:466_94","osmType":"way","osmId":1092242943,"sourceRegion":"guangdong","featureType":"infrastructure","railClass":"minor","mode":"rail","name":"未命名","service":"crossover","status":"operational","color":"#52636F","dataOrigin":"datum-2026-08-01","sourceKey":"way:1092242943"}},{"type":"Feature","geometry":{"type":"LineString","coordinates":[[116.5328804,23.559493],[116.5429421,23.5568181],[116.5436316,23.5566212],[116.5442507,23.556429],[116.5448289,23.556233],[116.5454161,23.5559962],[116.5460115,23.5557258],[116.5465674,23.5554508],[116.5470554,23.5551732],[116.5475516,23.5548618],[116.5480516,23.5545227],[116.5485434,23.5541573],[116.5490256,23.5537602],[116.5494669,23.5533555],[116.5498758,23.5529443],[116.5502969,23.5524693],[116.550703,23.5519764],[116.5510836,23.5514526],[116.5514059,23.5509595],[116.5558048,23.5437286],[116.5561555,23.5432036],[116.5565025,23.5427063],[116.5569074,23.5422261],[116.5572958,23.5417991],[116.5578345,23.5412731],[116.5582956,23.5408763],[116.5588024,23.5404803],[116.5593091,23.5401241],[116.5598628,23.5397764],[116.5604512,23.5394472],[116.560982,23.5391668],[116.5615363,23.5389037],[116.562118,23.5386907],[116.5627466,23.5384819],[116.5634318,23.5383038],[116.5642016,23.5381344],[116.5649427,23.538019],[116.5656551,23.5379312],[116.5664285,23.5378801],[116.5671341,23.5378827],[116.5678772,23.5379154],[116.5685927,23.5379899],[116.5693737,23.5381204],[116.5700894,23.5382864],[116.5708296,23.5384973],[116.5714983,23.5387249],[116.57215,23.5389669],[116.5728717,23.5392794],[116.5736541,23.5396525],[116.5779774,23.5417836],[116.578711,23.5421268],[116.5795314,23.542493],[116.5801916,23.5427698],[116.5807658,23.5429987],[116.5899446,23.546342],[116.5906381,23.5466028],[116.5912433,23.5468524],[116.5918532,23.547115],[116.592534,23.5474531],[116.5931332,23.5477851],[116.5938029,23.5482161],[116.5943892,23.5486388],[116.5948508,23.549015],[116.5953031,23.5494127],[116.5957456,23.5498404],[116.5961975,23.5503197],[116.5966565,23.5508534],[116.5969766,23.5512675],[116.5973293,23.5517637],[116.5976256,23.5522383],[116.5978841,23.5527033],[116.5981096,23.5531382],[116.5983387,23.5536318],[116.5985577,23.5541601],[116.5987252,23.5546541],[116.5988958,23.5551883],[116.5990147,23.5556451],[116.599127,23.5561911],[116.5992158,23.5566984],[116.5992728,23.5572259],[116.59931,23.5577319],[116.5993194,23.5582441],[116.5993147,23.5588036],[116.599283,23.5593568],[116.5992325,23.5598712],[116.5991537,23.560383],[116.5990456,23.5609542],[116.5989141,23.5614694],[116.5987457,23.5620212],[116.59856,23.5625314],[116.5983272,23.5631019],[116.5980453,23.5636695],[116.5977541,23.5642199],[116.5938704,23.5708963],[116.5935997,23.5714244],[116.593353,23.571948],[116.5931233,23.572544],[116.5929315,23.5731232],[116.5927735,23.5736766],[116.5926373,23.5743233],[116.5925495,23.5748775],[116.5924842,23.5754938],[116.592446,23.5761383],[116.5924954,23.5860177],[116.5925316,23.5870404],[116.5926072,23.5882493],[116.5927044,23.5893036],[116.5927922,23.5901029],[116.5929076,23.5909471],[116.5930514,23.5918379],[116.6006975,23.6340481]]},"properties":{"key":"way:1191741663@detail:466_94","osmType":"way","osmId":1191741663,"sourceRegion":"guangdong","featureType":"infrastructure","railClass":"construction","mode":"construction","name":"粤东城际线","usage":"main","bridge":"yes","status":"construction","color":"#147D92","dataOrigin":"datum-2026-08-01","sourceKey":"way:1191741663"}},{"type":"Feature","geometry":{"type":"LineString","coordinates":[[116.6478581,23.5346678],[116.6484989,23.5337902]]},"properties":{"key":"way:1274349975@detail:466_94","osmType":"way","osmId":1274349975,"sourceRegion":"guangdong","featureType":"infrastructure","railClass":"minor","mode":"rail","name":"未命名","service":"yard","status":"operational","color":"#52636F","dataOrigin":"datum-2026-08-01","sourceKey":"way:1274349975"}},{"type":"Feature","geometry":{"type":"LineString","coordinates":[[116.632289,23.5563605],[116.632289,23.5571719],[116.632348,23.5577251],[116.6324419,23.5582487],[116.6325867,23.5588413],[116.6328147,23.5594289],[116.6331875,23.5601493],[116.6336945,23.5609237],[116.6340807,23.56144],[116.6343543,23.5617351],[116.63488,23.5622317],[116.6358778,23.5628835],[116.6366074,23.5632694],[116.6374217,23.5635885]]},"properties":{"key":"way:1340569200@detail:466_94","osmType":"way","osmId":1340569200,"sourceRegion":"guangdong","featureType":"infrastructure","railClass":"national","mode":"rail","name":"龙湖联络线","ref":"6711","usage":"main","bridge":"yes","status":"operational","color":"#E54848","dataOrigin":"datum-2026-08-01","sourceKey":"way:1340569200"}},{"type":"Feature","geometry":{"type":"LineString","coordinates":[[116.6374217,23.5635885],[116.6384097,23.5638521],[116.6394674,23.5640004],[116.6408219,23.5640321],[116.6412176,23.56402],[116.6429856,23.5640412],[116.6438413,23.5641248],[116.6445601,23.564233],[116.6453272,23.5644321],[116.6459173,23.564603],[116.6475923,23.5650824]]},"properties":{"key":"way:1340569201@detail:466_94","osmType":"way","osmId":1340569201,"sourceRegion":"guangdong","featureType":"infrastructure","railClass":"national","mode":"rail","name":"龙湖联络线","ref":"6711","usage":"main","bridge":"yes","status":"operational","color":"#E54848","dataOrigin":"datum-2026-08-01","sourceKey":"way:1340569201"}},{"type":"Feature","geometry":{"type":"LineString","coordinates":[[116.7059231,23.6047915],[116.7064093,23.6041983],[116.7068785,23.6035793],[116.7072643,23.603046],[116.707701,23.6023521],[116.708098,23.6016458],[116.7084328,23.600981],[116.708745,23.6003198],[116.7090628,23.5995602],[116.709337,23.5987554],[116.7105933,23.5942952],[116.7108079,23.5936151],[116.7110651,23.5929002],[116.7113293,23.5922369],[116.7115889,23.5916293],[116.7118296,23.5911112],[116.7121123,23.5905718],[116.7124392,23.5900001],[116.7128128,23.5894028],[116.7132182,23.5887937],[116.7136295,23.5882275],[116.7140549,23.5877084],[116.7145749,23.5870993],[116.7151369,23.5865031],[116.7156529,23.5859884],[116.7161822,23.5854995],[116.7167125,23.5850557],[116.7172709,23.5846333],[116.7178592,23.5842025],[116.7184288,23.5838316],[116.7191039,23.5834103],[116.7196749,23.5830737],[116.7202504,23.5827718],[116.7209856,23.5824172],[116.7216347,23.5821388],[116.7223306,23.5818734],[116.7230288,23.5816307],[116.7239535,23.5813418],[116.7249029,23.5810889],[116.7340276,23.5790187],[116.7347989,23.5788215],[116.7354738,23.5786262],[116.736103,23.578438],[116.7366952,23.5782385],[116.737259,23.5780278],[116.7378701,23.5777861],[116.7384138,23.577546],[116.7390021,23.5772574],[116.7395774,23.5769619],[116.7402798,23.5765579],[116.7409076,23.576187],[116.7414195,23.5758707],[116.7419431,23.5755332],[116.7477889,23.5715423],[116.748388,23.5711055],[116.7489519,23.5706856],[116.7494748,23.5702699],[116.7499789,23.5698457],[116.75,23.569826451553933]]},"properties":{"key":"way:1448100476@detail:466_94","osmType":"way","osmId":1448100476,"sourceRegion":"guangdong","featureType":"infrastructure","railClass":"construction","mode":"construction","name":"粤东城际线","usage":"main","bridge":"yes","status":"construction","color":"#147D92","dataOrigin":"datum-2026-08-01","sourceKey":"way:1448100476"}},{"type":"Feature","geometry":{"type":"LineString","coordinates":[[116.7024879,23.6079251],[116.7032889,23.6073219],[116.7040479,23.6066816],[116.7047333,23.6060362]]},"properties":{"key":"way:1458109170@detail:466_94","osmType":"way","osmId":1458109170,"sourceRegion":"guangdong","featureType":"infrastructure","railClass":"construction","mode":"construction","name":"粤东城际线","usage":"main","bridge":"yes","status":"construction","color":"#147D92","dataOrigin":"datum-2026-08-01","sourceKey":"way:1458109170"}},{"type":"Feature","geometry":{"type":"LineString","coordinates":[[116.7047333,23.6060362],[116.7053678,23.6054087],[116.7059231,23.6047915]]},"properties":{"key":"way:1458109171@detail:466_94","osmType":"way","osmId":1458109171,"sourceRegion":"guangdong","featureType":"infrastructure","railClass":"construction","mode":"construction","name":"粤东城际线","usage":"main","status":"construction","color":"#147D92","dataOrigin":"datum-2026-08-01","sourceKey":"way:1458109171"}},{"type":"Feature","geometry":{"type":"LineString","coordinates":[[116.7024879,23.6079251],[116.7015418,23.6086044]]},"properties":{"key":"way:1458109172@detail:466_94","osmType":"way","osmId":1458109172,"sourceRegion":"guangdong","featureType":"infrastructure","railClass":"construction","mode":"construction","name":"粤东城际线","usage":"main","status":"construction","color":"#147D92","dataOrigin":"datum-2026-08-01","sourceKey":"way:1458109172"}},{"type":"Feature","geometry":{"type":"LineString","coordinates":[[116.7015418,23.6086044],[116.7008614,23.6090493],[116.7002016,23.6094352],[116.6995045,23.609796],[116.6902403,23.6145508],[116.6894024,23.6149604],[116.688562,23.6153516],[116.6817822,23.6184046],[116.6809425,23.6187963],[116.6800987,23.6192374],[116.679255,23.6196904],[116.6661403,23.6270038]]},"properties":{"key":"way:1458109173@detail:466_94","osmType":"way","osmId":1458109173,"sourceRegion":"guangdong","featureType":"infrastructure","railClass":"construction","mode":"construction","name":"粤东城际线","usage":"main","bridge":"yes","status":"construction","color":"#147D92","dataOrigin":"datum-2026-08-01","sourceKey":"way:1458109173"}},{"type":"Feature","geometry":{"type":"LineString","coordinates":[[116.6661403,23.6270038],[116.6652863,23.6274794]]},"properties":{"key":"way:1458109174@detail:466_94","osmType":"way","osmId":1458109174,"sourceRegion":"guangdong","featureType":"infrastructure","railClass":"construction","mode":"construction","name":"粤东城际线","usage":"main","status":"construction","color":"#147D92","dataOrigin":"datum-2026-08-01","sourceKey":"way:1458109174"}},{"type":"Feature","geometry":{"type":"LineString","coordinates":[[116.6006975,23.6340481],[116.6022935,23.6428121],[116.6024793,23.6435913],[116.6026816,23.6442486],[116.6029101,23.64484],[116.6031851,23.6454227],[116.6035189,23.6460136],[116.603905,23.6466345],[116.6078321,23.6521572],[116.6083239,23.6527843],[116.6088191,23.6533357],[116.6094254,23.6539316],[116.6100693,23.6544517],[116.6107351,23.6548835],[116.6116257,23.6553733],[116.6153892,23.6571734],[116.6162384,23.657601],[116.6205558,23.6598819],[116.621113,23.66016],[116.6216426,23.6603795],[116.6221208,23.6605334],[116.622571,23.6606383],[116.6230245,23.6606766],[116.6234862,23.6606519],[116.6239547,23.6605685],[116.6243597,23.6604609],[116.6247702,23.6602902],[116.6251615,23.660061],[116.6255842,23.6597302],[116.6279045,23.6578256],[116.6283364,23.6574471],[116.6287536,23.6570593],[116.6291497,23.6566478],[116.6348898,23.6503258],[116.6354413,23.6497742],[116.6360145,23.6492373],[116.6365966,23.6487242],[116.6371745,23.6482428],[116.6557965,23.633038],[116.6564515,23.6325435],[116.6571179,23.6320958],[116.6577463,23.6317196],[116.6652863,23.6274794]]},"properties":{"key":"way:1458109175@detail:466_94","osmType":"way","osmId":1458109175,"sourceRegion":"guangdong","featureType":"infrastructure","railClass":"construction","mode":"construction","name":"粤东城际线","usage":"main","tunnel":"yes","status":"construction","color":"#147D92","dataOrigin":"datum-2026-08-01","sourceKey":"way:1458109175"}},{"type":"Feature","geometry":{"type":"LineString","coordinates":[[116.5,23.537455502485162],[116.5000275,23.5374732],[116.5005708,23.5378824],[116.5010491,23.5382819],[116.5014899,23.5386891],[116.5019081,23.5390998],[116.5023832,23.5395925],[116.5063332,23.5439417],[116.517973,23.5567571],[116.5184039,23.5572181],[116.5188753,23.5576714],[116.5193718,23.5580851],[116.5198544,23.5584494],[116.5204281,23.5588475],[116.5209834,23.5591789],[116.5215979,23.559508],[116.5222663,23.5598143],[116.522982,23.5600745],[116.5237842,23.5603231],[116.5245685,23.5605166],[116.5253065,23.5606531],[116.5259557,23.560734],[116.526613,23.5607829],[116.5272791,23.5607803],[116.5279685,23.5607216],[116.5285813,23.5606351],[116.5292224,23.5604976],[116.5298175,23.5603393],[116.5328804,23.559493]]},"properties":{"key":"way:1458109176@detail:466_94","osmType":"way","osmId":1458109176,"sourceRegion":"guangdong","featureType":"infrastructure","railClass":"construction","mode":"construction","name":"粤东城际线","usage":"main","tunnel":"yes","status":"construction","color":"#147D92","dataOrigin":"datum-2026-08-01","sourceKey":"way:1458109176"}},{"type":"Feature","geometry":{"type":"LineString","coordinates":[[116.532868,23.5594424],[116.5298173,23.5602996],[116.5292191,23.5604553],[116.5285715,23.5605851],[116.5279663,23.5606694],[116.5272867,23.5607246],[116.5266214,23.5607278],[116.5259701,23.5606694],[116.525326,23.5605721],[116.524604,23.5604359],[116.5238148,23.5602347],[116.5230326,23.5599849],[116.5223283,23.5597221],[116.5216417,23.5593945],[116.5210542,23.5590701],[116.5205162,23.5587391],[116.5199854,23.558379],[116.5194651,23.5579768],[116.5189802,23.557555],[116.5185389,23.5571152],[116.5181049,23.5566564],[116.5064741,23.5438417],[116.5025169,23.5394813],[116.5020498,23.5389819],[116.5016326,23.538557],[116.5012171,23.5381519],[116.5007485,23.5377337],[116.5002007,23.5373065],[116.5,23.53717019747594]]},"properties":{"key":"way:1458296293@detail:466_94","osmType":"way","osmId":1458296293,"sourceRegion":"guangdong","featureType":"infrastructure","railClass":"construction","mode":"construction","name":"粤东城际线","usage":"main","tunnel":"yes","status":"construction","color":"#147D92","dataOrigin":"datum-2026-08-01","sourceKey":"way:1458296293"}},{"type":"Feature","geometry":{"type":"LineString","coordinates":[[116.5006784,23.5064498],[116.5003987,23.5071055],[116.5001121,23.5077026],[116.5,23.50797028081225]]},"properties":{"key":"way:1458296296@detail:466_94","osmType":"way","osmId":1458296296,"sourceRegion":"guangdong","featureType":"infrastructure","railClass":"construction","mode":"construction","name":"未命名","service":"siding","bridge":"yes","status":"construction","color":"#8A9298","dataOrigin":"datum-2026-08-01","sourceKey":"way:1458296296"}},{"type":"Feature","geometry":{"type":"LineString","coordinates":[[116.5,23.509012273972598],[116.5002784,23.5082284],[116.5003987,23.5077968],[116.5005509,23.5071444],[116.5007357,23.5064685]]},"properties":{"key":"way:1458296297@detail:466_94","osmType":"way","osmId":1458296297,"sourceRegion":"guangdong","featureType":"infrastructure","railClass":"construction","mode":"construction","name":"未命名","service":"siding","bridge":"yes","status":"construction","color":"#8A9298","dataOrigin":"datum-2026-08-01","sourceKey":"way:1458296297"}},{"type":"Feature","geometry":{"type":"LineString","coordinates":[[116.5,23.508559748181604],[116.5007357,23.5064685],[116.5019056,23.5031428]]},"properties":{"key":"way:1458296300@detail:466_94","osmType":"way","osmId":1458296300,"sourceRegion":"guangdong","featureType":"infrastructure","railClass":"construction","mode":"construction","name":"粤东城际线","usage":"main","bridge":"yes","status":"construction","color":"#147D92","dataOrigin":"datum-2026-08-01","sourceKey":"way:1458296300"}},{"type":"Feature","geometry":{"type":"LineString","coordinates":[[116.5,23.533687235028736],[116.5019659,23.5379851],[116.5022497,23.5385508],[116.5025847,23.5391623],[116.502939,23.5397559],[116.5032902,23.540298],[116.5036907,23.5408587],[116.5040331,23.5413032],[116.5043937,23.5417258],[116.5046618,23.5420217],[116.5063332,23.5439417]]},"properties":{"key":"way:1458296304@detail:466_94","osmType":"way","osmId":1458296304,"sourceRegion":"guangdong","featureType":"infrastructure","railClass":"construction","mode":"construction","name":"粤东城际线","usage":"main","tunnel":"yes","status":"construction","color":"#147D92","dataOrigin":"datum-2026-08-01","sourceKey":"way:1458296304"}},{"type":"Feature","geometry":{"type":"LineString","coordinates":[[116.5046618,23.5420217],[116.5063764,23.5439134]]},"properties":{"key":"way:1458296305@detail:466_94","osmType":"way","osmId":1458296305,"sourceRegion":"guangdong","featureType":"infrastructure","railClass":"construction","mode":"construction","name":"未命名","service":"yard","tunnel":"yes","status":"construction","color":"#8A9298","dataOrigin":"datum-2026-08-01","sourceKey":"way:1458296305"}},{"type":"Feature","geometry":{"type":"LineString","coordinates":[[116.5064741,23.5438417],[116.504925,23.5422133],[116.5046404,23.5419058],[116.5044477,23.5416947],[116.5040858,23.541268],[116.5037525,23.540835],[116.5033509,23.5402711],[116.5030123,23.5397445],[116.5026574,23.5391472],[116.5023235,23.5385286],[116.502041,23.5379677],[116.5,23.53351848504043]]},"properties":{"key":"way:1458296306@detail:466_94","osmType":"way","osmId":1458296306,"sourceRegion":"guangdong","featureType":"infrastructure","railClass":"construction","mode":"construction","name":"粤东城际线","usage":"main","tunnel":"yes","status":"construction","color":"#147D92","dataOrigin":"datum-2026-08-01","sourceKey":"way:1458296306"}},{"type":"Feature","geometry":{"type":"LineString","coordinates":[[116.6162602,23.6013726],[116.6162346,23.6014683],[116.6156352,23.6032391],[116.6153147,23.6042213],[116.6123774,23.6123008],[116.6108543,23.6165194],[116.6099971,23.6187883],[116.6087966,23.6221068],[116.6078318,23.624783],[116.607241,23.6263761],[116.604557,23.6339233],[116.6043635,23.6344882],[116.6041842,23.6352369],[116.6040767,23.6358346],[116.6039333,23.6381729],[116.6038186,23.638915],[116.6036393,23.6396178],[116.6034099,23.6401761],[116.6031805,23.6405702]]},"properties":{"key":"way:1460972501@detail:466_94","osmType":"way","osmId":1460972501,"sourceRegion":"guangdong","featureType":"infrastructure","railClass":"national","mode":"rail","name":"畲龙线","ref":"0716","usage":"main","status":"operational","color":"#E54848","dataOrigin":"datum-2026-08-01","sourceKey":"way:1460972501"}},{"type":"Feature","geometry":{"type":"LineString","coordinates":[[116.6163038,23.6012163],[116.6162602,23.6013726]]},"properties":{"key":"way:1460972502@detail:466_94","osmType":"way","osmId":1460972502,"sourceRegion":"guangdong","featureType":"infrastructure","railClass":"national","mode":"rail","name":"畲龙线","ref":"0716","usage":"main","bridge":"yes","status":"operational","color":"#E54848","dataOrigin":"datum-2026-08-01","sourceKey":"way:1460972502"}}]}