{"type":"FeatureCollection","features":[{"type":"Feature","geometry":{"type":"Point","coordinates":[116.7524295,23.3746875]},"properties":{"key":"node:5610619909","osmType":"node","osmId":5610619909,"sourceRegion":"guangdong","featureType":"station","railClass":"minor","mode":"station","name":"汕头","nameEn":"Shantou","status":"operational","color":"#52636F","dataOrigin":"datum-2026-08-01","sourceKey":"node:5610619909","stationGroup":"汕头","hasOperationalRail":true,"hasConstructionRail":false}},{"type":"Feature","geometry":{"type":"LineString","coordinates":[[116.75,23.305173673988634],[116.7532977,23.3488543],[116.7533851,23.3504073],[116.7534357,23.3519248],[116.753479,23.3536823],[116.753428,23.361672]]},"properties":{"key":"way:906025265@detail:467_93","osmType":"way","osmId":906025265,"sourceRegion":"guangdong","featureType":"infrastructure","railClass":"highspeed","mode":"rail","name":"甬广高速线","nameEn":"Ningbo–Guangzhou Highspeed-Railway","ref":"汕汕高速线","usage":"main","highspeed":"yes","tunnel":"yes","status":"operational","color":"#E54848","dataOrigin":"datum-2026-08-01","sourceKey":"way:906025265"}},{"type":"Feature","geometry":{"type":"LineString","coordinates":[[116.75,23.35520624519116],[116.750104,23.3552794],[116.7505936,23.3556986],[116.7509633,23.3560648],[116.7513277,23.3564902],[116.751633,23.3569156],[116.7519276,23.3573902],[116.752194,23.3578885],[116.7524503,23.3584597],[116.7526253,23.3589462],[116.7527528,23.3594169],[116.752865,23.359922],[116.7529298,23.360437],[116.75296,23.3609282],[116.7529729,23.3615859],[116.7529686,23.3641767]]},"properties":{"key":"way:1023108970@detail:467_93","osmType":"way","osmId":1023108970,"sourceRegion":"guangdong","featureType":"infrastructure","railClass":"construction","mode":"construction","name":"粤东城际线","usage":"main","tunnel":"yes","status":"construction","color":"#147D92","dataOrigin":"datum-2026-08-01","sourceKey":"way:1023108970"}},{"type":"Feature","geometry":{"type":"LineString","coordinates":[[116.7530303,23.364172],[116.7530399,23.3615769],[116.7530241,23.3609146],[116.7529971,23.3604179],[116.7529302,23.3599181],[116.7528257,23.3593977],[116.7526938,23.3589322],[116.7525093,23.358415],[116.7522702,23.3578612],[116.7519911,23.3573431],[116.7517026,23.3568935],[116.7513838,23.3564624],[116.751023,23.3560314],[116.7506511,23.3556581],[116.7501323,23.3552191],[116.75,23.355124657282936]]},"properties":{"key":"way:1023108971@detail:467_93","osmType":"way","osmId":1023108971,"sourceRegion":"guangdong","featureType":"infrastructure","railClass":"construction","mode":"construction","name":"粤东城际线","usage":"main","tunnel":"yes","status":"construction","color":"#147D92","dataOrigin":"datum-2026-08-01","sourceKey":"way:1023108971"}},{"type":"Feature","geometry":{"type":"LineString","coordinates":[[116.7533859,23.3848039],[116.753387,23.384104],[116.7533924,23.381146],[116.753395,23.3797619],[116.7533968,23.3787749],[116.7534108,23.3710635],[116.7534126,23.370086],[116.7534178,23.3672146],[116.7534216,23.365129],[116.7534232,23.3643016],[116.753428,23.361672]]},"properties":{"key":"way:1040590491@detail:467_93","osmType":"way","osmId":1040590491,"sourceRegion":"guangdong","featureType":"infrastructure","railClass":"highspeed","mode":"rail","name":"甬广高速线","nameEn":"Ningbo–Guangzhou Highspeed-Railway","ref":"汕汕高速线","usage":"main","highspeed":"yes","status":"operational","color":"#E54848","dataOrigin":"datum-2026-08-01","sourceKey":"way:1040590491"}},{"type":"Feature","geometry":{"type":"LineString","coordinates":[[116.75,23.35132643799622],[116.750081,23.3513393],[116.7501746,23.3513776],[116.7503967,23.3514553],[116.7506217,23.3515375],[116.7509724,23.351707],[116.7512256,23.3518494],[116.7515319,23.3520811],[116.7517903,23.3523354],[116.7520035,23.3526144],[116.752119,23.3528191],[116.7522172,23.35304],[116.7523299,23.3533767],[116.7523589,23.3534504]]},"properties":{"key":"way:1055052587@detail:467_93","osmType":"way","osmId":1055052587,"sourceRegion":"guangdong","featureType":"infrastructure","railClass":"minor","mode":"abandoned","name":"旧汕头港疏港铁路","usage":"industrial","status":"operational","color":"#52636F","dataOrigin":"datum-2026-08-01","sourceKey":"way:1055052587"}},{"type":"Feature","geometry":{"type":"LineString","coordinates":[[116.77706102141155,23.5],[116.7752256,23.4932909],[116.7750674,23.4927751],[116.7748809,23.492277],[116.7746458,23.4917864],[116.7743887,23.491311],[116.7740786,23.49082],[116.7737504,23.4903423],[116.7734551,23.4899582],[116.773125,23.4895664],[116.7727973,23.4891992],[116.7702471,23.4865424],[116.769663,23.485965],[116.767306,23.4838011],[116.7668082,23.483308],[116.7585641,23.4747123],[116.7581751,23.4742294],[116.7578545,23.4737518],[116.7575525,23.4732259],[116.7572483,23.4726058],[116.7570144,23.4719834],[116.756818,23.4713026],[116.7567021,23.470751],[116.7566058,23.4701639],[116.75655,23.4695986],[116.7565308,23.4688432],[116.7565273,23.4601877],[116.7564824,23.4594543],[116.7564135,23.4588219],[116.7563078,23.4581363],[116.7561825,23.4574897],[116.7560441,23.4569337],[116.7558903,23.4564096],[116.7524154,23.4461422],[116.7522413,23.4456504],[116.7520571,23.4452089],[116.7518368,23.4447407],[116.7516057,23.4443176],[116.751328,23.4438923],[116.7510627,23.4435398],[116.7508065,23.4432201],[116.7504625,23.4428318],[116.7501056,23.4424594],[116.75,23.442360924173105]]},"properties":{"key":"way:1191741662@detail:467_93","osmType":"way","osmId":1191741662,"sourceRegion":"guangdong","featureType":"infrastructure","railClass":"construction","mode":"construction","name":"粤东城际线","usage":"main","bridge":"yes","status":"construction","color":"#147D92","dataOrigin":"datum-2026-08-01","sourceKey":"way:1191741662"}},{"type":"Feature","geometry":{"type":"LineString","coordinates":[[116.83410627845552,23.5],[116.832013,23.4952329],[116.8313023,23.4937641],[116.8278622,23.4861165],[116.824671,23.480031],[116.8200302,23.4740915],[116.8161893,23.4701551],[116.809752,23.4640927],[116.8075512,23.4621292]]},"properties":{"key":"way:1212706846@detail:467_93","osmType":"way","osmId":1212706846,"sourceRegion":"guangdong","featureType":"infrastructure","railClass":"construction","mode":"construction","name":"甬广高速线","nameEn":"Ningbo–Guangzhou Highspeed-Railway","ref":"漳汕高速线","usage":"main","highspeed":"yes","status":"construction","color":"#E54848","dataOrigin":"datum-2026-08-01","sourceKey":"way:1212706846"}},{"type":"Feature","geometry":{"type":"LineString","coordinates":[[116.7857556,23.4413836],[116.7878008,23.4435614],[116.7916846,23.4482073],[116.7944741,23.451042],[116.7981005,23.4543491],[116.8025731,23.4582515],[116.8075512,23.4621292]]},"properties":{"key":"way:1332602764@detail:467_93","osmType":"way","osmId":1332602764,"sourceRegion":"guangdong","featureType":"infrastructure","railClass":"construction","mode":"construction","name":"甬广高速线","nameEn":"Ningbo–Guangzhou Highspeed-Railway","ref":"漳汕高速线","usage":"main","highspeed":"yes","status":"construction","color":"#E54848","dataOrigin":"datum-2026-08-01","sourceKey":"way:1332602764"}},{"type":"Feature","geometry":{"type":"LineString","coordinates":[[116.7857556,23.4413836],[116.7833094,23.4372099],[116.7815619,23.4335628],[116.7789012,23.4303093],[116.7766589,23.4278237],[116.7729145,23.4242501],[116.7682528,23.4202138],[116.7645889,23.4166991],[116.7620033,23.4142574],[116.7607588,23.4130489],[116.7595625,23.4117739],[116.7576903,23.4093937]]},"properties":{"key":"way:1332602765@detail:467_93","osmType":"way","osmId":1332602765,"sourceRegion":"guangdong","featureType":"infrastructure","railClass":"construction","mode":"construction","name":"甬广高速线","nameEn":"Ningbo–Guangzhou Highspeed-Railway","ref":"漳汕高速线","usage":"main","highspeed":"yes","status":"construction","color":"#E54848","dataOrigin":"datum-2026-08-01","sourceKey":"way:1332602765"}},{"type":"Feature","geometry":{"type":"LineString","coordinates":[[116.7533704,23.3616788],[116.7533682,23.3629576],[116.7533624,23.366473],[116.7533616,23.3669703],[116.753359,23.3685726],[116.7533564,23.3700885],[116.7533548,23.3710635],[116.7533421,23.3787749],[116.7533404,23.3797601],[116.7533375,23.3815037],[116.7533359,23.3824834],[116.7533355,23.3827555],[116.7533321,23.3848041]]},"properties":{"key":"way:1458050767@detail:467_93","osmType":"way","osmId":1458050767,"sourceRegion":"guangdong","featureType":"infrastructure","railClass":"highspeed","mode":"rail","name":"甬广高速线","nameEn":"Ningbo–Guangzhou Highspeed-Railway","ref":"汕汕高速线","usage":"main","highspeed":"yes","status":"operational","color":"#E54848","dataOrigin":"datum-2026-08-01","sourceKey":"way:1458050767"}},{"type":"Feature","geometry":{"type":"LineString","coordinates":[[116.7534232,23.3643016],[116.7533682,23.3629576]]},"properties":{"key":"way:1458050768@detail:467_93","osmType":"way","osmId":1458050768,"sourceRegion":"guangdong","featureType":"infrastructure","railClass":"minor","mode":"rail","name":"未命名","service":"crossover","status":"operational","color":"#52636F","dataOrigin":"datum-2026-08-01","sourceKey":"way:1458050768"}},{"type":"Feature","geometry":{"type":"LineString","coordinates":[[116.7533624,23.366473],[116.7534216,23.365129]]},"properties":{"key":"way:1458050769@detail:467_93","osmType":"way","osmId":1458050769,"sourceRegion":"guangdong","featureType":"infrastructure","railClass":"minor","mode":"rail","name":"未命名","service":"crossover","status":"operational","color":"#52636F","dataOrigin":"datum-2026-08-01","sourceKey":"way:1458050769"}},{"type":"Feature","geometry":{"type":"LineString","coordinates":[[116.7534178,23.3672146],[116.753359,23.3685726]]},"properties":{"key":"way:1458050770@detail:467_93","osmType":"way","osmId":1458050770,"sourceRegion":"guangdong","featureType":"infrastructure","railClass":"minor","mode":"rail","name":"未命名","service":"crossover","status":"operational","color":"#52636F","dataOrigin":"datum-2026-08-01","sourceKey":"way:1458050770"}},{"type":"Feature","geometry":{"type":"LineString","coordinates":[[116.7533616,23.3669703],[116.7533085,23.3680149],[116.7532072,23.3696827],[116.7531308,23.3709397],[116.7530661,23.3720042],[116.7530433,23.3722958],[116.7529806,23.3727918],[116.7529564,23.3730777],[116.7529439,23.3734171],[116.7529392,23.3761987],[116.7529464,23.3764483],[116.7529645,23.3766842],[116.7529984,23.3769427],[116.7531083,23.3775882],[116.7531508,23.3778885],[116.7532362,23.3787748]]},"properties":{"key":"way:1458050771@detail:467_93","osmType":"way","osmId":1458050771,"sourceRegion":"guangdong","featureType":"infrastructure","railClass":"minor","mode":"rail","name":"未命名","service":"siding","status":"operational","color":"#52636F","dataOrigin":"datum-2026-08-01","sourceKey":"way:1458050771"}},{"type":"Feature","geometry":{"type":"LineString","coordinates":[[116.7533564,23.3700885],[116.7533067,23.3711817],[116.7532477,23.3721198],[116.753194,23.3726048],[116.7531511,23.3730258],[116.753135,23.3734222],[116.7531403,23.3765079],[116.7531588,23.3769491],[116.7532447,23.3778141],[116.7533154,23.3790956],[116.7533404,23.3797601]]},"properties":{"key":"way:1458050772@detail:467_93","osmType":"way","osmId":1458050772,"sourceRegion":"guangdong","featureType":"infrastructure","railClass":"minor","mode":"rail","name":"未命名","service":"siding","status":"operational","color":"#52636F","dataOrigin":"datum-2026-08-01","sourceKey":"way:1458050772"}},{"type":"Feature","geometry":{"type":"LineString","coordinates":[[116.7532447,23.3778141],[116.7532726,23.3788063],[116.7532769,23.3796552],[116.7532788,23.3800293],[116.7533375,23.3815037]]},"properties":{"key":"way:1458050773@detail:467_93","osmType":"way","osmId":1458050773,"sourceRegion":"guangdong","featureType":"infrastructure","railClass":"minor","mode":"rail","name":"未命名","service":"siding","status":"operational","color":"#52636F","dataOrigin":"datum-2026-08-01","sourceKey":"way:1458050773"}},{"type":"Feature","geometry":{"type":"LineString","coordinates":[[116.7533067,23.3711817],[116.7532098,23.3720237],[116.753132,23.3726097],[116.7530918,23.3730135],[116.7530757,23.3734222],[116.7530838,23.376507],[116.7531025,23.3769442],[116.7531562,23.3775293],[116.7531866,23.377868],[116.7532362,23.3787748],[116.7532769,23.3796552]]},"properties":{"key":"way:1458050774@detail:467_93","osmType":"way","osmId":1458050774,"sourceRegion":"guangdong","featureType":"infrastructure","railClass":"minor","mode":"rail","name":"未命名","service":"siding","status":"operational","color":"#52636F","dataOrigin":"datum-2026-08-01","sourceKey":"way:1458050774"}},{"type":"Feature","geometry":{"type":"LineString","coordinates":[[116.7533548,23.3710635],[116.7533324,23.3716946],[116.7533012,23.3722637],[116.7532911,23.3725287],[116.7532908,23.3773389],[116.7532978,23.3776175],[116.7533211,23.3781855],[116.7533421,23.3787749]]},"properties":{"key":"way:1458050775@detail:467_93","osmType":"way","osmId":1458050775,"sourceRegion":"guangdong","featureType":"infrastructure","railClass":"minor","mode":"rail","name":"未命名","service":"siding","status":"operational","color":"#52636F","dataOrigin":"datum-2026-08-01","sourceKey":"way:1458050775"}},{"type":"Feature","geometry":{"type":"LineString","coordinates":[[116.7533924,23.381146],[116.7533359,23.3824834]]},"properties":{"key":"way:1458050776@detail:467_93","osmType":"way","osmId":1458050776,"sourceRegion":"guangdong","featureType":"infrastructure","railClass":"minor","mode":"rail","name":"未命名","service":"crossover","status":"operational","color":"#52636F","dataOrigin":"datum-2026-08-01","sourceKey":"way:1458050776"}},{"type":"Feature","geometry":{"type":"LineString","coordinates":[[116.7533355,23.3827555],[116.753387,23.384104]]},"properties":{"key":"way:1458050777@detail:467_93","osmType":"way","osmId":1458050777,"sourceRegion":"guangdong","featureType":"infrastructure","railClass":"minor","mode":"rail","name":"未命名","service":"crossover","status":"operational","color":"#52636F","dataOrigin":"datum-2026-08-01","sourceKey":"way:1458050777"}},{"type":"Feature","geometry":{"type":"LineString","coordinates":[[116.7533968,23.3787749],[116.7534143,23.3781821],[116.7534461,23.3776152],[116.753455,23.3773407],[116.7534668,23.3725407],[116.7534607,23.3722776],[116.7534282,23.3717047],[116.7534108,23.3710635]]},"properties":{"key":"way:1458050778@detail:467_93","osmType":"way","osmId":1458050778,"sourceRegion":"guangdong","featureType":"infrastructure","railClass":"minor","mode":"rail","name":"未命名","service":"siding","status":"operational","color":"#52636F","dataOrigin":"datum-2026-08-01","sourceKey":"way:1458050778"}},{"type":"Feature","geometry":{"type":"LineString","coordinates":[[116.753395,23.3797619],[116.7534112,23.3792551],[116.7534437,23.3785741],[116.7534925,23.3778016],[116.7535088,23.3776132],[116.7535657,23.3770627],[116.753586,23.3768276],[116.7535962,23.3765384],[116.7536197,23.3735026],[116.7536099,23.3731593],[116.7535848,23.3727583],[116.7535118,23.372049],[116.7534931,23.3717875],[116.7534581,23.3711767],[116.7534126,23.370086]]},"properties":{"key":"way:1458050779@detail:467_93","osmType":"way","osmId":1458050779,"sourceRegion":"guangdong","featureType":"infrastructure","railClass":"minor","mode":"rail","name":"未命名","service":"siding","status":"operational","color":"#52636F","dataOrigin":"datum-2026-08-01","sourceKey":"way:1458050779"}},{"type":"Feature","geometry":{"type":"LineString","coordinates":[[116.7534437,23.3785741],[116.7535042,23.3780532],[116.7536038,23.377262],[116.7536363,23.3769374],[116.7536506,23.3765418],[116.7536795,23.3735002],[116.7536655,23.3731551],[116.7536375,23.3727586],[116.7535161,23.3716997],[116.7534581,23.3711767]]},"properties":{"key":"way:1458050780@detail:467_93","osmType":"way","osmId":1458050780,"sourceRegion":"guangdong","featureType":"infrastructure","railClass":"minor","mode":"rail","name":"未命名","service":"siding","status":"operational","color":"#52636F","dataOrigin":"datum-2026-08-01","sourceKey":"way:1458050780"}},{"type":"Feature","geometry":{"type":"LineString","coordinates":[[116.75,23.386377117466086],[116.7500542,23.3863048],[116.7501629,23.3861599],[116.7516323,23.3841993],[116.7517798,23.3839878],[116.7519243,23.3837565],[116.7520531,23.3835275],[116.7521577,23.3833059],[116.7522489,23.3830647],[116.7522905,23.3829034],[116.752332,23.3827421],[116.7523776,23.3824738],[116.7524044,23.3822005],[116.7524125,23.3818829],[116.7524133,23.38114],[116.7524135,23.3809676],[116.752415,23.3796836],[116.752416,23.3787599],[116.7524162,23.378582],[116.7524169,23.3780097],[116.7524227,23.372806],[116.7524379,23.372503],[116.7524635,23.3721871],[116.7524969,23.3718691],[116.7525319,23.371599],[116.7526442,23.3708866],[116.7527003,23.370488],[116.7527446,23.3699671]]},"properties":{"key":"way:1458062643@detail:467_93","osmType":"way","osmId":1458062643,"sourceRegion":"guangdong","featureType":"infrastructure","railClass":"national","mode":"rail","name":"梅汕线","ref":"3080","usage":"main","status":"operational","color":"#E54848","dataOrigin":"datum-2026-08-01","sourceKey":"way:1458062643"}},{"type":"Feature","geometry":{"type":"LineString","coordinates":[[116.7528277,23.3695161],[116.7527446,23.3699671],[116.7524851,23.3715913],[116.7524485,23.3718675],[116.7524119,23.3721996],[116.7523896,23.3725131],[116.7523754,23.3728061],[116.7523666,23.3790214],[116.7523659,23.3795443],[116.7523656,23.3797158],[116.752365,23.3801749],[116.7523641,23.3807855],[116.7523626,23.381881],[116.7523519,23.3822018],[116.7523255,23.3824611],[116.7522808,23.3827298],[116.7521974,23.3830414],[116.75211,23.3832858],[116.7520084,23.3835115],[116.7518844,23.3837373],[116.751734,23.3839761],[116.7515947,23.3841746],[116.7506053,23.3854926],[116.75,23.38629887697326]]},"properties":{"key":"way:1458062644@detail:467_93","osmType":"way","osmId":1458062644,"sourceRegion":"guangdong","featureType":"infrastructure","railClass":"national","mode":"rail","name":"梅汕线","ref":"3080","usage":"main","status":"operational","color":"#E54848","dataOrigin":"datum-2026-08-01","sourceKey":"way:1458062644"}},{"type":"Feature","geometry":{"type":"LineString","coordinates":[[116.7501629,23.3861599],[116.7506053,23.3854926]]},"properties":{"key":"way:1458062645@detail:467_93","osmType":"way","osmId":1458062645,"sourceRegion":"guangdong","featureType":"infrastructure","railClass":"minor","mode":"rail","name":"未命名","service":"crossover","status":"operational","color":"#52636F","dataOrigin":"datum-2026-08-01","sourceKey":"way:1458062645"}},{"type":"Feature","geometry":{"type":"LineString","coordinates":[[116.75,23.386368884750954],[116.7500542,23.3863048]]},"properties":{"key":"way:1458062646@detail:467_93","osmType":"way","osmId":1458062646,"sourceRegion":"guangdong","featureType":"infrastructure","railClass":"minor","mode":"rail","name":"未命名","service":"crossover","status":"operational","color":"#52636F","dataOrigin":"datum-2026-08-01","sourceKey":"way:1458062646"}},{"type":"Feature","geometry":{"type":"LineString","coordinates":[[116.7524135,23.3809676],[116.752365,23.3801749]]},"properties":{"key":"way:1458062647@detail:467_93","osmType":"way","osmId":1458062647,"sourceRegion":"guangdong","featureType":"infrastructure","railClass":"minor","mode":"rail","name":"未命名","service":"crossover","status":"operational","color":"#52636F","dataOrigin":"datum-2026-08-01","sourceKey":"way:1458062647"}},{"type":"Feature","geometry":{"type":"LineString","coordinates":[[116.7523659,23.3795443],[116.752416,23.3787599]]},"properties":{"key":"way:1458062648@detail:467_93","osmType":"way","osmId":1458062648,"sourceRegion":"guangdong","featureType":"infrastructure","railClass":"minor","mode":"rail","name":"未命名","service":"crossover","status":"operational","color":"#52636F","dataOrigin":"datum-2026-08-01","sourceKey":"way:1458062648"}},{"type":"Feature","geometry":{"type":"LineString","coordinates":[[116.7524169,23.3780097],[116.7524382,23.3776615],[116.7524728,23.3772417],[116.7524849,23.3769207],[116.7524829,23.3729724],[116.7524899,23.3727203],[116.7525103,23.372474],[116.7526138,23.3715816],[116.7526382,23.3713204],[116.7527003,23.370488]]},"properties":{"key":"way:1458062649@detail:467_93","osmType":"way","osmId":1458062649,"sourceRegion":"guangdong","featureType":"infrastructure","railClass":"minor","mode":"rail","name":"未命名","service":"siding","status":"operational","color":"#52636F","dataOrigin":"datum-2026-08-01","sourceKey":"way:1458062649"}},{"type":"Feature","geometry":{"type":"LineString","coordinates":[[116.7524162,23.378582],[116.7524389,23.378224],[116.7524613,23.377961],[116.7524959,23.3776606],[116.7525731,23.3770952],[116.7526016,23.3767855],[116.7526199,23.3764289],[116.7526392,23.3735663],[116.7526473,23.3733382],[116.7526637,23.37312],[116.7526857,23.3729222],[116.7527265,23.3726898],[116.7529276,23.3716633],[116.7529857,23.3713556],[116.7531244,23.3705166]]},"properties":{"key":"way:1458062650@detail:467_93","osmType":"way","osmId":1458062650,"sourceRegion":"guangdong","featureType":"infrastructure","railClass":"minor","mode":"rail","name":"未命名","service":"siding","status":"operational","color":"#52636F","dataOrigin":"datum-2026-08-01","sourceKey":"way:1458062650"}},{"type":"Feature","geometry":{"type":"LineString","coordinates":[[116.752415,23.3796836],[116.7524781,23.3788727],[116.7525043,23.3785813],[116.7526555,23.376901],[116.7526692,23.3766896],[116.7526773,23.3764632],[116.7527044,23.3735677],[116.7527106,23.3733443],[116.7527244,23.3731322],[116.752746,23.3729342],[116.752786,23.3726994],[116.7529474,23.371852],[116.7530059,23.37148],[116.7531244,23.3705166],[116.7532072,23.3696827]]},"properties":{"key":"way:1458062651@detail:467_93","osmType":"way","osmId":1458062651,"sourceRegion":"guangdong","featureType":"infrastructure","railClass":"minor","mode":"rail","name":"未命名","service":"siding","status":"operational","color":"#52636F","dataOrigin":"datum-2026-08-01","sourceKey":"way:1458062651"}},{"type":"Feature","geometry":{"type":"LineString","coordinates":[[116.7525043,23.3785813],[116.7525787,23.3781096],[116.7527567,23.3771471],[116.7527943,23.3769305],[116.7528498,23.3763996],[116.7528617,23.3761959],[116.7528758,23.3734204],[116.7528925,23.3730803],[116.7529175,23.3728096],[116.7530473,23.371751],[116.7531308,23.3709397]]},"properties":{"key":"way:1458062652@detail:467_93","osmType":"way","osmId":1458062652,"sourceRegion":"guangdong","featureType":"infrastructure","railClass":"minor","mode":"rail","name":"未命名","service":"siding","status":"operational","color":"#52636F","dataOrigin":"datum-2026-08-01","sourceKey":"way:1458062652"}},{"type":"Feature","geometry":{"type":"LineString","coordinates":[[116.7530617,23.3682727],[116.7530064,23.3685735],[116.7529444,23.3688594],[116.7527801,23.3695057],[116.7522316,23.3716626],[116.7521444,23.3720054],[116.7520732,23.3723133],[116.7520224,23.3726044],[116.7519838,23.3728936],[116.7519614,23.3731586],[116.7519472,23.3734217],[116.7519214,23.3762316],[116.751933,23.3765005],[116.7519598,23.3767576],[116.7521442,23.3778031],[116.752227,23.3785846],[116.7522574,23.3789316],[116.7522656,23.3791742],[116.7522598,23.3807078],[116.7522496,23.381497],[116.7521765,23.382265],[116.7521318,23.3825431],[116.7520789,23.3827893],[116.75202,23.3829871],[116.7519488,23.3831812]]},"properties":{"key":"way:1458062653@detail:467_93","osmType":"way","osmId":1458062653,"sourceRegion":"guangdong","featureType":"infrastructure","railClass":"national","mode":"rail","name":"广澳港线","usage":"main","status":"operational","color":"#E54848","dataOrigin":"datum-2026-08-01","sourceKey":"way:1458062653"}},{"type":"Feature","geometry":{"type":"LineString","coordinates":[[116.7520004,23.3831954],[116.7520728,23.3829982],[116.7521335,23.3828011],[116.7521895,23.3825482],[116.7522316,23.382276],[116.7522993,23.3816051],[116.752311,23.3807114],[116.7523115,23.3805286],[116.7523156,23.3791789],[116.7523063,23.3789303],[116.7522758,23.378581],[116.7521933,23.3776306],[116.7521108,23.3766801],[116.7520965,23.3763499],[116.7521142,23.3728085],[116.7521295,23.3725648],[116.7521549,23.3723323],[116.7521975,23.3720752],[116.7522565,23.3717785],[116.7523215,23.3715042],[116.7524729,23.3709095],[116.752588,23.3704574],[116.752632,23.3702846],[116.7528277,23.3695161],[116.7529923,23.3688694],[116.7530574,23.3685858],[116.7531143,23.3682761]]},"properties":{"key":"way:1458062654@detail:467_93","osmType":"way","osmId":1458062654,"sourceRegion":"guangdong","featureType":"infrastructure","railClass":"national","mode":"rail","name":"广澳港线","usage":"main","status":"operational","color":"#E54848","dataOrigin":"datum-2026-08-01","sourceKey":"way:1458062654"}},{"type":"Feature","geometry":{"type":"LineString","coordinates":[[116.7521442,23.3778031],[116.7522758,23.378581]]},"properties":{"key":"way:1458062655@detail:467_93","osmType":"way","osmId":1458062655,"sourceRegion":"guangdong","featureType":"infrastructure","railClass":"minor","mode":"rail","name":"未命名","service":"crossover","status":"operational","color":"#52636F","dataOrigin":"datum-2026-08-01","sourceKey":"way:1458062655"}},{"type":"Feature","geometry":{"type":"LineString","coordinates":[[116.7523656,23.3797158],[116.7523115,23.3805286]]},"properties":{"key":"way:1458062656@detail:467_93","osmType":"way","osmId":1458062656,"sourceRegion":"guangdong","featureType":"infrastructure","railClass":"minor","mode":"rail","name":"未命名","service":"crossover","status":"operational","color":"#52636F","dataOrigin":"datum-2026-08-01","sourceKey":"way:1458062656"}},{"type":"Feature","geometry":{"type":"LineString","coordinates":[[116.752311,23.3807114],[116.7522496,23.381497]]},"properties":{"key":"way:1458062657@detail:467_93","osmType":"way","osmId":1458062657,"sourceRegion":"guangdong","featureType":"infrastructure","railClass":"minor","mode":"rail","name":"未命名","service":"crossover","status":"operational","color":"#52636F","dataOrigin":"datum-2026-08-01","sourceKey":"way:1458062657"}},{"type":"Feature","geometry":{"type":"LineString","coordinates":[[116.7523641,23.3807855],[116.7522993,23.3816051]]},"properties":{"key":"way:1458062658@detail:467_93","osmType":"way","osmId":1458062658,"sourceRegion":"guangdong","featureType":"infrastructure","railClass":"minor","mode":"rail","name":"未命名","service":"crossover","status":"operational","color":"#52636F","dataOrigin":"datum-2026-08-01","sourceKey":"way:1458062658"}},{"type":"Feature","geometry":{"type":"LineString","coordinates":[[116.752632,23.3702846],[116.7527801,23.3695057]]},"properties":{"key":"way:1458062659@detail:467_93","osmType":"way","osmId":1458062659,"sourceRegion":"guangdong","featureType":"infrastructure","railClass":"minor","mode":"rail","name":"未命名","service":"crossover","status":"operational","color":"#52636F","dataOrigin":"datum-2026-08-01","sourceKey":"way:1458062659"}},{"type":"Feature","geometry":{"type":"LineString","coordinates":[[116.7522316,23.3716626],[116.7524729,23.3709095]]},"properties":{"key":"way:1458062660@detail:467_93","osmType":"way","osmId":1458062660,"sourceRegion":"guangdong","featureType":"infrastructure","railClass":"minor","mode":"rail","name":"未命名","service":"crossover","status":"operational","color":"#52636F","dataOrigin":"datum-2026-08-01","sourceKey":"way:1458062660"}},{"type":"Feature","geometry":{"type":"LineString","coordinates":[[116.752588,23.3704574],[116.7524921,23.3709896],[116.7523942,23.3716204],[116.7523596,23.371904],[116.7523276,23.3722707],[116.7523155,23.3724807],[116.7523089,23.3727786],[116.7522978,23.3771225],[116.7522908,23.3773369],[116.7522872,23.3776391],[116.7522946,23.3781078]]},"properties":{"key":"way:1458062661@detail:467_93","osmType":"way","osmId":1458062661,"sourceRegion":"guangdong","featureType":"infrastructure","railClass":"minor","mode":"rail","name":"未命名","service":"siding","status":"operational","color":"#52636F","dataOrigin":"datum-2026-08-01","sourceKey":"way:1458062661"}},{"type":"Feature","geometry":{"type":"LineString","coordinates":[[116.7524921,23.3709896],[116.7524079,23.3713702],[116.7523088,23.3717844],[116.7522539,23.3720849],[116.752215,23.3723384],[116.7521884,23.372569],[116.7521743,23.3728127],[116.7521474,23.3763484],[116.7521633,23.3766798],[116.7522946,23.3781078],[116.7523367,23.3785656],[116.7523666,23.3790214]]},"properties":{"key":"way:1458062662@detail:467_93","osmType":"way","osmId":1458062662,"sourceRegion":"guangdong","featureType":"infrastructure","railClass":"minor","mode":"rail","name":"未命名","service":"crossover","status":"operational","color":"#52636F","dataOrigin":"datum-2026-08-01","sourceKey":"way:1458062662"}},{"type":"Feature","geometry":{"type":"LineString","coordinates":[[116.7521933,23.3776306],[116.7523367,23.3785656]]},"properties":{"key":"way:1458062663@detail:467_93","osmType":"way","osmId":1458062663,"sourceRegion":"guangdong","featureType":"infrastructure","railClass":"minor","mode":"rail","name":"未命名","service":"siding","status":"operational","color":"#52636F","dataOrigin":"datum-2026-08-01","sourceKey":"way:1458062663"}},{"type":"Feature","geometry":{"type":"LineString","coordinates":[[116.7524133,23.38114],[116.7524647,23.3819493],[116.752465,23.3823642],[116.7524508,23.3825993],[116.7524203,23.3828344],[116.7523654,23.3830862],[116.7522881,23.38334],[116.7521926,23.3835769],[116.7520808,23.3837952],[116.7519344,23.3840266],[116.7517678,23.3842598],[116.75,23.386611542290222]]},"properties":{"key":"way:1458062664@detail:467_93","osmType":"way","osmId":1458062664,"sourceRegion":"guangdong","featureType":"infrastructure","railClass":"minor","mode":"rail","name":"汕头存车场走行线","service":"yard","status":"operational","color":"#52636F","dataOrigin":"datum-2026-08-01","sourceKey":"way:1458062664"}},{"type":"Feature","geometry":{"type":"LineString","coordinates":[[116.7524781,23.3788727],[116.7524632,23.3796771],[116.7524647,23.3819493]]},"properties":{"key":"way:1458062665@detail:467_93","osmType":"way","osmId":1458062665,"sourceRegion":"guangdong","featureType":"infrastructure","railClass":"minor","mode":"rail","name":"未命名","service":"yard","status":"operational","color":"#52636F","dataOrigin":"datum-2026-08-01","sourceKey":"way:1458062665"}},{"type":"Feature","geometry":{"type":"LineString","coordinates":[[116.7532788,23.3800293],[116.7532713,23.3810074],[116.7532606,23.3813095],[116.7532323,23.3816263],[116.7531845,23.3819122],[116.7531315,23.3821347],[116.7530571,23.3823637],[116.7529757,23.3825667],[116.7528572,23.3828088],[116.7527262,23.3830313],[116.7525793,23.3832473],[116.7524289,23.3834542],[116.75,23.38669322113339]]},"properties":{"key":"way:1458062666@detail:467_93","osmType":"way","osmId":1458062666,"sourceRegion":"guangdong","featureType":"infrastructure","railClass":"minor","mode":"rail","name":"汕头存车场走行线","service":"yard","status":"operational","color":"#52636F","dataOrigin":"datum-2026-08-01","sourceKey":"way:1458062666"}},{"type":"Feature","geometry":{"type":"LineString","coordinates":[[116.7531143,23.3682761],[116.7531658,23.3679465],[116.7531931,23.3676257],[116.7532104,23.3672321],[116.7532028,23.364206]]},"properties":{"key":"way:1458077475@detail:467_93","osmType":"way","osmId":1458077475,"sourceRegion":"guangdong","featureType":"infrastructure","railClass":"construction","mode":"construction","name":"广澳港线","usage":"main","status":"construction","color":"#E54848","dataOrigin":"datum-2026-08-01","sourceKey":"way:1458077475"}},{"type":"Feature","geometry":{"type":"LineString","coordinates":[[116.7531579,23.3642065],[116.7531579,23.3672212],[116.753143,23.3676262],[116.7531158,23.3679515],[116.7530617,23.3682727]]},"properties":{"key":"way:1458077476@detail:467_93","osmType":"way","osmId":1458077476,"sourceRegion":"guangdong","featureType":"infrastructure","railClass":"construction","mode":"construction","name":"广澳港线","usage":"main","status":"construction","color":"#E54848","dataOrigin":"datum-2026-08-01","sourceKey":"way:1458077476"}},{"type":"Feature","geometry":{"type":"LineString","coordinates":[[116.7532028,23.364206],[116.7532096,23.3604248],[116.7531983,23.3597523],[116.7531682,23.3591039],[116.75,23.321042594766585]]},"properties":{"key":"way:1458077477@detail:467_93","osmType":"way","osmId":1458077477,"sourceRegion":"guangdong","featureType":"infrastructure","railClass":"construction","mode":"construction","name":"广澳港线","usage":"main","tunnel":"yes","status":"construction","color":"#E54848","dataOrigin":"datum-2026-08-01","sourceKey":"way:1458077477"}},{"type":"Feature","geometry":{"type":"LineString","coordinates":[[116.7520004,23.3831954],[116.7518474,23.383542],[116.7516798,23.3838777],[116.7515199,23.3841507],[116.7513148,23.3844642],[116.75,23.38620767069543]]},"properties":{"key":"way:1458077481@detail:467_93","osmType":"way","osmId":1458077481,"sourceRegion":"guangdong","featureType":"infrastructure","railClass":"construction","mode":"construction","name":"广澳港线","usage":"main","tunnel":"yes","status":"construction","color":"#E54848","dataOrigin":"datum-2026-08-01","sourceKey":"way:1458077481"}},{"type":"Feature","geometry":{"type":"LineString","coordinates":[[116.7516742,23.3787004],[116.7517269,23.3779318],[116.7518362,23.3766201],[116.7518499,23.376298],[116.7518733,23.3728387],[116.7518975,23.3724743],[116.7519377,23.3721419],[116.751994,23.3717997],[116.7521401,23.3711759]]},"properties":{"key":"way:1458077482@detail:467_93","osmType":"way","osmId":1458077482,"sourceRegion":"guangdong","featureType":"infrastructure","railClass":"construction","mode":"construction","name":"未命名","service":"siding","status":"construction","color":"#8A9298","dataOrigin":"datum-2026-08-01","sourceKey":"way:1458077482"}},{"type":"Feature","geometry":{"type":"LineString","coordinates":[[116.75,23.386104872098212],[116.7503387,23.3856505],[116.7506183,23.3852575],[116.7508452,23.3849124],[116.7510717,23.3845226],[116.7512593,23.3841425],[116.7514008,23.3837495],[116.7515035,23.3833597],[116.7515866,23.3829742],[116.7516387,23.3825415],[116.7516612,23.3820081],[116.7516621,23.3817856],[116.751673,23.378998],[116.7516742,23.3787004],[116.7516941,23.3736097],[116.7517145,23.3732322],[116.751751,23.3728696],[116.7518099,23.3724633],[116.7518769,23.3721285],[116.7519626,23.3717986],[116.7521401,23.3711759],[116.7523093,23.3705819],[116.7528129,23.3688141],[116.7529227,23.3683668],[116.7529825,23.3679672],[116.7530169,23.3675543],[116.7530306,23.3671499],[116.7530304,23.3652559],[116.7530303,23.364172]]},"properties":{"key":"way:1458077483@detail:467_93","osmType":"way","osmId":1458077483,"sourceRegion":"guangdong","featureType":"infrastructure","railClass":"construction","mode":"construction","name":"粤东城际线","usage":"main","status":"construction","color":"#147D92","dataOrigin":"datum-2026-08-01","sourceKey":"way:1458077483"}},{"type":"Feature","geometry":{"type":"LineString","coordinates":[[116.7529686,23.3641767],[116.7529805,23.3666405],[116.7529829,23.3671542],[116.7529675,23.3675501],[116.7529275,23.3679659],[116.7528751,23.3683534],[116.7527642,23.3688031],[116.7526425,23.3692327],[116.7524116,23.3700476],[116.7519211,23.3717789],[116.7518325,23.3721236],[116.7517655,23.3724511],[116.7517011,23.3728672],[116.7516582,23.373234],[116.7516394,23.3736033],[116.7516133,23.3787003],[116.7516059,23.3801549],[116.7516036,23.3806027],[116.7515964,23.3820033],[116.751581,23.3825434],[116.7515317,23.3829478],[116.7514485,23.3833494],[116.7513468,23.383734],[116.7512051,23.384113],[116.751011,23.3845004],[116.7507953,23.3848709],[116.7505581,23.3852413],[116.7502839,23.3856316],[116.75,23.38601262954501]]},"properties":{"key":"way:1458077484@detail:467_93","osmType":"way","osmId":1458077484,"sourceRegion":"guangdong","featureType":"infrastructure","railClass":"construction","mode":"construction","name":"粤东城际线","usage":"main","status":"construction","color":"#147D92","dataOrigin":"datum-2026-08-01","sourceKey":"way:1458077484"}},{"type":"Feature","geometry":{"type":"LineString","coordinates":[[116.7523093,23.3705819],[116.7526425,23.3692327]]},"properties":{"key":"way:1458077485@detail:467_93","osmType":"way","osmId":1458077485,"sourceRegion":"guangdong","featureType":"infrastructure","railClass":"construction","mode":"construction","name":"未命名","service":"crossover","status":"construction","color":"#8A9298","dataOrigin":"datum-2026-08-01","sourceKey":"way:1458077485"}},{"type":"Feature","geometry":{"type":"LineString","coordinates":[[116.7529805,23.3666405],[116.7530304,23.3652559]]},"properties":{"key":"way:1458077486@detail:467_93","osmType":"way","osmId":1458077486,"sourceRegion":"guangdong","featureType":"infrastructure","railClass":"construction","mode":"construction","name":"未命名","service":"crossover","status":"construction","color":"#8A9298","dataOrigin":"datum-2026-08-01","sourceKey":"way:1458077486"}},{"type":"Feature","geometry":{"type":"LineString","coordinates":[[116.7524116,23.3700476],[116.7521377,23.3708901],[116.751798,23.3718441],[116.7517092,23.3721237],[116.7516387,23.3724134],[116.751578,23.3727049],[116.7515313,23.3729964],[116.7514916,23.3733072],[116.7514683,23.3735966],[116.7514589,23.3738666],[116.751447,23.376271],[116.7514574,23.3765651],[116.7515666,23.3779581],[116.7516133,23.3787003]]},"properties":{"key":"way:1458077487@detail:467_93","osmType":"way","osmId":1458077487,"sourceRegion":"guangdong","featureType":"infrastructure","railClass":"construction","mode":"construction","name":"未命名","service":"siding","status":"construction","color":"#8A9298","dataOrigin":"datum-2026-08-01","sourceKey":"way:1458077487"}},{"type":"Feature","geometry":{"type":"LineString","coordinates":[[116.7521377,23.3708901],[116.751896,23.3714543],[116.7517485,23.3718286],[116.7516519,23.3721191],[116.7515849,23.3723949],[116.7515178,23.3726928],[116.7514722,23.3729931],[116.7514347,23.3732984],[116.7514079,23.3735841],[116.7513945,23.3738647],[116.7513889,23.3762748],[116.7514019,23.3765678],[116.7514246,23.3769315],[116.7514712,23.3773679],[116.7515666,23.3779581]]},"properties":{"key":"way:1458077488@detail:467_93","osmType":"way","osmId":1458077488,"sourceRegion":"guangdong","featureType":"infrastructure","railClass":"construction","mode":"construction","name":"未命名","service":"siding","status":"construction","color":"#8A9298","dataOrigin":"datum-2026-08-01","sourceKey":"way:1458077488"}},{"type":"Feature","geometry":{"type":"LineString","coordinates":[[116.7516621,23.3817856],[116.7516036,23.3806027]]},"properties":{"key":"way:1458077492@detail:467_93","osmType":"way","osmId":1458077492,"sourceRegion":"guangdong","featureType":"infrastructure","railClass":"construction","mode":"construction","name":"未命名","service":"crossover","status":"construction","color":"#8A9298","dataOrigin":"datum-2026-08-01","sourceKey":"way:1458077492"}},{"type":"Feature","geometry":{"type":"LineString","coordinates":[[116.7516059,23.3801549],[116.751673,23.378998]]},"properties":{"key":"way:1458077493@detail:467_93","osmType":"way","osmId":1458077493,"sourceRegion":"guangdong","featureType":"infrastructure","railClass":"construction","mode":"construction","name":"未命名","service":"crossover","status":"construction","color":"#8A9298","dataOrigin":"datum-2026-08-01","sourceKey":"way:1458077493"}},{"type":"Feature","geometry":{"type":"LineString","coordinates":[[116.7533321,23.3848041],[116.7533612,23.3909686],[116.7535114,23.3955376],[116.7539191,23.398787],[116.7545628,23.4019378],[116.7555284,23.4044388],[116.7564672,23.407043],[116.7569715,23.4082245],[116.7576903,23.4093937]]},"properties":{"key":"way:1458284005@detail:467_93","osmType":"way","osmId":1458284005,"sourceRegion":"guangdong","featureType":"infrastructure","railClass":"construction","mode":"construction","name":"甬广高速线","nameEn":"Ningbo–Guangzhou Highspeed-Railway","ref":"漳汕高速线","usage":"main","highspeed":"yes","status":"construction","color":"#E54848","dataOrigin":"datum-2026-08-01","sourceKey":"way:1458284005"}},{"type":"Feature","geometry":{"type":"LineString","coordinates":[[116.75,23.307635388112633],[116.7531126,23.3488646],[116.7531998,23.3504143],[116.7532503,23.3519293],[116.7532936,23.3536837],[116.7533704,23.3616788]]},"properties":{"key":"way:1478717257@detail:467_93","osmType":"way","osmId":1478717257,"sourceRegion":"guangdong","featureType":"infrastructure","railClass":"highspeed","mode":"rail","name":"甬广高速线","nameEn":"Ningbo–Guangzhou Highspeed-Railway","ref":"汕汕高速线","usage":"main","highspeed":"yes","tunnel":"yes","status":"operational","color":"#E54848","dataOrigin":"datum-2026-08-01","sourceKey":"way:1478717257"}},{"type":"Feature","geometry":{"type":"LineString","coordinates":[[116.83416431333211,23.5],[116.8320626,23.4952137],[116.8313518,23.4937447],[116.8279114,23.4860964],[116.8247175,23.4800057],[116.8200723,23.4740606],[116.8162287,23.4701214],[116.8097901,23.4640578],[116.8075874,23.4620926]]},"properties":{"key":"way:1517122522@detail:467_93","osmType":"way","osmId":1517122522,"sourceRegion":"guangdong","featureType":"infrastructure","railClass":"construction","mode":"construction","name":"甬广高速线","nameEn":"Ningbo–Guangzhou Highspeed-Railway","ref":"漳汕高速线","usage":"main","highspeed":"yes","status":"construction","color":"#E54848","dataOrigin":"datum-2026-08-01","sourceKey":"way:1517122522"}},{"type":"Feature","geometry":{"type":"LineString","coordinates":[[116.7858002,23.4413555],[116.7878426,23.4435302],[116.791726,23.4481757],[116.7945131,23.4510079],[116.798138,23.4543137],[116.8026091,23.4582148],[116.8075874,23.4620926]]},"properties":{"key":"way:1517122523@detail:467_93","osmType":"way","osmId":1517122523,"sourceRegion":"guangdong","featureType":"infrastructure","railClass":"construction","mode":"construction","name":"甬广高速线","nameEn":"Ningbo–Guangzhou Highspeed-Railway","ref":"漳汕高速线","usage":"main","highspeed":"yes","status":"construction","color":"#E54848","dataOrigin":"datum-2026-08-01","sourceKey":"way:1517122523"}},{"type":"Feature","geometry":{"type":"LineString","coordinates":[[116.7858002,23.4413555],[116.7833578,23.4371882],[116.7816087,23.4335377],[116.7789435,23.4302787],[116.7766991,23.4277908],[116.7729524,23.424215],[116.7682907,23.4201787],[116.7646277,23.4166648],[116.7620422,23.4142232],[116.7607988,23.4130158],[116.7596048,23.4117433],[116.7577357,23.409367]]},"properties":{"key":"way:1517122524@detail:467_93","osmType":"way","osmId":1517122524,"sourceRegion":"guangdong","featureType":"infrastructure","railClass":"construction","mode":"construction","name":"甬广高速线","nameEn":"Ningbo–Guangzhou Highspeed-Railway","ref":"漳汕高速线","usage":"main","highspeed":"yes","status":"construction","color":"#E54848","dataOrigin":"datum-2026-08-01","sourceKey":"way:1517122524"}},{"type":"Feature","geometry":{"type":"LineString","coordinates":[[116.7533859,23.3848039],[116.753415,23.3909677],[116.7535651,23.395534],[116.7539724,23.3987796],[116.7546149,23.4019249],[116.7555793,23.4044228],[116.7565178,23.4070262],[116.7570202,23.4082033],[116.7577357,23.409367]]},"properties":{"key":"way:1517122525@detail:467_93","osmType":"way","osmId":1517122525,"sourceRegion":"guangdong","featureType":"infrastructure","railClass":"construction","mode":"construction","name":"甬广高速线","nameEn":"Ningbo–Guangzhou Highspeed-Railway","ref":"漳汕高速线","usage":"main","highspeed":"yes","status":"construction","color":"#E54848","dataOrigin":"datum-2026-08-01","sourceKey":"way:1517122525"}},{"type":"Feature","geometry":{"type":"LineString","coordinates":[[116.7519488,23.3831812],[116.7518106,23.3834906],[116.7515799,23.3839021],[116.7514604,23.384118],[116.7511853,23.3845351],[116.7507431,23.3851309],[116.750294,23.3857471],[116.75,23.386137313753103]]},"properties":{"key":"way:1527195297@detail:467_93","osmType":"way","osmId":1527195297,"sourceRegion":"guangdong","featureType":"infrastructure","railClass":"construction","mode":"construction","name":"广澳港线","highspeed":"yes","tunnel":"yes","status":"construction","color":"#8A9298","dataOrigin":"datum-2026-08-01","sourceKey":"way:1527195297"}}]}