{"type":"FeatureCollection","features":[{"type":"Feature","geometry":{"type":"Point","coordinates":[116.9283432,23.714094]},"properties":{"key":"node:9258885991","osmType":"node","osmId":9258885991,"sourceRegion":"guangdong","featureType":"station","railClass":"minor","mode":"station","name":"饶平","nameEn":"Raoping","status":"operational","color":"#52636F","dataOrigin":"datum-2026-08-01","sourceKey":"node:9258885991","stationGroup":"饶平","hasOperationalRail":true,"hasConstructionRail":false}},{"type":"Feature","geometry":{"type":"LineString","coordinates":[[116.863767,23.6758928],[116.8663331,23.6786239],[116.8690613,23.6814207],[116.8718847,23.6838278]]},"properties":{"key":"way:180311677@detail:467_94","osmType":"way","osmId":180311677,"sourceRegion":"guangdong","featureType":"infrastructure","railClass":"highspeed","mode":"rail","name":"杭深线","nameEn":"Hangzhou-Shenzhen Line","ref":"3009","usage":"main","highspeed":"yes","status":"operational","color":"#E54848","dataOrigin":"datum-2026-08-01","sourceKey":"way:180311677"}},{"type":"Feature","geometry":{"type":"LineString","coordinates":[[116.8084667,23.6294854],[116.863767,23.6758928]]},"properties":{"key":"way:180311728@detail:467_94","osmType":"way","osmId":180311728,"sourceRegion":"guangdong","featureType":"infrastructure","railClass":"highspeed","mode":"rail","name":"杭深线","nameEn":"Hangzhou-Shenzhen Line","ref":"3009","usage":"main","highspeed":"yes","tunnel":"yes","status":"operational","color":"#E54848","dataOrigin":"datum-2026-08-01","sourceKey":"way:180311728"}},{"type":"Feature","geometry":{"type":"LineString","coordinates":[[116.9584282,23.7300475],[116.9595909,23.7305686],[116.9605178,23.7310152],[116.9615911,23.7315883],[116.9637051,23.7327718],[116.9657541,23.7337766],[116.9665077,23.7341653]]},"properties":{"key":"way:180311743@detail:467_94","osmType":"way","osmId":180311743,"sourceRegion":"guangdong","featureType":"infrastructure","railClass":"highspeed","mode":"rail","name":"杭深线","nameEn":"Hangzhou-Shenzhen Line","ref":"3009","usage":"main","highspeed":"yes","status":"operational","color":"#E54848","dataOrigin":"datum-2026-08-01","sourceKey":"way:180311743"}},{"type":"Feature","geometry":{"type":"LineString","coordinates":[[116.7806911,23.6147337],[116.7884159,23.6177604],[116.7933706,23.6198254],[116.7976461,23.6220167],[116.8012419,23.6242087],[116.8014943,23.6243786]]},"properties":{"key":"way:180311751@detail:467_94","osmType":"way","osmId":180311751,"sourceRegion":"guangdong","featureType":"infrastructure","railClass":"highspeed","mode":"rail","name":"杭深线","nameEn":"Hangzhou-Shenzhen Line","ref":"3009","usage":"main","highspeed":"yes","status":"operational","color":"#E54848","dataOrigin":"datum-2026-08-01","sourceKey":"way:180311751"}},{"type":"Feature","geometry":{"type":"LineString","coordinates":[[116.8744853,23.6857988],[116.8772922,23.6878385]]},"properties":{"key":"way:191990068@detail:467_94","osmType":"way","osmId":191990068,"sourceRegion":"guangdong","featureType":"infrastructure","railClass":"highspeed","mode":"rail","name":"杭深线","nameEn":"Hangzhou-Shenzhen Line","ref":"3009","usage":"main","highspeed":"yes","status":"operational","color":"#E54848","dataOrigin":"datum-2026-08-01","sourceKey":"way:191990068"}},{"type":"Feature","geometry":{"type":"LineString","coordinates":[[116.8942228,23.6982095],[116.9154546,23.7079368]]},"properties":{"key":"way:191990072@detail:467_94","osmType":"way","osmId":191990072,"sourceRegion":"guangdong","featureType":"infrastructure","railClass":"highspeed","mode":"rail","name":"杭深线","nameEn":"Hangzhou-Shenzhen Line","ref":"3009","usage":"main","highspeed":"yes","tunnel":"yes","status":"operational","color":"#E54848","dataOrigin":"datum-2026-08-01","sourceKey":"way:191990072"}},{"type":"Feature","geometry":{"type":"LineString","coordinates":[[116.8919349,23.6972247],[116.8931016,23.6977453],[116.8942228,23.6982095]]},"properties":{"key":"way:191990092@detail:467_94","osmType":"way","osmId":191990092,"sourceRegion":"guangdong","featureType":"infrastructure","railClass":"highspeed","mode":"rail","name":"杭深线","nameEn":"Hangzhou-Shenzhen Line","ref":"3009","usage":"main","highspeed":"yes","status":"operational","color":"#E54848","dataOrigin":"datum-2026-08-01","sourceKey":"way:191990092"}},{"type":"Feature","geometry":{"type":"LineString","coordinates":[[116.9154546,23.7079368],[116.9157065,23.7080791],[116.9213577,23.7109955],[116.9232487,23.7119757],[116.9320213,23.7164822],[116.9334923,23.7172649],[116.9342005,23.7176223],[116.9352402,23.7181469],[116.9357247,23.7184033],[116.9372455,23.7191789],[116.9375688,23.7193653]]},"properties":{"key":"way:191990097@detail:467_94","osmType":"way","osmId":191990097,"sourceRegion":"guangdong","featureType":"infrastructure","railClass":"highspeed","mode":"rail","name":"杭深线","nameEn":"Hangzhou-Shenzhen Line","ref":"3009","usage":"main","highspeed":"yes","status":"operational","color":"#E54848","dataOrigin":"datum-2026-08-01","sourceKey":"way:191990097"}},{"type":"Feature","geometry":{"type":"LineString","coordinates":[[116.8718847,23.6838278],[116.8744853,23.6857988]]},"properties":{"key":"way:191990114@detail:467_94","osmType":"way","osmId":191990114,"sourceRegion":"guangdong","featureType":"infrastructure","railClass":"highspeed","mode":"rail","name":"杭深线","nameEn":"Hangzhou-Shenzhen Line","ref":"3009","usage":"main","highspeed":"yes","bridge":"viaduct","status":"operational","color":"#E54848","dataOrigin":"datum-2026-08-01","sourceKey":"way:191990114"}},{"type":"Feature","geometry":{"type":"LineString","coordinates":[[116.8772922,23.6878385],[116.8789617,23.689097],[116.8798876,23.6898118],[116.8804348,23.6902367],[116.8810624,23.6907034],[116.8827751,23.691976],[116.8837139,23.6926563],[116.8846151,23.6932507],[116.8856317,23.6939237],[116.8866912,23.694577],[116.8878418,23.6952205],[116.8884024,23.6955201],[116.8889603,23.6958026],[116.8896791,23.6961759],[116.8903819,23.6965149],[116.8911892,23.6968931],[116.8919349,23.6972247]]},"properties":{"key":"way:191990169@detail:467_94","osmType":"way","osmId":191990169,"sourceRegion":"guangdong","featureType":"infrastructure","railClass":"highspeed","mode":"rail","name":"杭深线","nameEn":"Hangzhou-Shenzhen Line","ref":"3009","usage":"main","highspeed":"yes","bridge":"viaduct","status":"operational","color":"#E54848","dataOrigin":"datum-2026-08-01","sourceKey":"way:191990169"}},{"type":"Feature","geometry":{"type":"LineString","coordinates":[[116.9375688,23.7193653],[116.9424817,23.7218414],[116.9470048,23.7241678],[116.9514995,23.7264812],[116.953952,23.7277836],[116.9584282,23.7300475]]},"properties":{"key":"way:292501940@detail:467_94","osmType":"way","osmId":292501940,"sourceRegion":"guangdong","featureType":"infrastructure","railClass":"highspeed","mode":"rail","name":"杭深线","nameEn":"Hangzhou-Shenzhen Line","ref":"3009","usage":"main","highspeed":"yes","bridge":"yes","status":"operational","color":"#E54848","dataOrigin":"datum-2026-08-01","sourceKey":"way:292501940"}},{"type":"Feature","geometry":{"type":"LineString","coordinates":[[116.9230051,23.7119195],[116.9232963,23.7121195],[116.9236349,23.7123703],[116.9238496,23.7125241],[116.9241321,23.7127264],[116.9260979,23.7137609],[116.9300154,23.7157687],[116.9306267,23.7160929],[116.9312473,23.716328],[116.9317558,23.7164942],[116.9321126,23.7166219]]},"properties":{"key":"way:292503008@detail:467_94","osmType":"way","osmId":292503008,"sourceRegion":"guangdong","featureType":"infrastructure","railClass":"minor","mode":"rail","name":"未命名","service":"yard","status":"operational","color":"#52636F","dataOrigin":"datum-2026-08-01","sourceKey":"way:292503008"}},{"type":"Feature","geometry":{"type":"LineString","coordinates":[[116.9154753,23.7078989],[116.9157393,23.7080395],[116.9186769,23.709556],[116.9238936,23.7122488],[116.9262118,23.7134478],[116.9332796,23.7170899],[116.934175,23.71755],[116.9367621,23.7188753],[116.937247,23.7191345],[116.9375996,23.7193141]]},"properties":{"key":"way:573061440@detail:467_94","osmType":"way","osmId":573061440,"sourceRegion":"guangdong","featureType":"infrastructure","railClass":"highspeed","mode":"rail","name":"杭深线","nameEn":"Hangzhou-Shenzhen Line","ref":"3009","usage":"main","highspeed":"yes","status":"operational","color":"#E54848","dataOrigin":"datum-2026-08-01","sourceKey":"way:573061440"}},{"type":"Feature","geometry":{"type":"LineString","coordinates":[[116.9357247,23.7184033],[116.9367621,23.7188753]]},"properties":{"key":"way:573061442@detail:467_94","osmType":"way","osmId":573061442,"sourceRegion":"guangdong","featureType":"infrastructure","railClass":"minor","mode":"rail","name":"未命名","service":"crossover","status":"operational","color":"#52636F","dataOrigin":"datum-2026-08-01","sourceKey":"way:573061442"}},{"type":"Feature","geometry":{"type":"LineString","coordinates":[[116.934175,23.71755],[116.9352402,23.7181469]]},"properties":{"key":"way:573061444@detail:467_94","osmType":"way","osmId":573061444,"sourceRegion":"guangdong","featureType":"infrastructure","railClass":"minor","mode":"rail","name":"未命名","service":"crossover","status":"operational","color":"#52636F","dataOrigin":"datum-2026-08-01","sourceKey":"way:573061444"}},{"type":"Feature","geometry":{"type":"LineString","coordinates":[[116.9332796,23.7170899],[116.9326364,23.7167162],[116.9303136,23.7155129],[116.9261776,23.7133764],[116.9251578,23.7128493],[116.9227524,23.7116058],[116.9223796,23.7114143],[116.9217788,23.7110189],[116.9212209,23.7106382],[116.917734,23.708843]]},"properties":{"key":"way:573061445@detail:467_94","osmType":"way","osmId":573061445,"sourceRegion":"guangdong","featureType":"infrastructure","railClass":"minor","mode":"rail","name":"未命名","service":"siding","status":"operational","color":"#52636F","dataOrigin":"datum-2026-08-01","sourceKey":"way:573061445"}},{"type":"Feature","geometry":{"type":"LineString","coordinates":[[116.9238936,23.7122488],[116.9251578,23.7128493]]},"properties":{"key":"way:573061447@detail:467_94","osmType":"way","osmId":573061447,"sourceRegion":"guangdong","featureType":"infrastructure","railClass":"minor","mode":"rail","name":"未命名","service":"crossover","status":"operational","color":"#52636F","dataOrigin":"datum-2026-08-01","sourceKey":"way:573061447"}},{"type":"Feature","geometry":{"type":"LineString","coordinates":[[116.9227524,23.7116058],[116.9231655,23.7117704],[116.9234835,23.7119291]]},"properties":{"key":"way:573061449@detail:467_94","osmType":"way","osmId":573061449,"sourceRegion":"guangdong","featureType":"infrastructure","railClass":"minor","mode":"rail","name":"未命名","service":"siding","status":"operational","color":"#52636F","dataOrigin":"datum-2026-08-01","sourceKey":"way:573061449"}},{"type":"Feature","geometry":{"type":"LineString","coordinates":[[116.9217788,23.7110189],[116.9215229,23.710808],[116.9212692,23.710599],[116.9210975,23.7104516],[116.9209768,23.7103755],[116.9205351,23.7101463]]},"properties":{"key":"way:573061450@detail:467_94","osmType":"way","osmId":573061450,"sourceRegion":"guangdong","featureType":"infrastructure","railClass":"minor","mode":"rail","name":"未命名","service":"yard","status":"operational","color":"#52636F","dataOrigin":"datum-2026-08-01","sourceKey":"way:573061450"}},{"type":"Feature","geometry":{"type":"LineString","coordinates":[[116.9200187,23.7099152],[116.9200544,23.7099363]]},"properties":{"key":"way:573061451@detail:467_94","osmType":"way","osmId":573061451,"sourceRegion":"guangdong","featureType":"infrastructure","railClass":"minor","mode":"rail","name":"未命名","service":"yard","status":"operational","color":"#52636F","dataOrigin":"datum-2026-08-01","sourceKey":"way:573061451"}},{"type":"Feature","geometry":{"type":"LineString","coordinates":[[116.9227002,23.7117371],[116.9230051,23.7119195],[116.9236291,23.7122955],[116.9242532,23.7126677],[116.9246231,23.7128761],[116.9260644,23.7136243],[116.9302274,23.715772],[116.9313718,23.7162968],[116.9321126,23.7166219],[116.9325076,23.7167973]]},"properties":{"key":"way:573061452@detail:467_94","osmType":"way","osmId":573061452,"sourceRegion":"guangdong","featureType":"infrastructure","railClass":"minor","mode":"rail","name":"未命名","service":"siding","status":"operational","color":"#52636F","dataOrigin":"datum-2026-08-01","sourceKey":"way:573061452"}},{"type":"Feature","geometry":{"type":"LineString","coordinates":[[116.9344371,23.7177879],[116.9334082,23.71726],[116.9327134,23.7169035],[116.9325076,23.7167973],[116.9303006,23.7156585],[116.9261335,23.7135052],[116.9227002,23.7117371],[116.9218969,23.7113245],[116.9211694,23.7109519],[116.9156009,23.7080697]]},"properties":{"key":"way:573061453@detail:467_94","osmType":"way","osmId":573061453,"sourceRegion":"guangdong","featureType":"infrastructure","railClass":"minor","mode":"rail","name":"未命名","service":"siding","status":"operational","color":"#52636F","dataOrigin":"datum-2026-08-01","sourceKey":"way:573061453"}},{"type":"Feature","geometry":{"type":"LineString","coordinates":[[116.9232963,23.7121195],[116.9240528,23.7128068]]},"properties":{"key":"way:573061454@detail:467_94","osmType":"way","osmId":573061454,"sourceRegion":"guangdong","featureType":"infrastructure","railClass":"minor","mode":"rail","name":"未命名","service":"crossover","status":"operational","color":"#52636F","dataOrigin":"datum-2026-08-01","sourceKey":"way:573061454"}},{"type":"Feature","geometry":{"type":"LineString","coordinates":[[116.9233295,23.7122034],[116.9238496,23.7125241]]},"properties":{"key":"way:573061455@detail:467_94","osmType":"way","osmId":573061455,"sourceRegion":"guangdong","featureType":"infrastructure","railClass":"minor","mode":"rail","name":"未命名","service":"crossover","status":"operational","color":"#52636F","dataOrigin":"datum-2026-08-01","sourceKey":"way:573061455"}},{"type":"Feature","geometry":{"type":"LineString","coordinates":[[116.9312301,23.7163727],[116.9317558,23.7164942]]},"properties":{"key":"way:573061456@detail:467_94","osmType":"way","osmId":573061456,"sourceRegion":"guangdong","featureType":"infrastructure","railClass":"minor","mode":"rail","name":"未命名","service":"crossover","status":"operational","color":"#52636F","dataOrigin":"datum-2026-08-01","sourceKey":"way:573061456"}},{"type":"Feature","geometry":{"type":"LineString","coordinates":[[116.9312473,23.716328],[116.9317363,23.7165393]]},"properties":{"key":"way:573061457@detail:467_94","osmType":"way","osmId":573061457,"sourceRegion":"guangdong","featureType":"infrastructure","railClass":"minor","mode":"rail","name":"未命名","service":"crossover","status":"operational","color":"#52636F","dataOrigin":"datum-2026-08-01","sourceKey":"way:573061457"}},{"type":"Feature","geometry":{"type":"LineString","coordinates":[[116.9334082,23.71726],[116.9342005,23.7176223]]},"properties":{"key":"way:573061458@detail:467_94","osmType":"way","osmId":573061458,"sourceRegion":"guangdong","featureType":"infrastructure","railClass":"minor","mode":"rail","name":"未命名","service":"crossover","status":"operational","color":"#52636F","dataOrigin":"datum-2026-08-01","sourceKey":"way:573061458"}},{"type":"Feature","geometry":{"type":"LineString","coordinates":[[116.9319949,23.7166295],[116.9317363,23.7165393],[116.9312301,23.7163727],[116.9306954,23.7162503],[116.9300641,23.7161139],[116.9295349,23.7159599],[116.925991,23.7141525],[116.9250379,23.7136427],[116.9247493,23.7134324],[116.9243222,23.7130585],[116.9240528,23.7128068],[116.9233295,23.7122034],[116.9230522,23.712006],[116.9227595,23.7118311],[116.9217212,23.7112951],[116.920968,23.7109136]]},"properties":{"key":"way:573061459@detail:467_94","osmType":"way","osmId":573061459,"sourceRegion":"guangdong","featureType":"infrastructure","railClass":"minor","mode":"rail","name":"未命名","service":"yard","status":"operational","color":"#52636F","dataOrigin":"datum-2026-08-01","sourceKey":"way:573061459"}},{"type":"Feature","geometry":{"type":"LineString","coordinates":[[116.9211694,23.7109519],[116.9217212,23.7112951]]},"properties":{"key":"way:573061460@detail:467_94","osmType":"way","osmId":573061460,"sourceRegion":"guangdong","featureType":"infrastructure","railClass":"minor","mode":"rail","name":"未命名","service":"crossover","status":"operational","color":"#52636F","dataOrigin":"datum-2026-08-01","sourceKey":"way:573061460"}},{"type":"Feature","geometry":{"type":"LineString","coordinates":[[116.9213577,23.7109955],[116.9218969,23.7113245]]},"properties":{"key":"way:573061461@detail:467_94","osmType":"way","osmId":573061461,"sourceRegion":"guangdong","featureType":"infrastructure","railClass":"minor","mode":"rail","name":"未命名","service":"crossover","status":"operational","color":"#52636F","dataOrigin":"datum-2026-08-01","sourceKey":"way:573061461"}},{"type":"Feature","geometry":{"type":"LineString","coordinates":[[116.9205351,23.7101463],[116.9200771,23.7098987]]},"properties":{"key":"way:582469001@detail:467_94","osmType":"way","osmId":582469001,"sourceRegion":"guangdong","featureType":"infrastructure","railClass":"minor","mode":"rail","name":"未命名","service":"yard","tunnel":"building_passage","status":"operational","color":"#52636F","dataOrigin":"datum-2026-08-01","sourceKey":"way:582469001"}},{"type":"Feature","geometry":{"type":"LineString","coordinates":[[116.9200771,23.7098987],[116.9200384,23.7098787]]},"properties":{"key":"way:582469002@detail:467_94","osmType":"way","osmId":582469002,"sourceRegion":"guangdong","featureType":"infrastructure","railClass":"minor","mode":"rail","name":"未命名","service":"yard","status":"operational","color":"#52636F","dataOrigin":"datum-2026-08-01","sourceKey":"way:582469002"}},{"type":"Feature","geometry":{"type":"LineString","coordinates":[[116.9200544,23.7099363],[116.9205116,23.7101847]]},"properties":{"key":"way:582469003@detail:467_94","osmType":"way","osmId":582469003,"sourceRegion":"guangdong","featureType":"infrastructure","railClass":"minor","mode":"rail","name":"未命名","service":"yard","tunnel":"building_passage","status":"operational","color":"#52636F","dataOrigin":"datum-2026-08-01","sourceKey":"way:582469003"}},{"type":"Feature","geometry":{"type":"LineString","coordinates":[[116.9205116,23.7101847],[116.9210304,23.7104713],[116.9215229,23.710808]]},"properties":{"key":"way:582469004@detail:467_94","osmType":"way","osmId":582469004,"sourceRegion":"guangdong","featureType":"infrastructure","railClass":"minor","mode":"rail","name":"未命名","service":"yard","status":"operational","color":"#52636F","dataOrigin":"datum-2026-08-01","sourceKey":"way:582469004"}},{"type":"Feature","geometry":{"type":"LineString","coordinates":[[116.9584587,23.729997],[116.9539836,23.7277338],[116.9515311,23.7264314],[116.9470361,23.7241168],[116.9425128,23.7217903],[116.9375996,23.7193141]]},"properties":{"key":"way:631440520@detail:467_94","osmType":"way","osmId":631440520,"sourceRegion":"guangdong","featureType":"infrastructure","railClass":"highspeed","mode":"rail","name":"杭深线","nameEn":"Hangzhou-Shenzhen Line","ref":"3009","usage":"main","highspeed":"yes","bridge":"yes","status":"operational","color":"#E54848","dataOrigin":"datum-2026-08-01","sourceKey":"way:631440520"}},{"type":"Feature","geometry":{"type":"LineString","coordinates":[[116.9840065,23.7410618],[116.9787295,23.7392446],[116.9762113,23.7384555],[116.9742542,23.7376943],[116.9678806,23.7348058],[116.9677578,23.7347425]]},"properties":{"key":"way:631440901@detail:467_94","osmType":"way","osmId":631440901,"sourceRegion":"guangdong","featureType":"infrastructure","railClass":"highspeed","mode":"rail","name":"杭深线","nameEn":"Hangzhou-Shenzhen Line","ref":"3009","usage":"main","highspeed":"yes","status":"operational","color":"#E54848","dataOrigin":"datum-2026-08-01","sourceKey":"way:631440901"}},{"type":"Feature","geometry":{"type":"LineString","coordinates":[[116.9154753,23.7078989],[116.8942427,23.6981712]]},"properties":{"key":"way:631440903@detail:467_94","osmType":"way","osmId":631440903,"sourceRegion":"guangdong","featureType":"infrastructure","railClass":"highspeed","mode":"rail","name":"杭深线","nameEn":"Hangzhou-Shenzhen Line","ref":"3009","usage":"main","highspeed":"yes","tunnel":"yes","status":"operational","color":"#E54848","dataOrigin":"datum-2026-08-01","sourceKey":"way:631440903"}},{"type":"Feature","geometry":{"type":"LineString","coordinates":[[116.8942427,23.6981712],[116.8931213,23.6977069],[116.8919552,23.6971866]]},"properties":{"key":"way:631440904@detail:467_94","osmType":"way","osmId":631440904,"sourceRegion":"guangdong","featureType":"infrastructure","railClass":"highspeed","mode":"rail","name":"杭深线","nameEn":"Hangzhou-Shenzhen Line","ref":"3009","usage":"main","highspeed":"yes","status":"operational","color":"#E54848","dataOrigin":"datum-2026-08-01","sourceKey":"way:631440904"}},{"type":"Feature","geometry":{"type":"LineString","coordinates":[[116.8919552,23.6971866],[116.8912099,23.6968551],[116.8904032,23.6964773],[116.8897013,23.6961387],[116.8889829,23.6957656],[116.8884253,23.6954832],[116.8878655,23.6951841],[116.8867162,23.6945413],[116.8856582,23.6938889],[116.8846422,23.6932163],[116.8837418,23.6926224],[116.8828041,23.6919429],[116.8810916,23.6906705],[116.8804644,23.6902041],[116.8799175,23.6897794],[116.8789913,23.6890644],[116.8773213,23.6878055]]},"properties":{"key":"way:631440905@detail:467_94","osmType":"way","osmId":631440905,"sourceRegion":"guangdong","featureType":"infrastructure","railClass":"highspeed","mode":"rail","name":"杭深线","nameEn":"Hangzhou-Shenzhen Line","ref":"3009","usage":"main","highspeed":"yes","bridge":"viaduct","status":"operational","color":"#E54848","dataOrigin":"datum-2026-08-01","sourceKey":"way:631440905"}},{"type":"Feature","geometry":{"type":"LineString","coordinates":[[116.8773213,23.6878055],[116.8745145,23.6857658]]},"properties":{"key":"way:631440906@detail:467_94","osmType":"way","osmId":631440906,"sourceRegion":"guangdong","featureType":"infrastructure","railClass":"highspeed","mode":"rail","name":"杭深线","nameEn":"Hangzhou-Shenzhen Line","ref":"3009","usage":"main","highspeed":"yes","status":"operational","color":"#E54848","dataOrigin":"datum-2026-08-01","sourceKey":"way:631440906"}},{"type":"Feature","geometry":{"type":"LineString","coordinates":[[116.8745145,23.6857658],[116.8719153,23.6837959]]},"properties":{"key":"way:631440907@detail:467_94","osmType":"way","osmId":631440907,"sourceRegion":"guangdong","featureType":"infrastructure","railClass":"highspeed","mode":"rail","name":"杭深线","nameEn":"Hangzhou-Shenzhen Line","ref":"3009","usage":"main","highspeed":"yes","bridge":"viaduct","status":"operational","color":"#E54848","dataOrigin":"datum-2026-08-01","sourceKey":"way:631440907"}},{"type":"Feature","geometry":{"type":"LineString","coordinates":[[116.8719153,23.6837959],[116.8690944,23.681391],[116.8663679,23.6785959],[116.8638003,23.6758632]]},"properties":{"key":"way:631440908@detail:467_94","osmType":"way","osmId":631440908,"sourceRegion":"guangdong","featureType":"infrastructure","railClass":"highspeed","mode":"rail","name":"杭深线","nameEn":"Hangzhou-Shenzhen Line","ref":"3009","usage":"main","highspeed":"yes","status":"operational","color":"#E54848","dataOrigin":"datum-2026-08-01","sourceKey":"way:631440908"}},{"type":"Feature","geometry":{"type":"LineString","coordinates":[[116.8638003,23.6758632],[116.8084979,23.629454]]},"properties":{"key":"way:631440909@detail:467_94","osmType":"way","osmId":631440909,"sourceRegion":"guangdong","featureType":"infrastructure","railClass":"highspeed","mode":"rail","name":"杭深线","nameEn":"Hangzhou-Shenzhen Line","ref":"3009","usage":"main","highspeed":"yes","tunnel":"yes","status":"operational","color":"#E54848","dataOrigin":"datum-2026-08-01","sourceKey":"way:631440909"}},{"type":"Feature","geometry":{"type":"LineString","coordinates":[[116.8015234,23.6243455],[116.8012685,23.6241739],[116.7976703,23.6219805],[116.7933915,23.6197875],[116.7884346,23.6177216],[116.7807092,23.6146946]]},"properties":{"key":"way:631440910@detail:467_94","osmType":"way","osmId":631440910,"sourceRegion":"guangdong","featureType":"infrastructure","railClass":"highspeed","mode":"rail","name":"杭深线","nameEn":"Hangzhou-Shenzhen Line","ref":"3009","usage":"main","highspeed":"yes","status":"operational","color":"#E54848","dataOrigin":"datum-2026-08-01","sourceKey":"way:631440910"}},{"type":"Feature","geometry":{"type":"LineString","coordinates":[[116.75,23.60135368744171],[116.750872,23.6018067],[116.7573923,23.6050372],[116.7621908,23.6073484],[116.7644575,23.6083825],[116.7681918,23.6098864],[116.7723858,23.6115212],[116.7806911,23.6147337]]},"properties":{"key":"way:827948540@detail:467_94","osmType":"way","osmId":827948540,"sourceRegion":"guangdong","featureType":"infrastructure","railClass":"highspeed","mode":"rail","name":"杭深线","nameEn":"Hangzhou-Shenzhen Line","ref":"3009","usage":"main","highspeed":"yes","bridge":"viaduct","status":"operational","color":"#E54848","dataOrigin":"datum-2026-08-01","sourceKey":"way:827948540"}},{"type":"Feature","geometry":{"type":"LineString","coordinates":[[116.7807092,23.6146946],[116.7724039,23.6114821],[116.7682102,23.6098474],[116.7644772,23.6083441],[116.7622119,23.6073106],[116.7574141,23.6049997],[116.7508944,23.6017696],[116.75,23.60130494261548]]},"properties":{"key":"way:827948541@detail:467_94","osmType":"way","osmId":827948541,"sourceRegion":"guangdong","featureType":"infrastructure","railClass":"highspeed","mode":"rail","name":"杭深线","nameEn":"Hangzhou-Shenzhen Line","ref":"3009","usage":"main","highspeed":"yes","bridge":"viaduct","status":"operational","color":"#E54848","dataOrigin":"datum-2026-08-01","sourceKey":"way:827948541"}},{"type":"Feature","geometry":{"type":"LineString","coordinates":[[116.9839864,23.7411125],[117.0,23.746387547941183]]},"properties":{"key":"way:1030402698@detail:467_94","osmType":"way","osmId":1030402698,"sourceRegion":"guangdong","featureType":"infrastructure","railClass":"highspeed","mode":"rail","name":"杭深线","nameEn":"Hangzhou-Shenzhen Line","ref":"3009","usage":"main","highspeed":"yes","status":"operational","color":"#E54848","dataOrigin":"datum-2026-08-01","sourceKey":"way:1030402698"}},{"type":"Feature","geometry":{"type":"LineString","coordinates":[[116.9840065,23.7410618],[117.0,23.746330199428552]]},"properties":{"key":"way:1030402699@detail:467_94","osmType":"way","osmId":1030402699,"sourceRegion":"guangdong","featureType":"infrastructure","railClass":"highspeed","mode":"rail","name":"杭深线","nameEn":"Hangzhou-Shenzhen Line","ref":"3009","usage":"main","highspeed":"yes","status":"operational","color":"#E54848","dataOrigin":"datum-2026-08-01","sourceKey":"way:1030402699"}},{"type":"Feature","geometry":{"type":"LineString","coordinates":[[116.7812799,23.5342864],[116.781695,23.5339631],[116.782106,23.5336622],[116.7845058,23.5319662],[116.7849705,23.5316138],[116.7854084,23.5312535],[116.7858277,23.5308631],[116.7862315,23.5304193],[116.7865746,23.5299625],[116.7868961,23.5294874],[116.7871477,23.5290252],[116.7873668,23.5285312],[116.7875252,23.5280629],[116.7876627,23.5275749],[116.7877723,23.5270184],[116.7878221,23.5264896],[116.7878481,23.5259701],[116.7878145,23.5254278],[116.78776,23.5249526],[116.7876852,23.5245067],[116.787566,23.5240462],[116.7874103,23.5236156],[116.7872248,23.52318],[116.7870068,23.5227555],[116.7853999,23.5200377],[116.7850595,23.519497],[116.7847177,23.5189884],[116.7843852,23.5185483],[116.7840499,23.5181177],[116.7836815,23.5176745],[116.7818931,23.5156742],[116.7815417,23.5152147],[116.7812479,23.5147821],[116.7809984,23.5143689],[116.7807828,23.5139409],[116.7805956,23.5134867],[116.7804609,23.5130215],[116.7803399,23.5125205],[116.7799643,23.5107501],[116.7797394,23.5097904],[116.77706102141155,23.5]]},"properties":{"key":"way:1191741662@detail:467_94","osmType":"way","osmId":1191741662,"sourceRegion":"guangdong","featureType":"infrastructure","railClass":"construction","mode":"construction","name":"粤东城际线","usage":"main","bridge":"yes","status":"construction","color":"#147D92","dataOrigin":"datum-2026-08-01","sourceKey":"way:1191741662"}},{"type":"Feature","geometry":{"type":"LineString","coordinates":[[116.9499662,23.6212733],[116.9443153,23.616131],[116.9408163,23.6130159],[116.9375332,23.6103473],[116.9322127,23.606359],[116.9264108,23.6030971],[116.9137909,23.5969741],[116.9067063,23.594107],[116.8905366,23.586532],[116.8807321,23.5809036],[116.871649,23.5730941],[116.8644112,23.5652452],[116.8633601,23.563822],[116.8620726,23.5616782],[116.8584033,23.5546759],[116.8564336,23.5507206],[116.854844,23.5465843],[116.8477415,23.5297448],[116.8384503,23.5098928],[116.83410627845552,23.5]]},"properties":{"key":"way:1212706846@detail:467_94","osmType":"way","osmId":1212706846,"sourceRegion":"guangdong","featureType":"infrastructure","railClass":"construction","mode":"construction","name":"甬广高速线","nameEn":"Ningbo–Guangzhou Highspeed-Railway","ref":"漳汕高速线","usage":"main","highspeed":"yes","status":"construction","color":"#E54848","dataOrigin":"datum-2026-08-01","sourceKey":"way:1212706846"}},{"type":"Feature","geometry":{"type":"LineString","coordinates":[[117.0,23.64430791186114],[116.9907868,23.641564],[116.9857907,23.6400032],[116.9795465,23.6378212],[116.9718218,23.6349906]]},"properties":{"key":"way:1332602762@detail:467_94","osmType":"way","osmId":1332602762,"sourceRegion":"guangdong","featureType":"infrastructure","railClass":"construction","mode":"construction","name":"甬广高速线","nameEn":"Ningbo–Guangzhou Highspeed-Railway","ref":"漳汕高速线","usage":"main","highspeed":"yes","status":"construction","color":"#E54848","dataOrigin":"datum-2026-08-01","sourceKey":"way:1332602762"}},{"type":"Feature","geometry":{"type":"LineString","coordinates":[[116.8030922,23.6254015],[116.8015234,23.6243455]]},"properties":{"key":"way:1340570514@detail:467_94","osmType":"way","osmId":1340570514,"sourceRegion":"guangdong","featureType":"infrastructure","railClass":"highspeed","mode":"rail","name":"杭深线","nameEn":"Hangzhou-Shenzhen Line","ref":"3009","usage":"main","highspeed":"yes","bridge":"yes","status":"operational","color":"#E54848","dataOrigin":"datum-2026-08-01","sourceKey":"way:1340570514"}},{"type":"Feature","geometry":{"type":"LineString","coordinates":[[116.8014943,23.6243786],[116.8030547,23.6254289]]},"properties":{"key":"way:1340570515@detail:467_94","osmType":"way","osmId":1340570515,"sourceRegion":"guangdong","featureType":"infrastructure","railClass":"highspeed","mode":"rail","name":"杭深线","nameEn":"Hangzhou-Shenzhen Line","ref":"3009","usage":"main","highspeed":"yes","bridge":"yes","status":"operational","color":"#E54848","dataOrigin":"datum-2026-08-01","sourceKey":"way:1340570515"}},{"type":"Feature","geometry":{"type":"LineString","coordinates":[[116.8084979,23.629454],[116.8068214,23.6280673],[116.8040448,23.6260427],[116.8030922,23.6254015]]},"properties":{"key":"way:1340570516@detail:467_94","osmType":"way","osmId":1340570516,"sourceRegion":"guangdong","featureType":"infrastructure","railClass":"highspeed","mode":"rail","name":"杭深线","nameEn":"Hangzhou-Shenzhen Line","ref":"3009","usage":"main","highspeed":"yes","status":"operational","color":"#E54848","dataOrigin":"datum-2026-08-01","sourceKey":"way:1340570516"}},{"type":"Feature","geometry":{"type":"LineString","coordinates":[[116.8030547,23.6254289],[116.8040167,23.6260764],[116.8067914,23.6280997],[116.8084667,23.6294854]]},"properties":{"key":"way:1340570517@detail:467_94","osmType":"way","osmId":1340570517,"sourceRegion":"guangdong","featureType":"infrastructure","railClass":"highspeed","mode":"rail","name":"杭深线","nameEn":"Hangzhou-Shenzhen Line","ref":"3009","usage":"main","highspeed":"yes","status":"operational","color":"#E54848","dataOrigin":"datum-2026-08-01","sourceKey":"way:1340570517"}},{"type":"Feature","geometry":{"type":"LineString","coordinates":[[116.9677578,23.7347425],[116.9665405,23.7341147]]},"properties":{"key":"way:1340571179@detail:467_94","osmType":"way","osmId":1340571179,"sourceRegion":"guangdong","featureType":"infrastructure","railClass":"highspeed","mode":"rail","name":"杭深线","nameEn":"Hangzhou-Shenzhen Line","ref":"3009","usage":"main","highspeed":"yes","bridge":"yes","status":"operational","color":"#E54848","dataOrigin":"datum-2026-08-01","sourceKey":"way:1340571179"}},{"type":"Feature","geometry":{"type":"LineString","coordinates":[[116.9665077,23.7341653],[116.9677166,23.7347887]]},"properties":{"key":"way:1340571180@detail:467_94","osmType":"way","osmId":1340571180,"sourceRegion":"guangdong","featureType":"infrastructure","railClass":"highspeed","mode":"rail","name":"杭深线","nameEn":"Hangzhou-Shenzhen Line","ref":"3009","usage":"main","highspeed":"yes","bridge":"yes","status":"operational","color":"#E54848","dataOrigin":"datum-2026-08-01","sourceKey":"way:1340571180"}},{"type":"Feature","geometry":{"type":"LineString","coordinates":[[116.9665405,23.7341147],[116.965785,23.7337251],[116.9637371,23.7327208],[116.961624,23.7315378],[116.960549,23.7309638],[116.95962,23.7305162],[116.9584587,23.729997]]},"properties":{"key":"way:1340571181@detail:467_94","osmType":"way","osmId":1340571181,"sourceRegion":"guangdong","featureType":"infrastructure","railClass":"highspeed","mode":"rail","name":"杭深线","nameEn":"Hangzhou-Shenzhen Line","ref":"3009","usage":"main","highspeed":"yes","status":"operational","color":"#E54848","dataOrigin":"datum-2026-08-01","sourceKey":"way:1340571181"}},{"type":"Feature","geometry":{"type":"LineString","coordinates":[[116.9677166,23.7347887],[116.9678506,23.7348578],[116.9742274,23.7377478],[116.9761883,23.7385105],[116.9787081,23.7393],[116.9839864,23.7411125]]},"properties":{"key":"way:1340571182@detail:467_94","osmType":"way","osmId":1340571182,"sourceRegion":"guangdong","featureType":"infrastructure","railClass":"highspeed","mode":"rail","name":"杭深线","nameEn":"Hangzhou-Shenzhen Line","ref":"3009","usage":"main","highspeed":"yes","status":"operational","color":"#E54848","dataOrigin":"datum-2026-08-01","sourceKey":"way:1340571182"}},{"type":"Feature","geometry":{"type":"LineString","coordinates":[[116.75,23.569826451553933],[116.7504712,23.5693966],[116.7509262,23.5689475],[116.751411,23.5684487],[116.751883,23.5679297],[116.7523434,23.5673799],[116.7527522,23.566865],[116.7531853,23.5662859],[116.7562284,23.5618232],[116.7566022,23.5613006],[116.757001,23.5607785],[116.7574441,23.5602447],[116.7579619,23.5596791],[116.7584808,23.559166],[116.7589724,23.5587158],[116.764936,23.5535903],[116.7654117,23.5531475],[116.7658417,23.552716],[116.7662431,23.5522658],[116.7666538,23.5517679],[116.7669778,23.5513226],[116.7672693,23.5508849],[116.7677553,23.5500771]]},"properties":{"key":"way:1448100476@detail:467_94","osmType":"way","osmId":1448100476,"sourceRegion":"guangdong","featureType":"infrastructure","railClass":"construction","mode":"construction","name":"粤东城际线","usage":"main","bridge":"yes","status":"construction","color":"#147D92","dataOrigin":"datum-2026-08-01","sourceKey":"way:1448100476"}},{"type":"Feature","geometry":{"type":"LineString","coordinates":[[116.7714515,23.5431645],[116.7718799,23.5425552],[116.7723226,23.5419918],[116.7728005,23.5414517],[116.773295,23.5409542],[116.7738045,23.5404932],[116.7812799,23.5342864]]},"properties":{"key":"way:1448100478@detail:467_94","osmType":"way","osmId":1448100478,"sourceRegion":"guangdong","featureType":"infrastructure","railClass":"construction","mode":"construction","name":"粤东城际线","usage":"main","tunnel":"yes","status":"construction","color":"#147D92","dataOrigin":"datum-2026-08-01","sourceKey":"way:1448100478"}},{"type":"Feature","geometry":{"type":"LineString","coordinates":[[116.7707077,23.5444324],[116.7709339,23.5440196],[116.7711683,23.5436216],[116.7714515,23.5431645]]},"properties":{"key":"way:1458109166@detail:467_94","osmType":"way","osmId":1458109166,"sourceRegion":"guangdong","featureType":"infrastructure","railClass":"construction","mode":"construction","name":"粤东城际线","usage":"main","bridge":"yes","status":"construction","color":"#147D92","dataOrigin":"datum-2026-08-01","sourceKey":"way:1458109166"}},{"type":"Feature","geometry":{"type":"LineString","coordinates":[[116.7701267,23.5456025],[116.7707077,23.5444324]]},"properties":{"key":"way:1458109167@detail:467_94","osmType":"way","osmId":1458109167,"sourceRegion":"guangdong","featureType":"infrastructure","railClass":"construction","mode":"construction","name":"粤东城际线","usage":"main","status":"construction","color":"#147D92","dataOrigin":"datum-2026-08-01","sourceKey":"way:1458109167"}},{"type":"Feature","geometry":{"type":"LineString","coordinates":[[116.7685137,23.5487812],[116.7701267,23.5456025]]},"properties":{"key":"way:1458109168@detail:467_94","osmType":"way","osmId":1458109168,"sourceRegion":"guangdong","featureType":"infrastructure","railClass":"construction","mode":"construction","name":"粤东城际线","usage":"main","bridge":"yes","status":"construction","color":"#147D92","dataOrigin":"datum-2026-08-01","sourceKey":"way:1458109168"}},{"type":"Feature","geometry":{"type":"LineString","coordinates":[[116.7677553,23.5500771],[116.7685137,23.5487812]]},"properties":{"key":"way:1458109169@detail:467_94","osmType":"way","osmId":1458109169,"sourceRegion":"guangdong","featureType":"infrastructure","railClass":"construction","mode":"construction","name":"粤东城际线","usage":"main","status":"construction","color":"#147D92","dataOrigin":"datum-2026-08-01","sourceKey":"way:1458109169"}},{"type":"Feature","geometry":{"type":"LineString","coordinates":[[116.9718218,23.6349906],[116.967895,23.633182],[116.9621052,23.6301113]]},"properties":{"key":"way:1492549621@detail:467_94","osmType":"way","osmId":1492549621,"sourceRegion":"guangdong","featureType":"infrastructure","railClass":"construction","mode":"construction","name":"甬广高速线","nameEn":"Ningbo–Guangzhou Highspeed-Railway","ref":"漳汕高速线","usage":"main","highspeed":"yes","tunnel":"yes","status":"construction","color":"#E54848","dataOrigin":"datum-2026-08-01","sourceKey":"way:1492549621"}},{"type":"Feature","geometry":{"type":"LineString","coordinates":[[116.9557592,23.6259479],[116.95379,23.6244869],[116.9499662,23.6212733]]},"properties":{"key":"way:1492549623@detail:467_94","osmType":"way","osmId":1492549623,"sourceRegion":"guangdong","featureType":"infrastructure","railClass":"construction","mode":"construction","name":"甬广高速线","nameEn":"Ningbo–Guangzhou Highspeed-Railway","ref":"漳汕高速线","usage":"main","highspeed":"yes","tunnel":"yes","status":"construction","color":"#E54848","dataOrigin":"datum-2026-08-01","sourceKey":"way:1492549623"}},{"type":"Feature","geometry":{"type":"LineString","coordinates":[[116.9621052,23.6301113],[116.9569387,23.6267657],[116.9557592,23.6259479]]},"properties":{"key":"way:1492549624@detail:467_94","osmType":"way","osmId":1492549624,"sourceRegion":"guangdong","featureType":"infrastructure","railClass":"construction","mode":"construction","name":"甬广高速线","nameEn":"Ningbo–Guangzhou Highspeed-Railway","ref":"漳汕高速线","usage":"main","highspeed":"yes","bridge":"yes","status":"construction","color":"#E54848","dataOrigin":"datum-2026-08-01","sourceKey":"way:1492549624"}},{"type":"Feature","geometry":{"type":"LineString","coordinates":[[117.0,23.644256051518227],[116.9908038,23.6415172],[116.985809,23.6399568],[116.9795661,23.6377753],[116.9718439,23.6349456]]},"properties":{"key":"way:1517122518@detail:467_94","osmType":"way","osmId":1517122518,"sourceRegion":"guangdong","featureType":"infrastructure","railClass":"construction","mode":"construction","name":"甬广高速线","nameEn":"Ningbo–Guangzhou Highspeed-Railway","ref":"漳汕高速线","usage":"main","highspeed":"yes","status":"construction","color":"#E54848","dataOrigin":"datum-2026-08-01","sourceKey":"way:1517122518"}},{"type":"Feature","geometry":{"type":"LineString","coordinates":[[116.9718439,23.6349456],[116.9679206,23.6331386],[116.9621343,23.6300697]]},"properties":{"key":"way:1517122519@detail:467_94","osmType":"way","osmId":1517122519,"sourceRegion":"guangdong","featureType":"infrastructure","railClass":"construction","mode":"construction","name":"甬广高速线","nameEn":"Ningbo–Guangzhou Highspeed-Railway","ref":"漳汕高速线","usage":"main","highspeed":"yes","tunnel":"yes","status":"construction","color":"#E54848","dataOrigin":"datum-2026-08-01","sourceKey":"way:1517122519"}},{"type":"Feature","geometry":{"type":"LineString","coordinates":[[116.9621343,23.6300697],[116.9569705,23.6267259],[116.9557924,23.6259091]]},"properties":{"key":"way:1517122520@detail:467_94","osmType":"way","osmId":1517122520,"sourceRegion":"guangdong","featureType":"infrastructure","railClass":"construction","mode":"construction","name":"甬广高速线","nameEn":"Ningbo–Guangzhou Highspeed-Railway","ref":"漳汕高速线","usage":"main","highspeed":"yes","bridge":"yes","status":"construction","color":"#E54848","dataOrigin":"datum-2026-08-01","sourceKey":"way:1517122520"}},{"type":"Feature","geometry":{"type":"LineString","coordinates":[[116.9557924,23.6259091],[116.9538252,23.6244495],[116.9500034,23.6212376]]},"properties":{"key":"way:1517122521@detail:467_94","osmType":"way","osmId":1517122521,"sourceRegion":"guangdong","featureType":"infrastructure","railClass":"construction","mode":"construction","name":"甬广高速线","nameEn":"Ningbo–Guangzhou Highspeed-Railway","ref":"漳汕高速线","usage":"main","highspeed":"yes","tunnel":"yes","status":"construction","color":"#E54848","dataOrigin":"datum-2026-08-01","sourceKey":"way:1517122521"}},{"type":"Feature","geometry":{"type":"LineString","coordinates":[[116.9500034,23.6212376],[116.944353,23.6160958],[116.9408529,23.6129797],[116.9375681,23.6103097],[116.932244,23.6063187],[116.9264375,23.6030542],[116.9138144,23.5969297],[116.9067294,23.5940624],[116.8905632,23.5864891],[116.8807651,23.5808643],[116.8716881,23.5730601],[116.8644542,23.5652154],[116.8634061,23.5637962],[116.8621205,23.5616556],[116.858452,23.554655],[116.8564836,23.5507021],[116.8548945,23.5465672],[116.8477914,23.5297262],[116.8385,23.5098738],[116.83416431333211,23.5]]},"properties":{"key":"way:1517122522@detail:467_94","osmType":"way","osmId":1517122522,"sourceRegion":"guangdong","featureType":"infrastructure","railClass":"construction","mode":"construction","name":"甬广高速线","nameEn":"Ningbo–Guangzhou Highspeed-Railway","ref":"漳汕高速线","usage":"main","highspeed":"yes","status":"construction","color":"#E54848","dataOrigin":"datum-2026-08-01","sourceKey":"way:1517122522"}}]}