{"type":"FeatureCollection","features":[{"type":"Feature","geometry":{"type":"LineString","coordinates":[[117.01096808475344,23.75],[117.0124338,23.7504744],[117.0143046,23.7510199]]},"properties":{"key":"way:1030402698@detail:468_95","osmType":"way","osmId":1030402698,"sourceRegion":"guangdong","featureType":"infrastructure","railClass":"highspeed","mode":"rail","name":"杭深线","nameEn":"Hangzhou-Shenzhen Line","ref":"3009","usage":"main","highspeed":"yes","status":"operational","color":"#E54848","dataOrigin":"datum-2026-08-01","sourceKey":"way:1030402698"}},{"type":"Feature","geometry":{"type":"LineString","coordinates":[[117.01114473548809,23.75],[117.0124525,23.7504233],[117.0143261,23.7509664]]},"properties":{"key":"way:1030402699@detail:468_95","osmType":"way","osmId":1030402699,"sourceRegion":"guangdong","featureType":"infrastructure","railClass":"highspeed","mode":"rail","name":"杭深线","nameEn":"Hangzhou-Shenzhen Line","ref":"3009","usage":"main","highspeed":"yes","status":"operational","color":"#E54848","dataOrigin":"datum-2026-08-01","sourceKey":"way:1030402699"}},{"type":"Feature","geometry":{"type":"LineString","coordinates":[[117.0143046,23.7510199],[117.0162955,23.7515969]]},"properties":{"key":"way:1030402700@detail:468_95","osmType":"way","osmId":1030402700,"sourceRegion":"guangdong","featureType":"infrastructure","railClass":"highspeed","mode":"rail","name":"杭深线","nameEn":"Hangzhou-Shenzhen Line","ref":"3009","usage":"main","highspeed":"yes","bridge":"yes","status":"operational","color":"#E54848","dataOrigin":"datum-2026-08-01","sourceKey":"way:1030402700"}},{"type":"Feature","geometry":{"type":"LineString","coordinates":[[117.0143261,23.7509664],[117.0163113,23.7515449]]},"properties":{"key":"way:1030402701@detail:468_95","osmType":"way","osmId":1030402701,"sourceRegion":"guangdong","featureType":"infrastructure","railClass":"highspeed","mode":"rail","name":"杭深线","nameEn":"Hangzhou-Shenzhen Line","ref":"3009","usage":"main","highspeed":"yes","bridge":"yes","status":"operational","color":"#E54848","dataOrigin":"datum-2026-08-01","sourceKey":"way:1030402701"}},{"type":"Feature","geometry":{"type":"LineString","coordinates":[[117.0163113,23.7515449],[117.0183934,23.7520022]]},"properties":{"key":"way:1030403055@detail:468_95","osmType":"way","osmId":1030403055,"sourceRegion":"guangdong","featureType":"infrastructure","railClass":"highspeed","mode":"rail","name":"杭深线","nameEn":"Hangzhou-Shenzhen Line","ref":"3009","usage":"main","highspeed":"yes","status":"operational","color":"#E54848","dataOrigin":"datum-2026-08-01","sourceKey":"way:1030403055"}},{"type":"Feature","geometry":{"type":"LineString","coordinates":[[117.0162955,23.7515969],[117.018379,23.7520585]]},"properties":{"key":"way:1030403056@detail:468_95","osmType":"way","osmId":1030403056,"sourceRegion":"guangdong","featureType":"infrastructure","railClass":"highspeed","mode":"rail","name":"杭深线","nameEn":"Hangzhou-Shenzhen Line","ref":"3009","usage":"main","highspeed":"yes","status":"operational","color":"#E54848","dataOrigin":"datum-2026-08-01","sourceKey":"way:1030403056"}},{"type":"Feature","geometry":{"type":"LineString","coordinates":[[117.018379,23.7520585],[117.0219001,23.7528264],[117.0274144,23.7539229]]},"properties":{"key":"way:1030403057@detail:468_95","osmType":"way","osmId":1030403057,"sourceRegion":"guangdong","featureType":"infrastructure","railClass":"highspeed","mode":"rail","name":"杭深线","nameEn":"Hangzhou-Shenzhen Line","ref":"3009","usage":"main","highspeed":"yes","bridge":"yes","status":"operational","color":"#E54848","dataOrigin":"datum-2026-08-01","sourceKey":"way:1030403057"}},{"type":"Feature","geometry":{"type":"LineString","coordinates":[[117.0183934,23.7520022],[117.0219132,23.7527738],[117.027438,23.7538736]]},"properties":{"key":"way:1030403058@detail:468_95","osmType":"way","osmId":1030403058,"sourceRegion":"guangdong","featureType":"infrastructure","railClass":"highspeed","mode":"rail","name":"杭深线","nameEn":"Hangzhou-Shenzhen Line","ref":"3009","usage":"main","highspeed":"yes","bridge":"yes","status":"operational","color":"#E54848","dataOrigin":"datum-2026-08-01","sourceKey":"way:1030403058"}},{"type":"Feature","geometry":{"type":"LineString","coordinates":[[117.027438,23.7538736],[117.063167,23.7609866],[117.0653199,23.7616775]]},"properties":{"key":"way:1340572142@detail:468_95","osmType":"way","osmId":1340572142,"sourceRegion":"guangdong","featureType":"infrastructure","railClass":"highspeed","mode":"rail","name":"杭深线","nameEn":"Hangzhou-Shenzhen Line","ref":"3009","usage":"main","highspeed":"yes","status":"operational","color":"#E54848","dataOrigin":"datum-2026-08-01","sourceKey":"way:1340572142"}},{"type":"Feature","geometry":{"type":"LineString","coordinates":[[117.0274144,23.7539229],[117.0631509,23.7610386],[117.0653035,23.7617294]]},"properties":{"key":"way:1340572143@detail:468_95","osmType":"way","osmId":1340572143,"sourceRegion":"guangdong","featureType":"infrastructure","railClass":"highspeed","mode":"rail","name":"杭深线","nameEn":"Hangzhou-Shenzhen Line","ref":"3009","usage":"main","highspeed":"yes","status":"operational","color":"#E54848","dataOrigin":"datum-2026-08-01","sourceKey":"way:1340572143"}}]}